{"type": "Feature", "properties": {}, "geometry": {"type": "LineString", "coordinates": [[-119.88656289875507, 46.78925184533, 539.92], [-119.88658075220883, 46.78925419226289, 539.44], [-119.88658184185624, 46.78917188197374, 540.4], [-119.88666096702218, 46.78917791694403, 537.99], [-119.88669793121517, 46.78920046426356, 537.03], [-119.8868222348392, 46.78919275291264, 533.67], [-119.88689264282584, 46.78917741402984, 533.19], [-119.88703002221882, 46.78916400298476, 530.79], [-119.88707872107625, 46.789185125380754, 528.86], [-119.88716388121247, 46.789180682972074, 526.46], [-119.88728382624686, 46.78914329968393, 525.5], [-119.88742556422949, 46.789112286642194, 524.54], [-119.88751206547022, 46.78910608403385, 523.09], [-119.88761088810861, 46.78916500881314, 521.65], [-119.88775254227221, 46.789172384887934, 519.25], [-119.88782554864883, 46.78920406848192, 516.37], [-119.88782680593431, 46.78922971710563, 514.44], [-119.8879483435303, 46.789232064038515, 512.52], [-119.88801036961377, 46.78922301158309, 512.04], [-119.88811765797436, 46.78923089057207, 509.64], [-119.88820122554898, 46.78926047869027, 507.71], [-119.8882369324565, 46.78929576650262, 506.75], [-119.888254115358, 46.789307333528996, 506.27], [-119.88829518668354, 46.7893277015537, 505.79], [-119.88829300738871, 46.78931982256472, 505.31], [-119.88831790164113, 46.78935192525387, 503.39], [-119.88843667320907, 46.78937757387757, 502.43], [-119.8884422890842, 46.78938142955303, 501.95], [-119.8884816840291, 46.7893863748759, 501.46], [-119.88860255107284, 46.78939316421747, 500.98], [-119.88872660323977, 46.78941319696605, 499.06], [-119.88885023631155, 46.78943616338074, 496.66], [-119.88895777612925, 46.78945753723383, 494.26], [-119.88901016302407, 46.78946692496538, 494.26], [-119.88917344249785, 46.78949282504618, 492.33], [-119.88930135034025, 46.7895058169961, 490.89], [-119.88936337642372, 46.78953079506755, 489.93], [-119.88937804475427, 46.78954688832164, 492.33], [-119.88937930203974, 46.78954252973199, 489.93], [-119.88944476470351, 46.7895351536572, 489.45], [-119.88946345634758, 46.789557533338666, 489.93], [-119.88951223902404, 46.78957538679242, 490.89], [-119.88952187821269, 46.78957538679242, 489.45], [-119.88952388986945, 46.789586283266544, 488.97], [-119.88951617851853, 46.78959106095135, 489.45], [-119.88949480466545, 46.78957270458341, 486.08], [-119.88951617851853, 46.78957052528858, 487.05], [-119.88955884240568, 46.78954848088324, 486.08], [-119.88964819349349, 46.78956071846187, 485.6], [-119.8896989878267, 46.789551666006446, 483.68], [-119.88976059481502, 46.78956960327923, 482.72], [-119.88980585709214, 46.78957010619342, 480.32], [-119.88984894007444, 46.78958368487656, 478.39], [-119.8899080324918, 46.78958460688591, 477.43], [-119.88993954844773, 46.78959080949426, 476.47], [-119.88996452651918, 46.78959248587489, 476.95], [-119.88999537192285, 46.78958460688591, 477.43], [-119.8900100402534, 46.789566753432155, 476.95], [-119.89015747793019, 46.78944781422615, 473.59], [-119.89017281681299, 46.78942937403917, 473.59], [-119.89025722257793, 46.78935603238642, 473.11], [-119.89026350900531, 46.78935603238642, 473.11], [-119.8904006369412, 46.789337173104286, 471.66], [-119.89050851203501, 46.78932577371597, 470.7], [-119.89057925529778, 46.789273135364056, 470.7], [-119.89072317257524, 46.7892087623477, 470.7], [-119.89071370102465, 46.789208091795444, 471.66], [-119.89078737795353, 46.78919216617942, 471.66], [-119.8908409383148, 46.789193423464894, 471.18], [-119.89086859859526, 46.7891984526068, 471.18], [-119.89089877344668, 46.78919568657875, 470.7], [-119.89111611619592, 46.78920683450997, 469.26], [-119.89128450863063, 46.789195435121655, 468.78], [-119.89150134846568, 46.789128966629505, 466.38], [-119.89161173813045, 46.78907892666757, 466.38], [-119.89165909588337, 46.788923693820834, 464.93], [-119.89173168316483, 46.78888446651399, 464.45], [-119.89184358157218, 46.78885219618678, 463.97], [-119.89188490435481, 46.78882386535406, 463.49], [-119.8920405562967, 46.788795702159405, 463.49], [-119.89216175861657, 46.78868958726525, 462.53], [-119.89222839474678, 46.788642732426524, 461.57], [-119.8922535404563, 46.78859453648329, 461.57], [-119.89227692596614, 46.78858238272369, 461.09], [-119.89235596731305, 46.7884159181267, 460.61], [-119.89235948771238, 46.78841189481318, 460.61], [-119.89241153933108, 46.788281137123704, 460.13], [-119.89242235198617, 46.78824760951102, 459.17], [-119.8924969509244, 46.78807829506695, 456.28], [-119.89257431589067, 46.787967067211866, 455.8], [-119.89262477494776, 46.787949381396174, 455.8], [-119.8926608171314, 46.78793404251337, 456.76], [-119.89265277050436, 46.78791141137481, 456.28], [-119.89261731505394, 46.787873608991504, 456.28], [-119.89264246076345, 46.78775768727064, 454.84], [-119.89266810938716, 46.787737319245934, 454.36], [-119.89265721291304, 46.78770303726196, 454.84], [-119.89267565310001, 46.78766707889736, 454.84], [-119.89267179742455, 46.787651823833585, 452.92], [-119.89274488762021, 46.787573201581836, 451.96], [-119.89275301806629, 46.78753757849336, 451.96], [-119.8927887249738, 46.78742283023894, 451.96], [-119.89282233640552, 46.787343453615904, 450.03], [-119.89284387789667, 46.7872831877321, 450.03], [-119.89285578019917, 46.78722904063761, 449.55], [-119.89287128672004, 46.78721562959254, 449.55], [-119.89293733611703, 46.787129631266, 448.59], [-119.89294772967696, 46.78706609643996, 448.11], [-119.89302886649966, 46.78696174174547, 447.15], [-119.89313992671669, 46.78683266043663, 447.63], [-119.8931462969631, 46.786818746477365, 448.11], [-119.8931809142232, 46.78675554692745, 447.15], [-119.89322156645358, 46.78669528104365, 447.15], [-119.89322307519615, 46.78667466156185, 446.67], [-119.89324260503054, 46.78662604652345, 446.19], [-119.89330261945724, 46.78651356138289, 446.19], [-119.89334184676409, 46.786419013515115, 445.71], [-119.89334654062986, 46.786278281360865, 444.75], [-119.89334126003087, 46.786166382953525, 443.31], [-119.89334587007761, 46.78612707182765, 443.31], [-119.89331980235875, 46.786109721288085, 444.27], [-119.89330655895174, 46.78609446622431, 444.27], [-119.89326104521751, 46.78608717396855, 445.23], [-119.89320949651301, 46.7860743496567, 448.11], [-119.89315803162754, 46.78608206100762, 448.59], [-119.89312903024256, 46.786069655790925, 449.07], [-119.89312978461385, 46.78608692251146, 449.07], [-119.89312022924423, 46.786103434860706, 449.55], [-119.89312089979649, 46.78611475042999, 446.19], [-119.8931098356843, 46.78613084368408, 448.11], [-119.89310472272336, 46.786125814542174, 449.55], [-119.893085276708, 46.786131262779236, 450.03], [-119.89307454787195, 46.78614660166204, 451.0], [-119.89305635914207, 46.786111146211624, 451.96], [-119.89306608214974, 46.7861036863178, 451.96], [-119.8930789064616, 46.786069655790925, 451.48], [-119.89305585622787, 46.78607367910445, 451.96], [-119.89305493421853, 46.7860621958971, 450.03], [-119.89307052455842, 46.78603679873049, 451.0], [-119.89303389564157, 46.78603520616889, 453.4], [-119.89300573244691, 46.786028165370226, 446.19], [-119.89302702248096, 46.78601995110512, 449.55], [-119.89305878989398, 46.78602053783834, 449.55], [-119.89298410713673, 46.78604065440595, 447.63], [-119.89299609325826, 46.78607124835253, 445.71], [-119.89294957369566, 46.78606605157256, 448.11], [-119.8930075764656, 46.78606010042131, 446.19], [-119.89301227033138, 46.78605674766004, 445.23], [-119.89303171634674, 46.78605825640261, 448.59], [-119.89301486872137, 46.78602640517056, 449.55], [-119.89306071773171, 46.78605071268976, 454.36], [-119.89300983957946, 46.78605322726071, 449.55], [-119.8930128570646, 46.78599715232849, 451.48], [-119.89306574687362, 46.78597351536155, 458.69], [-119.8930612206459, 46.785985082387924, 454.84], [-119.893085276708, 46.785976868122816, 454.36], [-119.89310053177178, 46.78597862832248, 454.84], [-119.89303599111736, 46.78596496582031, 457.24], [-119.8930133599788, 46.785967564210296, 457.72], [-119.89299793727696, 46.78595792502165, 455.8], [-119.89300581626594, 46.785933366045356, 454.84], [-119.89300497807562, 46.78594904020429, 455.8], [-119.89299098029733, 46.78591744042933, 456.76], [-119.89299450069666, 46.78589740768075, 457.24], [-119.8929856158793, 46.78589841350913, 457.24], [-119.89298469386995, 46.78593780845404, 456.28], [-119.8929679300636, 46.78593655116856, 455.8], [-119.89298628643155, 46.78592573851347, 456.76], [-119.89296591840684, 46.78594191558659, 457.24], [-119.89296072162688, 46.78593562915921, 460.61], [-119.8929422814399, 46.785968067124486, 458.69], [-119.89290598779917, 46.785964546725154, 466.86], [-119.8928764835, 46.78601458668709, 466.86], [-119.8928574565798, 46.78600687533617, 456.76], [-119.89285653457046, 46.78598533384502, 463.97], [-119.89281554706395, 46.78597854450345, 458.69], [-119.89284865558147, 46.78597401827574, 461.57], [-119.89282200112939, 46.785993883386254, 461.09], [-119.89284999668598, 46.785997319966555, 461.09], [-119.89285418763757, 46.785985082387924, 464.45], [-119.8928521759808, 46.785956332460046, 463.01], [-119.89285846240819, 46.78594619035721, 463.97], [-119.89286541938782, 46.78591542877257, 463.01], [-119.89289131946862, 46.78583085536957, 463.97], [-119.89288612268865, 46.78575608879328, 464.45], [-119.89288209937513, 46.78572096861899, 464.93], [-119.89286759868264, 46.78573069162667, 464.93], [-119.89282208494842, 46.785720298066735, 463.01], [-119.8928143735975, 46.78571694530547, 459.17], [-119.89280238747597, 46.78569951094687, 457.24], [-119.89281320013106, 46.785683669149876, 456.76], [-119.89288243465126, 46.78569372743368, 458.21], [-119.89292434416711, 46.7856668215245, 461.09], [-119.8928852006793, 46.7856961581856, 463.01], [-119.89289961755276, 46.785706048831344, 461.09], [-119.89282066002488, 46.785761285573244, 462.53], [-119.89281143993139, 46.78576002828777, 462.05], [-119.89282367751002, 46.7857376486063, 467.34], [-119.89285569638014, 46.78574879653752, 463.01], [-119.8928701132536, 46.78575952537358, 458.69], [-119.89285804331303, 46.78572935052216, 461.57], [-119.892831556499, 46.78571962751448, 461.57], [-119.89281336776912, 46.78575977683067, 461.09], [-119.89284773357213, 46.785757932811975, 462.53], [-119.89285376854241, 46.78574041463435, 463.01], [-119.89283122122288, 46.78571619093418, 463.97], [-119.8928095959127, 46.78571552038193, 463.49], [-119.89282116293907, 46.78572532720864, 462.05], [-119.89278394728899, 46.78580051288009, 463.97], [-119.89274161867797, 46.78580746985972, 464.93], [-119.89268395118415, 46.78582121618092, 465.9], [-119.89258512854576, 46.78584183566272, 468.78], [-119.89247658289969, 46.785856671631336, 471.66], [-119.8924137186259, 46.78583890199661, 472.63], [-119.89234716631472, 46.78576782345772, 475.51], [-119.89229704253376, 46.78576799109578, 476.47], [-119.89228488877416, 46.78578861057758, 477.43], [-119.89226946607232, 46.7858621198684, 476.95], [-119.89216075278819, 46.78595105186105, 477.91], [-119.8921116348356, 46.78597720339894, 478.87], [-119.89195874892175, 46.78604509681463, 480.8], [-119.89181281998754, 46.78611936047673, 482.24], [-119.89170234650373, 46.7861901037395, 483.68], [-119.89164409227669, 46.7862244695425, 484.16], [-119.8914086446166, 46.78640493191779, 488.01], [-119.89128543063998, 46.78647106513381, 490.41], [-119.89117596298456, 46.78652672097087, 493.29], [-119.89103866741061, 46.786587154492736, 495.7], [-119.89092593081295, 46.786635518074036, 497.14], [-119.89082685671747, 46.786667285487056, 497.62], [-119.89071135409176, 46.78674666211009, 500.98], [-119.89063885062933, 46.78681908175349, 503.87], [-119.89045478403568, 46.78694983944297, 506.75], [-119.89040097221732, 46.78700163960457, 508.19], [-119.8902949411422, 46.787059642374516, 509.64], [-119.89010383374989, 46.78711915388703, 512.52], [-119.89004138857126, 46.7871312238276, 513.0], [-119.88984525203705, 46.78714597597718, 514.92], [-119.88978171721101, 46.78714832291007, 515.88], [-119.88971147686243, 46.78715670481324, 516.85], [-119.88952565006912, 46.78718746639788, 519.25], [-119.88940511830151, 46.78718755021691, 520.69], [-119.88924234174192, 46.78716978058219, 522.13], [-119.88911988213658, 46.78716701455414, 524.54], [-119.88908065482974, 46.78718729875982, 525.5], [-119.88898878917098, 46.7872572876513, 525.98], [-119.88893615081906, 46.78729240782559, 526.46], [-119.88885778002441, 46.78735502064228, 526.94], [-119.88868620246649, 46.7875094152987, 529.34], [-119.88855008035898, 46.787640089169145, 530.79], [-119.8884182330221, 46.78777076303959, 531.27], [-119.88822989165783, 46.78792926482856, 533.19], [-119.88800215534866, 46.78802691400051, 534.15], [-119.88772773183882, 46.788095058873296, 535.11], [-119.88750318065286, 46.78826588205993, 535.59], [-119.88739371299744, 46.788477189838886, 535.59], [-119.88722389563918, 46.78867366164923, 536.55], [-119.88702164031565, 46.788820680230856, 537.51], [-119.88673640415072, 46.788914473727345, 537.99], [-119.88657413050532, 46.78905922919512, 539.44], [-119.88649550825357, 46.78921915590763, 540.4], [-119.88641026429832, 46.78925092332065, 540.88], [-119.88634186796844, 46.78920448757708, 542.32], [-119.8863940872252, 46.78923290222883, 544.24], [-119.88647195510566, 46.789259975776076, 543.28], [-119.88650556653738, 46.789266262203455, 540.88], [-119.88648771308362, 46.78927514702082, 541.36]]}}