{"type": "Feature", "properties": {}, "geometry": {"type": "LineString", "coordinates": [[-119.01518, 37.603616, 2763.6], [-119.015128, 37.60358, 2775.1], [-119.015134, 37.603563, 2778.0], [-119.015121, 37.603551, 2781.5], [-119.01512, 37.603529, 2782.9], [-119.015172, 37.603488, 2784.9], [-119.015201, 37.603454, 2783.3], [-119.015211, 37.603379, 2778.3], [-119.015206, 37.603353, 2779.2], [-119.015219, 37.603316, 2779.0], [-119.015218, 37.603257, 2780.0], [-119.015281, 37.603152, 2779.7], [-119.015312, 37.603208, 2778.7], [-119.015315, 37.60323, 2778.0], [-119.01533, 37.603238, 2778.7], [-119.015513, 37.603254, 2776.2], [-119.01558, 37.603219, 2776.3], [-119.015652, 37.60323, 2776.8], [-119.015594, 37.603213, 2775.4], [-119.015532, 37.603199, 2776.8], [-119.015482, 37.603171, 2778.6], [-119.015474, 37.603153, 2779.0], [-119.015529, 37.603088, 2780.7], [-119.015534, 37.603057, 2780.1], [-119.015587, 37.602956, 2783.0], [-119.015577, 37.602914, 2786.2], [-119.015635, 37.602891, 2781.8], [-119.015655, 37.602873, 2782.0], [-119.015706, 37.602818, 2780.9], [-119.015798, 37.602827, 2780.4], [-119.015852, 37.6028, 2780.2], [-119.015911, 37.602749, 2784.9], [-119.015961, 37.602749, 2783.4], [-119.01605, 37.602724, 2781.6], [-119.016131, 37.602671, 2784.4], [-119.016221, 37.602649, 2781.8], [-119.016328, 37.602566, 2787.0], [-119.01634, 37.602554, 2787.2], [-119.016373, 37.602533, 2787.3], [-119.01649, 37.602516, 2789.3], [-119.016534, 37.602486, 2790.9], [-119.016555, 37.602465, 2791.6], [-119.016629, 37.602409, 2793.8], [-119.016644, 37.602371, 2794.2], [-119.016717, 37.602344, 2798.9], [-119.016878, 37.602246, 2801.7], [-119.016905, 37.602243, 2802.9], [-119.016937, 37.602259, 2803.4], [-119.016951, 37.602259, 2804.9], [-119.017016, 37.602212, 2806.8], [-119.017024, 37.602173, 2806.6], [-119.017017, 37.602136, 2806.7], [-119.016983, 37.602112, 2807.5], [-119.016953, 37.602111, 2804.2], [-119.016923, 37.60212, 2805.1], [-119.016841, 37.602174, 2804.2], [-119.016828, 37.602185, 2803.5], [-119.016764, 37.602228, 2802.1], [-119.016703, 37.602233, 2799.6], [-119.016607, 37.60226, 2795.5], [-119.016571, 37.60228, 2803.0], [-119.016511, 37.602271, 2802.2], [-119.016417, 37.602275, 2803.0], [-119.01641, 37.602269, 2802.5], [-119.016456, 37.602207, 2797.5], [-119.016462, 37.602158, 2795.8], [-119.01648, 37.60215, 2795.3], [-119.016496, 37.602113, 2796.2], [-119.016499, 37.602079, 2796.7], [-119.016516, 37.602046, 2795.8], [-119.016556, 37.602002, 2798.9], [-119.016573, 37.601946, 2801.0], [-119.016541, 37.601887, 2802.0], [-119.016545, 37.601841, 2803.3], [-119.016516, 37.601789, 2805.8], [-119.01649, 37.60176, 2804.9], [-119.016491, 37.601748, 2806.5], [-119.016521, 37.601738, 2805.6], [-119.01654, 37.601718, 2809.2], [-119.016563, 37.601673, 2812.7], [-119.016584, 37.601653, 2812.3], [-119.016571, 37.60161, 2817.4], [-119.016589, 37.601572, 2821.3], [-119.016618, 37.601559, 2818.6], [-119.016647, 37.601521, 2816.7], [-119.016704, 37.601512, 2810.2], [-119.01673, 37.601497, 2808.0], [-119.016763, 37.601503, 2803.9], [-119.016772, 37.60151, 2802.8], [-119.016787, 37.601587, 2805.7], [-119.016821, 37.601601, 2805.3], [-119.0169, 37.60159, 2804.6], [-119.016964, 37.601585, 2803.6], [-119.017047, 37.601605, 2803.8], [-119.017079, 37.601597, 2807.8], [-119.017135, 37.601517, 2816.4], [-119.017184, 37.601486, 2820.5], [-119.017214, 37.6015, 2818.9], [-119.01732, 37.601512, 2823.2], [-119.017335, 37.601531, 2823.7], [-119.017372, 37.601539, 2822.3], [-119.017432, 37.601529, 2820.8], [-119.017579, 37.601467, 2828.8], [-119.017661, 37.601478, 2824.3], [-119.017713, 37.601499, 2826.6], [-119.017683, 37.601464, 2827.0], [-119.017663, 37.601384, 2832.3], [-119.017601, 37.601349, 2833.8], [-119.017572, 37.601288, 2830.1], [-119.017519, 37.601308, 2832.6], [-119.017494, 37.601279, 2832.1], [-119.017479, 37.601244, 2831.6], [-119.017483, 37.601184, 2829.8], [-119.017466, 37.601122, 2834.0], [-119.017452, 37.601123, 2836.4], [-119.017416, 37.60114, 2835.8], [-119.017374, 37.601186, 2833.5], [-119.017345, 37.6012, 2835.6], [-119.017275, 37.601195, 2837.4], [-119.017268, 37.601201, 2834.8], [-119.017239, 37.601204, 2834.1], [-119.017197, 37.601188, 2834.4], [-119.017132, 37.601145, 2834.4], [-119.017065, 37.601141, 2835.8], [-119.017043, 37.601136, 2836.9], [-119.016978, 37.601048, 2840.4], [-119.016973, 37.600995, 2841.3], [-119.016968, 37.600982, 2841.6], [-119.016958, 37.600908, 2841.7], [-119.016943, 37.600887, 2842.7], [-119.016937, 37.600846, 2846.4], [-119.016957, 37.600831, 2844.6], [-119.017081, 37.6009, 2838.2], [-119.017113, 37.600939, 2837.3], [-119.017184, 37.600966, 2839.5], [-119.017197, 37.600973, 2839.1], [-119.01724, 37.60101, 2843.0], [-119.017267, 37.60102, 2844.2], [-119.017357, 37.601026, 2842.2], [-119.017401, 37.601021, 2844.9], [-119.017466, 37.60099, 2847.3], [-119.017478, 37.600948, 2850.3], [-119.01751, 37.600928, 2851.2], [-119.01756, 37.600919, 2849.0], [-119.017621, 37.600926, 2850.8], [-119.017695, 37.60086, 2852.7], [-119.017716, 37.60086, 2850.6], [-119.017838, 37.600844, 2852.6], [-119.017893, 37.600819, 2852.6], [-119.017934, 37.600818, 2854.8], [-119.017956, 37.600772, 2857.0], [-119.017942, 37.60068, 2857.2], [-119.017915, 37.600692, 2859.9], [-119.017887, 37.600729, 2862.1], [-119.017864, 37.600723, 2862.0], [-119.017843, 37.600686, 2861.3], [-119.017824, 37.600622, 2862.0], [-119.017804, 37.600598, 2862.8], [-119.017794, 37.600594, 2862.7], [-119.017709, 37.60067, 2864.4], [-119.017684, 37.600669, 2863.6], [-119.01766, 37.600686, 2863.2], [-119.017621, 37.600687, 2864.5], [-119.017617, 37.600681, 2864.1], [-119.017539, 37.600641, 2863.6], [-119.017459, 37.600626, 2861.3], [-119.017451, 37.60062, 2861.6], [-119.017434, 37.600563, 2859.9], [-119.017412, 37.600548, 2862.2], [-119.017354, 37.600541, 2860.0], [-119.017384, 37.600531, 2863.7], [-119.017414, 37.600543, 2864.3], [-119.017448, 37.600562, 2865.1], [-119.017498, 37.60054, 2868.7], [-119.017514, 37.600518, 2870.2], [-119.017538, 37.600505, 2868.9], [-119.017606, 37.600502, 2864.9], [-119.017609, 37.600504, 2866.1], [-119.017659, 37.600488, 2872.4], [-119.017725, 37.600494, 2872.7], [-119.017799, 37.600477, 2873.0], [-119.017825, 37.600453, 2871.5], [-119.017926, 37.600427, 2872.9], [-119.017881, 37.600387, 2872.8], [-119.017873, 37.600387, 2873.2], [-119.017848, 37.600408, 2874.3], [-119.017818, 37.600406, 2880.3], [-119.017777, 37.600375, 2880.6], [-119.017743, 37.600365, 2880.2], [-119.017663, 37.600376, 2880.4], [-119.017615, 37.60035, 2879.8], [-119.017572, 37.600277, 2880.1], [-119.017554, 37.60027, 2881.6], [-119.017512, 37.600275, 2882.9], [-119.017504, 37.600257, 2884.9], [-119.017677, 37.600221, 2884.6], [-119.01768, 37.600219, 2885.2], [-119.017641, 37.600194, 2885.8], [-119.0176, 37.600139, 2883.9], [-119.017636, 37.600126, 2885.2], [-119.017688, 37.600135, 2883.8], [-119.017773, 37.600172, 2888.6], [-119.017811, 37.600202, 2888.1], [-119.017857, 37.600203, 2888.1], [-119.01788, 37.600183, 2887.9], [-119.017871, 37.600159, 2888.6], [-119.017749, 37.600092, 2889.6], [-119.01767, 37.60006, 2893.2], [-119.017644, 37.600038, 2894.5], [-119.017611, 37.59996, 2898.3], [-119.017612, 37.599925, 2900.1], [-119.017645, 37.599922, 2900.5], [-119.017637, 37.59987, 2904.4], [-119.017683, 37.599833, 2906.1], [-119.017748, 37.599827, 2904.5], [-119.017827, 37.599861, 2903.0], [-119.017877, 37.59987, 2901.9], [-119.017933, 37.599898, 2900.7], [-119.017948, 37.599914, 2901.5], [-119.017963, 37.59989, 2903.5], [-119.017989, 37.599877, 2905.6], [-119.018089, 37.599855, 2908.1], [-119.018124, 37.599818, 2908.7], [-119.018128, 37.599774, 2911.2], [-119.018103, 37.599721, 2910.8], [-119.018097, 37.599677, 2912.7], [-119.018063, 37.599651, 2911.5], [-119.01807, 37.599627, 2912.2], [-119.018051, 37.59958, 2913.2], [-119.018064, 37.599557, 2912.3], [-119.018091, 37.599543, 2911.4], [-119.018101, 37.599516, 2911.1], [-119.018098, 37.599498, 2911.6], [-119.018148, 37.599472, 2915.6], [-119.018159, 37.599402, 2917.2], [-119.018152, 37.599385, 2918.7], [-119.018161, 37.599347, 2918.1], [-119.018228, 37.599258, 2914.3], [-119.018248, 37.599246, 2914.7], [-119.018265, 37.599266, 2916.1], [-119.018301, 37.599273, 2915.7], [-119.018315, 37.599268, 2917.6], [-119.018359, 37.599181, 2916.0], [-119.018419, 37.59912, 2918.3], [-119.018445, 37.59908, 2920.0], [-119.018576, 37.598986, 2926.2], [-119.018592, 37.598984, 2925.0], [-119.018623, 37.59901, 2926.9], [-119.018648, 37.598997, 2927.0], [-119.018677, 37.598999, 2926.9], [-119.018795, 37.598939, 2928.0], [-119.018816, 37.598934, 2929.5], [-119.018875, 37.59894, 2929.3], [-119.018925, 37.59896, 2928.0], [-119.018979, 37.598959, 2928.6], [-119.018997, 37.598943, 2928.2], [-119.019, 37.598902, 2930.3], [-119.018965, 37.598791, 2931.3], [-119.018946, 37.598768, 2924.3], [-119.018882, 37.598782, 2928.5], [-119.018863, 37.598765, 2927.8], [-119.018828, 37.598763, 2929.8], [-119.018783, 37.598724, 2931.3], [-119.018696, 37.598692, 2935.8], [-119.018625, 37.598653, 2936.5], [-119.018603, 37.598626, 2934.4], [-119.018512, 37.598628, 2930.4], [-119.01838, 37.598704, 2931.2], [-119.018343, 37.598732, 2931.1], [-119.018294, 37.598704, 2930.1], [-119.018236, 37.598703, 2932.0], [-119.018183, 37.598663, 2930.7], [-119.01817, 37.598657, 2928.9], [-119.018101, 37.598659, 2931.2], [-119.018071, 37.598649, 2930.7], [-119.018049, 37.598575, 2932.3], [-119.018048, 37.598512, 2934.4], [-119.018015, 37.598432, 2933.3], [-119.017905, 37.598341, 2936.9], [-119.017909, 37.598311, 2934.5], [-119.017967, 37.598264, 2933.3], [-119.01799, 37.598239, 2932.9], [-119.018002, 37.598204, 2934.9], [-119.017993, 37.598152, 2934.5], [-119.018005, 37.598129, 2928.2], [-119.017947, 37.59811, 2928.2], [-119.017909, 37.598077, 2928.6], [-119.017924, 37.598048, 2930.5], [-119.017984, 37.598029, 2932.2], [-119.018, 37.598014, 2931.0], [-119.017985, 37.598002, 2926.9], [-119.017847, 37.598038, 2931.1], [-119.017783, 37.597974, 2931.9], [-119.017787, 37.597967, 2932.1], [-119.017866, 37.59795, 2930.7], [-119.017894, 37.59793, 2929.1], [-119.017914, 37.59791, 2925.8], [-119.017865, 37.59788, 2923.8], [-119.017869, 37.597807, 2923.3], [-119.017884, 37.597729, 2928.7], [-119.01788, 37.597659, 2925.7], [-119.017891, 37.59762, 2924.0], [-119.017922, 37.597596, 2922.9], [-119.017966, 37.597593, 2919.6], [-119.017982, 37.597588, 2920.2], [-119.018006, 37.59757, 2921.0], [-119.018037, 37.597508, 2921.9], [-119.018057, 37.597498, 2919.2], [-119.018088, 37.597445, 2920.8], [-119.018048, 37.59734, 2918.3], [-119.018069, 37.59728, 2917.6], [-119.018118, 37.597209, 2919.8], [-119.018108, 37.597171, 2920.9], [-119.01808, 37.597125, 2923.2], [-119.018076, 37.597112, 2923.3], [-119.018095, 37.597054, 2921.3], [-119.018226, 37.596994, 2918.1], [-119.018237, 37.596984, 2918.7], [-119.018239, 37.596969, 2917.8], [-119.018211, 37.596928, 2913.8], [-119.018177, 37.596835, 2912.9], [-119.018176, 37.596818, 2912.2], [-119.018196, 37.596794, 2910.7], [-119.018175, 37.596756, 2907.7], [-119.018128, 37.596733, 2907.4], [-119.0181, 37.596681, 2907.7], [-119.018099, 37.596674, 2906.7], [-119.018072, 37.596655, 2905.7], [-119.018019, 37.596654, 2906.6], [-119.017959, 37.596636, 2903.6], [-119.017922, 37.59661, 2904.0], [-119.017912, 37.596599, 2903.1], [-119.017864, 37.596511, 2903.9], [-119.017802, 37.596462, 2898.9], [-119.017793, 37.596449, 2898.9], [-119.017794, 37.596401, 2902.7], [-119.017809, 37.596356, 2904.5], [-119.017843, 37.596315, 2902.4], [-119.017808, 37.596266, 2901.1], [-119.017809, 37.596246, 2899.9], [-119.017862, 37.596189, 2898.9], [-119.017836, 37.596147, 2896.5], [-119.017845, 37.596113, 2898.7], [-119.017776, 37.596089, 2901.1], [-119.017721, 37.596092, 2903.4], [-119.017703, 37.596076, 2900.5], [-119.017696, 37.596028, 2901.4], [-119.017649, 37.595911, 2906.3], [-119.017612, 37.595895, 2907.4], [-119.017598, 37.595896, 2907.0], [-119.017563, 37.595888, 2908.4], [-119.017552, 37.595876, 2908.4], [-119.017516, 37.595811, 2907.8], [-119.017498, 37.595796, 2904.2], [-119.017489, 37.595762, 2905.4], [-119.017469, 37.595713, 2906.0], [-119.017514, 37.595596, 2906.8], [-119.017515, 37.595552, 2907.7], [-119.017455, 37.595477, 2909.4], [-119.017421, 37.595427, 2908.4], [-119.01742, 37.595369, 2907.1], [-119.017353, 37.595318, 2907.4], [-119.017345, 37.595315, 2907.0], [-119.017328, 37.595285, 2908.4], [-119.017348, 37.595208, 2908.4], [-119.017306, 37.595171, 2905.6], [-119.017294, 37.595166, 2904.3], [-119.017228, 37.59512, 2904.3], [-119.017223, 37.595064, 2904.7], [-119.017236, 37.595019, 2904.5], [-119.017164, 37.59492, 2904.3], [-119.017128, 37.594891, 2902.2], [-119.017074, 37.594811, 2903.5], [-119.01701, 37.594746, 2906.6], [-119.016994, 37.594733, 2907.4], [-119.016927, 37.594694, 2908.5], [-119.016888, 37.594642, 2906.4], [-119.016827, 37.594629, 2906.9], [-119.016753, 37.594605, 2907.0], [-119.016688, 37.594555, 2906.6], [-119.016658, 37.594551, 2907.4], [-119.016616, 37.594523, 2909.8], [-119.016596, 37.594494, 2910.5], [-119.016574, 37.594483, 2912.0], [-119.016566, 37.594458, 2910.9], [-119.016512, 37.594441, 2914.4], [-119.016466, 37.594401, 2912.8], [-119.016431, 37.594365, 2911.6], [-119.016367, 37.594337, 2911.2], [-119.016338, 37.594329, 2913.2], [-119.01632, 37.594345, 2912.8], [-119.016309, 37.594316, 2915.3], [-119.016277, 37.594256, 2918.1], [-119.016232, 37.594217, 2921.5], [-119.01614, 37.594207, 2923.7], [-119.016125, 37.594187, 2923.6], [-119.016119, 37.594133, 2923.1], [-119.016099, 37.594091, 2922.9], [-119.01604, 37.594083, 2925.1], [-119.016013, 37.594103, 2923.6], [-119.015968, 37.594151, 2925.0], [-119.01594, 37.594151, 2922.3], [-119.015906, 37.594087, 2923.1], [-119.015861, 37.59406, 2927.0], [-119.015797, 37.594069, 2927.9], [-119.01578, 37.594051, 2927.0], [-119.015809, 37.593974, 2927.8], [-119.015795, 37.593916, 2929.8], [-119.015769, 37.593888, 2929.3], [-119.015734, 37.593893, 2928.1], [-119.015698, 37.59392, 2928.5], [-119.015673, 37.593922, 2928.0], [-119.015619, 37.593932, 2929.2], [-119.015519, 37.593847, 2928.3], [-119.015482, 37.593846, 2932.3], [-119.015434, 37.593905, 2930.9], [-119.015359, 37.593927, 2929.7], [-119.015323, 37.593901, 2932.6], [-119.015318, 37.593875, 2932.8], [-119.015304, 37.5939, 2933.4], [-119.01528, 37.593883, 2932.3], [-119.015259, 37.593807, 2932.5], [-119.015229, 37.593745, 2932.9], [-119.015248, 37.593723, 2935.5], [-119.015276, 37.593723, 2936.7], [-119.015286, 37.593698, 2934.8], [-119.015194, 37.593667, 2939.4], [-119.015188, 37.593662, 2939.2], [-119.015177, 37.593611, 2943.5], [-119.015269, 37.593505, 2952.7], [-119.01527, 37.593495, 2953.3], [-119.015216, 37.593397, 2959.9], [-119.015225, 37.593348, 2960.7], [-119.015222, 37.59334, 2960.6], [-119.015181, 37.593363, 2956.6], [-119.01516, 37.593352, 2957.2], [-119.015174, 37.593334, 2957.4], [-119.015174, 37.593236, 2958.6], [-119.015179, 37.593211, 2961.1], [-119.015184, 37.593067, 2961.8], [-119.015196, 37.593026, 2960.1], [-119.015239, 37.592934, 2959.7], [-119.015236, 37.592903, 2960.8], [-119.015207, 37.59286, 2960.7], [-119.015196, 37.592854, 2960.2], [-119.015106, 37.59286, 2957.8], [-119.015067, 37.592811, 2962.6], [-119.01503, 37.592819, 2960.8], [-119.014993, 37.592792, 2961.6], [-119.014965, 37.592789, 2963.9], [-119.014891, 37.59282, 2970.6], [-119.01487, 37.59284, 2970.4], [-119.01486, 37.592875, 2970.7], [-119.014853, 37.592884, 2972.1], [-119.014783, 37.592908, 2972.5], [-119.014679, 37.592849, 2976.7], [-119.014676, 37.592842, 2977.2], [-119.014645, 37.592823, 2977.2], [-119.014631, 37.592779, 2981.4], [-119.014587, 37.592747, 2982.2], [-119.01459, 37.592694, 2986.7], [-119.014564, 37.592711, 2990.4], [-119.014528, 37.592678, 2990.3], [-119.014519, 37.592749, 2988.3], [-119.01449, 37.592784, 2987.2], [-119.014447, 37.592876, 2990.4], [-119.014414, 37.592873, 2990.6], [-119.014406, 37.592896, 2985.9], [-119.014363, 37.592941, 2982.2], [-119.014287, 37.592806, 2981.7], [-119.014282, 37.592864, 2983.5], [-119.014264, 37.592916, 2988.3], [-119.014287, 37.59295, 2986.3], [-119.014303, 37.592944, 2986.3], [-119.016086, 37.592524, 2986.9], [-119.016092, 37.592537, 2972.7], [-119.016117, 37.592552, 2971.6], [-119.016125, 37.592574, 2972.0], [-119.016094, 37.592607, 2969.8], [-119.016099, 37.592665, 2968.4], [-119.016094, 37.592672, 2967.7], [-119.016101, 37.5927, 2959.4], [-119.016121, 37.592718, 2955.3], [-119.016182, 37.5927, 2951.3], [-119.01621, 37.592704, 2951.6], [-119.016221, 37.592721, 2947.7], [-119.016219, 37.59274, 2946.1], [-119.016209, 37.592747, 2945.2], [-119.016209, 37.592762, 2945.5], [-119.016171, 37.592803, 2937.1], [-119.016282, 37.592828, 2940.4], [-119.016296, 37.592848, 2939.9], [-119.016282, 37.592889, 2938.5], [-119.016305, 37.592911, 2936.2], [-119.016399, 37.59295, 2934.0], [-119.016433, 37.592981, 2931.6], [-119.016459, 37.593038, 2931.2], [-119.01654, 37.593128, 2932.0], [-119.016544, 37.593137, 2932.6], [-119.01659, 37.593182, 2929.4], [-119.016697, 37.593231, 2927.7], [-119.016747, 37.593244, 2927.2], [-119.016756, 37.593261, 2929.1], [-119.016758, 37.59331, 2927.1], [-119.016771, 37.593325, 2924.9], [-119.016826, 37.593343, 2925.4], [-119.016867, 37.593385, 2924.7], [-119.016897, 37.593387, 2924.9], [-119.016923, 37.593377, 2923.3], [-119.016943, 37.593388, 2923.5], [-119.016968, 37.593415, 2923.5], [-119.016976, 37.593442, 2925.1], [-119.016996, 37.593462, 2921.4], [-119.017004, 37.593497, 2920.4], [-119.017001, 37.593578, 2918.0], [-119.017016, 37.593613, 2916.8], [-119.017007, 37.593674, 2917.5], [-119.016927, 37.593695, 2921.0], [-119.016912, 37.593697, 2920.0], [-119.016874, 37.593714, 2919.8], [-119.016853, 37.593754, 2921.1], [-119.016757, 37.59383, 2919.3], [-119.016744, 37.593844, 2918.8], [-119.016707, 37.593893, 2920.2], [-119.016687, 37.593995, 2923.2], [-119.016682, 37.594007, 2922.6], [-119.016677, 37.59405, 2923.6], [-119.016648, 37.594112, 2922.2], [-119.016675, 37.594148, 2921.9], [-119.016688, 37.594159, 2921.7], [-119.016755, 37.594187, 2922.3], [-119.016793, 37.594225, 2920.1], [-119.016819, 37.594266, 2919.4], [-119.016804, 37.594303, 2917.8], [-119.016803, 37.59432, 2916.6], [-119.016836, 37.594364, 2915.2], [-119.016911, 37.594401, 2914.6], [-119.016919, 37.594416, 2914.5], [-119.016917, 37.594449, 2912.6], [-119.016908, 37.594494, 2911.4], [-119.016922, 37.594538, 2911.4], [-119.016903, 37.594619, 2914.8], [-119.016904, 37.59463, 2915.1], [-119.016893, 37.594674, 2913.5], [-119.0169, 37.594695, 2911.8], [-119.016963, 37.594723, 2910.8], [-119.01698, 37.594766, 2911.5], [-119.016988, 37.594778, 2911.3], [-119.017029, 37.594797, 2912.7], [-119.017067, 37.594855, 2913.0], [-119.017129, 37.594875, 2911.6], [-119.017151, 37.594888, 2912.9], [-119.017186, 37.594917, 2912.7], [-119.017195, 37.594937, 2912.3], [-119.017201, 37.595049, 2910.3], [-119.017194, 37.595063, 2909.2], [-119.017203, 37.595089, 2909.6], [-119.017232, 37.595083, 2907.0], [-119.017239, 37.595092, 2907.7], [-119.01724, 37.595139, 2911.1], [-119.017262, 37.595181, 2912.0], [-119.017262, 37.595199, 2910.5], [-119.017284, 37.595261, 2910.0], [-119.017323, 37.595295, 2909.5], [-119.017356, 37.595346, 2909.8], [-119.017372, 37.595357, 2909.8], [-119.017396, 37.59538, 2910.6], [-119.017402, 37.595435, 2911.4], [-119.017436, 37.595536, 2912.2], [-119.017441, 37.595565, 2914.4], [-119.01748, 37.59562, 2916.0], [-119.017469, 37.595669, 2917.2], [-119.017427, 37.595684, 2917.2], [-119.017396, 37.595663, 2916.9], [-119.017369, 37.595651, 2916.5], [-119.017451, 37.595683, 2912.0], [-119.01746, 37.59574, 2910.7], [-119.017486, 37.595784, 2909.9], [-119.017548, 37.595874, 2912.6], [-119.017612, 37.595888, 2911.2], [-119.017628, 37.595894, 2912.1], [-119.017661, 37.595963, 2910.0], [-119.017673, 37.596023, 2910.2], [-119.017715, 37.596034, 2910.6], [-119.017737, 37.596037, 2910.5], [-119.017801, 37.59607, 2914.5], [-119.017818, 37.596092, 2908.9], [-119.017801, 37.596171, 2909.2], [-119.017808, 37.596207, 2907.0], [-119.017841, 37.596254, 2906.1], [-119.017841, 37.596271, 2905.5], [-119.017819, 37.596303, 2905.7], [-119.017778, 37.596322, 2908.5], [-119.017755, 37.596337, 2908.1], [-119.017721, 37.596379, 2905.5], [-119.017803, 37.596367, 2905.1], [-119.017826, 37.596378, 2905.5], [-119.017808, 37.596404, 2906.4], [-119.017801, 37.596425, 2908.0], [-119.017802, 37.596439, 2907.6], [-119.017865, 37.596505, 2904.0], [-119.017859, 37.596527, 2905.6], [-119.0178, 37.596548, 2903.1], [-119.017791, 37.596557, 2904.5], [-119.017781, 37.596611, 2907.1], [-119.017803, 37.596662, 2906.9], [-119.017796, 37.596702, 2903.0], [-119.017788, 37.596707, 2902.9], [-119.017773, 37.596705, 2902.4], [-119.01773, 37.596714, 2905.3], [-119.017703, 37.596754, 2908.0], [-119.017775, 37.596682, 2909.9], [-119.017788, 37.596676, 2909.9], [-119.017832, 37.596689, 2912.9], [-119.0179, 37.596669, 2913.5], [-119.017947, 37.596637, 2917.2], [-119.017956, 37.596626, 2917.5], [-119.017986, 37.596606, 2917.0], [-119.018035, 37.596627, 2916.4], [-119.018066, 37.596669, 2914.5], [-119.018042, 37.596729, 2912.3], [-119.018021, 37.596767, 2912.1], [-119.018029, 37.596784, 2912.7], [-119.01807, 37.596809, 2914.8], [-119.018085, 37.596833, 2914.0], [-119.018122, 37.596828, 2915.4], [-119.018143, 37.596828, 2915.1], [-119.018157, 37.596873, 2915.2], [-119.018193, 37.596925, 2920.0], [-119.018157, 37.596969, 2920.5], [-119.018151, 37.596973, 2920.0], [-119.018131, 37.597023, 2921.0], [-119.018101, 37.597064, 2922.0], [-119.01808, 37.597125, 2922.1], [-119.018075, 37.597148, 2923.6], [-119.018106, 37.597145, 2926.4], [-119.018044, 37.597265, 2923.3], [-119.018024, 37.597315, 2923.5], [-119.018034, 37.597366, 2926.3], [-119.017986, 37.597431, 2927.8], [-119.017966, 37.597469, 2927.3], [-119.017948, 37.597562, 2928.7], [-119.01789, 37.59759, 2929.8], [-119.017872, 37.597615, 2932.6], [-119.01787, 37.597639, 2932.9], [-119.017832, 37.597672, 2933.9], [-119.017806, 37.597719, 2930.1], [-119.017837, 37.597767, 2928.4], [-119.017815, 37.597786, 2927.3], [-119.01781, 37.597804, 2926.6], [-119.017835, 37.597851, 2927.5], [-119.017826, 37.597892, 2934.1], [-119.01782, 37.597906, 2934.7], [-119.017818, 37.597933, 2933.2], [-119.017881, 37.597977, 2932.6], [-119.017908, 37.598046, 2932.6], [-119.01793, 37.598076, 2933.7], [-119.017941, 37.598151, 2933.5], [-119.017927, 37.598205, 2934.0], [-119.017927, 37.598216, 2935.4], [-119.017941, 37.598268, 2935.7], [-119.017962, 37.598286, 2935.6], [-119.017974, 37.598314, 2937.8], [-119.018002, 37.598328, 2940.8], [-119.01801, 37.598356, 2942.0], [-119.018008, 37.598373, 2942.0], [-119.01803, 37.598541, 2940.2], [-119.018043, 37.598561, 2938.8], [-119.018108, 37.598644, 2936.9], [-119.018206, 37.598671, 2939.5], [-119.018228, 37.598669, 2939.4], [-119.018331, 37.598717, 2937.9], [-119.018364, 37.598709, 2937.6], [-119.018431, 37.598698, 2938.1], [-119.018459, 37.598707, 2937.9], [-119.018508, 37.598746, 2936.1], [-119.018578, 37.598762, 2937.0], [-119.018627, 37.598787, 2936.5], [-119.018749, 37.5988, 2934.2], [-119.018782, 37.59883, 2933.8], [-119.018827, 37.598829, 2933.9], [-119.018842, 37.598823, 2931.9], [-119.018875, 37.598825, 2932.5], [-119.018892, 37.598863, 2932.0], [-119.018936, 37.598903, 2930.2], [-119.018976, 37.598913, 2927.2], [-119.018993, 37.598914, 2929.2], [-119.019026, 37.598947, 2922.4], [-119.019013, 37.598991, 2923.2], [-119.018999, 37.599004, 2924.3], [-119.018942, 37.598993, 2923.9], [-119.018875, 37.599025, 2928.1], [-119.018833, 37.599037, 2925.9], [-119.018735, 37.599026, 2920.0], [-119.018664, 37.599035, 2919.5], [-119.018631, 37.599044, 2917.1], [-119.018509, 37.599071, 2913.7], [-119.018462, 37.599124, 2915.6], [-119.018454, 37.599139, 2917.4], [-119.018399, 37.59922, 2916.4], [-119.018379, 37.599267, 2912.9], [-119.01834, 37.599299, 2910.7], [-119.018317, 37.599306, 2911.9], [-119.018271, 37.599339, 2909.6], [-119.018206, 37.599427, 2909.9], [-119.018156, 37.59946, 2907.5], [-119.018116, 37.599526, 2906.4], [-119.018087, 37.599556, 2907.3], [-119.018059, 37.599634, 2906.7], [-119.018058, 37.599648, 2907.3], [-119.018098, 37.599726, 2909.3], [-119.018084, 37.599837, 2906.4], [-119.01808, 37.599858, 2905.2], [-119.018021, 37.599954, 2904.4], [-119.017988, 37.599963, 2903.4], [-119.017912, 37.599941, 2903.8], [-119.017845, 37.599889, 2905.0], [-119.017782, 37.599882, 2905.8], [-119.017739, 37.59989, 2906.6], [-119.017719, 37.599896, 2905.9], [-119.017574, 37.599924, 2908.0], [-119.017569, 37.599947, 2909.1], [-119.017591, 37.599981, 2909.8], [-119.017647, 37.600044, 2907.6], [-119.017699, 37.600055, 2905.6], [-119.017748, 37.600079, 2906.0], [-119.017783, 37.600125, 2905.9], [-119.017844, 37.600156, 2905.4], [-119.01784, 37.600174, 2904.3], [-119.017817, 37.60018, 2904.1], [-119.017775, 37.600173, 2904.1], [-119.01776, 37.600163, 2904.4], [-119.017668, 37.60012, 2902.4], [-119.01762, 37.60012, 2901.6], [-119.017585, 37.600108, 2901.3], [-119.017573, 37.600098, 2900.3], [-119.017558, 37.600096, 2900.6], [-119.017554, 37.600118, 2904.9], [-119.017657, 37.600191, 2905.2], [-119.017671, 37.600225, 2903.5], [-119.017652, 37.600235, 2903.3], [-119.017603, 37.600237, 2903.9], [-119.01756, 37.600257, 2902.1], [-119.017574, 37.600294, 2899.4], [-119.017643, 37.60031, 2897.8], [-119.017667, 37.600321, 2898.1], [-119.017805, 37.600338, 2897.0], [-119.017862, 37.600362, 2893.9], [-119.017905, 37.600386, 2894.2], [-119.0179, 37.600398, 2892.8], [-119.017792, 37.600451, 2890.5], [-119.017767, 37.600458, 2888.2], [-119.017717, 37.600481, 2888.6], [-119.017647, 37.600543, 2887.6], [-119.017583, 37.600574, 2886.7], [-119.017561, 37.600581, 2886.0], [-119.017465, 37.600594, 2882.4], [-119.017424, 37.600628, 2881.6], [-119.017389, 37.600615, 2880.0], [-119.017355, 37.600569, 2882.4], [-119.017331, 37.600585, 2878.4], [-119.017355, 37.600608, 2876.6], [-119.017366, 37.600679, 2877.4], [-119.017371, 37.60069, 2876.6], [-119.017419, 37.600699, 2876.1], [-119.017534, 37.600682, 2871.7], [-119.017566, 37.600697, 2870.3], [-119.01759, 37.600699, 2868.8], [-119.017689, 37.600702, 2868.4], [-119.017765, 37.600693, 2869.9], [-119.017801, 37.600704, 2868.8], [-119.017817, 37.600716, 2868.2], [-119.01785, 37.600764, 2866.6], [-119.017932, 37.600799, 2866.0], [-119.017946, 37.60084, 2866.0], [-119.017933, 37.600854, 2866.6], [-119.017912, 37.60086, 2866.8], [-119.017845, 37.600859, 2864.4], [-119.017706, 37.600899, 2862.9], [-119.017683, 37.600911, 2862.7], [-119.017599, 37.60093, 2860.3], [-119.017524, 37.600988, 2858.8], [-119.017512, 37.600999, 2857.2], [-119.017412, 37.60104, 2858.0], [-119.017297, 37.601066, 2856.0], [-119.017199, 37.601102, 2858.1], [-119.01718, 37.601099, 2857.4], [-119.017147, 37.601059, 2860.5], [-119.017133, 37.601013, 2860.3], [-119.017109, 37.600982, 2861.0], [-119.016988, 37.600901, 2858.7], [-119.016906, 37.600861, 2858.7], [-119.016922, 37.600895, 2853.6], [-119.016937, 37.600977, 2853.8], [-119.016969, 37.601002, 2852.0], [-119.017, 37.601045, 2848.1], [-119.017009, 37.6011, 2847.6], [-119.017032, 37.601131, 2847.1], [-119.017046, 37.601138, 2846.2], [-119.017095, 37.601176, 2843.5], [-119.017208, 37.601213, 2846.5], [-119.017229, 37.601207, 2847.9], [-119.017312, 37.60121, 2849.4], [-119.017364, 37.601233, 2849.1], [-119.017406, 37.601233, 2849.4], [-119.017446, 37.601267, 2847.7], [-119.017461, 37.601283, 2846.4], [-119.017535, 37.601331, 2845.7], [-119.017585, 37.601338, 2845.8], [-119.01761, 37.601381, 2844.3], [-119.017616, 37.6014, 2842.8], [-119.017608, 37.601433, 2840.1], [-119.017588, 37.601443, 2839.6], [-119.017525, 37.601436, 2838.1], [-119.017441, 37.60151, 2838.6], [-119.017394, 37.60154, 2839.6], [-119.017262, 37.601535, 2829.4], [-119.017202, 37.601562, 2830.3], [-119.017087, 37.601545, 2832.2], [-119.017012, 37.601611, 2830.2], [-119.016981, 37.601634, 2829.5], [-119.016902, 37.601674, 2829.8], [-119.016867, 37.601663, 2830.5], [-119.016824, 37.601626, 2831.8], [-119.016779, 37.601624, 2831.9], [-119.016741, 37.601616, 2831.8], [-119.016719, 37.601596, 2832.3], [-119.016686, 37.601491, 2830.4], [-119.016667, 37.601495, 2830.8], [-119.016647, 37.601506, 2830.1], [-119.016603, 37.601556, 2829.1], [-119.016579, 37.601598, 2827.6], [-119.01657, 37.601671, 2826.8], [-119.01657, 37.60169, 2826.5], [-119.016534, 37.601752, 2824.9], [-119.016512, 37.601771, 2821.0], [-119.016521, 37.601839, 2821.1], [-119.016472, 37.601886, 2819.3], [-119.016448, 37.602006, 2816.0], [-119.016442, 37.602026, 2815.2], [-119.016415, 37.602086, 2815.8], [-119.016413, 37.602138, 2814.2], [-119.016392, 37.602182, 2814.5], [-119.016391, 37.602193, 2816.0], [-119.016401, 37.602252, 2816.8], [-119.016415, 37.602269, 2817.1], [-119.016546, 37.602277, 2816.8], [-119.016566, 37.602274, 2816.6], [-119.016693, 37.602237, 2816.6], [-119.01678, 37.602189, 2816.4], [-119.016817, 37.602181, 2817.4], [-119.016989, 37.602131, 2819.6], [-119.017007, 37.602147, 2820.6], [-119.016987, 37.602171, 2819.3], [-119.016969, 37.602178, 2818.8], [-119.016888, 37.6022, 2816.3], [-119.016804, 37.602282, 2814.3], [-119.016797, 37.602294, 2813.0], [-119.016691, 37.602409, 2809.6], [-119.01666, 37.602422, 2808.8], [-119.01663, 37.602441, 2809.3], [-119.01657, 37.602501, 2808.5], [-119.016524, 37.602567, 2807.8], [-119.016428, 37.602626, 2804.2], [-119.016413, 37.602634, 2804.9], [-119.016219, 37.60267, 2809.3], [-119.016197, 37.602673, 2808.6], [-119.016118, 37.602701, 2803.9], [-119.016022, 37.60271, 2803.4], [-119.01597, 37.602725, 2802.5], [-119.015937, 37.60277, 2800.9], [-119.015865, 37.602808, 2803.0], [-119.015849, 37.602811, 2804.3], [-119.015756, 37.6028, 2803.7], [-119.015659, 37.60285, 2802.2], [-119.015647, 37.60286, 2801.8], [-119.01553, 37.602978, 2800.1], [-119.015519, 37.60299, 2800.0], [-119.015469, 37.603067, 2799.7], [-119.015392, 37.603102, 2799.4], [-119.015358, 37.603183, 2798.4], [-119.015297, 37.603223, 2797.0], [-119.015286, 37.603227, 2795.9], [-119.015222, 37.603263, 2793.0], [-119.015162, 37.603345, 2793.4], [-119.015148, 37.603361, 2793.6], [-119.015128, 37.603412, 2792.9], [-119.015054, 37.603497, 2793.1], [-119.015044, 37.603551, 2792.7], [-119.014989, 37.603633, 2790.2], [-119.014933, 37.603686, 2791.5], [-119.014905, 37.603708, 2789.8], [-119.014812, 37.603743, 2787.5], [-119.014767, 37.603804, 2785.8], [-119.014695, 37.603933, 2783.0], [-119.014616, 37.604002, 2780.6], [-119.014596, 37.604013, 2781.4], [-119.01451, 37.60403, 2778.0], [-119.014427, 37.604116, 2776.6], [-119.014406, 37.604127, 2776.9], [-119.014334, 37.604176, 2774.9], [-119.014198, 37.60417, 2774.6], [-119.014178, 37.604172, 2773.0], [-119.014105, 37.604201, 2773.9], [-119.014016, 37.604274, 2775.3], [-119.01399, 37.604286, 2774.0], [-119.013948, 37.604312, 2774.8], [-119.013828, 37.604457, 2771.0], [-119.013813, 37.604481, 2770.5], [-119.013791, 37.604536, 2769.9], [-119.013788, 37.604675, 2766.6], [-119.013784, 37.604686, 2766.0], [-119.013759, 37.604705, 2763.7], [-119.01376, 37.604749, 2763.0], [-119.013711, 37.604851, 2763.5], [-119.013705, 37.604861, 2765.0], [-119.013695, 37.60491, 2762.9], [-119.013672, 37.60495, 2763.3], [-119.01368, 37.605003, 2760.8], [-119.013686, 37.605011, 2761.4], [-119.01369, 37.60505, 2760.7], [-119.013673, 37.605094, 2760.8], [-119.013654, 37.605109, 2758.0], [-119.013607, 37.605101, 2759.3], [-119.01358, 37.605076, 2758.0], [-119.013572, 37.605064, 2757.9], [-119.013569, 37.605036, 2757.6], [-119.013598, 37.604915, 2758.7], [-119.013597, 37.604905, 2758.5], [-119.013573, 37.604875, 2760.1], [-119.013516, 37.604856, 2762.3], [-119.013479, 37.604832, 2762.6], [-119.013469, 37.6048, 2762.3], [-119.013472, 37.604782, 2761.7], [-119.013469, 37.604707, 2759.5], [-119.013426, 37.604643, 2760.4], [-119.013418, 37.604635, 2760.5], [-119.013334, 37.604572, 2758.9], [-119.013317, 37.604523, 2759.7], [-119.013265, 37.604474, 2759.8], [-119.013243, 37.604416, 2755.6], [-119.013272, 37.604404, 2754.0], [-119.013274, 37.604419, 2754.6], [-119.013221, 37.604512, 2754.6], [-119.013215, 37.60453, 2755.7], [-119.013204, 37.604593, 2756.3], [-119.013172, 37.604669, 2754.7], [-119.013188, 37.60471, 2752.5], [-119.013168, 37.604719, 2752.1], [-119.013055, 37.604712, 2753.4], [-119.013023, 37.604696, 2752.6], [-119.013008, 37.604692, 2751.5], [-119.012971, 37.604648, 2750.9], [-119.012951, 37.604645, 2751.6], [-119.012819, 37.604666, 2747.6], [-119.012721, 37.604652, 2747.4], [-119.012703, 37.604639, 2747.6], [-119.012697, 37.604591, 2748.0], [-119.012665, 37.604566, 2748.5], [-119.012611, 37.60453, 2748.6], [-119.012607, 37.604486, 2744.9], [-119.01259, 37.60446, 2744.7], [-119.012569, 37.604446, 2744.1], [-119.012524, 37.604398, 2742.7], [-119.012495, 37.60438, 2740.7], [-119.012404, 37.604376, 2741.5], [-119.012378, 37.604372, 2742.1], [-119.01232, 37.604367, 2745.4], [-119.012244, 37.604329, 2747.3], [-119.012172, 37.604319, 2742.9], [-119.012152, 37.604318, 2744.2], [-119.012096, 37.604307, 2744.9], [-119.012, 37.604207, 2741.8], [-119.011988, 37.604193, 2741.3], [-119.011893, 37.604111, 2740.8], [-119.0118, 37.604075, 2742.7], [-119.011759, 37.604043, 2742.8], [-119.011691, 37.604047, 2738.2], [-119.011613, 37.60398, 2738.9], [-119.011601, 37.603972, 2738.4], [-119.011587, 37.603953, 2739.4], [-119.011584, 37.603912, 2740.5], [-119.011568, 37.603894, 2740.2], [-119.011482, 37.603861, 2736.8], [-119.011427, 37.60383, 2736.2], [-119.0113, 37.603821, 2734.0], [-119.011266, 37.603807, 2733.2], [-119.011254, 37.603796, 2733.8], [-119.011205, 37.603773, 2734.8], [-119.011189, 37.603752, 2737.5], [-119.011156, 37.603668, 2736.7], [-119.011149, 37.603653, 2737.0], [-119.011146, 37.603621, 2737.7], [-119.011186, 37.603548, 2736.6], [-119.011187, 37.603504, 2738.1], [-119.011192, 37.603487, 2738.3], [-119.011219, 37.603432, 2739.1], [-119.01121, 37.603326, 2739.1], [-119.0112, 37.603308, 2738.0], [-119.011182, 37.603267, 2741.5], [-119.011128, 37.603233, 2743.0], [-119.011083, 37.603166, 2741.9], [-119.011075, 37.603157, 2741.7], [-119.011095, 37.603135, 2738.8], [-119.0111, 37.603161, 2740.1], [-119.011128, 37.603167, 2742.5], [-119.011122, 37.603147, 2734.6], [-119.011102, 37.603128, 2733.3], [-119.011069, 37.603134, 2729.3], [-119.011098, 37.603114, 2735.9], [-119.011123, 37.603123, 2737.1], [-119.011156, 37.60312, 2744.4], [-119.011143, 37.603108, 2742.1], [-119.011163, 37.603113, 2748.5], [-119.011123, 37.603119, 2754.3]]}}