{"type": "Feature", "properties": {}, "geometry": {"type": "LineString", "coordinates": [[-121.58351046033204, 47.42478132247925, 676.42], [-121.5835330914706, 47.42475458420813, 660.56], [-121.58356251195073, 47.42475701496005, 658.64], [-121.58357240259647, 47.42472038604319, 656.72], [-121.58359930850565, 47.42470119148493, 654.8], [-121.58371749334037, 47.42490587756038, 663.93], [-121.58380659297109, 47.42498802021146, 664.89], [-121.58383802510798, 47.42507125250995, 667.77], [-121.58394372090697, 47.42524668574333, 674.98], [-121.58402653411031, 47.42544148117304, 680.27], [-121.58412954770029, 47.425600653514266, 687.0], [-121.58413072116673, 47.42573878727853, 693.25], [-121.58434764482081, 47.425836604088545, 696.13], [-121.58416676335037, 47.42602586746216, 720.16], [-121.58381120301783, 47.425992926582694, 719.68], [-121.58365814946592, 47.42587457410991, 719.2], [-121.58349310979247, 47.42569528520107, 719.68], [-121.5833414811641, 47.42557165212929, 718.72], [-121.58301793970168, 47.42553686723113, 716.8], [-121.58279053866863, 47.42547978647053, 715.84], [-121.58246708102524, 47.42546151392162, 716.32], [-121.58228083513677, 47.42537165991962, 720.16], [-121.58203323371708, 47.42537057027221, 723.53], [-121.5817494224757, 47.42538096383214, 726.89], [-121.581578431651, 47.425319105386734, 732.66], [-121.58137843944132, 47.42531047202647, 735.07], [-121.58118548803031, 47.42533075623214, 740.35], [-121.58092673867941, 47.42531633935869, 745.64], [-121.58071408979595, 47.425358667969704, 747.56], [-121.58041368238628, 47.42543016560376, 752.37], [-121.58017354086041, 47.42552571929991, 757.18], [-121.58000749535859, 47.42553971707821, 768.23], [-121.57999810762703, 47.425437960773706, 774.96], [-121.58004060387611, 47.42527459748089, 786.02], [-121.58012048341334, 47.425032779574394, 796.59], [-121.57991294749081, 47.42494225502014, 800.92], [-121.5795109514147, 47.42493328638375, 797.07], [-121.57948438078165, 47.42476573213935, 802.84], [-121.57951522618532, 47.42460421286523, 813.89], [-121.57950734719634, 47.424576384946704, 815.34], [-121.57895104028285, 47.424685517326, 798.99], [-121.57858181744814, 47.42469884455204, 791.78], [-121.57839423045516, 47.42459365166724, 786.02], [-121.57821686938405, 47.42441595532, 783.61], [-121.57804596237838, 47.424331633374095, 787.46], [-121.57788561657071, 47.42424588650465, 793.71], [-121.57756115309894, 47.42423322983086, 796.59], [-121.5774199180305, 47.42414857260883, 804.76], [-121.57720844261348, 47.424011025577784, 810.53], [-121.57720366492867, 47.42400222457945, 811.49], [-121.57724817283452, 47.42390734143555, 813.41], [-121.5771968755871, 47.42383534088731, 812.93], [-121.5771920979023, 47.423747247084975, 812.45], [-121.57720148563385, 47.42360919713974, 804.76], [-121.5772407129407, 47.42343074642122, 805.24], [-121.5772682055831, 47.42334240116179, 807.16], [-121.57736074179411, 47.423157999292016, 806.68], [-121.57733467407525, 47.42317828349769, 803.8], [-121.57721791416407, 47.423031935468316, 801.88], [-121.5770472586155, 47.422924814745784, 804.76], [-121.5769434068352, 47.42277519777417, 809.57], [-121.57659052871168, 47.4225992616266, 820.14], [-121.57646404579282, 47.42247805930674, 823.03], [-121.57625902444124, 47.422427516430616, 820.62], [-121.57600295729935, 47.42239139042795, 821.1], [-121.5756999514997, 47.42222492583096, 826.87], [-121.57564991153777, 47.42209349758923, 834.08], [-121.57544162124395, 47.422058545053005, 839.85], [-121.57523358240724, 47.422157702967525, 837.45], [-121.57521095126867, 47.422094168141484, 829.27], [-121.57515906728804, 47.42204764857888, 823.51], [-121.57502051442862, 47.42195192724466, 825.43], [-121.57490978948772, 47.42178470827639, 827.83], [-121.57466730102897, 47.42167767137289, 830.24], [-121.57447342760861, 47.421553786844015, 833.12], [-121.57429313287139, 47.42141079157591, 837.45], [-121.57412054948509, 47.421336779370904, 844.66], [-121.573914187029, 47.42117886431515, 848.5], [-121.5738317091018, 47.421067636460066, 851.38], [-121.57367857173085, 47.42101709358394, 856.19], [-121.57340666279197, 47.42089496925473, 856.67], [-121.57319845631719, 47.42061543278396, 861.48], [-121.5730164013803, 47.4204633012414, 862.92], [-121.57284574583173, 47.42036389186978, 863.4], [-121.57262966036797, 47.42027814500034, 862.92], [-121.57248959876597, 47.42016683332622, 866.29], [-121.57237099483609, 47.4200486484915, 872.05], [-121.57229907810688, 47.41988779976964, 876.38], [-121.5721733495593, 47.41971094161272, 879.26], [-121.5719907078892, 47.4195790104568, 881.67], [-121.57172122970223, 47.4195737298578, 880.22], [-121.5716037992388, 47.419516230002046, 885.03], [-121.57162483781576, 47.41947926580906, 877.34], [-121.57149399630725, 47.419313890859485, 880.22], [-121.57144412398338, 47.419027062132955, 883.11], [-121.5712737198919, 47.41884735412896, 880.71], [-121.57116483896971, 47.418673262000084, 889.36], [-121.57078614458442, 47.41861232556403, 891.76], [-121.57061398029327, 47.41849824786186, 893.68], [-121.57055446878076, 47.41844778880477, 896.09], [-121.57042999751866, 47.41837059147656, 894.64], [-121.5703949611634, 47.41824586875737, 892.24], [-121.57019153237343, 47.41807873360813, 894.64], [-121.5699929650873, 47.41797337308526, 897.53], [-121.56976799480617, 47.41789257153869, 903.78], [-121.56955098733306, 47.41780917160213, 908.58], [-121.56914773397148, 47.41784479469061, 910.99], [-121.56854951754212, 47.417805986478925, 920.12], [-121.56828003935516, 47.41775209084153, 920.12], [-121.5681260637939, 47.417684616521, 918.2], [-121.5679342020303, 47.417611023411155, 920.6], [-121.56772918067873, 47.41756492294371, 923.0], [-121.56742315739393, 47.41753156296909, 925.41], [-121.56717899255455, 47.41757204756141, 926.37], [-121.56691621989012, 47.41758730262518, 931.65], [-121.56675931066275, 47.4175913259387, 935.02], [-121.56659619882703, 47.41757464595139, 939.35], [-121.56637039035559, 47.41758646443486, 940.79], [-121.56619026325643, 47.417569952085614, 943.19], [-121.56600292772055, 47.41756525821984, 945.11], [-121.56585833989084, 47.41752435453236, 948.96], [-121.56562088057399, 47.41750566288829, 951.84], [-121.56540437601507, 47.41751848720014, 957.13], [-121.56520027667284, 47.417465848848224, 961.46], [-121.5650159586221, 47.41738689132035, 963.38], [-121.56479509547353, 47.41737674921751, 966.26], [-121.56456132419407, 47.4174324888736, 972.99], [-121.5643991343677, 47.41747649386525, 976.84], [-121.5642183367163, 47.4175204988569, 981.16], [-121.56402236782014, 47.41761211305857, 986.93], [-121.56392849050462, 47.41766634397209, 992.22], [-121.56380468979478, 47.41771537810564, 997.02], [-121.56353722326458, 47.41781009361148, 998.47], [-121.56332943588495, 47.41786382161081, 999.91], [-121.56299625523388, 47.417994160205126, 1000.87], [-121.56279156915843, 47.418044954538345, 1002.31], [-121.56285108067095, 47.41806037724018, 1000.87], [-121.56288377009332, 47.41808091290295, 996.06], [-121.56291495077312, 47.41806163452566, 992.7], [-121.56304855830967, 47.41800966672599, 985.97], [-121.56296012923121, 47.41806901060045, 982.6], [-121.56283909454942, 47.418011762201786, 990.3], [-121.56268704682589, 47.41791034117341, 1002.31], [-121.56249065883458, 47.41787530481815, 1008.08], [-121.5624632500112, 47.41784923709929, 1014.81], [-121.56233249232173, 47.41783549077809, 1020.58], [-121.56205086037517, 47.41766709834337, 1026.83], [-121.56184860505164, 47.4175931699574, 1026.83], [-121.56172002665699, 47.417561737820506, 1018.17], [-121.56165012158453, 47.41735026240349, 1020.1], [-121.56159513629973, 47.41715890355408, 1025.86], [-121.56149765476584, 47.417032001540065, 1029.23], [-121.56135239638388, 47.41692228242755, 1033.07], [-121.56111175194383, 47.41679051890969, 1044.61], [-121.56086767092347, 47.41673025302589, 1044.13], [-121.56068863347173, 47.41666772402823, 1047.49], [-121.56053080223501, 47.41661726497114, 1049.9], [-121.56041194684803, 47.41656613536179, 1056.15], [-121.56021371483803, 47.416443256661296, 1051.82], [-121.55989746563137, 47.41641861386597, 1048.94], [-121.55965028330684, 47.416426073759794, 1051.34], [-121.55962463468313, 47.41638449952006, 1058.55], [-121.55952312983572, 47.41628550924361, 1065.28], [-121.55959965661168, 47.41628450341523, 1072.97], [-121.55962413176894, 47.41614393889904, 1079.7], [-121.55954693444073, 47.41583447903395, 1068.64], [-121.55942162498832, 47.41570849902928, 1067.68], [-121.55930377542973, 47.41551160812378, 1075.37], [-121.55920319259167, 47.415420580655336, 1081.62], [-121.5591393224895, 47.41529619321227, 1087.39], [-121.5590700879693, 47.41518722847104, 1096.52], [-121.55888333916664, 47.415077509358525, 1099.89], [-121.55866675078869, 47.41496770642698, 1097.96], [-121.55843029730022, 47.414894783869386, 1093.16], [-121.5579479187727, 47.41481917910278, 1084.02], [-121.55786032788455, 47.414835691452026, 1084.02], [-121.55791791155934, 47.414899645373225, 1084.5], [-121.55803509056568, 47.41498354822397, 1084.5], [-121.55815964564681, 47.415127800777555, 1085.47], [-121.55827674083412, 47.4152428843081, 1087.39], [-121.55824849382043, 47.4152896553278, 1084.5], [-121.5581273753196, 47.415307592600584, 1080.18], [-121.55817909166217, 47.41538328118622, 1078.26], [-121.5582965221256, 47.41553180851042, 1081.14], [-121.5582568757236, 47.41554429754615, 1081.62], [-121.55817716382444, 47.415463579818606, 1083.06], [-121.55806400813162, 47.41539786569774, 1086.43], [-121.55773024074733, 47.41526400670409, 1084.99], [-121.55762370675802, 47.41523005999625, 1086.43], [-121.55747216194868, 47.41521639749408, 1088.35], [-121.55730536207557, 47.41516434587538, 1091.71], [-121.55723696574569, 47.41513039916754, 1095.56], [-121.55716496519744, 47.41505462676287, 1097.0], [-121.55699296854436, 47.41501908749342, 1097.96], [-121.5568323712796, 47.414991427212954, 1097.96], [-121.55671259388328, 47.414975920692086, 1099.89], [-121.55665861442685, 47.414949936792254, 1100.85], [-121.5565493144095, 47.41494381800294, 1101.81], [-121.5564642380923, 47.41488086991012, 1102.77], [-121.55645132996142, 47.41493325680494, 1104.69], [-121.55664562247694, 47.41508547216654, 1109.98], [-121.55684947036207, 47.41522058844566, 1114.31], [-121.55692876316607, 47.41528001613915, 1115.75], [-121.55701920390129, 47.4153567943722, 1117.67], [-121.55710109509528, 47.415433740243316, 1119.59], [-121.55719958245754, 47.41550666280091, 1121.03], [-121.55722791329026, 47.41553750820458, 1122.48], [-121.55734777450562, 47.41563616320491, 1123.92], [-121.55743343755603, 47.41573138162494, 1125.36], [-121.55747408978641, 47.41582207381725, 1127.76], [-121.55747333541512, 47.41584009490907, 1128.24], [-121.55742907896638, 47.415950903669, 1129.69], [-121.5574124827981, 47.416030783206224, 1131.61], [-121.5573572460562, 47.416174532845616, 1135.45], [-121.55727200210094, 47.41632029414177, 1138.34], [-121.5572671405971, 47.41644451394677, 1140.26], [-121.55724266543984, 47.416567308828235, 1142.18], [-121.55726638622582, 47.416640650480986, 1143.63], [-121.55726018361747, 47.416721284389496, 1143.63], [-121.55727007426322, 47.41685698740184, 1144.59], [-121.55733034014702, 47.41689587943256, 1146.99], [-121.55728683806956, 47.41693317890167, 1143.14], [-121.55732749029994, 47.41697601042688, 1143.14], [-121.55732749029994, 47.41708220914006, 1145.07], [-121.55737585388124, 47.41717114113271, 1148.91], [-121.5573952998966, 47.41724322549999, 1152.76], [-121.55748297460377, 47.41735420189798, 1158.53], [-121.55758556909859, 47.41743299178779, 1160.93], [-121.55761926434934, 47.41749753244221, 1164.29], [-121.55773552134633, 47.41764354519546, 1164.77], [-121.55783618800342, 47.417786456644535, 1164.29], [-121.55787759460509, 47.41786348633468, 1165.26], [-121.557961916551, 47.41793816909194, 1167.18], [-121.5581030678004, 47.41800966672599, 1168.62], [-121.55821312218904, 47.41811695508659, 1167.18], [-121.55830272473395, 47.418218879029155, 1168.14], [-121.55831865034997, 47.41827151738107, 1170.54], [-121.5583176445216, 47.41843219846487, 1178.71], [-121.558334575966, 47.41848986595869, 1182.08], [-121.55826265923679, 47.41861307993531, 1186.88], [-121.55821781605482, 47.418743167072535, 1186.88], [-121.55816551297903, 47.418785160407424, 1185.92], [-121.55815218575299, 47.41887543350458, 1184.96], [-121.55811622738838, 47.418938130140305, 1184.48], [-121.55812259763479, 47.418971322476864, 1184.0], [-121.55811664648354, 47.41909822449088, 1185.92], [-121.55812251381576, 47.419173158705235, 1187.85], [-121.5581429656595, 47.41924482397735, 1189.29], [-121.55821924097836, 47.41937038488686, 1195.54], [-121.55821270309389, 47.41940651088953, 1196.02], [-121.55829803086817, 47.41948513314128, 1197.94], [-121.55832024291158, 47.4195737298578, 1199.38], [-121.5583758149296, 47.419643299654126, 1204.19], [-121.55839014798403, 47.419723849743605, 1206.11], [-121.55841386877, 47.41977573372424, 1207.55], [-121.55844085849822, 47.41986474953592, 1209.48], [-121.55845452100039, 47.41994043812156, 1212.36], [-121.55841537751257, 47.42003297433257, 1211.88], [-121.5584276150912, 47.42015124298632, 1210.92], [-121.55841998755932, 47.42022634483874, 1211.88], [-121.55843390151858, 47.42029423825443, 1214.28], [-121.55842920765281, 47.42033254355192, 1217.65], [-121.55840951018035, 47.420327346771955, 1217.65], [-121.55836374498904, 47.4202629737556, 1218.61], [-121.55831462703645, 47.42022139951587, 1221.01], [-121.55819711275399, 47.42010631598532, 1224.38], [-121.5580499265343, 47.419997937977314, 1226.78], [-121.55799938365817, 47.41994705982506, 1227.26], [-121.55793408863246, 47.41985854692757, 1228.7], [-121.55786099843681, 47.41978520527482, 1232.07], [-121.55775915831327, 47.4197291303426, 1235.91], [-121.55750359408557, 47.41964925080538, 1241.2], [-121.55739580281079, 47.41959719918668, 1243.6], [-121.55730469152331, 47.419502567499876, 1244.56], [-121.5571706648916, 47.41940692998469, 1243.6], [-121.55710528604686, 47.41932897828519, 1244.56], [-121.55707159079611, 47.419312968850136, 1245.04], [-121.557005206123, 47.4192338436842, 1246.01], [-121.55691686086357, 47.41907752119005, 1247.45], [-121.55687243677676, 47.41893201135099, 1247.93], [-121.55680219642818, 47.4187536444515, 1251.77], [-121.55674075707793, 47.418693881481886, 1253.22], [-121.55666733160615, 47.41867166943848, 1254.18], [-121.55669155530632, 47.41866144351661, 1256.1], [-121.55667839571834, 47.418634286150336, 1251.77], [-121.55663657002151, 47.418650379404426, 1253.7], [-121.55665014870465, 47.41868105717003, 1253.22], [-121.55667688697577, 47.418821034953, 1256.58], [-121.55663807876408, 47.41892681457102, 1256.58], [-121.55661427415907, 47.419054470956326, 1258.5], [-121.55660840682685, 47.4191162455827, 1260.91], [-121.55671142041683, 47.4194442294538, 1269.56], [-121.55672566965222, 47.419511368498206, 1270.52], [-121.55674897134304, 47.419674061238766, 1271.48], [-121.55678174458444, 47.41976173594594, 1272.44], [-121.55682080425322, 47.4199106823653, 1274.36], [-121.55687042512, 47.42000011727214, 1275.33], [-121.5569217223674, 47.42013255134225, 1278.21], [-121.55692046508193, 47.42027638480067, 1281.09], [-121.55693085864186, 47.42034184746444, 1282.54], [-121.55691292136908, 47.420428935438395, 1283.02], [-121.5569011028856, 47.420526752248406, 1282.06], [-121.55690361745656, 47.4206876847893, 1280.61], [-121.55697511509061, 47.42086454294622, 1282.06], [-121.55708173289895, 47.42103989236057, 1287.34], [-121.55714702792466, 47.42119546048343, 1293.11], [-121.55720720998943, 47.4212315864861, 1294.55], [-121.55730804428458, 47.421371061354876, 1298.88], [-121.55735959298909, 47.421433087438345, 1301.76], [-121.55738331377506, 47.42147742770612, 1304.17], [-121.55749663710594, 47.42157398723066, 1307.53], [-121.55758908949792, 47.421717988327146, 1310.9], [-121.55774524435401, 47.421844471246004, 1312.34], [-121.55783610418439, 47.42201713845134, 1307.05], [-121.55804665759206, 47.42214563302696, 1302.24], [-121.55795261263847, 47.42217647843063, 1299.84], [-121.55766653828323, 47.42215543985367, 1296.48], [-121.55732338316739, 47.422170946374536, 1294.55], [-121.55705901794136, 47.422273959964514, 1287.34], [-121.55707410536706, 47.42226012982428, 1286.86], [-121.55717854388058, 47.422231966629624, 1286.86], [-121.55735322274268, 47.42226633243263, 1291.67], [-121.55751968733966, 47.4222850240767, 1294.55], [-121.55770174227655, 47.422301368787885, 1295.99], [-121.55787097290158, 47.42226189002395, 1297.92], [-121.55798161402345, 47.42221746593714, 1298.88], [-121.55803022906184, 47.42220749147236, 1304.17], [-121.55801195651293, 47.422169437631965, 1307.05], [-121.55797650106251, 47.42213205434382, 1308.49], [-121.55794498510659, 47.42202937602997, 1307.05], [-121.55788756906986, 47.42196877487004, 1307.05], [-121.55784289352596, 47.42195603437722, 1306.57], [-121.55762705951929, 47.4217464029789, 1303.69], [-121.55752035789192, 47.42161371745169, 1300.8], [-121.55745774507523, 47.42152579128742, 1299.36], [-121.55740728601813, 47.4214940238744, 1297.44], [-121.55736847780645, 47.4214200116694, 1295.99], [-121.55719279311597, 47.421229826286435, 1291.67], [-121.55715968459845, 47.42115187458694, 1289.27], [-121.55709757469594, 47.42105950601399, 1286.38], [-121.55706312507391, 47.420939058065414, 1285.42], [-121.55701744370162, 47.420872170478106, 1283.98], [-121.55698768794537, 47.420810647308826, 1283.98], [-121.55695357359946, 47.42069388739765, 1283.5], [-121.55693555250764, 47.42047713138163, 1280.13], [-121.55694795772433, 47.42028686217964, 1280.13], [-121.55696656554937, 47.4201625585556, 1278.69], [-121.55694737099111, 47.42009307257831, 1277.73], [-121.55690596438944, 47.419978491961956, 1275.81], [-121.55689112842083, 47.41990674287081, 1274.85], [-121.55684368684888, 47.41979928687215, 1274.36], [-121.55679767020047, 47.41973835043609, 1273.4], [-121.55675894580781, 47.41951220668852, 1268.6], [-121.55675869435072, 47.419447330757976, 1269.08], [-121.55670270323753, 47.41930425167084, 1267.64], [-121.55668116174638, 47.419193191453815, 1265.23], [-121.55666749924421, 47.41906595416367, 1263.31], [-121.55670857056975, 47.41891214624047, 1259.94], [-121.5567237418145, 47.418738724663854, 1255.14], [-121.55667118728161, 47.41866638883948, 1255.14], [-121.55658602714539, 47.41862431168556, 1257.06], [-121.55656716786325, 47.41863797418773, 1258.5], [-121.55661704018712, 47.41867988370359, 1258.98], [-121.55655803158879, 47.418661527335644, 1258.5], [-121.55651846900582, 47.41867309436202, 1258.5], [-121.55654252506793, 47.41872237995267, 1258.02], [-121.55651570297778, 47.41873746737838, 1258.02], [-121.55645619146526, 47.41872690618038, 1260.91], [-121.55636415816844, 47.418751968070865, 1266.67], [-121.55634630471468, 47.41874819621444, 1266.67], [-121.55632300302386, 47.41878784261644, 1269.08], [-121.5562813449651, 47.41879966109991, 1271.96], [-121.55626743100584, 47.41883025504649, 1272.92], [-121.55629291199148, 47.41885858587921, 1274.36], [-121.55629819259048, 47.41888850927353, 1275.33], [-121.55624253675342, 47.41891331970692, 1277.73], [-121.55621068552136, 47.41896319203079, 1280.13], [-121.55615930445492, 47.4189434107393, 1282.54], [-121.55612703412771, 47.41901348344982, 1285.9], [-121.55607380904257, 47.41906209848821, 1290.71], [-121.55606433749199, 47.41912219673395, 1294.07], [-121.55599929392338, 47.419164860621095, 1299.36], [-121.55597163364291, 47.41922437213361, 1303.69], [-121.55592494644225, 47.41927793249488, 1306.09], [-121.55588630586863, 47.419299306347966, 1308.49], [-121.55578798614442, 47.419286984950304, 1314.74], [-121.55568572692573, 47.419298719614744, 1320.99], [-121.55564029701054, 47.41931447759271, 1323.39], [-121.55559998005629, 47.4193112924695, 1325.31], [-121.55556351877749, 47.41932487115264, 1328.2], [-121.55551373027265, 47.41939024999738, 1331.08], [-121.55545614659786, 47.419377928599715, 1335.41], [-121.55538364313543, 47.41937725804746, 1340.22], [-121.5553624369204, 47.41942218504846, 1341.66], [-121.55537157319486, 47.419454203918576, 1343.58], [-121.55534910969436, 47.41957850754261, 1349.35], [-121.5552627760917, 47.41958420723677, 1355.12], [-121.55519261956215, 47.41959711536765, 1358.0], [-121.5551470220089, 47.41964883171022, 1358.96], [-121.55508868396282, 47.41964832879603, 1362.81], [-121.5550791285932, 47.41963525302708, 1363.77], [-121.55505297705531, 47.419702392071486, 1366.17], [-121.5550053678453, 47.41969241760671, 1369.05], [-121.55488517135382, 47.41968956775963, 1375.78], [-121.55484954826534, 47.4197188206017, 1377.23], [-121.55477721244097, 47.419719910249114, 1380.59], [-121.55473287217319, 47.4197655916214, 1381.07], [-121.55463798902929, 47.419755198061466, 1384.44], [-121.554573783651, 47.41972695104778, 1389.24], [-121.55450195074081, 47.41975620388985, 1392.13], [-121.5544804930687, 47.41975327022374, 1393.57], [-121.55442014336586, 47.419785372912884, 1395.01], [-121.55436222441494, 47.41979576647282, 1395.97], [-121.5543314628303, 47.419831892475486, 1398.86], [-121.55428100377321, 47.419827952980995, 1400.3], [-121.55424538068473, 47.41978855803609, 1402.7], [-121.55421369709074, 47.41978604346514, 1402.7], [-121.55413381755352, 47.41974757052958, 1405.1], [-121.55409735627472, 47.41974111646414, 1405.58], [-121.55404463410378, 47.419708175584674, 1407.99], [-121.55388789251447, 47.4196670204401, 1412.79], [-121.55379066243768, 47.41963458247483, 1416.16], [-121.55362268909812, 47.419662829488516, 1420.0], [-121.55347776599228, 47.41969241760671, 1422.89], [-121.55344482511282, 47.41965536959469, 1424.33], [-121.55331708490849, 47.41960197687149, 1424.81], [-121.5533403865993, 47.41958110593259, 1424.81], [-121.55333166942, 47.41952980868518, 1423.37], [-121.55319470912218, 47.419424364343286, 1426.25], [-121.55318481847644, 47.419400895014405, 1427.7], [-121.55309504829347, 47.419358398765326, 1430.1], [-121.55295833945274, 47.41930835880339, 1431.54], [-121.55287435278296, 47.419219594448805, 1435.39], [-121.55270612798631, 47.41918128915131, 1439.23], [-121.55266229063272, 47.41912605240941, 1440.19], [-121.55254771001637, 47.41911373101175, 1442.6], [-121.55253019183874, 47.41907224059105, 1443.08], [-121.55240446329117, 47.41895413957536, 1444.04], [-121.55227236449718, 47.418855065479875, 1445.48], [-121.55217882245779, 47.41881131194532, 1446.92], [-121.55204588547349, 47.41878314875066, 1449.32], [-121.55196541920304, 47.41879127919674, 1452.21], [-121.55186642892659, 47.418755823746324, 1454.61], [-121.55176333151758, 47.41874534636736, 1458.46], [-121.55174866318703, 47.41870880126953, 1460.86], [-121.55167297460139, 47.418679213151336, 1461.82], [-121.55161254107952, 47.41867711767554, 1460.86], [-121.55152637511492, 47.4187433347106, 1454.61], [-121.55157725326717, 47.41874425671995, 1456.05], [-121.55155914835632, 47.418726151809096, 1458.94], [-121.5514874830842, 47.41874132305384, 1460.86], [-121.55147097073495, 47.418733946979046, 1460.86], [-121.55153316445649, 47.41871173493564, 1460.38], [-121.55153500847518, 47.4187414906919, 1460.38], [-121.55157105065882, 47.4187499564141, 1462.3], [-121.55152092687786, 47.418651301413774, 1457.98], [-121.55152335762978, 47.418627915903926, 1458.46], [-121.55146988108754, 47.41857930086553, 1463.26], [-121.55138581059873, 47.41858206689358, 1467.59], [-121.55134851112962, 47.41853529587388, 1473.36], [-121.55125111341476, 47.418507132679224, 1478.65], [-121.55122588388622, 47.41847125813365, 1480.57], [-121.55115321278572, 47.418443178758025, 1481.53], [-121.55103452503681, 47.41846488788724, 1481.05], [-121.55098431743681, 47.41849221289158, 1479.13], [-121.55083386227489, 47.418507132679224, 1483.45], [-121.55084232799709, 47.418489111587405, 1485.85], [-121.55078415758908, 47.418466564267874, 1487.3], [-121.55067276209593, 47.41848265752196, 1490.18], [-121.55059397220612, 47.418384589254856, 1495.47], [-121.55052976682782, 47.41839146241546, 1497.39], [-121.55051400884986, 47.41836179047823, 1498.35], [-121.55044167302549, 47.4183944799006, 1498.35], [-121.55039272271097, 47.41839707829058, 1500.76], [-121.55031024478376, 47.41836003027856, 1504.6], [-121.55021326616406, 47.41833706386387, 1509.41], [-121.55013212934136, 47.41835491731763, 1509.89], [-121.5500907227397, 47.418390456587076, 1510.37], [-121.55003816820681, 47.41840587928891, 1512.77], [-121.54997245408595, 47.41843898780644, 1515.66], [-121.54992258176208, 47.41851769387722, 1516.62], [-121.54987505637109, 47.41851274855435, 1518.06], [-121.54986139386892, 47.418485172092915, 1519.02], [-121.54983532615006, 47.41848014295101, 1519.5], [-121.54986818321049, 47.4185290094465, 1516.62], [-121.54979643411934, 47.41848533973098, 1517.58], [-121.54981629922986, 47.41845952346921, 1519.98], [-121.54984144493937, 47.41852314211428, 1518.54], [-121.54971060343087, 47.41853730753064, 1521.9], [-121.54959669336677, 47.41853781044483, 1524.79], [-121.54953232035041, 47.41852884180844, 1526.71], [-121.54942193068564, 47.418494056910276, 1529.59], [-121.54931640252471, 47.41848399862647, 1532.0], [-121.54917826876044, 47.418451979756355, 1535.84], [-121.5491337608546, 47.418446615338326, 1537.29], [-121.54906511306763, 47.418420212343335, 1539.21], [-121.54898414388299, 47.41839992813766, 1541.61], [-121.54886377975345, 47.41835550405085, 1543.53], [-121.54869329184294, 47.4183355551213, 1544.5], [-121.5486070420593, 47.41831066086888, 1546.9], [-121.54859639704227, 47.4182995967567, 1547.38], [-121.54852699488401, 47.41829783655703, 1548.82], [-121.54847871512175, 47.418262800201774, 1549.78], [-121.54839397408068, 47.418257519602776, 1552.19], [-121.54836857691407, 47.418225668370724, 1554.11], [-121.5482666529715, 47.4182097427547, 1555.55], [-121.54810605570674, 47.418228602036834, 1557.47], [-121.54806875623763, 47.41826053708792, 1558.43], [-121.54798904433846, 47.41825902834535, 1558.92], [-121.54795886948705, 47.41824452765286, 1559.4], [-121.54790765605867, 47.41826028563082, 1561.8], [-121.54775041155517, 47.41823270916939, 1564.2], [-121.54768352396786, 47.41817076690495, 1566.61], [-121.5476606413722, 47.418102622032166, 1568.05], [-121.54768503271043, 47.4180958326906, 1568.53], [-121.54769450426102, 47.4180284421891, 1569.01], [-121.54763390310109, 47.41799047216773, 1569.01], [-121.54765921644866, 47.417980916798115, 1569.49], [-121.54765108600259, 47.41794839501381, 1564.2], [-121.54760372824967, 47.417940851300955, 1563.72], [-121.54756148345768, 47.417910508811474, 1563.72], [-121.54756248928607, 47.41783959791064, 1560.36], [-121.54747255146503, 47.417746894061565, 1557.47], [-121.54745327308774, 47.41768713109195, 1556.99], [-121.54747422784567, 47.417642287909985, 1555.07], [-121.54742971993983, 47.41759861819446, 1555.07], [-121.54743885621428, 47.417592499405146, 1555.07], [-121.54730751179159, 47.41747993044555, 1550.26], [-121.54730709269643, 47.41745009087026, 1549.3], [-121.54725453816354, 47.41741396486759, 1548.82], [-121.5472052525729, 47.41740558296442, 1548.34], [-121.54717918485403, 47.417308520525694, 1547.38], [-121.54715546406806, 47.41725496016443, 1544.98], [-121.54713870026171, 47.41714063100517, 1544.98], [-121.54709033668041, 47.41714172065258, 1544.5], [-121.54700593091547, 47.417082795873284, 1544.98], [-121.54703501611948, 47.417037868872285, 1546.42], [-121.54701322317123, 47.416950445622206, 1546.42], [-121.54694993980229, 47.4168885871768, 1545.94], [-121.54686771333218, 47.41682589054108, 1545.46], [-121.54661181382835, 47.41668272763491, 1545.94], [-121.54649413190782, 47.416608883067966, 1547.38], [-121.54638642445207, 47.41657527163625, 1548.34], [-121.54622247442603, 47.41649178788066, 1548.82], [-121.54615332372487, 47.4164276663214, 1549.78], [-121.54606187716126, 47.41639128886163, 1547.86], [-121.54603597708046, 47.41634242236614, 1545.46], [-121.54597319662571, 47.41631979122758, 1545.46], [-121.54593304730952, 47.41628710180521, 1544.98], [-121.54572241008282, 47.41615508683026, 1537.77], [-121.54555485583842, 47.41601971909404, 1532.0], [-121.54543499462306, 47.415930200368166, 1529.11], [-121.54523776844144, 47.4158007837832, 1522.87], [-121.54513224028051, 47.41575049236417, 1520.94], [-121.5451116207987, 47.415703888982534, 1519.98], [-121.54506107792258, 47.41565820761025, 1519.02], [-121.54501732438803, 47.415643287822604, 1518.54], [-121.54495261609554, 47.41559651680291, 1517.58], [-121.54487843625247, 47.415583776310086, 1516.62], [-121.54479897581041, 47.41551370359957, 1515.66], [-121.54471163637936, 47.415402475744486, 1514.21], [-121.54465908184648, 47.415348663926125, 1514.21], [-121.54452798888087, 47.415344305336475, 1515.66], [-121.5443834848702, 47.41526157595217, 1515.18], [-121.544382981956, 47.41522670723498, 1517.1], [-121.54433595947921, 47.415258307009935, 1518.06], [-121.54421634972095, 47.41523307748139, 1516.62], [-121.54405424371362, 47.41515696980059, 1515.18], [-121.54389448463917, 47.41512805223465, 1515.18], [-121.5437703486532, 47.41507231257856, 1514.21], [-121.54367781244218, 47.41501313634217, 1516.14], [-121.5435649920255, 47.41492328234017, 1524.79], [-121.54346910305321, 47.41490366868675, 1529.59], [-121.54337665066123, 47.41490819491446, 1531.52], [-121.54341822490096, 47.41489905864, 1529.11], [-121.54329760931432, 47.41489637643099, 1530.08], [-121.54302989132702, 47.414858657866716, 1532.48], [-121.54288387857378, 47.4148300755769, 1532.96], [-121.5428511891514, 47.41483099758625, 1533.44], [-121.54275303706527, 47.41480275057256, 1535.84], [-121.54252052307129, 47.414805768057704, 1536.32], [-121.54243829660118, 47.41479378193617, 1536.32], [-121.54242128133774, 47.41472597233951, 1535.84], [-121.54240988194942, 47.41471993736923, 1535.84], [-121.54229982756078, 47.414717925712466, 1535.84], [-121.54211425222456, 47.41466830484569, 1538.25], [-121.54197016730905, 47.414679285138845, 1543.05], [-121.54187352396548, 47.414675848558545, 1548.82], [-121.54173019342124, 47.41468456573784, 1553.15], [-121.54156942851841, 47.41469906643033, 1557.95], [-121.5414562728256, 47.41467056795955, 1561.32], [-121.5413127746433, 47.414717841893435, 1564.2], [-121.54123918153346, 47.41471038199961, 1568.53], [-121.54112418182194, 47.41467475891113, 1571.41], [-121.54101052321494, 47.41475572809577, 1575.74], [-121.54097640886903, 47.41486385464668, 1578.62], [-121.54086442664266, 47.41486611776054, 1577.66], [-121.54076007194817, 47.41490492597222, 1573.82], [-121.54068203642964, 47.41490584798157, 1570.45], [-121.54054457321763, 47.41493015550077, 1567.57], [-121.54038045555353, 47.41492227651179, 1566.61], [-121.54020695015788, 47.41492344997823, 1564.68], [-121.54010385274887, 47.4149423930794, 1563.24], [-121.54007744975388, 47.41494046524167, 1562.28], [-121.53991718776524, 47.4149891640991, 1559.4], [-121.5398467797786, 47.41502847522497, 1558.92], [-121.53974996879697, 47.41506066173315, 1559.4], [-121.53956766240299, 47.41509050130844, 1564.2], [-121.53950211592019, 47.4150824546814, 1564.2], [-121.53941611759365, 47.41508228704333, 1562.76], [-121.53933875262737, 47.415122939273715, 1562.28], [-121.5392735414207, 47.4151305668056, 1562.76], [-121.53916323557496, 47.415247075259686, 1563.24], [-121.53914529830217, 47.41530138999224, 1564.2], [-121.539017977193, 47.41533734835684, 1567.57], [-121.53894404880702, 47.41533416323364, 1570.45], [-121.53889627195895, 47.41536668501794, 1572.85], [-121.53881513513625, 47.415400464087725, 1575.74], [-121.53881505131721, 47.415428292006254, 1576.7], [-121.53875377960503, 47.415441954508424, 1578.14], [-121.53871924616396, 47.41549249738455, 1579.1], [-121.5386448148638, 47.41554161533713, 1581.51], [-121.53855211101472, 47.41556290537119, 1583.43], [-121.53846686705947, 47.415646221488714, 1583.91], [-121.5383963752538, 47.415658039972186, 1585.35], [-121.53822848573327, 47.41561311297119, 1590.16], [-121.53831733390689, 47.41567153483629, 1589.68], [-121.53834692202508, 47.415681509301066, 1589.2], [-121.53845580294728, 47.415686789900064, 1586.31], [-121.53850760310888, 47.41562065668404, 1584.39], [-121.53860047459602, 47.4155743047595, 1583.43], [-121.53867172077298, 47.41554924286902, 1583.43], [-121.53875168412924, 47.41549559868872, 1581.51], [-121.53879191726446, 47.415457712486386, 1581.03], [-121.53884069994092, 47.415439607575536, 1579.58], [-121.5388189908117, 47.41540255956352, 1579.1], [-121.53886207379401, 47.41537808440626, 1577.66], [-121.53888571076095, 47.41539208218455, 1575.74], [-121.5389075037092, 47.41536886431277, 1574.78], [-121.53896768577397, 47.41534388624132, 1572.37], [-121.53900850564241, 47.415341790765524, 1572.37], [-121.53915518894792, 47.41527163423598, 1569.49], [-121.53920673765242, 47.41521782241762, 1564.2], [-121.53925652615726, 47.41518362425268, 1559.4], [-121.53936306014657, 47.41513350047171, 1561.32], [-121.53943631798029, 47.415107851848006, 1561.32], [-121.53953522443771, 47.41510592401028, 1562.28], [-121.53968023136258, 47.41508815437555, 1559.88], [-121.53974410146475, 47.415067283436656, 1559.88], [-121.53984267264605, 47.41505035199225, 1558.43], [-121.53994702734053, 47.41500307805836, 1556.03], [-121.54012774117291, 47.41496351547539, 1560.84], [-121.54017115943134, 47.41492579691112, 1563.72], [-121.54023150913417, 47.4149563908577, 1565.16], [-121.54032547026873, 47.414954295381904, 1565.16], [-121.54037182219326, 47.4149664491415, 1565.64], [-121.54050744138658, 47.414947003126144, 1568.53], [-121.5406898315996, 47.41493308916688, 1569.97], [-121.54075613245368, 47.41490392014384, 1572.37], [-121.54080357402563, 47.414904339239, 1572.37], [-121.54083400033414, 47.41492445580661, 1572.37], [-121.54092066921294, 47.41490853019059, 1574.78], [-121.54102217406034, 47.41487307474017, 1576.22], [-121.54108688235283, 47.41478665731847, 1574.3], [-121.54110406525433, 47.414728570729494, 1569.97], [-121.54127363115549, 47.41474416106939, 1561.8], [-121.54133901000023, 47.41473561152816, 1556.51], [-121.54141243547201, 47.41475757211447, 1550.74], [-121.54152860864997, 47.41471214219928, 1549.3], [-121.54166305437684, 47.41471868008375, 1548.82], [-121.54172273352742, 47.41468783468008, 1546.42], [-121.54172248207033, 47.41471557877958, 1550.74], [-121.54185592196882, 47.414722703397274, 1545.94], [-121.5419483743608, 47.414714992046356, 1541.61], [-121.54202339239419, 47.41469806060195, 1538.25], [-121.5421230532229, 47.41471256129444, 1535.84], [-121.54224819503725, 47.41474902257323, 1533.44], [-121.5423648711294, 47.414743322879076, 1530.56], [-121.54243536293507, 47.41476176306605, 1529.11], [-121.54259185306728, 47.41478556767106, 1527.67], [-121.54268472455442, 47.41481062956154, 1528.15], [-121.54271565377712, 47.41480886936188, 1529.11], [-121.54289276339114, 47.41485195234418, 1530.08], [-121.54297599568963, 47.41487835533917, 1529.59], [-121.54336181469262, 47.414914732798934, 1526.23], [-121.54348284937441, 47.414915235713124, 1525.75], [-121.54352568089962, 47.41492856293917, 1523.83], [-121.54361008666456, 47.41500877775252, 1521.9], [-121.5437806583941, 47.415089663118124, 1516.14], [-121.54392801225185, 47.415165519341826, 1512.29], [-121.54398534446955, 47.41517306305468, 1511.81], [-121.54408835805953, 47.415201645344496, 1512.29], [-121.54431458562613, 47.415277836844325, 1512.29], [-121.54441298916936, 47.41533198393881, 1513.73], [-121.54444291256368, 47.41533474996686, 1514.21], [-121.54454810544848, 47.415390154346824, 1516.14], [-121.54466721229255, 47.41540364921093, 1518.06], [-121.54467978514731, 47.41542569361627, 1518.06], [-121.5447682980448, 47.41548872552812, 1517.1], [-121.54481406323612, 47.415545554831624, 1515.18], [-121.54484557919204, 47.41552636027336, 1514.69], [-121.54489545151591, 47.41557212546468, 1514.21], [-121.54498530551791, 47.415638929232955, 1515.18], [-121.54501548036933, 47.41566885262728, 1519.02], [-121.54502503573895, 47.415649155154824, 1519.02], [-121.54518228024244, 47.4157883785665, 1520.94], [-121.54537489637733, 47.415900696069, 1526.71], [-121.54545770958066, 47.415970684960485, 1528.63], [-121.54555862769485, 47.41603497415781, 1530.08], [-121.54569625854492, 47.41614930331707, 1535.36], [-121.54580438509583, 47.41621979512274, 1538.25], [-121.54590354301035, 47.41629397496581, 1540.17], [-121.54596464708447, 47.41631803102791, 1541.13], [-121.54602055437863, 47.416371339932084, 1542.57], [-121.54614410363138, 47.416432024911046, 1545.46], [-121.54624133370817, 47.41650293581188, 1546.42], [-121.54631425626576, 47.416546773165464, 1547.38], [-121.54647921212018, 47.41661257110536, 1545.46], [-121.54653947800398, 47.416652804240584, 1544.98], [-121.54673972167075, 47.41675799712539, 1539.69], [-121.54685597866774, 47.41683879867196, 1538.25], [-121.54696695506573, 47.41690660826862, 1540.17], [-121.54703266918659, 47.416963605210185, 1539.21], [-121.54705211520195, 47.417027642950416, 1540.17], [-121.54702797532082, 47.417068127542734, 1539.69], [-121.54701825231314, 47.417129231616855, 1536.32], [-121.54709503054619, 47.41722394712269, 1537.29], [-121.54707843437791, 47.41725219413638, 1541.13], [-121.54703023843467, 47.41729058325291, 1542.09], [-121.54702629894018, 47.417329559102654, 1541.61], [-121.5470702201128, 47.4173669423908, 1541.61], [-121.54718161560595, 47.41743139922619, 1546.42], [-121.54727591201663, 47.417467357590795, 1545.46], [-121.5472771693021, 47.417474649846554, 1545.94], [-121.54737649485469, 47.417549416422844, 1548.82], [-121.5474349167198, 47.417650585994124, 1548.82], [-121.54745771549642, 47.4176674336195, 1550.74], [-121.54743391089141, 47.41770079359412, 1552.67], [-121.54746609739959, 47.417743457481265, 1555.55], [-121.54743935912848, 47.41781654767692, 1556.03], [-121.5474708750844, 47.417844543233514, 1556.51], [-121.54752485454082, 47.417872454971075, 1560.84], [-121.54757640324533, 47.41791620850563, 1562.76], [-121.54761831276119, 47.417936911806464, 1564.68], [-121.54762183316052, 47.418052749708295, 1566.12], [-121.54764018952847, 47.41812525317073, 1565.64], [-121.5477301273495, 47.418208653107285, 1563.72], [-121.5478699374944, 47.418247712776065, 1559.4], [-121.54792534187436, 47.41821426898241, 1557.95], [-121.54804151505232, 47.418237989768386, 1556.03], [-121.54809784144163, 47.418194990605116, 1554.11], [-121.54819163493812, 47.41821619682014, 1553.15], [-121.54823681339622, 47.418205216526985, 1551.71], [-121.5483601950109, 47.418227177113295, 1549.3], [-121.5483858436346, 47.41825223900378, 1547.86], [-121.54860486276448, 47.418294651433825, 1542.57], [-121.54863579198718, 47.418330358341336, 1546.9], [-121.5486691519618, 47.41831719875336, 1543.05], [-121.54875707812607, 47.41833982989192, 1543.05], [-121.54888339340687, 47.41835550405085, 1541.13], [-121.54896914027631, 47.418371848762035, 1540.17], [-121.54903611168265, 47.418395234271884, 1539.69], [-121.54911624267697, 47.41843647323549, 1535.84], [-121.54931397177279, 47.418495481833816, 1531.52], [-121.54943894594908, 47.4185083899647, 1530.08], [-121.54952771030366, 47.41852942854166, 1528.15], [-121.54960163868964, 47.41853370331228, 1524.79], [-121.54971613548696, 47.41855960339308, 1521.9], [-121.54981353320181, 47.41856312379241, 1519.98], [-121.54987757094204, 47.41855004802346, 1517.58], [-121.54994571581483, 47.41854837164283, 1513.73], [-121.54999047517776, 47.418596148490906, 1511.33], [-121.55006364919245, 47.418633699417114, 1510.37], [-121.5501737035811, 47.41867745295167, 1507.48], [-121.55026087537408, 47.418680218979716, 1504.12], [-121.55032608658075, 47.41866588592529, 1502.2], [-121.55034092254937, 47.418681140989065, 1501.72], [-121.55042566359043, 47.41867217235267, 1497.87], [-121.55044427141547, 47.41869765333831, 1496.91], [-121.55047654174268, 47.41861442103982, 1494.03], [-121.55057762749493, 47.41863093338907, 1490.66], [-121.55058081261814, 47.418613750487566, 1487.78], [-121.55063143931329, 47.41855876520276, 1487.3], [-121.55064158141613, 47.41851031780243, 1485.85], [-121.5506673976779, 47.41854024119675, 1486.34], [-121.550696734339, 47.41853102110326, 1486.34], [-121.55076613649726, 47.41853638552129, 1483.45], [-121.55091458000243, 47.41859095171094, 1473.84], [-121.55099848285317, 47.41860277019441, 1471.44], [-121.55104919336736, 47.4185549095273, 1469.99], [-121.55110443010926, 47.418562453240156, 1467.11], [-121.55116260051727, 47.41858994588256, 1465.67], [-121.55122362077236, 47.418602015823126, 1465.19], [-121.55129679478705, 47.41863805800676, 1463.26], [-121.55134088359773, 47.41862422786653, 1462.78], [-121.55137281864882, 47.418642081320286, 1458.94], [-121.55139503069222, 47.41867359727621, 1461.82], [-121.55156845226884, 47.418745681643486, 1456.53], [-121.55152402818203, 47.4187087174505, 1458.94], [-121.55150567181408, 47.41871844045818, 1454.61], [-121.5515759959817, 47.41873696446419, 1454.13], [-121.55159946531057, 47.41876797750592, 1457.02], [-121.55170725658536, 47.418807204812765, 1455.57], [-121.55186207033694, 47.41882455535233, 1450.29], [-121.55200179666281, 47.41884743794799, 1445.96], [-121.55229021795094, 47.418963611125946, 1437.31], [-121.55240446329117, 47.419063774868846, 1432.02], [-121.55257495120168, 47.419104259461164, 1427.7], [-121.55260680243373, 47.4191299919039, 1427.7], [-121.55269925482571, 47.41918464191258, 1427.7], [-121.55282305553555, 47.41922864690423, 1427.21], [-121.5528659708798, 47.41928187198937, 1426.73], [-121.55299035832286, 47.419362757354975, 1426.25], [-121.55312279239297, 47.419419502839446, 1423.85], [-121.5532198548317, 47.41947406902909, 1420.97], [-121.55334365554154, 47.41953634656966, 1418.08], [-121.5534529555589, 47.419634498655796, 1416.64], [-121.55356041155756, 47.419711612164974, 1416.16], [-121.55364506877959, 47.41968881338835, 1414.72], [-121.55367851257324, 47.41969199851155, 1414.24], [-121.5537479147315, 47.419674480333924, 1412.79], [-121.55390683561563, 47.41969736292958, 1410.87], [-121.5539463981986, 47.41971471346915, 1408.47], [-121.55407849699259, 47.41975679062307, 1404.62], [-121.55415217392147, 47.4198033940047, 1402.7], [-121.55430413782597, 47.419856283813715, 1396.45], [-121.55435401014984, 47.419825438410044, 1394.53], [-121.55453338287771, 47.41976517252624, 1389.24], [-121.55461007729173, 47.419766848906875, 1386.36], [-121.55469305813313, 47.41979434154928, 1382.51], [-121.5548322815448, 47.41975192911923, 1376.26], [-121.55486513860524, 47.41972804069519, 1372.9], [-121.55491601675749, 47.419713120907545, 1371.46], [-121.55497862957418, 47.41972619667649, 1370.02], [-121.5550418291241, 47.419721418991685, 1366.65], [-121.55508264899254, 47.419708175584674, 1363.77], [-121.5551015920937, 47.41966660134494, 1361.36], [-121.55517023988068, 47.41965754888952, 1358.96], [-121.55516370199621, 47.41963273845613, 1358.0], [-121.55520024709404, 47.41960482671857, 1356.08], [-121.55525531619787, 47.419599294662476, 1354.15], [-121.55533645302057, 47.41957523860037, 1350.31], [-121.55537081882358, 47.41955118253827, 1347.91], [-121.55539085157216, 47.41943400353193, 1341.18], [-121.55539344996214, 47.41938069462776, 1338.29], [-121.55545187182724, 47.419379437342286, 1335.41], [-121.55550702475011, 47.41939662024379, 1334.45], [-121.55558631755412, 47.41931213065982, 1326.76], [-121.55565169639885, 47.41932386532426, 1325.31], [-121.5557099506259, 47.419280195608735, 1319.55], [-121.55576116405427, 47.419307101517916, 1317.14], [-121.55580776743591, 47.4192698020488, 1316.18], [-121.55590348877013, 47.4192766752094, 1309.45], [-121.5559308975935, 47.419250858947635, 1307.53], [-121.55594481155276, 47.41920174099505, 1305.13], [-121.55600591562688, 47.419176176190376, 1302.72], [-121.55607984401286, 47.41908305324614, 1296.48], [-121.55611295253038, 47.419032007455826, 1292.15], [-121.55612359754741, 47.4189677182585, 1287.82], [-121.55617925338447, 47.418938633054495, 1285.9], [-121.55624739825726, 47.41893737576902, 1283.02], [-121.55631822533906, 47.41882991977036, 1278.69], [-121.5563122741878, 47.41880997084081, 1275.33], [-121.55638947151601, 47.418741658329964, 1271.0], [-121.5565786510706, 47.4187224637717, 1264.75], [-121.55658971518278, 47.41867116652429, 1261.39], [-121.55661754310131, 47.41865733638406, 1259.94], [-121.55660681426525, 47.418625988066196, 1257.54], [-121.5566526632756, 47.418634286150336, 1256.58], [-121.55680873431265, 47.418698742985725, 1254.66], [-121.55680999159813, 47.41873025894165, 1252.74], [-121.55678652226925, 47.4187330249697, 1251.29], [-121.55681795440614, 47.418806198984385, 1248.89], [-121.55685625970364, 47.418841822072864, 1248.41], [-121.55690873041749, 47.419057404622436, 1245.04], [-121.55694913119078, 47.41918087005615, 1245.53], [-121.55705935321748, 47.41930031217635, 1245.53], [-121.55704149976373, 47.4192925170064, 1243.6], [-121.55697762966156, 47.41922755725682, 1243.6], [-121.55697804875672, 47.41923996247351, 1241.2], [-121.55703127384186, 47.41930869407952, 1242.64], [-121.55706061050296, 47.41932059638202, 1243.12], [-121.5572832338512, 47.41953198798001, 1239.76], [-121.55743855051696, 47.41961991414428, 1237.83], [-121.55760166235268, 47.419665260240436, 1235.91], [-121.55777927488089, 47.419774644076824, 1233.51], [-121.55787901952863, 47.41985301487148, 1231.59], [-121.55797205865383, 47.41994353942573, 1229.18], [-121.55807666480541, 47.42005309090018, 1226.78], [-121.55823357403278, 47.42017412558198, 1223.42], [-121.55836625955999, 47.4202492274344, 1221.01], [-121.55844789929688, 47.42032893933356, 1218.61], [-121.55846608802676, 47.42016959935427, 1216.69], [-121.55845644883811, 47.42005434818566, 1214.28], [-121.55847840942442, 47.41990833543241, 1210.92], [-121.55838863924146, 47.419697027653456, 1205.15], [-121.55829224735498, 47.41950072348118, 1198.42], [-121.55818965286016, 47.419368624687195, 1192.65], [-121.55815813690424, 47.41922814399004, 1190.25], [-121.55815528705716, 47.419169219210744, 1189.29], [-121.55813969671726, 47.41907232441008, 1185.92], [-121.5581651777029, 47.418873673304915, 1180.16], [-121.55819015577435, 47.4187692347914, 1176.79], [-121.55822049826384, 47.41867301054299, 1174.39], [-121.55830062925816, 47.41844728589058, 1169.58], [-121.55828336253762, 47.41828467696905, 1166.22], [-121.55819007195532, 47.41811854764819, 1162.37], [-121.55816425569355, 47.41809315048158, 1161.89], [-121.55793827958405, 47.41794118657708, 1160.45], [-121.5577698033303, 47.41779953241348, 1156.12], [-121.55753184109926, 47.41751354187727, 1147.95], [-121.55739882029593, 47.41733819246292, 1144.11], [-121.55732824467123, 47.41713518276811, 1142.18], [-121.55724979005754, 47.416955307126045, 1137.86], [-121.5572015941143, 47.416818514466286, 1137.38], [-121.55719924718142, 47.4166398961097, 1134.49], [-121.55722816474736, 47.41646639071405, 1131.61], [-121.55733000487089, 47.416187692433596, 1128.24], [-121.55743553303182, 47.415982000529766, 1125.84], [-121.55745305120945, 47.4158076569438, 1122.96], [-121.55730594880879, 47.41562903858721, 1118.63], [-121.55715448781848, 47.41552191786468, 1114.79], [-121.55699498020113, 47.41540113463998, 1113.34], [-121.55698944814503, 47.415391243994236, 1113.34], [-121.55679197050631, 47.41519116796553, 1109.5], [-121.55662382952869, 47.415073653683066, 1108.06], [-121.55658057890832, 47.415017830207944, 1106.13], [-121.55649214982986, 47.414956809952855, 1105.65], [-121.55643389560282, 47.41489495150745, 1103.73], [-121.55657135881484, 47.414947086945176, 1101.33], [-121.55689272098243, 47.41498597897589, 1099.89], [-121.55710394494236, 47.415067199617624, 1097.96], [-121.55723101459444, 47.41515344940126, 1095.56], [-121.55757701955736, 47.41522637195885, 1091.23], [-121.55778639949858, 47.41528160870075, 1085.47], [-121.55804799869657, 47.41541521623731, 1078.74], [-121.55820624902844, 47.41549853235483, 1075.37], [-121.55831336975098, 47.415566677227616, 1072.49], [-121.55823055654764, 47.41542896255851, 1068.16], [-121.55809451825917, 47.415242129936814, 1060.47], [-121.5579545404762, 47.41507667116821, 1057.59], [-121.55791447497904, 47.41505781188607, 1057.11], [-121.55772998929024, 47.414944069460034, 1055.67], [-121.55770492739975, 47.41489210166037, 1055.18], [-121.55796049162745, 47.41496083326638, 1052.3], [-121.55818806029856, 47.415058398619294, 1050.38], [-121.55838570557535, 47.415187396109104, 1047.49], [-121.55858150683343, 47.41530993953347, 1043.65], [-121.55871687456965, 47.41541136056185, 1039.8], [-121.55886875465512, 47.41553759202361, 1037.88], [-121.55897461809218, 47.41558134555817, 1042.21], [-121.55914368107915, 47.41569383069873, 1039.32], [-121.55926521867514, 47.415803549811244, 1036.92], [-121.55936161056161, 47.41597009822726, 1033.55], [-121.55936588533223, 47.41604167968035, 1031.63], [-121.5592720080167, 47.416221890598536, 1029.71], [-121.55926622450352, 47.41630923002958, 1028.75], [-121.55932816676795, 47.416374776512384, 1025.38], [-121.55939446762204, 47.416402185335755, 1024.42], [-121.55943838879466, 47.41643965244293, 1022.98], [-121.55956780537963, 47.416474437341094, 1023.46], [-121.55974147841334, 47.416534535586834, 1018.17], [-121.55988866463304, 47.41662765853107, 1013.37], [-121.56015177257359, 47.41667216643691, 1014.81], [-121.56042368151248, 47.41668398492038, 1014.81], [-121.56045167706907, 47.41671709343791, 1013.85], [-121.56069081276655, 47.41683821193874, 1007.6], [-121.5608693473041, 47.416860004886985, 1005.68], [-121.5610218141228, 47.41691499017179, 1003.75], [-121.56124703586102, 47.41712252609432, 998.95], [-121.5613408293575, 47.41729519329965, 997.51], [-121.5615968964994, 47.41747045889497, 997.02], [-121.56166914850473, 47.41754489019513, 995.58], [-121.56172463670373, 47.41762049496174, 993.66], [-121.56186746433377, 47.41778947412968, 990.78], [-121.56189462170005, 47.417808920145035, 989.81], [-121.56207483261824, 47.417878825217485, 990.78], [-121.56211045570672, 47.41786180995405, 990.78], [-121.56221816316247, 47.41785644553602, 988.85], [-121.5624217595905, 47.41789609193802, 986.45], [-121.56250440515578, 47.41790070198476, 983.09], [-121.56260582618415, 47.41799432784319, 978.28], [-121.56268662773073, 47.41808820515871, 971.07], [-121.56277782283723, 47.41810915991664, 968.18], [-121.5628678444773, 47.41810237057507, 968.18], [-121.56310957856476, 47.41797630675137, 966.74], [-121.56336623243988, 47.41787857376039, 967.7], [-121.5635068807751, 47.417852925136685, 965.78], [-121.56359765678644, 47.41786298342049, 961.94], [-121.56372481025755, 47.41778528317809, 963.38], [-121.56389974057674, 47.41769081912935, 963.38], [-121.56415647827089, 47.41759283468127, 953.28], [-121.56421842053533, 47.41756618022919, 952.8], [-121.56446686014533, 47.41749166510999, 949.44], [-121.56467942520976, 47.41746014915407, 943.19], [-121.56482099555433, 47.41745118051767, 940.31], [-121.56502534635365, 47.41746081970632, 935.02], [-121.56515451148152, 47.417541621252894, 929.25], [-121.56537604518235, 47.41760482080281, 921.08], [-121.56548023223877, 47.41762703284621, 916.75], [-121.56566362828016, 47.417658967897296, 914.35], [-121.56595104373991, 47.41762502118945, 915.31], [-121.56616386026144, 47.41760641336441, 916.27], [-121.566321272403, 47.41758093237877, 916.75], [-121.56643778085709, 47.41757020354271, 915.31], [-121.56657063402236, 47.41757791489363, 910.51], [-121.56683189794421, 47.417599288746715, 905.7], [-121.56687422655523, 47.417588559910655, 903.3], [-121.56681538559496, 47.41770657710731, 899.93], [-121.56683851964772, 47.41772334091365, 902.33], [-121.56686156988144, 47.417677994817495, 910.51], [-121.5669323131442, 47.41757213138044, 911.47], [-121.56683717854321, 47.417652597650886, 911.95], [-121.56685972586274, 47.41758537478745, 912.43], [-121.56707891263068, 47.41759987547994, 907.14], [-121.56737378798425, 47.417663829401135, 893.2], [-121.5675787255168, 47.417740942910314, 883.59], [-121.56772633083165, 47.41780489683151, 881.19], [-121.5681260637939, 47.41783649660647, 884.55], [-121.56835170462728, 47.41789818741381, 884.55], [-121.56855387613177, 47.41790061816573, 883.11], [-121.56882301904261, 47.4179108440876, 884.07], [-121.56912141479552, 47.41789433173835, 881.19], [-121.56933900900185, 47.41789810359478, 876.86], [-121.5694604627788, 47.41793221794069, 873.5], [-121.56975081190467, 47.41794194094837, 867.73], [-121.56976707279682, 47.41794738918543, 867.25], [-121.56988970004022, 47.4179385881871, 868.21], [-121.56996329315007, 47.417977061122656, 868.69], [-121.57006898894906, 47.418127013370395, 868.69], [-121.57029085792601, 47.4182253330946, 864.36], [-121.57041616737843, 47.418322060257196, 861.96], [-121.57052865251899, 47.4184912070632, 856.19], [-121.57068874686956, 47.41857628338039, 855.71], [-121.57088027335703, 47.418733946979046, 851.87], [-121.5710199996829, 47.41886428557336, 848.02], [-121.5712618175894, 47.419002167880535, 848.02], [-121.57136868685484, 47.41914415732026, 848.02], [-121.57142149284482, 47.41919453255832, 848.5], [-121.57156951725483, 47.41929117590189, 848.5], [-121.57166549004614, 47.419300228357315, 844.66], [-121.57170941121876, 47.41963558830321, 842.73], [-121.5718453656882, 47.419735165312886, 838.89], [-121.57190621830523, 47.41975771263242, 839.37], [-121.5719180367887, 47.41982225328684, 839.85], [-121.57206119969487, 47.41982778534293, 841.29], [-121.57222146168351, 47.419983353465796, 842.73], [-121.5722909476608, 47.420089887455106, 842.73], [-121.57244458794594, 47.42012249305844, 843.69], [-121.5725227072835, 47.42011402733624, 843.69], [-121.57262220047414, 47.42019466124475, 842.73], [-121.5727449953556, 47.42033648304641, 839.85], [-121.57283761538565, 47.42041267454624, 836.48], [-121.5729920938611, 47.42056245915592, 831.2], [-121.57312486320734, 47.42070570588112, 828.31], [-121.57328135333955, 47.42086227983236, 821.58], [-121.57345678657293, 47.42101742886007, 816.78], [-121.57365669496357, 47.42117919959128, 812.93], [-121.57385794445872, 47.42130157537758, 810.05], [-121.57405349425972, 47.42146753706038, 807.16], [-121.57423177734017, 47.42156275548041, 804.28], [-121.57449337653816, 47.42169753648341, 803.8], [-121.57462673261762, 47.42177112959325, 801.4], [-121.57486519776285, 47.42188009433448, 808.13], [-121.57489327713847, 47.42191018536687, 809.09], [-121.5750141441822, 47.42199316620827, 809.57], [-121.5752179082483, 47.42207053117454, 808.61], [-121.57547313719988, 47.42221377789974, 805.24], [-121.5756600536406, 47.42228996939957, 801.4], [-121.57599985599518, 47.42241804488003, 793.22], [-121.57631644047797, 47.42253924719989, 785.53], [-121.57650033943355, 47.4225733615458, 786.5], [-121.5766275767237, 47.4226114153862, 788.9], [-121.57679035328329, 47.42278877645731, 784.09], [-121.57706477679312, 47.42299681529403, 779.77], [-121.57721657305956, 47.423211224377155, 775.92], [-121.57717776484787, 47.4233989790082, 773.04], [-121.57707491889596, 47.42358388379216, 769.19], [-121.57691373489797, 47.423797622323036, 766.31], [-121.5767726674676, 47.424164582043886, 768.23], [-121.57684357836843, 47.424283269792795, 770.15], [-121.577172819525, 47.42422149516642, 771.6], [-121.57740902155638, 47.42423029616475, 769.67], [-121.57752226106822, 47.42428888566792, 761.5], [-121.5775287989527, 47.42436767555773, 752.37], [-121.57770255580544, 47.424340853467584, 755.73], [-121.57783909700811, 47.424446465447545, 751.89], [-121.57814294099808, 47.42449491284788, 751.89], [-121.57830663956702, 47.42460102774203, 750.93], [-121.57846229150891, 47.424812503159046, 748.52], [-121.57863956876099, 47.42492448538542, 748.04], [-121.57869078218937, 47.42511089891195, 746.12], [-121.57875414937735, 47.42513386532664, 745.64], [-121.57903502695262, 47.42517569102347, 742.76], [-121.57915882766247, 47.425262443721294, 740.35], [-121.5793470852077, 47.425328996032476, 739.39], [-121.57947264611721, 47.42550501599908, 738.91], [-121.57973391003907, 47.42552697658539, 738.43], [-121.57987657003105, 47.42561641149223, 738.43], [-121.58001990057528, 47.42555648088455, 737.47], [-121.58014923334122, 47.42551716975868, 736.99], [-121.58029038459063, 47.42550317198038, 736.03], [-121.58067938871682, 47.425428153946996, 735.55], [-121.58082087524235, 47.42542639374733, 729.78], [-121.58111583441496, 47.42537124082446, 726.41], [-121.58130115829408, 47.42535221390426, 725.45], [-121.5814851410687, 47.42539756000042, 720.16], [-121.5816904976964, 47.4253916926682, 713.92], [-121.58184858039021, 47.425443744286895, 713.44], [-121.58210724592209, 47.425403175875545, 710.55], [-121.58220229670405, 47.42538423277438, 708.15], [-121.58238359726965, 47.42546218447387, 708.15], [-121.58254670910537, 47.425546422600746, 704.3], [-121.58267361111939, 47.42560082115233, 703.34], [-121.58285566605628, 47.42565211839974, 699.02], [-121.58305054530501, 47.425720347091556, 696.61], [-121.58322991803288, 47.42579083889723, 695.65], [-121.58333611674607, 47.42590491659939, 695.17], [-121.58358455635607, 47.42599326185882, 694.69], [-121.58360601402819, 47.426053611561656, 694.21], [-121.58373174257576, 47.42602854967117, 694.69], [-121.58377113752067, 47.425988567993045, 695.65], [-121.58373777754605, 47.42605512030423, 695.17], [-121.58365077339113, 47.42608319967985, 698.05], [-121.58371523022652, 47.426184453070164, 694.69], [-121.5838523581624, 47.42628545500338, 686.52], [-121.58414388075471, 47.42632241919637, 683.63], [-121.58432601951063, 47.42637002840638, 682.19], [-121.58450572751462, 47.426437167450786, 681.71], [-121.58474184572697, 47.42661075666547, 678.35], [-121.58492264337838, 47.426571026444435, 680.75], [-121.5849972423166, 47.42663975805044, 681.23], [-121.58503906801343, 47.4266158696264, 682.19], [-121.58492264337838, 47.42662291042507, 682.19], [-121.58505834639072, 47.42666465230286, 682.67], [-121.58517594449222, 47.42674763314426, 680.27], [-121.58531391061842, 47.426775712519884, 679.79], [-121.58541281707585, 47.42687311023474, 679.31], [-121.58551692031324, 47.4269269220531, 678.35], [-121.58577851951122, 47.42694075219333, 677.39], [-121.58598094247282, 47.42695743218064, 678.83], [-121.58616693690419, 47.426959946751595, 677.87], [-121.58638360910118, 47.426942512393, 678.83], [-121.58653859049082, 47.42680043913424, 678.35], [-121.58646197989583, 47.42665442638099, 674.5], [-121.58642853610218, 47.42665174417198, 674.02], [-121.58631898462772, 47.42662467062473, 672.58], [-121.5862629096955, 47.426618970930576, 671.62], [-121.58594431355596, 47.426532469689846, 671.62], [-121.58578715287149, 47.42650824598968, 670.66], [-121.58566662110388, 47.426515789702535, 670.18], [-121.58561389893293, 47.42654135450721, 670.18], [-121.58566335216165, 47.42663271725178, 669.22], [-121.58556318841875, 47.42651662789285, 670.66], [-121.58540141768754, 47.42644261568785, 669.22], [-121.58522766083479, 47.42634857073426, 662.97], [-121.58496547490358, 47.426181603223085, 663.45], [-121.58473178744316, 47.426037937402725, 660.56], [-121.58454922959208, 47.4259096942842, 659.12], [-121.5843328088522, 47.425774075090885, 655.28], [-121.5841893106699, 47.42561842314899, 651.43], [-121.58402292989194, 47.425457239151, 650.47], [-121.5839300584048, 47.4252587556839, 650.95], [-121.58377868123353, 47.42508793249726, 646.14], [-121.58371690660715, 47.42493303492665, 642.78], [-121.58359779976308, 47.4247682467103, 639.41], [-121.58342664130032, 47.42470714263618, 637.97], [-121.58336302265525, 47.42465374991298, 636.53], [-121.58317845314741, 47.42452500388026, 636.05], [-121.5830047801137, 47.42446834221482, 630.28], [-121.58275307156146, 47.42426357232034, 618.26], [-121.58274427056313, 47.424228955060244, 618.26], [-121.58276841044426, 47.42425108328462, 636.53], [-121.58278894610703, 47.42422635667026, 637.97], [-121.58270479179919, 47.42414555512369, 639.89], [-121.58270294778049, 47.42418536916375, 646.14], [-121.58271702937782, 47.42421889677644, 645.18]]}}