{"type": "Feature", "properties": {}, "geometry": {"type": "LineString", "coordinates": [[-119.62085757404566, 37.728347294032574, 1229.18], [-119.6209020819515, 37.72831971757114, 1233.99], [-119.6208896767348, 37.72826909087598, 1235.43], [-119.62082505226135, 37.728232545778155, 1231.59], [-119.62083427235484, 37.72818678058684, 1231.11], [-119.62081465870142, 37.728166496381164, 1231.59], [-119.62066797539592, 37.7281351480633, 1246.01], [-119.62070963345468, 37.72813179530203, 1244.08], [-119.62084977887571, 37.72804361768067, 1254.66], [-119.62066361680627, 37.72810363210738, 1253.7], [-119.62061659432948, 37.728116791695356, 1252.74], [-119.62055272422731, 37.72824076004326, 1250.81], [-119.62044082581997, 37.728316113352776, 1247.93], [-119.62039531208575, 37.72840957157314, 1246.01], [-119.62037125602365, 37.728440249338746, 1245.53], [-119.62019892409444, 37.72842147387564, 1245.04], [-119.61995509453118, 37.72848727181554, 1245.04], [-119.6198023762554, 37.728581903502345, 1246.01], [-119.61976314894855, 37.728620544075966, 1246.01], [-119.61973649449646, 37.72865591570735, 1246.01], [-119.61959391832352, 37.728794887661934, 1246.49], [-119.61955326609313, 37.72889832034707, 1246.49], [-119.61944363079965, 37.729049529880285, 1244.56], [-119.619349418208, 37.72918372415006, 1246.97], [-119.6192492544651, 37.72931900806725, 1246.97], [-119.61922570131719, 37.72943023592234, 1247.45], [-119.61918471381068, 37.72948027588427, 1250.33], [-119.61914339102805, 37.7295770868659, 1255.14], [-119.6191543713212, 37.729620253667235, 1260.91], [-119.61905999109149, 37.729795603081584, 1258.98], [-119.61903559975326, 37.72986626252532, 1258.02], [-119.61897256784141, 37.72991009987891, 1254.66], [-119.61899612098932, 37.72991714067757, 1249.85], [-119.61897977627814, 37.729936419054866, 1246.97], [-119.61903970688581, 37.729971120133996, 1264.27], [-119.61910894140601, 37.729962822049856, 1255.62], [-119.61911078542471, 37.729954943060875, 1247.93], [-119.61900919675827, 37.729920241981745, 1252.74], [-119.61907046847045, 37.729955948889256, 1262.83], [-119.61901749484241, 37.72995335049927, 1257.54], [-119.61897348985076, 37.729924600571394, 1268.6], [-119.61900978349149, 37.7299174759537, 1263.31], [-119.6189606655389, 37.7300073299557, 1251.77], [-119.61895278654993, 37.7299655880779, 1253.7], [-119.61900006048381, 37.73000154644251, 1235.91], [-119.6190407127142, 37.730047730728984, 1243.12], [-119.61905295029283, 37.730017974972725, 1246.49], [-119.6189164929092, 37.730024261400104, 1248.41], [-119.61888975463808, 37.73003197275102, 1258.02], [-119.61889956146479, 37.73001663386822, 1254.66], [-119.61879948154092, 37.73002174682915, 1256.58], [-119.61879881098866, 37.73004454560578, 1266.19], [-119.6187708992511, 37.73005250841379, 1266.67], [-119.61875455453992, 37.73006851784885, 1265.71], [-119.61872362531722, 37.730038510635495, 1269.08], [-119.6187175065279, 37.73006273433566, 1284.94], [-119.6187259722501, 37.730068769305944, 1278.69], [-119.61865019984543, 37.730094166472554, 1278.21], [-119.61865288205445, 37.730085365474224, 1277.73], [-119.61865900084376, 37.730176812037826, 1283.5], [-119.61855087429285, 37.73015367798507, 1299.36], [-119.61860535666347, 37.730148397386074, 1296.96], [-119.61849748156965, 37.730112271383405, 1295.99], [-119.6184170152992, 37.730124928057194, 1298.88], [-119.61850309744477, 37.73013750091195, 1302.24], [-119.61846521124244, 37.73010464385152, 1296.96], [-119.61855883710086, 37.73012534715235, 1295.03], [-119.618622623384, 37.73012274876237, 1288.78], [-119.61870124563575, 37.73018050007522, 1283.5], [-119.61876410990953, 37.73014320060611, 1283.02], [-119.61877584457397, 37.73005686700344, 1272.44], [-119.61877081543207, 37.730069775134325, 1273.4], [-119.61856386624277, 37.730080084875226, 1279.65], [-119.61844358593225, 37.730112271383405, 1284.46], [-119.61888271383941, 37.73014764301479, 1276.77], [-119.61893769912422, 37.73006935603917, 1274.85], [-119.61876788176596, 37.729953937232494, 1268.6], [-119.61891640909016, 37.7299449685961, 1264.75], [-119.61880333721638, 37.729833824560046, 1258.98], [-119.61902755312622, 37.73021595552564, 1262.83], [-119.61903526447713, 37.73022676818073, 1262.83], [-119.61902529001236, 37.73011889308691, 1270.04], [-119.61906719952822, 37.73010229691863, 1278.21], [-119.61897608824074, 37.73010858334601, 1279.17], [-119.6190539561212, 37.73013406433165, 1275.33], [-119.61907331831753, 37.73013398051262, 1274.36], [-119.61902436800301, 37.730119144544005, 1265.71], [-119.61907407268882, 37.73012031801045, 1271.48], [-119.6190129686147, 37.730129873380065, 1267.64], [-119.61885446682572, 37.73012735880911, 1272.44], [-119.61892772465944, 37.7300623152405, 1271.96], [-119.61899913847446, 37.7300813421607, 1260.91], [-119.61895680986345, 37.72990892641246, 1273.4], [-119.61887592449784, 37.72985662333667, 1279.17], [-119.61881532333791, 37.72977389395237, 1282.54], [-119.6189434826374, 37.730023423209786, 1271.0], [-119.61897818371654, 37.7299983613193, 1267.64], [-119.61901623755693, 37.73007337935269, 1269.08], [-119.61903962306678, 37.73020002990961, 1268.12], [-119.619085136801, 37.730202712118626, 1265.71], [-119.61905890144408, 37.73020732216537, 1263.79], [-119.61910106241703, 37.73024143651128, 1265.23], [-119.61907088756561, 37.730253003537655, 1271.96], [-119.61907750926912, 37.73027773015201, 1274.85], [-119.61909812875092, 37.73028460331261, 1274.85], [-119.61908002384007, 37.73029759526253, 1276.29], [-119.61908094584942, 37.73031293414533, 1278.21], [-119.61905454285443, 37.73029491305351, 1280.13], [-119.61905965581536, 37.73032986558974, 1279.17], [-119.61904456838965, 37.730359537526965, 1279.65], [-119.61906007491052, 37.73036356084049, 1280.61], [-119.61908262223005, 37.73039147257805, 1284.46], [-119.61904448457062, 37.73035350255668, 1282.54], [-119.61904213763773, 37.73036867380142, 1281.57], [-119.61903031915426, 37.730346880853176, 1283.02], [-119.61903216317296, 37.73038376122713, 1285.9], [-119.61905320174992, 37.730410415679216, 1287.34], [-119.6190558001399, 37.73038040846586, 1286.38], [-119.61903501302004, 37.73040723055601, 1285.9], [-119.61905378848314, 37.730433298274875, 1287.34], [-119.6190856397152, 37.73042365908623, 1300.8], [-119.6190695464611, 37.73044511675835, 1302.24], [-119.61908371187747, 37.730443105101585, 1300.8], [-119.61907717399299, 37.730472860857844, 1302.24], [-119.61909879930317, 37.730508986860514, 1302.72], [-119.6190729830414, 37.73053044453263, 1306.57], [-119.61905186064541, 37.73051762022078, 1305.61], [-119.61906502023339, 37.73053681477904, 1310.9], [-119.6190526150167, 37.730539329349995, 1310.9], [-119.61904347874224, 37.730598924681544, 1321.47], [-119.61904792115092, 37.73061971180141, 1322.43], [-119.61906057782471, 37.73062356747687, 1321.47], [-119.61906149983406, 37.730653239414096, 1321.95], [-119.61908773519099, 37.73064904846251, 1322.43], [-119.61907281540334, 37.73063815198839, 1323.39], [-119.61906963028014, 37.7306601125747, 1322.91], [-119.6190544590354, 37.73065499961376, 1319.55], [-119.61904792115092, 37.73063840344548, 1320.51], [-119.61907817982137, 37.730610659345984, 1326.28], [-119.6190766710788, 37.730630272999406, 1326.76], [-119.61905177682638, 37.730610659345984, 1330.12], [-119.61904456838965, 37.73064158856869, 1328.68], [-119.61902252398431, 37.730653239414096, 1331.56], [-119.61906066164374, 37.73069364018738, 1334.45], [-119.61906041018665, 37.73071400821209, 1339.25], [-119.61910315789282, 37.73072347976267, 1341.18], [-119.61911380290985, 37.730748457834125, 1343.58], [-119.61911162361503, 37.730777291581035, 1345.02], [-119.61909930221736, 37.73077620193362, 1347.91], [-119.61905647069216, 37.73080134764314, 1353.19], [-119.61903241463006, 37.73081065155566, 1352.71], [-119.61900919675827, 37.73080931045115, 1353.67], [-119.61901213042438, 37.730825655162334, 1351.27], [-119.61898941546679, 37.73083562962711, 1351.75], [-119.61897256784141, 37.73085951805115, 1354.63], [-119.61899327114224, 37.73088173009455, 1362.33], [-119.61901305243373, 37.73088566958904, 1361.84], [-119.61900735273957, 37.730899918824434, 1360.4], [-119.61898581124842, 37.73087477311492, 1361.36], [-119.61899654008448, 37.73087720386684, 1363.77], [-119.6189751662314, 37.73090318776667, 1363.29], [-119.61897315457463, 37.73091693408787, 1362.81], [-119.61899771355093, 37.73092028684914, 1362.81], [-119.61898782290518, 37.73092858493328, 1363.29], [-119.6190264634788, 37.730941912159324, 1364.73], [-119.61902948096395, 37.730951802805066, 1368.09], [-119.61905781179667, 37.73095490410924, 1368.09], [-119.61906426586211, 37.73098977282643, 1369.05], [-119.61907792836428, 37.73099605925381, 1371.94], [-119.61906895972788, 37.73101885803044, 1380.59], [-119.61908438242972, 37.731015756726265, 1373.86], [-119.61906828917563, 37.731031933799386, 1378.67], [-119.61907709017396, 37.73105112835765, 1396.93], [-119.61903115734458, 37.73107510060072, 1394.05], [-119.61902361363173, 37.73108398541808, 1391.17], [-119.61895161308348, 37.73109404370189, 1389.72], [-119.61897407658398, 37.73109463043511, 1386.84], [-119.61896745488048, 37.73112069815397, 1384.44], [-119.61897273547947, 37.73113276809454, 1382.99], [-119.6189458295703, 37.731138886883855, 1382.03], [-119.61899243295193, 37.73111307062209, 1383.96], [-119.61899067275226, 37.731091948226094, 1385.88], [-119.61896217428148, 37.73112338036299, 1386.84], [-119.61898245848715, 37.73112530820072, 1395.97], [-119.61901556700468, 37.73113880306482, 1398.37], [-119.6189815364778, 37.73114995099604, 1399.82], [-119.61898966692388, 37.7311847358942, 1402.22], [-119.61896393448114, 37.73116026073694, 1400.3], [-119.61894591338933, 37.731189765036106, 1397.89], [-119.6188972145319, 37.73121717385948, 1398.86], [-119.61889763362706, 37.73122522048652, 1401.74], [-119.618937112391, 37.73121491074562, 1400.78], [-119.6189366094768, 37.73123092018068, 1400.78], [-119.61895488202572, 37.73133359849453, 1397.89], [-119.61892051622272, 37.73138967342675, 1397.41], [-119.61890819482505, 37.73143468424678, 1399.34], [-119.6189682930708, 37.73146636784077, 1400.3], [-119.61898069828749, 37.73146938532591, 1401.26], [-119.61904959753156, 37.73152177222073, 1399.34], [-119.61905177682638, 37.73151732981205, 1398.86], [-119.6189939416945, 37.73149788379669, 1397.89], [-119.61897164583206, 37.73147776722908, 1397.89], [-119.6189040876925, 37.731499979272485, 1399.34], [-119.61888371966779, 37.731534261256456, 1399.82], [-119.61885119788349, 37.73155437782407, 1400.3], [-119.61887676268816, 37.73154892958701, 1405.58], [-119.61885823868215, 37.73153778165579, 1415.2], [-119.61888547986746, 37.731512216851115, 1421.93], [-119.61886963807046, 37.73154214024544, 1419.52], [-119.61887567304075, 37.73155773058534, 1420.97], [-119.61883661337197, 37.731563011184335, 1420.49], [-119.6188282314688, 37.73158337920904, 1420.97], [-119.61886377073824, 37.73158513940871, 1422.41], [-119.61889763362706, 37.731603076681495, 1420.97], [-119.61884927004576, 37.73162327706814, 1422.89], [-119.61884340271354, 37.73169410414994, 1430.1], [-119.61885446682572, 37.73170122876763, 1429.62], [-119.61880995891988, 37.731739953160286, 1430.1], [-119.61880819872022, 37.73178454488516, 1426.73], [-119.61884834803641, 37.73181379772723, 1427.7], [-119.61885220371187, 37.73179829120636, 1426.73], [-119.61889143101871, 37.73180214688182, 1424.81], [-119.6189262997359, 37.73176786489785, 1421.45], [-119.61893560364842, 37.73179275915027, 1421.45], [-119.61896468885243, 37.73178907111287, 1422.41], [-119.61895865388215, 37.73176736198366, 1421.93], [-119.61898421868682, 37.731766775250435, 1420.97], [-119.61896720342338, 37.7317547891289, 1420.49], [-119.61898262612522, 37.73179158568382, 1422.89], [-119.61900525726378, 37.73181991651654, 1422.41], [-119.61900307796896, 37.73184238001704, 1424.33], [-119.61903140880167, 37.73176359012723, 1425.77], [-119.61904775351286, 37.73180172778666, 1427.7], [-119.61906376294792, 37.731816563755274, 1425.77], [-119.61908547207713, 37.73181295953691, 1424.33], [-119.61910491809249, 37.73178446106613, 1421.93], [-119.61915361694992, 37.73175956681371, 1417.6], [-119.61920072324574, 37.73170022293925, 1408.47], [-119.61923098191619, 37.73167801089585, 1404.14], [-119.6192838717252, 37.73165470920503, 1398.37], [-119.61935142986476, 37.73156275972724, 1398.37], [-119.61943030357361, 37.73152361623943, 1396.93], [-119.61948378011584, 37.731468211859465, 1395.97], [-119.61954672820866, 37.73145052604377, 1395.01], [-119.61960347369313, 37.731428146362305, 1392.13], [-119.61965007707477, 37.73141817189753, 1389.72], [-119.61970305070281, 37.73138866759837, 1386.84], [-119.61977270431817, 37.731386069208384, 1384.44], [-119.61990656331182, 37.73130099289119, 1380.59], [-119.61993564851582, 37.73121910169721, 1378.67], [-119.61995501071215, 37.73118783719838, 1376.75], [-119.62001058273017, 37.73117593489587, 1371.46], [-119.62003195658326, 37.731185825541615, 1367.61], [-119.6200281009078, 37.73116420023143, 1364.73], [-119.62001259438694, 37.7311434969306, 1362.81], [-119.62000530213118, 37.731102760881186, 1362.33], [-119.61998987942934, 37.73105230182409, 1361.84], [-119.61992408148944, 37.730978624895215, 1361.84], [-119.6199416834861, 37.73090746253729, 1361.84], [-119.61995735764503, 37.7308929618448, 1361.84], [-119.6199488081038, 37.7308533154428, 1361.36], [-119.61994428187609, 37.730766562744975, 1361.36], [-119.61994662880898, 37.73069581948221, 1361.36], [-119.61993388831615, 37.73064326494932, 1361.36], [-119.61993707343936, 37.73059666156769, 1361.36], [-119.61991637013853, 37.73061526939273, 1361.36], [-119.61999893188477, 37.730574533343315, 1361.36], [-119.61997395381331, 37.73057411424816, 1361.36], [-119.61998543702066, 37.73054678924382, 1361.36], [-119.61998384445906, 37.73048861883581, 1360.88], [-119.6200130134821, 37.73041016422212, 1360.88], [-119.62001292966306, 37.730470513924956, 1360.88], [-119.620007481426, 37.730397172272205, 1363.77], [-119.6200402546674, 37.730336068198085, 1364.25], [-119.62013706564903, 37.73020153865218, 1364.25], [-119.62021376006305, 37.73012677207589, 1364.25], [-119.62027478031814, 37.73010229691863, 1365.21], [-119.62027955800295, 37.73011805489659, 1364.25], [-119.62019691243768, 37.73018301464617, 1345.98], [-119.62019389495254, 37.73011386394501, 1343.58], [-119.62007772177458, 37.73014680482447, 1338.77], [-119.62004461325705, 37.73017052561045, 1332.52], [-119.62003556080163, 37.73012920282781, 1324.35], [-119.62001343257725, 37.7301125228405, 1315.22], [-119.62001142092049, 37.73009492084384, 1315.22], [-119.62002449668944, 37.73010162636638, 1309.45], [-119.6199575252831, 37.730211010202765, 1292.15], [-119.61992869153619, 37.73023380897939, 1289.27], [-119.61990103125572, 37.730216374620795, 1281.09], [-119.61983104236424, 37.73020598106086, 1276.77], [-119.61979106068611, 37.73022576235235, 1271.48], [-119.61980019696057, 37.73019474931061, 1270.04], [-119.61971428245306, 37.730180164799094, 1265.71], [-119.61968746036291, 37.73006164468825, 1265.71], [-119.61966885253787, 37.72996407933533, 1265.71], [-119.6195983607322, 37.73001520894468, 1262.35], [-119.61960959248245, 37.72997606545687, 1260.43], [-119.61959249339998, 37.72992426529527, 1254.66], [-119.61960540153086, 37.729898281395435, 1251.29], [-119.61957279592752, 37.729824436828494, 1246.97], [-119.6195357479155, 37.72983365692198, 1246.49], [-119.61944689974189, 37.7298844512552, 1247.45], [-119.61931438185275, 37.72981110960245, 1247.45], [-119.61923601105809, 37.729831058532, 1251.29], [-119.61915604770184, 37.72980649955571, 1252.25], [-119.61911221034825, 37.72987715899944, 1256.58], [-119.61909770965576, 37.729714969173074, 1245.53], [-119.61908270604908, 37.72959301248193, 1241.68], [-119.61910148151219, 37.72951363585889, 1238.32], [-119.61913844570518, 37.72948228754103, 1238.32], [-119.61926040239632, 37.729325126856565, 1235.91], [-119.61930373683572, 37.72921381518245, 1235.43], [-119.61932837963104, 37.72918615490198, 1235.43], [-119.61939518339932, 37.72912345826626, 1233.99], [-119.61940976791084, 37.729101330041885, 1233.03], [-119.61944522336125, 37.72906897589564, 1231.59], [-119.61949056945741, 37.72899890318513, 1228.7], [-119.61950942873955, 37.72896386682987, 1226.3], [-119.61956458166242, 37.72884358651936, 1223.9], [-119.61970657110214, 37.728718696162105, 1223.42], [-119.61978259496391, 37.72866169922054, 1223.42], [-119.61988787166774, 37.728568743914366, 1222.45], [-119.62005936540663, 37.72852297872305, 1223.42], [-119.62017511948943, 37.72836229763925, 1224.38], [-119.62028131820261, 37.72830890491605, 1223.9], [-119.62044040672481, 37.72826557047665, 1222.45], [-119.62048407644033, 37.728264816105366, 1222.93], [-119.62057854048908, 37.72831887938082, 1222.45], [-119.62060259655118, 37.728311754763126, 1220.05], [-119.6206652931869, 37.72828082554042, 1219.57], [-119.6207411494106, 37.72822852246463, 1212.84], [-119.62074466980994, 37.72819994017482, 1213.8], [-119.59232104942203, 37.74609010666609, 1213.8], [-119.59238399751484, 37.74614240974188, 1204.67], [-119.59241601638496, 37.7461535576731, 1209.48], [-119.59243940189481, 37.74615062400699, 1207.07], [-119.59243730641901, 37.74618046358228, 1209.96], [-119.59240403026342, 37.74617040529847, 1208.51], [-119.59241651929915, 37.74615774862468, 1205.15], [-119.59243747405708, 37.74618197232485, 1206.11], [-119.59245750680566, 37.74618582800031, 1208.03], [-119.59254702553153, 37.74611801840365, 1209.0], [-119.59261173382401, 37.74609228596091, 1208.51], [-119.59264174103737, 37.7460671402514, 1206.59], [-119.59275950677693, 37.74609890766442, 1207.07], [-119.59279085509479, 37.746138805523515, 1210.92], [-119.5928852353245, 37.7461741771549, 1210.44], [-119.59302051924169, 37.746328404173255, 1212.36], [-119.59310408681631, 37.74650987237692, 1213.8], [-119.59307257086039, 37.746546836569905, 1213.8], [-119.5930496044457, 37.74669704027474, 1213.8], [-119.59299746900797, 37.74685621261597, 1216.21], [-119.5929647795856, 37.74689309298992, 1217.17], [-119.59280074574053, 37.74696576409042, 1217.17], [-119.59278741851449, 37.746985796839, 1217.17], [-119.59277677349746, 37.74724722839892, 1218.13], [-119.5928320940584, 37.74733917787671, 1218.61], [-119.59283829666674, 37.747365832328796, 1217.65], [-119.59287785924971, 37.747416123747826, 1218.13], [-119.59297550842166, 37.74750086478889, 1215.72], [-119.59299478679895, 37.74756691418588, 1216.21], [-119.59297022782266, 37.74768987670541, 1217.65], [-119.59299051202834, 37.747823651880026, 1220.05], [-119.59291281178594, 37.747998498380184, 1221.01], [-119.59283653646708, 37.748121125623584, 1219.57], [-119.59283486008644, 37.74822464212775, 1221.49], [-119.59281424060464, 37.748311730101705, 1223.9], [-119.59286151453853, 37.7484071161598, 1225.34], [-119.59286687895656, 37.74854223243892, 1226.3], [-119.59289093501866, 37.74857358075678, 1226.3], [-119.59293301217258, 37.748694783076644, 1227.26], [-119.5930892508477, 37.748872144147754, 1229.66], [-119.5930963754654, 37.74889821186662, 1229.66], [-119.5931027457118, 37.74902310222387, 1229.66], [-119.59317893721163, 37.74912502616644, 1231.11], [-119.59323995746672, 37.749160984531045, 1231.11], [-119.59331874735653, 37.74923256598413, 1231.59], [-119.59336216561496, 37.749350080266595, 1232.07], [-119.59325437434018, 37.74949500337243, 1232.55], [-119.59320852532983, 37.749617882072926, 1233.51], [-119.59318136796355, 37.749816197901964, 1234.47], [-119.59319394081831, 37.74992943741381, 1234.95], [-119.59317524917424, 37.75001979433, 1235.43], [-119.59319134242833, 37.75010922923684, 1236.87], [-119.59320181980729, 37.75023948401213, 1235.91], [-119.59321942180395, 37.75040728971362, 1235.91], [-119.59320408292115, 37.75043218396604, 1235.43], [-119.59306695498526, 37.75055380538106, 1234.95], [-119.59303962998092, 37.750575514510274, 1234.95], [-119.59294583648443, 37.750625386834145, 1233.51], [-119.59288598969579, 37.750633684918284, 1234.95], [-119.59271374158561, 37.75069939903915, 1235.43], [-119.59269714541733, 37.75072471238673, 1234.95], [-119.59258608520031, 37.750762263312936, 1234.47], [-119.59244183264673, 37.75087483227253, 1232.55], [-119.59229841828346, 37.75093065574765, 1234.47], [-119.59214888513088, 37.750992346554995, 1235.43], [-119.59205777384341, 37.75105286389589, 1236.39], [-119.59204897284508, 37.75108731351793, 1236.87], [-119.5919737033546, 37.75122469291091, 1234.95], [-119.59188988432288, 37.75128143839538, 1235.91], [-119.59184688515961, 37.751301219686866, 1235.91], [-119.59172492846847, 37.75138319469988, 1239.76], [-119.59170363843441, 37.751381769776344, 1243.12], [-119.59168729372323, 37.75135369040072, 1243.12], [-119.59169483743608, 37.75133860297501, 1243.12], [-119.5917556900531, 37.7513443864882, 1244.08], [-119.5918095856905, 37.75140222162008, 1243.12], [-119.59180573001504, 37.75147288106382, 1243.12], [-119.59181712940335, 37.75152141228318, 1243.6], [-119.59184889681637, 37.75152702815831, 1245.53], [-119.5918851904571, 37.75160397402942, 1248.89], [-119.5919253397733, 37.75165954604745, 1255.14], [-119.59190019406378, 37.751688715070486, 1254.66], [-119.5918923150748, 37.751730624586344, 1258.5], [-119.59191192872822, 37.751757027581334, 1259.94], [-119.59187152795494, 37.751809414476156, 1263.31], [-119.59190715104342, 37.75182911194861, 1271.0], [-119.59189181216061, 37.751832799986005, 1272.44], [-119.59193858318031, 37.75190136395395, 1272.44], [-119.59196641109884, 37.75187077000737, 1277.73], [-119.59192827343941, 37.75185417383909, 1275.33], [-119.59199792705476, 37.75187177583575, 1276.77], [-119.59202256985009, 37.75188786908984, 1277.73], [-119.59205584600568, 37.75187068618834, 1276.29], [-119.59216791205108, 37.75189256295562, 1279.17], [-119.59224058315158, 37.75189641863108, 1278.69], [-119.59229774773121, 37.75192189961672, 1278.69], [-119.59239548072219, 37.751893401145935, 1284.46], [-119.59242146462202, 37.75191511027515, 1290.23], [-119.59251182153821, 37.75193179026246, 1300.8], [-119.5926021784544, 37.751932544633746, 1300.32], [-119.59262841381133, 37.7519400883466, 1299.36], [-119.59264433942735, 37.75195458903909, 1294.55], [-119.592664539814, 37.751939333975315, 1291.67], [-119.59268541075289, 37.751966156065464, 1287.34], [-119.59264978766441, 37.75193774141371, 1290.71], [-119.59262740798295, 37.751943273469806, 1290.23], [-119.59268105216324, 37.75194411166012, 1289.27], [-119.59269119426608, 37.751955008134246, 1284.94], [-119.59267233498394, 37.75196204893291, 1285.42], [-119.59270544350147, 37.75197084993124, 1283.5], [-119.59268247708678, 37.75197395123541, 1283.98], [-119.59268339909613, 37.75200001895428, 1283.5], [-119.59264459088445, 37.75202206335962, 1281.09], [-119.59258767776191, 37.752012591809034, 1282.06], [-119.59249983541667, 37.75198560208082, 1280.61], [-119.5924570877105, 37.7519900444895, 1279.17], [-119.59238927811384, 37.751965234056115, 1276.77], [-119.59235038608313, 37.75196389295161, 1271.48], [-119.5923307724297, 37.75194243527949, 1268.12], [-119.59230227395892, 37.751960791647434, 1267.16], [-119.59227645769715, 37.75192491710186, 1267.64], [-119.5922253280878, 37.75184126570821, 1265.71], [-119.59207076579332, 37.751865070313215, 1258.02], [-119.59199365228415, 37.751909494400024, 1257.06], [-119.59192818962038, 37.751915361732244, 1259.46], [-119.59193900227547, 37.751958360895514, 1261.87], [-119.59188686683774, 37.7519710175693, 1265.23], [-119.59185468032956, 37.75199473835528, 1267.16], [-119.59182869642973, 37.75200513191521, 1273.4], [-119.59180556237698, 37.7520040422678, 1272.44], [-119.5918304566294, 37.75205190293491, 1273.4], [-119.59185115993023, 37.75204754434526, 1272.44], [-119.59184973500669, 37.752075623720884, 1275.81], [-119.59184168837965, 37.75206020101905, 1274.36], [-119.59184872917831, 37.752004796639085, 1272.44], [-119.59188661538064, 37.75195718742907, 1267.64], [-119.59193003363907, 37.75192650966346, 1267.64], [-119.59195006638765, 37.75187747552991, 1266.19], [-119.59195761010051, 37.75177379138768, 1264.27], [-119.59190086461604, 37.75169567205012, 1262.35], [-119.59188628010452, 37.75166407227516, 1258.98], [-119.59181067533791, 37.751587964594364, 1254.18], [-119.5917889662087, 37.7515566162765, 1248.89], [-119.59169877693057, 37.75149341672659, 1247.93], [-119.59165301173925, 37.75146810337901, 1244.08], [-119.59152208641171, 37.751580169424415, 1246.01], [-119.59128571674228, 37.75148964487016, 1248.89], [-119.59104331210256, 37.751403730362654, 1250.81], [-119.5908235386014, 37.751367604359984, 1250.81], [-119.59069227799773, 37.75138537399471, 1250.33], [-119.59051349200308, 37.751377411186695, 1251.77], [-119.59032003767788, 37.751359306275845, 1251.77], [-119.59009221754968, 37.75140205398202, 1248.89], [-119.5900000166148, 37.75143348611891, 1248.89], [-119.58989524282515, 37.75155292823911, 1251.29], [-119.58979801274836, 37.75155946612358, 1251.77], [-119.589804969728, 37.75158368982375, 1249.37], [-119.5898602064699, 37.75163909420371, 1249.37], [-119.58983975462615, 37.751668933779, 1251.77], [-119.5898961648345, 37.75171964429319, 1255.62], [-119.58992105908692, 37.75179784744978, 1257.06], [-119.58995014429092, 37.751817209646106, 1256.1], [-119.58992240019143, 37.75183506309986, 1255.14], [-119.58994352258742, 37.75184780359268, 1258.02], [-119.58994528278708, 37.751773623749614, 1257.06], [-119.58988660946488, 37.7517310436815, 1257.54], [-119.58984813652933, 37.751628030091524, 1256.58], [-119.58986087702215, 37.75161034427583, 1254.18], [-119.5898702647537, 37.75153951719403, 1254.18], [-119.58993941545486, 37.751376405358315, 1257.06], [-119.58999842405319, 37.751343632116914, 1257.54], [-119.59011853672564, 37.751290993765, 1257.06], [-119.59033403545618, 37.75123634375632, 1257.06], [-119.59052958525717, 37.75127372704446, 1255.62], [-119.59067626856267, 37.751276744529605, 1256.1], [-119.59070602431893, 37.75125436484814, 1256.58], [-119.59078565239906, 37.75124271400273, 1257.54], [-119.59084516391158, 37.751265512779355, 1257.54], [-119.59105228073895, 37.751351930201054, 1253.22], [-119.5911187492311, 37.75135268457234, 1252.74], [-119.59119150415063, 37.75138394907117, 1251.77], [-119.59137339144945, 37.75142267346382, 1251.29], [-119.59143206477165, 37.7514064963907, 1251.29], [-119.59150515496731, 37.75137078948319, 1251.29], [-119.59153105504811, 37.751354863867164, 1251.77], [-119.5916105993092, 37.75128638371825, 1252.25], [-119.59169718436897, 37.75126366876066, 1251.77], [-119.5917662512511, 37.75120767764747, 1251.77], [-119.59189063869417, 37.75102570652962, 1251.77], [-119.5919044688344, 37.75101061910391, 1251.77], [-119.59206297062337, 37.750936858356, 1252.25], [-119.59215743467212, 37.75088656693697, 1252.25], [-119.59222281351686, 37.75077969767153, 1252.74], [-119.59232532419264, 37.75070593692362, 1253.22], [-119.59253411740065, 37.750646928325295, 1253.22], [-119.59265314042568, 37.750581884756684, 1253.7], [-119.59268624894321, 37.750572077929974, 1253.7], [-119.59283167496324, 37.750449953600764, 1253.7], [-119.59292404353619, 37.750306874513626, 1253.7], [-119.59294030442834, 37.75022607296705, 1253.7], [-119.59295338019729, 37.75020101107657, 1253.7], [-119.59316954948008, 37.75013403967023, 1252.74], [-119.59322319366038, 37.750135799869895, 1252.74], [-119.59328387863934, 37.750143678858876, 1252.25], [-119.59331816062331, 37.750179218128324, 1251.77], [-119.5935451425612, 37.750219367444515, 1251.29], [-119.59373281337321, 37.75033394806087, 1250.81], [-119.59387429989874, 37.75040770880878, 1249.37], [-119.59396180696785, 37.750412402674556, 1249.37], [-119.59414034150541, 37.75047576986253, 1247.93], [-119.59419381804764, 37.75047266855836, 1247.45], [-119.59423421882093, 37.75048649869859, 1247.45], [-119.59435508586466, 37.75049136020243, 1246.97], [-119.5944069698453, 37.75036429055035, 1246.49], [-119.59444804117084, 37.75028315372765, 1246.97], [-119.59451149217784, 37.75013864971697, 1249.85], [-119.59456589072943, 37.7500612847507, 1249.85], [-119.5947103947401, 37.75004418566823, 1249.85], [-119.59474274888635, 37.750029768794775, 1249.85], [-119.59477786906064, 37.75000705383718, 1249.85], [-119.59493813104928, 37.750148959457874, 1246.97], [-119.5950494427234, 37.75029480457306, 1247.45], [-119.5951284840703, 37.750297067686915, 1248.89], [-119.59521657787263, 37.75021651759744, 1249.37], [-119.59536007605493, 37.750060614198446, 1249.85], [-119.59541623480618, 37.750003868713975, 1249.85], [-119.59558035247028, 37.74985861033201, 1249.85], [-119.5955944340676, 37.749840673059225, 1249.85], [-119.59570113569498, 37.749785017222166, 1249.37], [-119.59572435356677, 37.74978275410831, 1250.81], [-119.59579987451434, 37.749750316143036, 1249.85], [-119.5959002058953, 37.74961955845356, 1249.37], [-119.59593733772635, 37.74951646104455, 1246.49], [-119.59594639018178, 37.74954881519079, 1243.6], [-119.59579677321017, 37.74935812689364, 1243.6], [-119.59574740380049, 37.749228961765766, 1243.6], [-119.59578931331635, 37.74917053990066, 1244.08], [-119.59581705741584, 37.74916383437812, 1244.08], [-119.59593180567026, 37.74905235506594, 1245.04], [-119.59600011818111, 37.7490250300616, 1245.04], [-119.59602216258645, 37.74893048219383, 1245.04], [-119.596052672714, 37.748845322057605, 1245.53], [-119.59603968076408, 37.74878195486963, 1245.04], [-119.59608930163085, 37.74863074533641, 1246.01], [-119.59612567909062, 37.74856695905328, 1246.49], [-119.59613590501249, 37.74847710505128, 1246.01], [-119.59618317894638, 37.74834509007633, 1247.93], [-119.59621167741716, 37.74820704013109, 1248.89], [-119.59617127664387, 37.748157838359475, 1248.89], [-119.59622550755739, 37.748137805610895, 1247.93], [-119.59615820087492, 37.74808365851641, 1246.97], [-119.5960883796215, 37.747844606637955, 1248.41], [-119.59612073376775, 37.74763380177319, 1249.85], [-119.59617077372968, 37.74755576625466, 1250.33], [-119.5962110068649, 37.747609578073025, 1248.89], [-119.59623816423118, 37.747539253905416, 1248.41], [-119.59630069322884, 37.74734211154282, 1247.45], [-119.59627714008093, 37.74713390506804, 1247.45], [-119.59624872542918, 37.746952436864376, 1246.01], [-119.59620296023786, 37.74677524343133, 1246.49], [-119.5961597096175, 37.74661590345204, 1246.97], [-119.59616172127426, 37.746570808812976, 1247.45], [-119.59612551145256, 37.746539963409305, 1247.45], [-119.59585628472269, 37.74635748937726, 1246.49], [-119.59572611376643, 37.746261432766914, 1246.01], [-119.595748744905, 37.746249279007316, 1244.08], [-119.59570599719882, 37.74617166258395, 1244.08], [-119.59563575685024, 37.74605540558696, 1243.12], [-119.59565671160817, 37.746082143858075, 1243.6], [-119.59566953592002, 37.74606965482235, 1242.64], [-119.59558144211769, 37.74597820825875, 1244.08], [-119.59555814042687, 37.745884666219354, 1244.56], [-119.59541489370167, 37.74565290659666, 1244.56], [-119.59526812657714, 37.74559071287513, 1245.04], [-119.59516067057848, 37.7456302754581, 1244.08], [-119.59509688429534, 37.74561342783272, 1243.6], [-119.59501574747264, 37.745607141405344, 1244.08], [-119.59493461064994, 37.74554285220802, 1244.08], [-119.59483763203025, 37.74554184637964, 1244.08], [-119.59468550048769, 37.74545350112021, 1239.76], [-119.59456890821457, 37.74547445587814, 1239.28], [-119.59450704976916, 37.745499182492495, 1239.28], [-119.59436120465398, 37.745528100058436, 1238.8], [-119.59429180249572, 37.74557193741202, 1239.28], [-119.59419876337051, 37.74561141617596, 1239.28], [-119.59412533789873, 37.745636561885476, 1239.28], [-119.59393423050642, 37.745654163882136, 1238.8], [-119.59364254027605, 37.74576287716627, 1234.95], [-119.59362770430744, 37.74600578472018, 1233.03], [-119.5934555400163, 37.74614601396024, 1231.59], [-119.5933810248971, 37.74613369256258, 1231.59], [-119.59319310262799, 37.746088011190295, 1230.62], [-119.59299361333251, 37.74598902091384, 1229.18], [-119.59270401857793, 37.746044509112835, 1224.86], [-119.5924605242908, 37.74613553658128, 1221.49], [-119.5923413336277, 37.74609069339931, 1220.53], [-119.59233538247645, 37.74605062790215, 1213.8], [-119.59240511991084, 37.74610972031951, 1213.8], [-119.59240335971117, 37.74612044915557, 1213.8], [-119.59233169443905, 37.746090441942215, 1213.8], [-119.5923310238868, 37.74607501924038, 1214.28], [-119.59235885180533, 37.74609790183604, 1216.21], [-119.59242925979197, 37.74611718021333, 1215.72], [-119.59239556454122, 37.74609404616058, 1218.13], [-119.59249204024673, 37.746078288182616, 1215.72], [-119.5925971493125, 37.74603947997093, 1217.17], [-119.59271935746074, 37.745978878811, 1217.65], [-119.5929782744497, 37.74586538784206, 1217.65], [-119.59316368214786, 37.745770085603, 1217.65], [-119.59321657195687, 37.74573789909482, 1218.13], [-119.59344145841897, 37.74566472508013, 1218.61], [-119.59354187361896, 37.74559850804508, 1218.61], [-119.59364572539926, 37.745560286566615, 1219.09], [-119.59377983585, 37.745464062318206, 1218.61], [-119.59381244145334, 37.745444951578975, 1218.61], [-119.59402265958488, 37.74545785970986, 1220.05], [-119.59411603398621, 37.74547001346946, 1221.01], [-119.5943044591695, 37.745441514998674, 1221.97], [-119.59440001286566, 37.745462050661445, 1222.45], [-119.5946826506406, 37.745527597144246, 1228.7], [-119.59489211440086, 37.745477221906185, 1232.07], [-119.59509436972439, 37.745471354573965, 1233.99], [-119.59510434418917, 37.74546389468014, 1233.99], [-119.59519914351404, 37.74542558938265, 1234.95], [-119.59530944935977, 37.74549297988415, 1235.91], [-119.59540726616979, 37.74554670788348, 1237.35], [-119.59547507576644, 37.7455919701606, 1237.83], [-119.5955650974065, 37.7456025313586, 1237.83], [-119.59566123783588, 37.74568450637162, 1238.32], [-119.59601822309196, 37.745796740055084, 1241.2], [-119.59639247506857, 37.745818700641394, 1242.64], [-119.59667662158608, 37.74583269841969, 1243.6], [-119.5967242307961, 37.745831441134214, 1243.6], [-119.59671869874, 37.745782071724534, 1242.64], [-119.5967015158385, 37.74590243585408, 1241.68], [-119.5967031084001, 37.745917942374945, 1241.2], [-119.59674200043082, 37.74595423601568, 1241.68], [-119.59677703678608, 37.74597309529781, 1241.68], [-119.59698675200343, 37.746016681194305, 1240.72], [-119.59699773229659, 37.746029421687126, 1240.72], [-119.59708783775568, 37.74609220214188, 1240.72], [-119.59715363569558, 37.746094381436706, 1240.72], [-119.59739704616368, 37.746028415858746, 1241.68], [-119.59747022017837, 37.74597619660199, 1241.68], [-119.59755227901042, 37.745887599885464, 1242.16], [-119.59758387878537, 37.745792800560594, 1242.16], [-119.59762419573963, 37.74573412723839, 1242.16], [-119.59766845218837, 37.7456820756197, 1242.64], [-119.5978725515306, 37.745580319315195, 1243.12], [-119.59789057262242, 37.745570093393326, 1243.12], [-119.59800967946649, 37.74548292160034, 1243.6], [-119.59816633723676, 37.745431791990995, 1243.6], [-119.59836599417031, 37.745383847504854, 1243.6], [-119.59844453260303, 37.74535920470953, 1243.6], [-119.59859197027981, 37.745318468660116, 1243.6], [-119.59879238158464, 37.745310170575976, 1244.08], [-119.59882196970284, 37.74529625661671, 1243.6], [-119.59894602186978, 37.745273960754275, 1244.08], [-119.59918230772018, 37.74514219723642, 1245.53], [-119.59922161884606, 37.74512476287782, 1245.53], [-119.59927241317928, 37.74508746340871, 1245.53], [-119.59935866296291, 37.74505871348083, 1245.53], [-119.59948212839663, 37.74493466131389, 1245.53], [-119.59952177479863, 37.744863918051124, 1245.04], [-119.5995581522584, 37.7447927556932, 1244.56], [-119.5995856449008, 37.74465277791023, 1244.56], [-119.5996599085629, 37.74459452368319, 1245.04], [-119.59978999570012, 37.74463123641908, 1250.33], [-119.59983416832983, 37.744546914473176, 1250.33], [-119.60001396015286, 37.74435656145215, 1253.22], [-119.60008000954986, 37.74433745071292, 1253.22], [-119.6001710370183, 37.74429009296, 1253.22], [-119.60025200620294, 37.74411281570792, 1253.22], [-119.60032836534083, 37.74405221454799, 1253.22], [-119.60043565370142, 37.74385817348957, 1253.22], [-119.60047739557922, 37.743710316717625, 1253.22], [-119.60047647356987, 37.743691708892584, 1253.22], [-119.6005024574697, 37.74367670528591, 1253.22], [-119.60056431591511, 37.743500266224146, 1253.22], [-119.60058283992112, 37.74342700839043, 1253.22], [-119.60063179023564, 37.743388786911964, 1253.22], [-119.60072617046535, 37.743270518258214, 1253.22], [-119.60078484378755, 37.74323455989361, 1253.22], [-119.6008856780827, 37.74309919215739, 1253.22], [-119.6009998396039, 37.74291671812534, 1253.7], [-119.6010220516473, 37.74282317608595, 1257.06], [-119.60104074329138, 37.74278646335006, 1256.1], [-119.60106639191508, 37.74278185330331, 1256.1], [-119.60115088149905, 37.74270448833704, 1251.29], [-119.60129421204329, 37.742605078965425, 1251.77], [-119.6013968065381, 37.7424424700439, 1251.77], [-119.60143846459687, 37.74238362908363, 1252.74], [-119.601518092677, 37.74233476258814, 1253.22], [-119.60167885757983, 37.74224172346294, 1253.22], [-119.60183383896947, 37.74220366962254, 1256.58], [-119.6021069213748, 37.742339707911015, 1239.28], [-119.60237078368664, 37.74244154803455, 1234.95], [-119.60253708064556, 37.742489743977785, 1236.39], [-119.60269742645323, 37.74254363961518, 1240.24], [-119.60291535593569, 37.74258932098746, 1242.64], [-119.6031307708472, 37.74266048334539, 1244.56], [-119.60319874808192, 37.74275176227093, 1244.56], [-119.60322607308626, 37.742877742275596, 1241.2], [-119.60323831066489, 37.74288838729262, 1241.2], [-119.60335263982415, 37.742950161919, 1243.6], [-119.60337317548692, 37.743007242679596, 1244.08], [-119.60332514718175, 37.74307396262884, 1243.12], [-119.60320495069027, 37.743110340088606, 1242.64], [-119.60314745083451, 37.743212431669235, 1241.68], [-119.6031759493053, 37.74323271587491, 1241.68], [-119.60338742472231, 37.74325995706022, 1241.2], [-119.60347509942949, 37.743280408903956, 1241.68], [-119.60354106500745, 37.74334570392966, 1242.16], [-119.60355246439576, 37.74345215409994, 1244.08], [-119.60349689237773, 37.74349498562515, 1244.56], [-119.60353553295135, 37.743555922061205, 1246.49], [-119.60356704890728, 37.74358659982681, 1246.97], [-119.60355564951897, 37.743658097460866, 1246.97], [-119.60359789431095, 37.74369690567255, 1249.37], [-119.60366335697472, 37.74377418681979, 1252.25], [-119.60365690290928, 37.74385029450059, 1253.22], [-119.60365790873766, 37.74388583377004, 1255.14], [-119.60377274081111, 37.7439293358475, 1256.58], [-119.6037528757006, 37.743944339454174, 1257.06], [-119.60379419848323, 37.743958001956344, 1259.46], [-119.60381456650794, 37.74399220012128, 1260.43], [-119.60384071804583, 37.74400343187153, 1260.43], [-119.6038789395243, 37.744011394679546, 1260.91], [-119.60390014573932, 37.74410284124315, 1262.35], [-119.60396041162312, 37.744119772687554, 1266.67], [-119.60397650487721, 37.74412061087787, 1267.64], [-119.60403635166585, 37.74410208687186, 1268.12], [-119.60409510880709, 37.744179870933294, 1271.0], [-119.60410416126251, 37.744213650003076, 1271.0], [-119.60408672690392, 37.744250278919935, 1271.48], [-119.60414942353964, 37.74424910545349, 1272.44], [-119.60418588481843, 37.74426310323179, 1273.4], [-119.6042914967984, 37.74424499832094, 1273.88], [-119.60427473299205, 37.744291350245476, 1279.65], [-119.60427741520107, 37.74427148513496, 1282.54], [-119.60435293614864, 37.744240472093225, 1283.02], [-119.60436659865081, 37.74425354786217, 1284.46], [-119.60429870523512, 37.74428372271359, 1288.3], [-119.6042275428772, 37.744326973333955, 1294.07], [-119.60426241159439, 37.74432186037302, 1295.03], [-119.60431479848921, 37.74432135745883, 1296.48], [-119.60428998805583, 37.74434516206384, 1297.44], [-119.60425428114831, 37.74436687119305, 1300.32], [-119.6042531915009, 37.74438329972327, 1300.8], [-119.60431479848921, 37.74436921812594, 1302.72], [-119.60444245487452, 37.74435614235699, 1308.49], [-119.60450699552894, 37.744277184829116, 1313.3], [-119.60455804131925, 37.744335355237126, 1316.66], [-119.6045639924705, 37.74438195861876, 1318.1], [-119.60457220673561, 37.74448547512293, 1318.59], [-119.60460447706282, 37.744446666911244, 1320.99], [-119.6046054828912, 37.744406601414084, 1322.91], [-119.60464387200773, 37.744360249489546, 1326.28], [-119.60467371158302, 37.744353795424104, 1327.24], [-119.60462182760239, 37.74439034052193, 1331.56], [-119.60465208627284, 37.7444661129266, 1330.6], [-119.60470899939537, 37.74459251202643, 1332.04], [-119.60473213344812, 37.74463349953294, 1331.56], [-119.60477706044912, 37.74462427943945, 1332.52], [-119.60484973154962, 37.744519505649805, 1335.89], [-119.6048766374588, 37.7445078548044, 1337.33], [-119.60489817894995, 37.74455194361508, 1337.81], [-119.60489952005446, 37.74460676126182, 1337.81], [-119.60487646982074, 37.74471270851791, 1341.18], [-119.60487060248852, 37.744760401546955, 1341.18], [-119.6049559302628, 37.744737854227424, 1341.18], [-119.60498903878033, 37.74471555836499, 1342.62], [-119.6049754600972, 37.74476400576532, 1345.5], [-119.60497437044978, 37.74480423890054, 1349.83], [-119.60508517920971, 37.74475621059537, 1355.12], [-119.60510563105345, 37.74476995691657, 1357.04], [-119.60513706319034, 37.74481790140271, 1356.08], [-119.60511946119368, 37.74486274458468, 1356.08], [-119.60520395077765, 37.74480071850121, 1363.29], [-119.60521845147014, 37.74488721974194, 1362.81], [-119.60526547394693, 37.744905995205045, 1365.69], [-119.60530604235828, 37.74485654197633, 1369.54], [-119.60530595853925, 37.744847405701876, 1370.02], [-119.60536236874759, 37.744815135374665, 1372.42], [-119.605474434793, 37.7448152191937, 1368.57], [-119.60544023662806, 37.744809687137604, 1367.61], [-119.60547057911754, 37.744842963293195, 1366.17], [-119.60546085610986, 37.74486408568919, 1362.33], [-119.60542062297463, 37.74484137073159, 1365.21], [-119.60545314475894, 37.74489878676832, 1366.17], [-119.6054810564965, 37.74493214674294, 1366.65], [-119.60549522191286, 37.74493742734194, 1370.02], [-119.6055225469172, 37.744891829788685, 1372.9], [-119.60561642423272, 37.744852267205715, 1373.86], [-119.60561390966177, 37.74487590417266, 1374.82], [-119.60562136955559, 37.74499517865479, 1377.71], [-119.60567174479365, 37.74509576149285, 1379.15], [-119.60568859241903, 37.74510548450053, 1379.63], [-119.60573997348547, 37.745066341012716, 1377.71], [-119.60580342449248, 37.74500456638634, 1376.75], [-119.60588246583939, 37.7449703682214, 1376.26], [-119.6059107966721, 37.74501462467015, 1380.11], [-119.60601171478629, 37.745002303272486, 1380.59], [-119.60601012222469, 37.74501462467015, 1381.07], [-119.60601590573788, 37.745114620774984, 1383.96], [-119.6059903409332, 37.74518913589418, 1389.24], [-119.60599017329514, 37.74528209120035, 1393.57], [-119.60603141225874, 37.7452330570668, 1393.57], [-119.60607793182135, 37.745208917185664, 1393.57], [-119.60611372254789, 37.745181592181325, 1393.57], [-119.60614297538996, 37.7451812569052, 1393.09], [-119.60620114579797, 37.74517002515495, 1393.57], [-119.60617759265006, 37.74526826106012, 1396.93], [-119.60621505975723, 37.74525308981538, 1397.41], [-119.60626116022468, 37.74520732462406, 1399.82], [-119.60629384964705, 37.74524043314159, 1400.3], [-119.60632209666073, 37.74524973705411, 1400.78], [-119.60632637143135, 37.745271446183324, 1400.3], [-119.60629401728511, 37.74534889496863, 1402.22], [-119.60631824098527, 37.74534411728382, 1403.18], [-119.6063880622387, 37.74529868736863, 1403.18], [-119.60646375082433, 37.74529818445444, 1403.66], [-119.60641320794821, 37.745393235236406, 1408.95], [-119.60641882382333, 37.74540597572923, 1408.95], [-119.60648621432483, 37.74551737122238, 1406.55], [-119.60647473111749, 37.7455869410187, 1410.39], [-119.60648537613451, 37.74562030099332, 1411.83], [-119.60648277774453, 37.745667742565274, 1413.28], [-119.60647137835622, 37.745695151388645, 1414.24], [-119.60639770142734, 37.745776707306504, 1417.12], [-119.60637892596424, 37.7457872685045, 1417.12], [-119.60631522350013, 37.74587125517428, 1417.6], [-119.60621505975723, 37.74592959322035, 1417.6], [-119.60609930567443, 37.74597108364105, 1419.04], [-119.60600852966309, 37.74598851799965, 1419.04], [-119.60600106976926, 37.74599530734122, 1419.04], [-119.6058663725853, 37.746010310947895, 1419.52], [-119.60568398237228, 37.74600519798696, 1420.49], [-119.60554325021803, 37.74605515412986, 1422.41], [-119.60527285002172, 37.74607795290649, 1437.31], [-119.6051353868097, 37.74614056572318, 1440.19], [-119.60499616339803, 37.74616001173854, 1442.6], [-119.60493128746748, 37.746177446097136, 1443.56], [-119.60490614175797, 37.74621130898595, 1445.0], [-119.60493153892457, 37.746245339512825, 1448.84], [-119.60490739904344, 37.74625481106341, 1449.81], [-119.60482659749687, 37.74624709971249, 1452.69], [-119.60477001965046, 37.7462294138968, 1455.57], [-119.60453876294196, 37.74619412608445, 1462.3], [-119.60445259697735, 37.74617526680231, 1464.23], [-119.60441152565181, 37.74623243138194, 1467.11], [-119.6043015550822, 37.74624567478895, 1469.03], [-119.60416954010725, 37.746266294270754, 1471.92], [-119.60399435833097, 37.7461670525372, 1469.51], [-119.60398681461811, 37.74633158929646, 1468.55], [-119.60396032780409, 37.746359165757895, 1470.95], [-119.60396711714566, 37.7463864069432, 1471.92], [-119.60384516045451, 37.74626478552818, 1477.68], [-119.60380492731929, 37.746247351169586, 1478.65], [-119.60379260592163, 37.74638104252517, 1478.65], [-119.60379193536937, 37.746470058336854, 1482.01], [-119.60378162562847, 37.74646678939462, 1482.49], [-119.60372588597238, 37.74641674943268, 1484.41], [-119.6036450844258, 37.74635002948344, 1486.34], [-119.60351692512631, 37.74630996398628, 1490.18], [-119.6034782845527, 37.74635354988277, 1492.58], [-119.60357300005853, 37.74645413272083, 1496.43], [-119.60354785434902, 37.74644793011248, 1497.39], [-119.60349731147289, 37.74641616269946, 1499.31], [-119.6033501252532, 37.74637592956424, 1505.08], [-119.60317259654403, 37.74634852074087, 1507.48], [-119.60310520604253, 37.74636788293719, 1508.45], [-119.60309171117842, 37.74637944996357, 1508.45], [-119.60318592377007, 37.746456898748875, 1509.41], [-119.60318131372333, 37.7464778535068, 1514.69], [-119.60308458656073, 37.746448097750545, 1520.46], [-119.60311811417341, 37.746481373906136, 1522.39], [-119.60312029346824, 37.74649637751281, 1521.42], [-119.60310361348093, 37.746493527665734, 1519.5], [-119.60327175445855, 37.74645136669278, 1525.75], [-119.60320235230029, 37.746423706412315, 1536.8], [-119.60318374447525, 37.74645664729178, 1533.44], [-119.60314535535872, 37.746485229581594, 1524.31], [-119.60314652882516, 37.74650794453919, 1522.87], [-119.60320067591965, 37.7464762609452, 1526.71], [-119.60324635729194, 37.74648388847709, 1529.59], [-119.60327066481113, 37.746529234573245, 1530.08], [-119.6032549906522, 37.74657843634486, 1530.56], [-119.60318081080914, 37.74658849462867, 1531.04], [-119.60302071645856, 37.74654557928443, 1536.8], [-119.60288870148361, 37.746579525992274, 1541.61], [-119.60288593545556, 37.74662269279361, 1542.57], [-119.60294150747359, 37.74670441634953, 1542.57], [-119.60292365401983, 37.74674506857991, 1541.61], [-119.60283438675106, 37.746813129633665, 1544.98], [-119.60277906619012, 37.746872724965215, 1547.38], [-119.60273095406592, 37.746942127123475, 1548.82], [-119.60271284915507, 37.746994430199265, 1550.26], [-119.60268661379814, 37.74705679155886, 1554.11], [-119.60266021080315, 37.747088726609945, 1555.55], [-119.60260204039514, 37.747134659439325, 1556.99], [-119.60247379727662, 37.74721470661461, 1559.88], [-119.60245016030967, 37.74722132831812, 1560.36], [-119.60234446451068, 37.747320318594575, 1563.24], [-119.60229090414941, 37.74734412319958, 1564.2], [-119.60224044509232, 37.747405814006925, 1565.64], [-119.60217506624758, 37.74759306572378, 1567.09], [-119.60217012092471, 37.7478320337832, 1567.09], [-119.60218998603523, 37.7480511367321, 1567.57], [-119.6021809335798, 37.74821860715747, 1568.53], [-119.6020411234349, 37.74837300181389, 1570.45], [-119.60199586115777, 37.748481798917055, 1572.85], [-119.60178547538817, 37.748613227158785, 1574.3], [-119.60159218870103, 37.748712385073304, 1574.3], [-119.6014903485775, 37.748749013990164, 1574.78], [-119.60146562196314, 37.74868522770703, 1576.22], [-119.60129085928202, 37.748816069215536, 1575.26], [-119.60123302415013, 37.74884590879083, 1575.74], [-119.60113545879722, 37.7488920930773, 1578.14], [-119.60096782073379, 37.74899426847696, 1580.06], [-119.60095323622227, 37.74906693957746, 1577.66], [-119.60088995285332, 37.74916366674006, 1576.22], [-119.60082046687603, 37.74927757680416, 1576.22], [-119.60076238028705, 37.74930456653237, 1576.22], [-119.6006628870964, 37.74936022236943, 1574.3], [-119.60061653517187, 37.74936986155808, 1573.33], [-119.60051653906703, 37.74939584545791, 1573.33], [-119.60034093819559, 37.74948259815574, 1573.82], [-119.60014220327139, 37.749548479914665, 1573.82], [-119.5999656803906, 37.74965241551399, 1572.37], [-119.5998790115118, 37.74971519596875, 1571.89], [-119.59973006509244, 37.749820640310645, 1570.45], [-119.59953166544437, 37.74989649653435, 1571.41], [-119.59926662966609, 37.750032702460885, 1570.45], [-119.599234694615, 37.750065391883254, 1569.97], [-119.59913394413888, 37.75012104772031, 1569.97], [-119.5990795455873, 37.75012590922415, 1569.49], [-119.598957169801, 37.75016354396939, 1568.53], [-119.5987861789763, 37.75020243600011, 1568.05], [-119.59874108433723, 37.7502166852355, 1568.05], [-119.59855894558132, 37.75037594139576, 1568.53], [-119.59857730194926, 37.75054902769625, 1558.43], [-119.59858794696629, 37.75068439543247, 1554.11], [-119.59859339520335, 37.75070828385651, 1553.63], [-119.59862784482539, 37.75078204460442, 1549.78], [-119.59851678460836, 37.75074055418372, 1549.3], [-119.59852734580636, 37.75076695717871, 1547.38], [-119.59857596084476, 37.750931829214096, 1543.53], [-119.5986564271152, 37.751051941886544, 1541.61], [-119.59868056699634, 37.751082284376025, 1541.13], [-119.59872893057764, 37.75128931738436, 1537.77], [-119.59874141961336, 37.7513890620321, 1536.32], [-119.59877897053957, 37.75155016221106, 1533.92], [-119.59882817231119, 37.7517466340214, 1531.52], [-119.59887519478798, 37.75194578804076, 1527.67], [-119.59885600022972, 37.7520280983299, 1529.59], [-119.59894250147045, 37.75225583463907, 1527.67], [-119.59901642985642, 37.752460269257426, 1524.31], [-119.59904744289815, 37.752654226496816, 1524.79], [-119.5990573335439, 37.752679623663425, 1525.27], [-119.5990713313222, 37.752972235903144, 1529.11], [-119.59909555502236, 37.75311724282801, 1529.59], [-119.59908708930016, 37.75322754867375, 1529.59], [-119.59917426109314, 37.75333718396723, 1529.59], [-119.59922413341701, 37.75346458889544, 1529.59], [-119.59921918809414, 37.75357615202665, 1529.59], [-119.59918373264372, 37.75362325832248, 1529.11], [-119.59916931577027, 37.75367958471179, 1529.11], [-119.59927232936025, 37.753669107332826, 1529.11], [-119.59929051809013, 37.75368461385369, 1529.11], [-119.59927903488278, 37.75377346202731, 1529.59], [-119.59925598464906, 37.753827860578895, 1529.59], [-119.5992381311953, 37.75388712063432, 1529.59], [-119.59919286891818, 37.753969095647335, 1529.11], [-119.5992351975292, 37.75397328659892, 1529.11], [-119.59931088611484, 37.75396113283932, 1528.63], [-119.59938255138695, 37.753969514742494, 1529.11], [-119.59944541566074, 37.75400337763131, 1529.11], [-119.59945446811616, 37.753958366811275, 1528.63], [-119.59954583086073, 37.753910422325134, 1529.11], [-119.59959880448878, 37.75393313728273, 1529.11], [-119.59968186914921, 37.75398242287338, 1529.59], [-119.59968438372016, 37.75401385501027, 1529.59], [-119.59966066293418, 37.75408753193915, 1529.59], [-119.59966477006674, 37.754097590222955, 1529.59], [-119.59963526576757, 37.754177805036306, 1529.59], [-119.59973132237792, 37.75419456884265, 1529.59], [-119.59978546947241, 37.7541867736727, 1529.59], [-119.59989904426038, 37.75409457273781, 1529.59], [-119.60006391629577, 37.75409440509975, 1529.59], [-119.60009107366204, 37.754148468375206, 1530.08], [-119.60009509697556, 37.754197753965855, 1530.08], [-119.60008026100695, 37.754222145304084, 1530.08], [-119.60005863569677, 37.754294984042645, 1530.08], [-119.60001789964736, 37.75437788106501, 1530.56], [-119.60007028654218, 37.75437033735216, 1530.08], [-119.60012761875987, 37.7543680742383, 1530.08], [-119.60013206116855, 37.75441015139222, 1530.08], [-119.60011848248541, 37.75445407256484, 1530.08], [-119.60012393072248, 37.75454392656684, 1530.08], [-119.60013742558658, 37.75458273477852, 1530.08], [-119.60023121908307, 37.75460209697485, 1530.08], [-119.60029089823365, 37.754537388682365, 1530.08], [-119.60039282217622, 37.75449665263295, 1530.08], [-119.60043749772012, 37.754541328176856, 1530.08], [-119.60044621489942, 37.75463730096817, 1530.56], [-119.60050002671778, 37.75476638227701, 1530.08], [-119.60051310248673, 37.75483226403594, 1530.08], [-119.60048058070242, 37.75490066036582, 1530.08], [-119.60048376582563, 37.754927817732096, 1530.08], [-119.600669760257, 37.755049439147115, 1530.56], [-119.6008737757802, 37.75510115548968, 1530.56], [-119.60096421651542, 37.75514650158584, 1531.04], [-119.60087997838855, 37.75512152351439, 1531.04], [-119.60086723789573, 37.75502236559987, 1530.56], [-119.6009670663625, 37.75494860485196, 1530.56], [-119.6010014321655, 37.75502370670438, 1531.04], [-119.60103697143495, 37.75505647994578, 1530.56], [-119.60103923454881, 37.75512412190437, 1531.04], [-119.6010828204453, 37.7551035862416, 1531.04], [-119.6011467743665, 37.755010295659304, 1530.56], [-119.60119480267167, 37.75492127984762, 1530.08], [-119.6012226305902, 37.754832515493035, 1530.08], [-119.60123042576015, 37.75479739531875, 1530.08], [-119.60134760476649, 37.75473176501691, 1530.08], [-119.60141625255346, 37.754636546596885, 1529.59], [-119.60144206881523, 37.75459664873779, 1529.59], [-119.60145304910839, 37.75455180555582, 1529.11], [-119.60153267718852, 37.7545855846256, 1530.08], [-119.60157081484795, 37.754633193835616, 1530.08], [-119.60161624476314, 37.754696644842625, 1530.08], [-119.60165387950838, 37.754777278751135, 1530.56], [-119.60167609155178, 37.75489730760455, 1530.56], [-119.60170727223158, 37.754914155229926, 1530.56], [-119.60178044624627, 37.75487216189504, 1530.56], [-119.6018772572279, 37.754792449995875, 1530.56], [-119.60193081758916, 37.754758251830935, 1530.56], [-119.60198974236846, 37.75468625128269, 1530.56], [-119.60204791277647, 37.75471055880189, 1530.56], [-119.60204514674842, 37.754813488572836, 1530.56], [-119.60205612704158, 37.75484014302492, 1530.56], [-119.60209602490067, 37.754843747243285, 1530.56], [-119.6021172311157, 37.754828659817576, 1530.56], [-119.60224337875843, 37.75475515052676, 1530.56], [-119.60222435183823, 37.75484592653811, 1530.56], [-119.6022411994636, 37.75485908612609, 1530.56], [-119.60226424969733, 37.75483377277851, 1530.56], [-119.60231269709766, 37.75486260652542, 1530.56], [-119.60235024802387, 37.754895547404885, 1530.56], [-119.60241470485926, 37.754888674244285, 1530.56], [-119.60240724496543, 37.75498380884528, 1530.56], [-119.60237883031368, 37.755034854635596, 1530.56], [-119.60237656719983, 37.75506285019219, 1530.56], [-119.60239576175809, 37.75507944636047, 1530.56], [-119.60250187665224, 37.75504952296615, 1530.56], [-119.60260790772736, 37.75499545969069, 1530.56], [-119.60267898626626, 37.75491574779153, 1530.56], [-119.6027647331357, 37.7549188490957, 1530.56], [-119.60274838842452, 37.755028903484344, 1531.04], [-119.60271527990699, 37.75508036836982, 1530.56], [-119.602717962116, 37.75517173111439, 1530.56], [-119.6027507353574, 37.7552555501461, 1531.04], [-119.60277453996241, 37.75520936585963, 1530.56], [-119.602828938514, 37.75519913993776, 1530.56], [-119.60283589549363, 37.755311289802194, 1531.04], [-119.60283455438912, 37.75539309717715, 1531.04], [-119.60285467095673, 37.755404245108366, 1531.04], [-119.60297243669629, 37.75532562285662, 1531.04], [-119.60312247276306, 37.75517919100821, 1530.56], [-119.60319162346423, 37.755241049453616, 1530.56], [-119.60326949134469, 37.75527348741889, 1531.04], [-119.60326932370663, 37.75535495951772, 1531.04], [-119.60328927263618, 37.755378261208534, 1531.04], [-119.60325415246189, 37.75552812963724, 1530.56], [-119.6032414957881, 37.75559694506228, 1531.04], [-119.60325825959444, 37.755664167925715, 1531.04], [-119.60330804809928, 37.75570951402187, 1531.04], [-119.60335289128125, 37.75571320205927, 1531.04], [-119.60343520157039, 37.755657797679305, 1531.04], [-119.60355523042381, 37.75557364337146, 1531.52], [-119.60362731479108, 37.75554514490068, 1531.52], [-119.60375832393765, 37.755473563447595, 1532.0], [-119.60381045937538, 37.755450094118714, 1532.48], [-119.60389830172062, 37.75539770722389, 1532.96], [-119.60390048101544, 37.75543768890202, 1532.96], [-119.6038718149066, 37.75555771775544, 1532.96], [-119.60384189151227, 37.75564824230969, 1532.96], [-119.60379553958774, 37.75592124089599, 1533.92], [-119.60378237999976, 37.75595753453672, 1533.92], [-119.60373066365719, 37.756028696894646, 1534.4], [-119.6037338487804, 37.75605568662286, 1534.4], [-119.60377684794366, 37.75606348179281, 1533.92], [-119.60385915823281, 37.75610128417611, 1534.4], [-119.60386955179274, 37.75614998303354, 1534.88], [-119.60393610410392, 37.75617940351367, 1534.88], [-119.6039749123156, 37.75620387867093, 1535.84], [-119.60397667251527, 37.75622139684856, 1536.32], [-119.60384516045451, 37.75628057308495, 1536.8], [-119.60378397256136, 37.75631527416408, 1537.29], [-119.60366746410728, 37.756347209215164, 1537.29], [-119.60362991318107, 37.756375540047884, 1537.77], [-119.60366729646921, 37.756433710455894, 1537.77], [-119.60371968336403, 37.756470926105976, 1538.25], [-119.60370518267155, 37.756484504789114, 1538.73], [-119.60354265756905, 37.75652029551566, 1539.69], [-119.60357693955302, 37.75656874291599, 1539.69], [-119.60344777442515, 37.75658265687525, 1539.69], [-119.60350175388157, 37.75661417283118, 1539.21], [-119.60355212911963, 37.75663085281849, 1539.69], [-119.60373225621879, 37.756669744849205, 1539.21], [-119.60384826175869, 37.75670612230897, 1539.21], [-119.60396577604115, 37.756706457585096, 1540.17], [-119.60395161062479, 37.75674878619611, 1540.65], [-119.60391070693731, 37.7567717526108, 1542.57], [-119.60384507663548, 37.75684090331197, 1543.05], [-119.60377475246787, 37.75689932517707, 1543.53], [-119.60373946465552, 37.75693327188492, 1544.01], [-119.60367819294333, 37.756944838911295, 1544.5], [-119.60354785434902, 37.75693285278976, 1544.5], [-119.60340779274702, 37.756933104246855, 1544.5], [-119.6033107303083, 37.75696495547891, 1544.5], [-119.60320034064353, 37.75699630379677, 1544.5], [-119.60319665260613, 37.75701113976538, 1544.5], [-119.60334098897874, 37.75707174092531, 1544.5], [-119.603360183537, 37.75708775036037, 1544.5], [-119.60339781828225, 37.75710635818541, 1544.01], [-119.60351021960378, 37.757196547463536, 1543.53], [-119.60352882742882, 37.7572035882622, 1543.53], [-119.60357350297272, 37.75720710866153, 1544.01], [-119.60361080244184, 37.75721473619342, 1544.01], [-119.60369638167322, 37.75727047584951, 1544.01], [-119.60386569611728, 37.757296124473214, 1544.5], [-119.60396192036569, 37.75734281167388, 1544.98], [-119.60403618402779, 37.757337195798755, 1545.94], [-119.6040925104171, 37.757341638207436, 1546.42], [-119.60416870191693, 37.7573330886662, 1546.42], [-119.60428110323846, 37.757329903542995, 1546.9], [-119.60433055646718, 37.75732244364917, 1548.34], [-119.60433097556233, 37.75733744725585, 1550.26], [-119.60428361780941, 37.75733761489391, 1550.74], [-119.60415286011994, 37.75741171091795, 1551.22], [-119.60399460978806, 37.75742051191628, 1551.71], [-119.60384641773999, 37.75740257464349, 1552.19], [-119.60373971611261, 37.75739645585418, 1552.67], [-119.60371239110827, 37.75740793906152, 1552.19], [-119.60381431505084, 37.75745286606252, 1552.19], [-119.60372379049659, 37.757502319291234, 1552.19], [-119.6036714874208, 37.757507264614105, 1553.63], [-119.60354777052999, 37.7575558796525, 1553.63], [-119.60355062037706, 37.75756074115634, 1553.63], [-119.60369152016938, 37.75761212222278, 1554.11], [-119.6037798654288, 37.75763986632228, 1554.11], [-119.60383309051394, 37.757633747532964, 1554.11], [-119.60406384430826, 37.757559986785054, 1554.11], [-119.60415286011994, 37.757552694529295, 1554.59], [-119.60426324978471, 37.75761337950826, 1555.07], [-119.60382982157171, 37.7577218413353, 1555.07], [-119.60380886681378, 37.757737347856164, 1555.07], [-119.60385563783348, 37.7577752340585, 1555.07], [-119.60392118431628, 37.75778688490391, 1555.07], [-119.6040528640151, 37.75783290155232, 1555.07], [-119.60424271412194, 37.75775562040508, 1555.55], [-119.60443926975131, 37.75773282162845, 1556.03], [-119.60446642711759, 37.757756961509585, 1556.51], [-119.60443046875298, 37.75779644027352, 1556.51], [-119.60443901829422, 37.75779275223613, 1556.51], [-119.60461151786149, 37.757785711437464, 1556.99], [-119.60467002354562, 37.75777623988688, 1556.99], [-119.60482969880104, 37.75776006281376, 1556.99], [-119.60476758889854, 37.75782418437302, 1557.47], [-119.60468041710556, 37.75789249688387, 1557.47], [-119.60462023504078, 37.75793608278036, 1557.95], [-119.60460263304412, 37.75794379413128, 1557.95], [-119.60457363165915, 37.75796785019338, 1557.95], [-119.60443398915231, 37.75801369920373, 1557.95], [-119.60443189367652, 37.75802300311625, 1558.43], [-119.60458033718169, 37.75799727067351, 1558.43], [-119.60468519479036, 37.7579737175256, 1558.43], [-119.6046421956271, 37.75803700089455, 1558.92], [-119.60459534078836, 37.75805862620473, 1558.92], [-119.60455670021474, 37.758084274828434, 1558.92], [-119.6044468972832, 37.75812375359237, 1559.4], [-119.604446394369, 37.75814621709287, 1559.4], [-119.60447682067752, 37.75814454071224, 1559.88], [-119.60458586923778, 37.75811159983277, 1559.88], [-119.60456022061408, 37.75812719017267, 1560.36], [-119.60446483455598, 37.7581534255296, 1560.36], [-119.60439560003579, 37.758159041404724, 1560.36], [-119.60435721091926, 37.758186869323254, 1560.84], [-119.60433902218938, 37.75821193121374, 1560.84], [-119.60417842492461, 37.758271945640445, 1561.32], [-119.6038195118308, 37.75834796950221, 1561.8], [-119.60363972000778, 37.75837495923042, 1561.8], [-119.60365204140544, 37.75838803499937, 1561.8], [-119.60354810580611, 37.75843438692391, 1562.28], [-119.60353687405586, 37.75846808217466, 1562.76], [-119.60364173166454, 37.75849012658, 1562.76], [-119.6036450844258, 37.75854628533125, 1563.24], [-119.60364382714033, 37.75862532667816, 1563.72], [-119.60348524153233, 37.75870503857732, 1564.2], [-119.60349194705486, 37.75872305966914, 1564.2], [-119.60338030010462, 37.75880930945277, 1564.68], [-119.60328910499811, 37.758850464597344, 1565.16], [-119.60329840891063, 37.75889337994158, 1565.16], [-119.60339572280645, 37.758945263922215, 1565.64], [-119.60352882742882, 37.75895934551954, 1566.12], [-119.60345632396638, 37.75907166302204, 1566.61], [-119.60337317548692, 37.75917358696461, 1566.61], [-119.60359755903482, 37.75916093029082, 1567.09], [-119.60354869253933, 37.75919571518898, 1567.57], [-119.6034087985754, 37.759227650240064, 1568.05], [-119.60339555516839, 37.75922798551619, 1568.05], [-119.60345322266221, 37.75920979678631, 1568.05], [-119.60339756682515, 37.75917073711753, 1568.53], [-119.60317645221949, 37.75920744985342, 1569.01], [-119.60301510058343, 37.759223375469446, 1569.49], [-119.59900201298296, 37.75895481929183, 1730.99], [-119.59849893115461, 37.759385062381625, 1849.71], [-119.59855232387781, 37.75932135991752, 1859.33], [-119.59854109212756, 37.759276516735554, 1864.13], [-119.59837965667248, 37.759205186739564, 1888.17], [-119.59831000305712, 37.75907266885042, 1904.99], [-119.59821168333292, 37.75908758863807, 1920.37], [-119.59803231060505, 37.75909890420735, 1939.6], [-119.5980345737189, 37.75903042405844, 1982.38], [-119.59806147962809, 37.75895909406245, 2004.01], [-119.59803231060505, 37.75885121896863, 2018.43], [-119.59800666198134, 37.758815344423056, 2022.27], [-119.59798067808151, 37.75880729779601, 2023.23], [-119.59796617738903, 37.75879304856062, 2023.23], [-119.59795461036265, 37.75872750207782, 2027.08], [-119.5978619903326, 37.75854938663542, 2031.88], [-119.59781488403678, 37.75840261951089, 2036.21], [-119.59779250435531, 37.75824244134128, 2039.09], [-119.59780633449554, 37.75810254737735, 2042.46], [-119.59781588986516, 37.757909428328276, 2041.5], [-119.59780566394329, 37.75784329511225, 2040.54], [-119.59777800366282, 37.75759560987353, 2040.05], [-119.59779535420239, 37.75740592740476, 2039.57], [-119.59777867421508, 37.757184226065874, 2037.65], [-119.59772737696767, 37.75710912421346, 2035.25], [-119.59765864536166, 37.75705371983349, 2034.29], [-119.5976085215807, 37.757076350972056, 2033.33], [-119.59755772724748, 37.75704927742481, 2033.33], [-119.59750718437135, 37.75704584084451, 2033.81], [-119.59742663428187, 37.7570341899991, 2031.88], [-119.59734356962144, 37.75703754276037, 2030.92], [-119.59727902896702, 37.75706972926855, 2027.08], [-119.59722999483347, 37.757089929655194, 2024.19], [-119.59711910225451, 37.75711842812598, 2020.83], [-119.59701424464583, 37.7571361977607, 2020.35], [-119.59697870537639, 37.757154470309615, 2019.87], [-119.59693922661245, 37.757138293236494, 2016.02], [-119.59691802039742, 37.75710694491863, 2010.73], [-119.59691676311195, 37.757058748975396, 2007.37], [-119.59700661711395, 37.75702773593366, 2002.08], [-119.59700292907655, 37.75697082281113, 1994.87], [-119.59699739702046, 37.757000578567386, 1990.07], [-119.59704391658306, 37.757037710398436, 1995.83], [-119.59700175561011, 37.75695824995637, 1997.76], [-119.59698264487088, 37.75699580088258, 1995.83], [-119.59699479863048, 37.75698599405587, 1997.28], [-119.59698515944183, 37.75697249919176, 1998.72], [-119.59701742976904, 37.75697325356305, 1998.24], [-119.59706126712263, 37.75696034543216, 1997.28], [-119.59711097180843, 37.756959004327655, 1997.76], [-119.59707367233932, 37.756980964913964, 1999.68], [-119.59698717109859, 37.75701088830829, 2004.01], [-119.59689983166754, 37.75706092827022, 2006.89], [-119.59687049500644, 37.75713468901813, 2008.81], [-119.59692581556737, 37.757163690403104, 2011.22], [-119.59695666097105, 37.75714491494, 2011.22], [-119.59719621576369, 37.75710669346154, 2015.06], [-119.59738128818572, 37.7570413146168, 2024.19], [-119.5975046698004, 37.757071405649185, 2028.04], [-119.59759418852627, 37.757054725661874, 2030.92], [-119.5976777561009, 37.75708179920912, 2031.4], [-119.59771354682744, 37.75705464184284, 2031.4], [-119.59768429398537, 37.7570619340986, 2031.4], [-119.59766652435064, 37.75707760825753, 2030.92], [-119.59768085740507, 37.75711113587022, 2029.0], [-119.5976183284074, 37.75719084776938, 2031.88], [-119.59760625846684, 37.757259998470545, 2033.33], [-119.59760340861976, 37.75732386857271, 2034.29], [-119.59764397703111, 37.75742210447788, 2035.25], [-119.59763953462243, 37.75756082497537, 2037.17], [-119.59761623293161, 37.75760508142412, 2036.69], [-119.59763517603278, 37.757731480523944, 2037.17], [-119.59778160788119, 37.7578753978014, 2040.05], [-119.59779359400272, 37.757873721420765, 2040.05], [-119.59781823679805, 37.75783348828554, 2040.05], [-119.59777540527284, 37.757731564342976, 2039.09], [-119.59778470918536, 37.75770398788154, 2038.13], [-119.59777615964413, 37.75765646249056, 2039.09], [-119.59776526317, 37.757844384759665, 2038.61], [-119.59776777774096, 37.75799651630223, 2040.54], [-119.59774455986917, 37.75818284600973, 2043.42], [-119.59773307666183, 37.75821813382208, 2044.86], [-119.59774455986917, 37.758266581222415, 2044.86], [-119.59780449047685, 37.75847705081105, 2043.42], [-119.59788084961474, 37.75866991840303, 2045.34], [-119.59792812354863, 37.758779637515545, 2047.26], [-119.5979500003159, 37.758797239512205, 2047.75], [-119.59799383766949, 37.75882028974593, 2047.75], [-119.5980556961149, 37.75892045348883, 2048.71], [-119.59810070693493, 37.759111477062106, 2047.75], [-119.598159044981, 37.75916889309883, 2047.26], [-119.5982314646244, 37.7592293266207, 2047.26], [-119.59831427782774, 37.759264782071114, 2046.78], [-119.59845148958266, 37.75927685201168, 2045.34], [-119.59846339188516, 37.75929914787412, 2044.86], [-119.59852550178766, 37.75930082425475, 2043.42], [-119.59862264804542, 37.75934876874089, 2039.57], [-119.59868911653757, 37.759399646893144, 2039.09], [-119.59868660196662, 37.759449100121856, 2039.09], [-119.59871367551386, 37.75956083089113, 2037.65], [-119.59872432053089, 37.75961246341467, 2036.21], [-119.59882046096027, 37.75964708067477, 2033.81], [-119.59890981204808, 37.7597042452544, 2032.36], [-119.59897493943572, 37.759717321023345, 2031.88], [-119.59901525638998, 37.75968857109547, 2030.92], [-119.59903906099498, 37.759696785360575, 2030.92], [-119.59913587197661, 37.759710028767586, 2033.81], [-119.59923008456826, 37.75959678925574, 2031.4], [-119.59924533963203, 37.75956175290048, 2031.4], [-119.59932857193053, 37.75953174568713, 2030.44], [-119.59935547783971, 37.759485729038715, 2030.92], [-119.59937567822635, 37.75944038294256, 2030.92], [-119.59940132685006, 37.75937064550817, 2029.48], [-119.5994524564594, 37.7592932805419, 2026.6], [-119.5993729121983, 37.759245838969946, 2027.08], [-119.59942798130214, 37.75911851786077, 2024.67], [-119.59951565600932, 37.75901994667947, 2021.79], [-119.5995806157589, 37.75893864221871, 2017.94], [-119.59963006898761, 37.75891953147948, 2016.02], [-119.5996704697609, 37.75888558477163, 2013.62], [-119.59980139508843, 37.758793300017715, 2007.37], [-119.59974054247141, 37.75876086205244, 2005.45], [-119.59965320304036, 37.75873839855194, 2004.01], [-119.59962755441666, 37.758680479601026, 2004.01], [-119.59973911754787, 37.75858676992357, 2002.56], [-119.59983190521598, 37.75855885818601, 1999.2], [-119.59977080114186, 37.758523151278496, 1998.24], [-119.5998707972467, 37.7584726922214, 1991.99], [-119.60001580417156, 37.75851594284177, 1986.22], [-119.6000692807138, 37.758511416614056, 1984.78], [-119.60015662014484, 37.75853840634227, 1983.82], [-119.6001815982163, 37.75854083709419, 1983.82], [-119.60026307031512, 37.7585178706795, 1981.9], [-119.6002677641809, 37.75849557481706, 1981.41], [-119.60014320909977, 37.75839013047516, 1980.45], [-119.60015712305903, 37.758350651711226, 1980.45], [-119.60033322684467, 37.75834419764578, 1977.09], [-119.6003956720233, 37.75831243023276, 1974.69], [-119.60034160874784, 37.75823263451457, 1974.2], [-119.60016910918057, 37.75821360759437, 1973.72], [-119.60012309253216, 37.75816272944212, 1973.24], [-119.60013180971146, 37.75812660343945, 1973.24], [-119.60019257850945, 37.75810229592025, 1972.28], [-119.60022166371346, 37.758100451901555, 1970.84], [-119.6003835182637, 37.75808008387685, 1964.11], [-119.60034211166203, 37.75803800672293, 1963.63], [-119.60042852908373, 37.75799123570323, 1961.23], [-119.60066271945834, 37.757952846586704, 1957.38], [-119.60084536112845, 37.7579253539443, 1952.57], [-119.60088551044464, 37.75792485103011, 1951.13], [-119.60090805776417, 37.75790188461542, 1947.77], [-119.60083966143429, 37.75785243138671, 1945.85], [-119.6006959117949, 37.75782912969589, 1945.36], [-119.60072030313313, 37.757805744186044, 1944.88], [-119.60078534670174, 37.7578389365226, 1943.92], [-119.60088576190174, 37.7578389365226, 1941.52], [-119.60095315240324, 37.75779828429222, 1936.71], [-119.60094099864364, 37.75776517577469, 1934.79], [-119.60081409662962, 37.75773751549423, 1935.27], [-119.60062416270375, 37.75768454186618, 1935.27], [-119.60054797120392, 37.75765646249056, 1934.79], [-119.60058895871043, 37.75762578472495, 1930.46], [-119.60060597397387, 37.75758555158973, 1928.06], [-119.60078911855817, 37.75752738118172, 1917.01], [-119.60093655623496, 37.75749226100743, 1907.87], [-119.60112263448536, 37.7574694622308, 1901.14], [-119.60120896808803, 37.757445657625794, 1899.22], [-119.60123352706432, 37.75745420716703, 1897.3], [-119.60127149708569, 37.75744389742613, 1895.86], [-119.60137501358986, 37.75739712640643, 1895.38], [-119.60140954703093, 37.757333340123296, 1894.9], [-119.60160694085062, 37.757290257140994, 1895.38], [-119.60150551982224, 37.75721968151629, 1895.38], [-119.60147459059954, 37.757155392318964, 1895.86], [-119.60142446681857, 37.75704366154969, 1895.38], [-119.60123017430305, 37.7569654583931, 1896.34], [-119.6009601932019, 37.75700032711029, 1894.42], [-119.60101165808737, 37.7569617703557, 1887.69], [-119.60102867335081, 37.75696269236505, 1886.72], [-119.60109044797719, 37.7569480240345, 1882.88], [-119.60114920511842, 37.75694467127323, 1877.59], [-119.60130234248936, 37.75691784918308, 1867.98], [-119.60126764141023, 37.75686889886856, 1863.17], [-119.60129396058619, 37.7568272408098, 1861.73], [-119.60136537440121, 37.756748953834176, 1859.81], [-119.60135791450739, 37.75670226663351, 1858.85], [-119.60132002830505, 37.75664149783552, 1857.89], [-119.6013455092907, 37.75664929300547, 1865.58], [-119.60125255398452, 37.75658894330263, 1869.42], [-119.6012469381094, 37.756532952189445, 1870.86], [-119.60139119066298, 37.75643429718912, 1869.9], [-119.60137082263827, 37.756423484534025, 1845.39], [-119.60143871605396, 37.75640822947025, 1841.54], [-119.60143980570138, 37.7564487978816, 1840.1], [-119.60139588452876, 37.756338492035866, 1838.66], [-119.60139370523393, 37.75627898052335, 1837.7], [-119.60141533054411, 37.75624671019614, 1833.85], [-119.60142840631306, 37.75620186701417, 1831.93], [-119.60142128169537, 37.75619457475841, 1831.45], [-119.60150325670838, 37.756117042154074, 1829.53], [-119.60156452842057, 37.756079491227865, 1829.53], [-119.60155731998384, 37.7560742944479, 1830.01], [-119.60150183178484, 37.75608108378947, 1829.53], [-119.6014594193548, 37.75606406852603, 1829.53], [-119.601462604478, 37.75600061751902, 1829.05], [-119.60150585509837, 37.75600682012737, 1829.05], [-119.6013920288533, 37.75597480125725, 1828.56], [-119.60135824978352, 37.75591981597245, 1828.08], [-119.60125020705163, 37.755799954757094, 1817.99], [-119.60126286372542, 37.75566039606929, 1817.51], [-119.60122087039053, 37.755568865686655, 1819.91], [-119.60129362531006, 37.75552058592439, 1819.43], [-119.60129672661424, 37.755426708608866, 1819.91], [-119.60127853788435, 37.75540240108967, 1821.35], [-119.60102808661759, 37.75532285682857, 1824.24], [-119.600984249264, 37.75535177439451, 1824.24], [-119.60074804723263, 37.755408100783825, 1825.2], [-119.60059834644198, 37.75541187264025, 1823.76], [-119.60109598003328, 37.7553472481668, 1803.09], [-119.60135363973677, 37.755276169627905, 1794.44], [-119.60129245184362, 37.75526183657348, 1784.82], [-119.60126479156315, 37.75527658872306, 1782.42], [-119.60126261226833, 37.755232667550445, 1773.77], [-119.60127292200923, 37.755203917622566, 1768.96], [-119.60116948932409, 37.75513518601656, 1768.96], [-119.6012506261468, 37.75515773333609, 1766.56], [-119.60147182457149, 37.755118338391185, 1763.68], [-119.60148766636848, 37.75510978884995, 1763.68], [-119.60155354812741, 37.755011804401875, 1764.16], [-119.60152764804661, 37.75498917326331, 1763.2], [-119.6014729142189, 37.755017252638936, 1761.75], [-119.60145212709904, 37.75500099174678, 1747.33], [-119.60146713070571, 37.754953717812896, 1741.08], [-119.60147031582892, 37.754898983985186, 1737.24], [-119.60142429918051, 37.75479370728135, 1732.43], [-119.60139471106231, 37.754834024235606, 1725.22], [-119.60130670107901, 37.75484927929938, 1724.74], [-119.60132556036115, 37.75482262484729, 1724.26], [-119.60131466388702, 37.75487174279988, 1715.13], [-119.60129697807133, 37.75483234785497, 1713.21], [-119.60123520344496, 37.754788510501385, 1711.76], [-119.60124894976616, 37.75475556962192, 1705.04], [-119.60125188343227, 37.754730843007565, 1701.67], [-119.60123361088336, 37.75470167398453, 1695.42], [-119.60115431807935, 37.75466797873378, 1695.9], [-119.60105088539422, 37.75470167398453, 1694.94], [-119.60106714628637, 37.75466890074313, 1693.98], [-119.60105683654547, 37.754626320675015, 1691.1], [-119.60100688040257, 37.75459715165198, 1691.1], [-119.60091224871576, 37.75465582497418, 1686.29], [-119.60087939165533, 37.754668565467, 1685.81], [-119.60085910744965, 37.754709385335445, 1686.29], [-119.60076154209673, 37.75475959293544, 1688.69], [-119.60074938833714, 37.75474383495748, 1690.14], [-119.6007440239191, 37.754603857174516, 1688.69], [-119.60067420266569, 37.75443345308304, 1689.17], [-119.60065877996385, 37.75443010032177, 1689.65], [-119.60052508860826, 37.75442725047469, 1696.38], [-119.60045149549842, 37.7544595208019, 1702.63], [-119.60037052631378, 37.75443437509239, 1710.32], [-119.6003021299839, 37.7544838283211, 1713.21], [-119.6001641638577, 37.75457485578954, 1717.53], [-119.60011202841997, 37.75464300066233, 1719.46], [-119.60008026100695, 37.754667811095715, 1722.34], [-119.6001210808754, 37.754550045356154, 1722.34], [-119.60007045418024, 37.754509560763836, 1724.26], [-119.60002745501697, 37.75438819080591, 1725.22], [-119.59993315860629, 37.75450143031776, 1727.63], [-119.59991597570479, 37.7545372210443, 1728.59], [-119.59985227324069, 37.75456555187702, 1729.07], [-119.59982830099761, 37.75450327433646, 1730.03], [-119.59982519969344, 37.75443747639656, 1731.47], [-119.59982612170279, 37.75433932431042, 1732.43], [-119.59974800236523, 37.754299845546484, 1732.43], [-119.59969310089946, 37.754236813634634, 1733.88], [-119.59963157773018, 37.75416003540158, 1736.76], [-119.59955899044871, 37.754002874717116, 1740.12], [-119.5993832219392, 37.75402785278857, 1747.33], [-119.59931775927544, 37.75397781282663, 1752.62], [-119.59934717975557, 37.75389734655619, 1754.54], [-119.5992922782898, 37.75381528772414, 1754.54], [-119.59928934462368, 37.753776563331485, 1755.5], [-119.59921089001, 37.753687212243676, 1760.31], [-119.59922128356993, 37.753667179495096, 1761.75], [-119.59932915866375, 37.75352762080729, 1763.68], [-119.59930568933487, 37.75343676097691, 1765.12], [-119.59915364161134, 37.753354869782925, 1768.96], [-119.59909136407077, 37.753318073228, 1773.29], [-119.59898767992854, 37.753342716023326, 1777.13], [-119.59885382093489, 37.75335503742099, 1785.79], [-119.59883806295693, 37.75333802215755, 1789.15], [-119.59884099662304, 37.75325219146907, 1791.55], [-119.59878173656762, 37.753190752118826, 1793.48], [-119.59867989644408, 37.75308061391115, 1799.24], [-119.59869431331754, 37.75305664166808, 1801.17], [-119.59866288118064, 37.75301741436124, 1803.57], [-119.59863513708115, 37.75301079265773, 1805.49], [-119.5985858514905, 37.75304205715656, 1810.3], [-119.59851628169417, 37.75301079265773, 1815.59], [-119.59844880737364, 37.75298732332885, 1817.99], [-119.59835208021104, 37.75293007493019, 1823.28], [-119.59828225895762, 37.75290618650615, 1829.53], [-119.59813591092825, 37.75292378850281, 1838.66], [-119.59810179658234, 37.75289386510849, 1842.5], [-119.5981180574745, 37.75287006050348, 1842.98], [-119.59823096171021, 37.752729915082455, 1845.39], [-119.59821059368551, 37.752718180418015, 1845.87], [-119.59811017848551, 37.75268414989114, 1850.68], [-119.59806030616164, 37.752634696662426, 1853.56], [-119.59799819625914, 37.75262765586376, 1853.56], [-119.59804924204946, 37.75260225869715, 1850.19], [-119.59809400141239, 37.752572167664766, 1839.62], [-119.5980467274785, 37.75253662839532, 1837.22], [-119.59802208468318, 37.752436213195324, 1835.77], [-119.59804907441139, 37.75239313021302, 1831.93], [-119.59809266030788, 37.75237485766411, 1818.95], [-119.59810699336231, 37.752291206270456, 1814.15], [-119.59820137359202, 37.7522146794945, 1774.25], [-119.59823079407215, 37.75219959206879, 1765.6], [-119.59835316985846, 37.75215449742973, 1725.7], [-119.59867796860635, 37.75233437307179, 1620.92], [-119.59892649203539, 37.752413833513856, 1559.88], [-119.59892322309315, 37.75227955542505, 1548.34], [-119.59885826334357, 37.752221301198006, 1539.21], [-119.59884778596461, 37.75204276666045, 1533.92], [-119.59884770214558, 37.75185685604811, 1532.96], [-119.5988168567419, 37.75175794959068, 1532.48], [-119.59881132468581, 37.75163917802274, 1532.48], [-119.59880453534424, 37.75157488882542, 1532.96], [-119.59876782260835, 37.751437928527594, 1532.96], [-119.59876094944775, 37.75134480558336, 1533.44], [-119.59873119369149, 37.75114028714597, 1533.44], [-119.59870713762939, 37.751100892201066, 1532.96], [-119.59870520979166, 37.75105806067586, 1532.96], [-119.59864569827914, 37.75101690553129, 1534.4], [-119.59859649650753, 37.75080543011427, 1534.4], [-119.5985803194344, 37.75075547397137, 1534.4], [-119.59862985648215, 37.75078380480409, 1535.36], [-119.59868911653757, 37.75080534629524, 1537.29], [-119.59869121201336, 37.75074617005885, 1538.25], [-119.5986685808748, 37.75066360831261, 1540.17], [-119.59867872297764, 37.750599989667535, 1541.61], [-119.59870713762939, 37.75051382370293, 1539.69], [-119.59876564331353, 37.75038625113666, 1538.73], [-119.59879824891686, 37.750356160104275, 1538.73], [-119.59894761443138, 37.75028122588992, 1542.57], [-119.59906144067645, 37.750226240605116, 1545.94], [-119.59910829551518, 37.75021333247423, 1547.86], [-119.59920544177294, 37.75017720647156, 1553.15], [-119.59933569654822, 37.75007461197674, 1555.55], [-119.5994371175766, 37.74998593144119, 1557.95], [-119.59948162548244, 37.749970173463225, 1557.95], [-119.5995853934437, 37.749950140714645, 1558.43], [-119.59963778033853, 37.74993195198476, 1558.92], [-119.59974875673652, 37.749847043305635, 1559.88], [-119.5998459868133, 37.74981561116874, 1560.36], [-119.59995646029711, 37.749741934239864, 1562.28], [-119.60002309642732, 37.749658953398466, 1564.2], [-119.6000497508794, 37.7496209833771, 1565.64], [-119.60011906921864, 37.74956482462585, 1567.57], [-119.60024119354784, 37.749445382505655, 1577.18], [-119.60026541724801, 37.74943389929831, 1578.62], [-119.6004488132894, 37.749411100521684, 1579.58], [-119.60063941776752, 37.74934781715274, 1582.95], [-119.6006766334176, 37.7493223361671, 1581.99], [-119.60091032087803, 37.74922510609031, 1578.14], [-119.60091610439122, 37.74917674250901, 1578.62], [-119.60093672387302, 37.74916207417846, 1577.18], [-119.60102356038988, 37.74908144026995, 1572.85], [-119.60103856399655, 37.74903852492571, 1569.97], [-119.60121802054346, 37.748948503285646, 1564.2], [-119.60134215652943, 37.74888480082154, 1563.72], [-119.60144114680588, 37.748786732554436, 1564.2], [-119.6015574876219, 37.74871330708265, 1564.68], [-119.60153602994978, 37.74875119328499, 1565.64], [-119.60151826031506, 37.74883450940251, 1571.41], [-119.60158003494143, 37.7487887442112, 1569.49], [-119.60167843848467, 37.748737782239914, 1569.49], [-119.60190433077514, 37.74857198819518, 1572.37], [-119.6019169036299, 37.74856771342456, 1572.85], [-119.60196887142956, 37.74851524271071, 1573.82], [-119.60201983340085, 37.74842689745128, 1574.78], [-119.60204749368131, 37.748407954350114, 1574.3], [-119.60213793441653, 37.748277112841606, 1574.78], [-119.60216408595443, 37.74804409593344, 1573.82], [-119.60216961801052, 37.74788500741124, 1570.45], [-119.60217146202922, 37.74779247120023, 1569.49], [-119.60218872874975, 37.74759843014181, 1569.49], [-119.60222887806594, 37.747507905587554, 1568.05], [-119.60225796326995, 37.74740858003497, 1566.12], [-119.60233809426427, 37.747352086007595, 1565.64], [-119.60246776230633, 37.74720950983465, 1561.8], [-119.60253540426493, 37.74718193337321, 1561.8], [-119.60262726992369, 37.747095515951514, 1559.88], [-119.60266741923988, 37.7470513433218, 1559.4], [-119.60275081917644, 37.74692318402231, 1551.71], [-119.60279759019613, 37.74688965640962, 1551.22], [-119.60284846834838, 37.746804831549525, 1547.38], [-119.60289624519646, 37.746786223724484, 1544.98], [-119.60290546528995, 37.746725119650364, 1542.09], [-119.6028181258589, 37.74666544049978, 1538.73], [-119.60288794711232, 37.746591763570905, 1533.44], [-119.60296195931733, 37.74660240858793, 1532.0], [-119.60304410196841, 37.746619675308466, 1530.08], [-119.60322448052466, 37.746605928987265, 1526.23], [-119.60314351134002, 37.74650836363435, 1521.42], [-119.60308978334069, 37.74646695703268, 1521.42], [-119.60310017690063, 37.74648095481098, 1521.42], [-119.60321090184152, 37.746458323672414, 1519.5], [-119.60308802314103, 37.7463589143008, 1512.77], [-119.60312180221081, 37.7463417313993, 1512.77], [-119.60324342362583, 37.74635790847242, 1512.29], [-119.60352757014334, 37.74643468670547, 1508.45], [-119.60351273417473, 37.746353885158896, 1505.56], [-119.60344593040645, 37.746298648416996, 1500.27], [-119.60352337919176, 37.74632563814521, 1500.76], [-119.60359202697873, 37.74634240195155, 1498.35], [-119.6037124749273, 37.746407110244036, 1494.03], [-119.60372840054333, 37.746408535167575, 1494.03], [-119.60381112992764, 37.74634617380798, 1492.58], [-119.603804172948, 37.74629940278828, 1489.7], [-119.60382646881044, 37.746254140511155, 1484.41], [-119.60382311604917, 37.74627878330648, 1482.49], [-119.60390542633832, 37.74636000394821, 1479.61], [-119.60392101667821, 37.74631507694721, 1476.72], [-119.60396552458405, 37.74630610831082, 1477.2], [-119.60396845825016, 37.7462830580771, 1475.76], [-119.60395747795701, 37.746210638433695, 1470.47], [-119.60397114045918, 37.74621189571917, 1469.03], [-119.60406267084181, 37.74628825485706, 1468.07], [-119.60415453650057, 37.746338294819, 1470.95], [-119.60420734249055, 37.74630904197693, 1471.92], [-119.6043396089226, 37.74626813828945, 1468.55], [-119.60432100109756, 37.74622153490782, 1465.19], [-119.60437456145883, 37.74622346274555, 1464.71], [-119.60458410903811, 37.74625497870147, 1467.59], [-119.60464890114963, 37.74625590071082, 1469.51], [-119.60481762886047, 37.74626369588077, 1468.07], [-119.60487311705947, 37.74616847746074, 1463.26], [-119.60498509928584, 37.74616579525173, 1460.86], [-119.60507227107882, 37.74616160430014, 1458.46], [-119.60523110814393, 37.74608859792352, 1454.13], [-119.60534350946546, 37.74603394791484, 1453.65], [-119.60539765655994, 37.74600218050182, 1455.57], [-119.60553914308548, 37.746016597375274, 1456.53], [-119.6057139057666, 37.746029086411, 1456.53], [-119.6057781111449, 37.74599086493254, 1457.5], [-119.60592588409781, 37.74595012888312, 1459.42], [-119.6059887483716, 37.74586739949882, 1459.42], [-119.60610324516892, 37.745819287374616, 1458.46], [-119.60627096705139, 37.7457235660404, 1455.09], [-119.60632117465138, 37.745622815564275, 1447.88], [-119.60630809888244, 37.74553991854191, 1446.92], [-119.60630223155022, 37.745528100058436, 1446.44], [-119.60633827373385, 37.745461044833064, 1446.92], [-119.60637842305005, 37.74544076062739, 1443.08], [-119.60635562427342, 37.74542257189751, 1442.6], [-119.60619150660932, 37.74530991911888, 1437.79], [-119.60621505975723, 37.74525124579668, 1433.46], [-119.60621757432818, 37.74521151557565, 1430.58], [-119.60611271671951, 37.74518226273358, 1428.18], [-119.60611070506275, 37.74511830881238, 1425.77], [-119.60595312528312, 37.745184944942594, 1419.04], [-119.60594960488379, 37.745170360431075, 1414.72], [-119.60597055964172, 37.745152255520225, 1412.79], [-119.60598447360098, 37.7450152952224, 1402.7], [-119.605981875211, 37.744994005188346, 1401.74], [-119.60591993294656, 37.744977828115225, 1400.78], [-119.60591490380466, 37.74491705931723, 1396.93], [-119.60585120134056, 37.7449254412204, 1396.45], [-119.60571432486176, 37.7449634950608, 1398.86], [-119.60567710921168, 37.74500649422407, 1398.86], [-119.60563754662871, 37.745021330192685, 1397.89], [-119.60564366541803, 37.74486634880304, 1388.76], [-119.60557895712554, 37.74486115202308, 1386.36], [-119.60547158494592, 37.74491228163242, 1386.36], [-119.60546739399433, 37.74486525915563, 1382.51], [-119.60547124966979, 37.74485930800438, 1382.03], [-119.60545649752021, 37.744828378781676, 1381.07], [-119.60534434765577, 37.744824858382344, 1381.55], [-119.60524351336062, 37.744814213365316, 1382.03], [-119.60521216504276, 37.74479082785547, 1382.51], [-119.6051306091249, 37.744752103462815, 1379.15], [-119.60511954501271, 37.74476350285113, 1379.15], [-119.60513647645712, 37.744770208373666, 1379.15], [-119.60509565658867, 37.74472067132592, 1373.38], [-119.60497755557299, 37.74475671350956, 1368.09], [-119.60499943234026, 37.744719833135605, 1365.21], [-119.60489046759903, 37.744688065722585, 1362.33], [-119.60488988086581, 37.74466333910823, 1361.84], [-119.6049046330154, 37.74466526694596, 1360.88], [-119.60490429773927, 37.74462226778269, 1359.92], [-119.60491293109953, 37.74457013234496, 1358.96], [-119.60489985533059, 37.74450961500406, 1355.6], [-119.60479483008385, 37.74454473517835, 1351.27], [-119.60475225001574, 37.74456602521241, 1350.79], [-119.60477194748819, 37.74452026002109, 1344.06], [-119.6047487296164, 37.744491174817085, 1340.22], [-119.60474143736064, 37.74444825947285, 1336.37], [-119.60475308820605, 37.744359746575356, 1333.49], [-119.6046834345907, 37.74437659420073, 1332.52], [-119.60457991808653, 37.74439645931125, 1333.49], [-119.6045502461493, 37.7443902567029, 1333.49], [-119.60457882843912, 37.74432219564915, 1331.56], [-119.60454387590289, 37.74425539188087, 1322.91], [-119.60439434275031, 37.74430668912828, 1317.14], [-119.6042759064585, 37.74429017677903, 1316.66], [-119.60427372716367, 37.744265953078866, 1312.34], [-119.60423508659005, 37.74424918927252, 1310.41], [-119.60428294725716, 37.744175512343645, 1305.61], [-119.60421983152628, 37.744179954752326, 1303.69], [-119.60422435775399, 37.74412203580141, 1303.2], [-119.60417146794498, 37.74413377046585, 1301.76], [-119.60406510159373, 37.74408590979874, 1299.84], [-119.60407155565917, 37.74407903663814, 1299.84], [-119.60404548794031, 37.74406285956502, 1298.4], [-119.60403014905751, 37.74404047988355, 1296.48], [-119.6039957832545, 37.74400804191828, 1295.51], [-119.6038937754929, 37.743978537619114, 1294.55], [-119.60386795923114, 37.743949787691236, 1296.48], [-119.60378447547555, 37.74388994090259, 1293.59], [-119.60377550683916, 37.74386605247855, 1291.67], [-119.60373812355101, 37.74384752847254, 1289.75], [-119.60373217239976, 37.743824729695916, 1289.27], [-119.6036196872592, 37.7438204549253, 1287.34], [-119.60360803641379, 37.743749879300594, 1284.46], [-119.60358364507556, 37.743638064712286, 1276.29], [-119.60357769392431, 37.74360076524317, 1277.25], [-119.60352195426822, 37.74357050657272, 1277.25], [-119.60350116714835, 37.74354309774935, 1278.69], [-119.60354181937873, 37.74351518601179, 1283.5], [-119.60336781106889, 37.74341460317373, 1292.63], [-119.60324258543551, 37.74335148744285, 1296.48], [-119.60322515107691, 37.74334813468158, 1295.51], [-119.60319371894002, 37.743238247931004, 1287.82], [-119.6031775418669, 37.743125427514315, 1281.09], [-119.6031928807497, 37.74312525987625, 1279.65], [-119.60323328152299, 37.74314227513969, 1279.17], [-119.60327619686723, 37.743101958185434, 1280.13], [-119.60332405753434, 37.743040937930346, 1272.44], [-119.60330821573734, 37.74294236674905, 1265.23], [-119.60336437448859, 37.742843963205814, 1261.87], [-119.6033120714128, 37.74274555966258, 1255.62], [-119.60319883190095, 37.74265419691801, 1256.58], [-119.60288476198912, 37.7424924261868, 1250.81], [-119.60277915000916, 37.74242897517979, 1251.29], [-119.60255795158446, 37.74228187277913, 1254.66], [-119.60245502181351, 37.74229494854808, 1252.74], [-119.60239115171134, 37.742328559979796, 1249.37], [-119.60227564908564, 37.7422471717, 1252.74], [-119.6022311411798, 37.74224608205259, 1254.18], [-119.60171389393508, 37.74213678203523, 1252.25], [-119.60160627029836, 37.74222060106695, 1252.25], [-119.60151733830571, 37.7422352693975, 1251.29], [-119.60145724005997, 37.74225446395576, 1253.22], [-119.60136998444796, 37.74247675202787, 1252.74], [-119.60119740106165, 37.74272259324789, 1245.04], [-119.60105298087001, 37.74302802979946, 1237.83], [-119.60102406330407, 37.74314378388226, 1236.39], [-119.60098357871175, 37.74318284355104, 1235.91], [-119.60093856789172, 37.74324344471097, 1235.91], [-119.60085617378354, 37.743367832154036, 1237.83], [-119.60068417713046, 37.74360713548958, 1236.87], [-119.6006058063358, 37.7438254840672, 1237.83], [-119.60054218769073, 37.743970826268196, 1241.68], [-119.60046364925802, 37.7440429944545, 1242.64], [-119.60039148107171, 37.744298223406076, 1238.8], [-119.60039106197655, 37.74432521313429, 1238.32], [-119.60016617551446, 37.74441565386951, 1240.24], [-119.59991723299026, 37.74453962221742, 1240.24], [-119.59979158826172, 37.744645988568664, 1240.24], [-119.59974029101431, 37.744771130383015, 1240.24], [-119.5996752474457, 37.74483835324645, 1240.24], [-119.59931708872318, 37.745169857516885, 1233.51], [-119.59926394745708, 37.745205564424396, 1233.03], [-119.5991519652307, 37.74529089219868, 1232.07], [-119.59903688170016, 37.74533104151487, 1234.95], [-119.5987600274384, 37.745357444509864, 1251.29], [-119.5984370727092, 37.74530924856663, 1252.74], [-119.5982750505209, 37.745339423418045, 1252.74], [-119.59821847267449, 37.745377561077476, 1252.25], [-119.5981865376234, 37.74540413171053, 1252.25], [-119.59808452986181, 37.74541821330786, 1251.77], [-119.59784556180239, 37.74555282667279, 1251.29], [-119.59772100672126, 37.74572582915425, 1251.29], [-119.59764305502176, 37.745824148878455, 1250.33], [-119.59755655378103, 37.745951637625694, 1250.33], [-119.59739411249757, 37.74603193625808, 1249.85], [-119.59732127375901, 37.74595599621534, 1249.37], [-119.59727936424315, 37.74597007781267, 1248.89], [-119.59687284193933, 37.74593680165708, 1246.49], [-119.5968051161617, 37.74589832872152, 1245.53], [-119.59675608202815, 37.74585843086243, 1244.56], [-119.59647352807224, 37.74608566425741, 1248.89], [-119.59625660441816, 37.746092872694135, 1248.41], [-119.59605627693236, 37.746077198535204, 1248.41], [-119.59593021310866, 37.746021123602986, 1248.41], [-119.59592141211033, 37.74585189297795, 1246.97], [-119.59589375182986, 37.74583940394223, 1246.49], [-119.59586324170232, 37.74586580693722, 1246.49], [-119.59563785232604, 37.7459220495075, 1245.53], [-119.5954638440162, 37.745997570455074, 1245.53], [-119.59536544047296, 37.746001090854406, 1245.53], [-119.59513259120286, 37.746077785268426, 1245.53], [-119.594995547086, 37.74609798565507, 1246.49], [-119.59493972361088, 37.746094884350896, 1246.97], [-119.59471148438752, 37.746060183271766, 1246.49], [-119.59464359097183, 37.74603847414255, 1246.97], [-119.5944275893271, 37.74602732621133, 1248.89], [-119.5943530742079, 37.7460187766701, 1249.37], [-119.59432315081358, 37.74601902812719, 1249.37], [-119.59427369758487, 37.74607049301267, 1248.89], [-119.5941342227161, 37.74611013941467, 1248.89], [-119.59405115805566, 37.74620175361633, 1248.89], [-119.5939764752984, 37.746252128854394, 1247.93], [-119.59387111477554, 37.74626419879496, 1247.45], [-119.5936434622854, 37.746245758607984, 1244.56], [-119.59355494938791, 37.74629194289446, 1245.04], [-119.59327013231814, 37.74633561260998, 1242.16], [-119.59304465912282, 37.74638229981065, 1243.6], [-119.5929941162467, 37.74635883048177, 1244.08], [-119.59289202466607, 37.746152048930526, 1238.32], [-119.59280393086374, 37.74602414108813, 1233.99], [-119.5927797909826, 37.746013663709164, 1233.51], [-119.59272933192551, 37.74601089768112, 1233.51], [-119.59239028394222, 37.74608675390482, 1225.82]]}}