{"type": "Feature", "properties": {}, "geometry": {"type": "LineString", "coordinates": [[-121.33809428662062, 48.6646693199873, 836.96], [-121.33812102489173, 48.66464945487678, 838.41], [-121.3380606751889, 48.66464274935424, 839.37], [-121.33791508153081, 48.66465104743838, 843.21], [-121.33787350729108, 48.664762023836374, 851.38], [-121.33786713704467, 48.664888590574265, 854.75], [-121.33785498328507, 48.66494122892618, 857.63], [-121.33786227554083, 48.66505111567676, 861.48], [-121.3378481939435, 48.66521950811148, 864.36], [-121.33781525306404, 48.66537700407207, 866.29], [-121.33785749785602, 48.66546995937824, 865.8], [-121.33788314647973, 48.66555486805737, 863.88], [-121.33788716979325, 48.66563541814685, 861.48], [-121.3380123116076, 48.66580129601061, 859.08], [-121.33808623999357, 48.66595175117254, 858.59], [-121.33810258470476, 48.66603414528072, 857.63], [-121.33801432326436, 48.666088627651334, 858.59], [-121.33799772709608, 48.666145373135805, 857.63], [-121.33804231882095, 48.666510824114084, 843.69], [-121.33808397687972, 48.666564552113414, 843.69], [-121.3380551431328, 48.66659481078386, 842.25], [-121.33809772320092, 48.66660000756383, 841.29], [-121.33794659748673, 48.6666757799685, 844.66], [-121.3379015866667, 48.66667812690139, 844.66], [-121.33775725029409, 48.66674090735614, 844.18], [-121.33758164942265, 48.666750714182854, 848.98], [-121.33753261528909, 48.666729256510735, 849.46], [-121.33746706880629, 48.666611993685365, 849.46], [-121.3373907096684, 48.666516775265336, 850.9], [-121.33732818067074, 48.66647595539689, 852.83], [-121.33729850873351, 48.666377887129784, 856.67], [-121.33716624230146, 48.6662407591939, 856.67], [-121.33706138469279, 48.666182924062014, 858.11], [-121.33689726702869, 48.66614160127938, 861.48], [-121.3365960214287, 48.66608846001327, 868.21], [-121.33642888627946, 48.66603557020426, 866.29], [-121.33625965565443, 48.66596675477922, 864.84], [-121.33607106283307, 48.66595610976219, 863.88], [-121.33589445613325, 48.66590263321996, 868.69], [-121.33572866208851, 48.66586030460894, 869.65], [-121.33556311950088, 48.6658744700253, 869.17], [-121.3355327770114, 48.665866339579225, 868.21], [-121.33537150919437, 48.66593792103231, 866.29], [-121.3352230656892, 48.666037917137146, 866.29], [-121.33506833575666, 48.665835075080395, 865.8], [-121.3349574431777, 48.665711944922805, 865.8], [-121.33486323058605, 48.66567548364401, 867.73], [-121.33460473269224, 48.665598537772894, 870.13], [-121.33449006825686, 48.665516059845686, 869.65], [-121.33434782736003, 48.66543752141297, 869.65], [-121.33418681100011, 48.66539200767875, 875.9], [-121.3340678717941, 48.665297040715814, 876.38], [-121.33404985070229, 48.66531003266573, 876.86], [-121.33389285765588, 48.665228644385934, 877.82], [-121.33344576694071, 48.66509168408811, 883.59], [-121.3332908693701, 48.665040554478765, 885.51], [-121.33319975808263, 48.66498959250748, 886.95], [-121.33298660628498, 48.664951119571924, 893.68], [-121.33283807896078, 48.66489923559129, 901.37], [-121.33265627548099, 48.66494449786842, 905.22], [-121.33254219777882, 48.66493368521333, 905.7], [-121.33229719474912, 48.66495220921934, 906.18], [-121.33214204572141, 48.664838215336204, 903.3], [-121.33205696940422, 48.664759593084455, 901.37], [-121.33188748732209, 48.6647174321115, 898.97], [-121.33176050148904, 48.6646709125489, 898.97], [-121.33161373436451, 48.664608132094145, 899.45], [-121.33145766332746, 48.6644877679646, 899.45], [-121.33125440217555, 48.66446019150317, 895.61], [-121.33117804303765, 48.66438844241202, 892.24], [-121.33103990927339, 48.66437251679599, 894.64], [-121.33089875802398, 48.66434401832521, 895.61], [-121.3307664077729, 48.66440520621836, 897.53], [-121.33070345968008, 48.66440964862704, 899.45], [-121.33071033284068, 48.66426237858832, 901.85], [-121.33064411580563, 48.66413866169751, 905.22], [-121.33053255267441, 48.66409339942038, 905.22], [-121.33046147413552, 48.66408451460302, 905.7], [-121.33032870478928, 48.664033552631736, 903.78], [-121.33022074587643, 48.66405559703708, 904.26], [-121.33007448166609, 48.66390723735094, 897.53], [-121.32991405203938, 48.6638973467052, 904.26], [-121.32988245226443, 48.66390346549451, 905.22], [-121.3297542091459, 48.66385493427515, 903.3], [-121.32958112284541, 48.66389751434326, 907.62], [-121.32946570403874, 48.66381872445345, 909.54], [-121.32936201989651, 48.66377036087215, 910.03], [-121.32920167408884, 48.663824927061796, 909.54], [-121.32905884645879, 48.66377145051956, 909.54], [-121.32879238575697, 48.663866417482495, 909.06], [-121.32867772132158, 48.663719817996025, 911.47], [-121.3285213150084, 48.66365519352257, 910.99], [-121.32832744158804, 48.66353382356465, 909.54], [-121.32827874273062, 48.66351010277867, 909.54], [-121.32824462838471, 48.66352493874729, 910.03], [-121.32803742773831, 48.66348177194595, 915.79], [-121.3278495054692, 48.66355796344578, 919.64], [-121.32773609831929, 48.66352007724345, 921.08], [-121.32764867506921, 48.66351588629186, 923.96], [-121.32752009667456, 48.66341815330088, 926.37], [-121.32735153660178, 48.66321925073862, 923.48], [-121.32732513360679, 48.66322168149054, 923.48], [-121.32720778696239, 48.6631615832448, 923.96], [-121.32708549499512, 48.663016241043806, 922.52], [-121.32692012004554, 48.662916077300906, 923.0], [-121.32676362991333, 48.66284835152328, 922.52], [-121.32656933739781, 48.66289285942912, 922.52], [-121.32634897716343, 48.66279168985784, 922.52], [-121.32621017284691, 48.66282630711794, 922.52], [-121.32604270242155, 48.662858912721276, 922.52], [-121.32599249482155, 48.66278054192662, 921.56], [-121.32589895278215, 48.66272069513798, 922.04], [-121.32584229111671, 48.662709379568696, 921.08], [-121.32563500665128, 48.66264936514199, 919.64], [-121.32540282793343, 48.66262782365084, 916.75], [-121.32524558342993, 48.66261960938573, 916.75], [-121.32497333921492, 48.662791941314936, 917.24], [-121.32473847828805, 48.66281063295901, 918.68], [-121.32456530816853, 48.66279604844749, 919.16], [-121.32446967065334, 48.66261340677738, 918.2], [-121.32432592101395, 48.662439147010446, 917.72], [-121.32424972951412, 48.66217603906989, 917.72], [-121.32412157021463, 48.66209004074335, 922.04], [-121.32396843284369, 48.66204662248492, 924.93], [-121.32379082031548, 48.66196095943451, 923.96], [-121.32366123609245, 48.661905052140355, 923.0], [-121.32350751198828, 48.66189197637141, 923.48], [-121.32340097799897, 48.66178653202951, 925.41], [-121.3232200127095, 48.66183933801949, 926.85], [-121.32293972186744, 48.66195559501648, 929.25], [-121.32277837023139, 48.66204452700913, 929.73], [-121.32269195280969, 48.66200488060713, 930.69], [-121.32256873883307, 48.661961797624826, 935.02], [-121.3224184513092, 48.66205877624452, 936.94], [-121.32218727841973, 48.66218970157206, 938.86], [-121.32193498313427, 48.6621964070946, 940.79], [-121.32171764038503, 48.66219070740044, 945.59], [-121.32164865732193, 48.662033546715975, 944.63], [-121.3215671852231, 48.66188325919211, 946.07], [-121.32135545834899, 48.661701707169414, 943.67], [-121.32107935845852, 48.6616868712008, 942.71], [-121.32096880115569, 48.661714447662234, 942.23], [-121.32087299600244, 48.66180069744587, 941.75], [-121.32077677175403, 48.66190270520747, 943.67], [-121.32072078064084, 48.66202164441347, 945.59], [-121.32065389305353, 48.66213547065854, 949.44], [-121.32061625830829, 48.66222524084151, 952.32], [-121.3206194434315, 48.66227335296571, 951.36], [-121.32072790525854, 48.662258768454194, 947.04], [-121.32064634934068, 48.662301264703274, 945.11], [-121.3209006562829, 48.66233269684017, 941.27], [-121.32075363770127, 48.66225868463516, 942.23], [-121.32074726745486, 48.662273939698935, 941.75], [-121.32065858691931, 48.662298331037164, 945.59], [-121.32081155665219, 48.66237142123282, 957.13], [-121.32087626494467, 48.66241827607155, 960.49], [-121.32085631601512, 48.662491366267204, 962.42], [-121.32088012062013, 48.66253377869725, 964.34], [-121.32101339288056, 48.66254894994199, 965.78], [-121.32116066291928, 48.662654142826796, 968.18], [-121.32118513807654, 48.662709882482886, 969.63], [-121.32125965319574, 48.66279470734298, 969.63], [-121.32128823548555, 48.66286234930158, 971.55], [-121.32139971479774, 48.66293141618371, 972.03], [-121.32150256074965, 48.66295589134097, 973.47], [-121.32165796123445, 48.66296804510057, 972.51], [-121.32184923626482, 48.66302135400474, 973.47], [-121.32200715132058, 48.663013810291886, 973.47], [-121.32212231867015, 48.663018168881536, 974.43], [-121.32221879437566, 48.66304339841008, 978.28], [-121.32230621762574, 48.663040632382035, 980.2], [-121.32244150154293, 48.66301297210157, 979.72], [-121.32260092534125, 48.663000566884875, 981.16], [-121.32276370190084, 48.662930661812425, 979.72], [-121.3231055997312, 48.66298288106918, 985.01], [-121.32323962636292, 48.66302671842277, 990.3], [-121.32337474264205, 48.66308094933629, 994.14], [-121.3234528619796, 48.663148172199726, 995.1], [-121.32358378730714, 48.66316954605281, 996.06], [-121.3236743118614, 48.663193099200726, 997.02], [-121.32381881587207, 48.66320860572159, 1000.39], [-121.3242166209966, 48.66323970258236, 1003.75], [-121.3244061358273, 48.66326283663511, 1005.68], [-121.32452708669007, 48.66330038756132, 1006.64], [-121.32465532980859, 48.663357216864824, 1009.04], [-121.3247896078974, 48.66335830651224, 1008.56], [-121.32494492456317, 48.66333022713661, 1011.93], [-121.3251815456897, 48.66334573365748, 1009.52], [-121.32526754401624, 48.66332536563277, 1009.04], [-121.32535178214312, 48.66333114914596, 1010.48], [-121.32542269304395, 48.663435000926256, 1016.73], [-121.32550559006631, 48.66346433758736, 1019.62], [-121.3256189133972, 48.663520999252796, 1021.06], [-121.32571798749268, 48.66361102089286, 1021.54], [-121.32569485343993, 48.66365963593125, 1022.98], [-121.32564070634544, 48.663681261241436, 1028.75], [-121.32546049542725, 48.66372786462307, 1035.96], [-121.32536770775914, 48.663716381415725, 1041.73], [-121.32523099891841, 48.66372685879469, 1042.21], [-121.32505933754146, 48.66376658901572, 1042.21], [-121.32494777441025, 48.66376860067248, 1040.76], [-121.32486957125366, 48.66378561593592, 1039.32], [-121.32484769448638, 48.66382325068116, 1042.21], [-121.32483336143196, 48.66392911411822, 1043.65], [-121.32472297176719, 48.66397228091955, 1042.69], [-121.32459313608706, 48.66397018544376, 1043.17], [-121.32442633621395, 48.66401955485344, 1042.21], [-121.3241970911622, 48.66406372748315, 1046.53], [-121.32410011254251, 48.66404796950519, 1049.9], [-121.32385209202766, 48.66408174857497, 1053.74], [-121.3237118627876, 48.66413782350719, 1048.45], [-121.32364346645772, 48.66414695978165, 1047.97], [-121.32355629466474, 48.66410404443741, 1051.34], [-121.32328597828746, 48.664117120206356, 1052.3], [-121.32289772853255, 48.66425701417029, 1054.7], [-121.32289395667613, 48.66432934999466, 1059.51], [-121.32291851565242, 48.66434904746711, 1063.84], [-121.32281667552888, 48.66439967416227, 1068.16], [-121.3227865844965, 48.664378467947245, 1072.49], [-121.32261316291988, 48.66436732001603, 1071.05], [-121.32258483208716, 48.66440369747579, 1071.53], [-121.32243420928717, 48.664471339434385, 1072.49], [-121.32238743826747, 48.664505537599325, 1073.45], [-121.32249874994159, 48.664557253941894, 1077.78], [-121.32254191674292, 48.664611987769604, 1083.06], [-121.32252121344209, 48.66464543156326, 1084.99], [-121.32234008051455, 48.66478054784238, 1085.47], [-121.32215735502541, 48.664884734898806, 1085.47], [-121.32207395508885, 48.66502043791115, 1087.39], [-121.32202274166048, 48.665089504793286, 1086.91], [-121.32202056236565, 48.66513988003135, 1088.35], [-121.32213790901005, 48.66513694636524, 1090.75], [-121.32217789068818, 48.665095372125506, 1093.16], [-121.32225793786347, 48.665099227800965, 1092.2], [-121.3223373144865, 48.66508321836591, 1093.64], [-121.32229029200971, 48.66516091860831, 1097.0], [-121.32218845188618, 48.66527575068176, 1100.37], [-121.32215492427349, 48.665324533358216, 1100.37], [-121.32212106138468, 48.665411956608295, 1100.85], [-121.32209725677967, 48.66544037126005, 1099.4], [-121.32209524512291, 48.66550885140896, 1102.29], [-121.32204839028418, 48.66558596491814, 1104.21], [-121.3220270164311, 48.66564916446805, 1104.21], [-121.32193992845714, 48.66570767015219, 1103.25], [-121.32185476832092, 48.66584119386971, 1103.25], [-121.32184479385614, 48.665903974324465, 1107.1], [-121.32185937836766, 48.665988044813275, 1110.46], [-121.32182576693594, 48.66608711890876, 1112.86], [-121.32175410166383, 48.66614595986903, 1114.31], [-121.32171797566116, 48.66622827015817, 1115.27], [-121.3217402715236, 48.66627956740558, 1115.75], [-121.32167212665081, 48.66634259931743, 1121.03], [-121.3216710370034, 48.66637294180691, 1122.96], [-121.32171336561441, 48.666406804695725, 1123.92], [-121.32162124849856, 48.666430776938796, 1125.36], [-121.32164589129388, 48.66651702672243, 1124.88], [-121.32168939337134, 48.666573856025934, 1127.76], [-121.32173356600106, 48.666731268167496, 1130.65], [-121.3216919079423, 48.66680318489671, 1132.09], [-121.32170431315899, 48.6668502073735, 1131.61], [-121.32174957543612, 48.666912317276, 1133.05], [-121.32170783355832, 48.667019018903375, 1136.9], [-121.32165762595832, 48.66706218570471, 1138.34], [-121.32164128124714, 48.66712773218751, 1139.78], [-121.32160104811192, 48.66719805635512, 1140.26], [-121.32159886881709, 48.667261842638254, 1142.66], [-121.32155771367252, 48.667310290038586, 1144.11], [-121.32149283774197, 48.66735823452473, 1146.03], [-121.32138370536268, 48.667401568964124, 1145.55], [-121.32130390964448, 48.66748262196779, 1146.51], [-121.32123777642846, 48.66752436384559, 1147.95], [-121.32117985747755, 48.667626371607184, 1146.99], [-121.3211390376091, 48.667777413502336, 1148.91], [-121.32104465737939, 48.66787883453071, 1153.24], [-121.32100601680577, 48.66794706322253, 1156.12], [-121.32093703374267, 48.66801017895341, 1154.68], [-121.32092613726854, 48.66810690611601, 1155.64], [-121.32087048143148, 48.66819449700415, 1159.97], [-121.32074886001647, 48.66829013451934, 1162.85], [-121.32069102488458, 48.6684026196599, 1166.22], [-121.3206247240305, 48.66848484613001, 1165.26], [-121.32048843428493, 48.66857637651265, 1171.02], [-121.32036765106022, 48.66863555274904, 1171.02], [-121.32028768770397, 48.668700344860554, 1172.95], [-121.32020604796708, 48.668718952685595, 1176.31], [-121.32007084786892, 48.668851386755705, 1178.23], [-121.31992776878178, 48.66894157603383, 1174.39], [-121.31989440880716, 48.669007290154696, 1176.79], [-121.31975082680583, 48.669061940163374, 1182.56], [-121.3196294568479, 48.66914282552898, 1183.04], [-121.31949853152037, 48.669174928218126, 1182.56], [-121.31924757733941, 48.66927970200777, 1184.0], [-121.31914548575878, 48.66935840807855, 1182.56], [-121.31912603974342, 48.669438203796744, 1183.52], [-121.3191119581461, 48.66959234699607, 1186.4], [-121.31905068643391, 48.669647919014096, 1189.77], [-121.31907298229635, 48.66973710246384, 1187.37], [-121.3190807774663, 48.66982301697135, 1189.29], [-121.31911581382155, 48.669893089681864, 1190.73], [-121.31918647326529, 48.66998386569321, 1194.58], [-121.31921580992639, 48.67005427367985, 1193.13], [-121.31926283240318, 48.67008696310222, 1193.61], [-121.31941236555576, 48.67010003887117, 1195.54], [-121.31952845491469, 48.67005871608853, 1196.5], [-121.31959894672036, 48.670013872906566, 1199.38], [-121.3196732942015, 48.670001635327935, 1209.96], [-121.31987739354372, 48.67000641301274, 1211.4], [-121.31985266692936, 48.67002619430423, 1211.88], [-121.31984294392169, 48.67013859562576, 1212.36], [-121.31978318095207, 48.67019978351891, 1210.44], [-121.31975283846259, 48.670275807380676, 1209.96], [-121.31968544796109, 48.670350993052125, 1212.84], [-121.31965594366193, 48.67040270939469, 1214.76], [-121.31964965723455, 48.670514691621065, 1215.24], [-121.31961889564991, 48.670577723532915, 1218.13], [-121.31953432224691, 48.67066447623074, 1219.57], [-121.31948310881853, 48.67073035798967, 1219.09], [-121.31949978880584, 48.670763466507196, 1217.65], [-121.3194914907217, 48.670866563916206, 1221.01], [-121.31950506940484, 48.67092498578131, 1224.86], [-121.31943608634174, 48.67097175680101, 1225.82], [-121.31941027007997, 48.67104803211987, 1226.78], [-121.31937079131603, 48.67111198604107, 1230.62], [-121.3192343339324, 48.67117300629616, 1233.51], [-121.31916744634509, 48.67125850170851, 1241.68], [-121.31910734809935, 48.671267721801996, 1241.2], [-121.31906133145094, 48.671362018212676, 1238.32], [-121.31899603642523, 48.67142194882035, 1240.72], [-121.31881817243993, 48.67147165350616, 1244.08], [-121.31881205365062, 48.67152638733387, 1247.45], [-121.31876226514578, 48.67157558910549, 1249.85], [-121.31869898177683, 48.67157173343003, 1251.77], [-121.31865682080388, 48.671596040949225, 1253.7], [-121.31860837340355, 48.67159319110215, 1252.74], [-121.31854198873043, 48.67164080031216, 1252.25], [-121.31840821355581, 48.671828135848045, 1249.85], [-121.31839329376817, 48.671895610168576, 1249.37], [-121.3182760309428, 48.67201597429812, 1252.25], [-121.31832565180957, 48.67207867093384, 1257.06], [-121.31840988993645, 48.67209015414119, 1256.1], [-121.31851525045931, 48.67205168120563, 1257.54], [-121.31856931373477, 48.67205947637558, 1260.43], [-121.31844165734947, 48.67211965844035, 1268.12], [-121.31848784163594, 48.67215637117624, 1271.96], [-121.31851642392576, 48.672202387824655, 1273.4], [-121.31849655881524, 48.6722672637552, 1274.36], [-121.31845414638519, 48.67229760624468, 1273.88], [-121.31842782720923, 48.6723605543375, 1273.4], [-121.31830821745098, 48.67241654545069, 1273.4], [-121.31824200041592, 48.672457030043006, 1271.96], [-121.31821727380157, 48.67253967560828, 1274.36], [-121.31803840398788, 48.67268065921962, 1280.61], [-121.31798777729273, 48.67278316989541, 1280.13], [-121.3178407587111, 48.67288827896118, 1278.21], [-121.31784503348172, 48.67296975106001, 1278.21], [-121.31783472374082, 48.67303957231343, 1281.09], [-121.317856349051, 48.673167480155826, 1285.9], [-121.31787269376218, 48.673338973894715, 1288.3], [-121.3178545050323, 48.67339010350406, 1289.27], [-121.31794360466301, 48.67354148067534, 1288.78], [-121.31799875758588, 48.67359428666532, 1289.75], [-121.31804779171944, 48.673597890883684, 1288.78], [-121.3180857617408, 48.67355422116816, 1286.86], [-121.31814376451075, 48.67355212569237, 1286.86], [-121.31813923828304, 48.67356872186065, 1291.19], [-121.31812373176217, 48.67366595193744, 1288.78], [-121.31794100627303, 48.67364935576916, 1286.38], [-121.31797486916184, 48.67360300384462, 1284.46], [-121.31791795603931, 48.67361121810973, 1280.61], [-121.31803144700825, 48.67367978207767, 1276.77], [-121.31813295185566, 48.67368120700121, 1277.73], [-121.31819128990173, 48.67369260638952, 1284.46], [-121.31821383722126, 48.67381037212908, 1283.98], [-121.31816606037319, 48.67376636713743, 1287.34], [-121.31820947863162, 48.67377785034478, 1293.59], [-121.31832037121058, 48.6739166546613, 1302.72], [-121.31836839951575, 48.67392570711672, 1305.13], [-121.3185160048306, 48.67384314537048, 1309.93], [-121.31863486021757, 48.67388220503926, 1314.26], [-121.31872186437249, 48.673823699355125, 1315.7], [-121.31874089129269, 48.67392805404961, 1312.34], [-121.31870040670037, 48.674012711271644, 1310.41], [-121.31876025348902, 48.67409007623792, 1308.01], [-121.31888933479786, 48.67411899380386, 1307.53], [-121.31900525651872, 48.67421882227063, 1309.93], [-121.31906971335411, 48.674295265227556, 1308.49], [-121.31910357624292, 48.674309849739075, 1312.82], [-121.31918680854142, 48.674380257725716, 1311.86], [-121.31926040165126, 48.67440096102655, 1316.66], [-121.31929937750101, 48.674428537487984, 1323.39], [-121.31948369555175, 48.67447002790868, 1324.83], [-121.31951479241252, 48.67449073120952, 1326.28], [-121.31968444213271, 48.674540938809514, 1327.72], [-121.31972710601985, 48.674585027620196, 1329.64], [-121.31982240825891, 48.67463548667729, 1331.56], [-121.31995844654739, 48.67468351498246, 1330.6], [-121.319989124313, 48.674657782539725, 1333.49], [-121.3200945686549, 48.674677731469274, 1333.49], [-121.32017335854471, 48.674712516367435, 1331.08], [-121.32013379596174, 48.6747885402292, 1331.08], [-121.32016321644187, 48.674806309863925, 1326.76], [-121.32017905823886, 48.67488040588796, 1325.8], [-121.32031484507024, 48.6748921405524, 1325.8], [-121.32037804462016, 48.674884010106325, 1327.72], [-121.32054719142616, 48.67494343779981, 1330.6], [-121.32064618170261, 48.67500965483487, 1332.52], [-121.32067635655403, 48.67505491711199, 1333.49], [-121.32072287611663, 48.675244096666574, 1334.45], [-121.32065825164318, 48.67531190626323, 1336.37], [-121.32068943232298, 48.675407292321324, 1337.81], [-121.3208300806582, 48.67549555376172, 1334.93], [-121.32089344784617, 48.67558775469661, 1332.52], [-121.32087559439242, 48.675669226795435, 1335.41], [-121.32090241648257, 48.675773832947016, 1342.14], [-121.32110408507288, 48.67586410604417, 1350.31], [-121.32117943838239, 48.67586092092097, 1353.19], [-121.32122252136469, 48.675923282280564, 1352.23], [-121.32128354161978, 48.67592319846153, 1355.6], [-121.32135990075767, 48.676001988351345, 1356.56], [-121.3214207533747, 48.67600022815168, 1358.0], [-121.3214448094368, 48.67607516236603, 1358.96], [-121.32164865732193, 48.676124196499586, 1361.36], [-121.32178645581007, 48.676169039681554, 1365.21], [-121.3217434566468, 48.676170548424125, 1363.77], [-121.32158931344748, 48.6760647688061, 1364.25], [-121.32150230929255, 48.67615177296102, 1364.73], [-121.32147749885917, 48.67621765471995, 1364.73], [-121.3214067555964, 48.67621371522546, 1362.81], [-121.32129242643714, 48.676256127655506, 1363.29], [-121.32128865458071, 48.676326451823115, 1361.36], [-121.32130902260542, 48.676295606419444, 1356.56], [-121.32119075395167, 48.67631773464382, 1356.08], [-121.32105672731996, 48.67629677988589, 1357.04], [-121.32093057967722, 48.67631924338639, 1370.5], [-121.32097877562046, 48.67636224254966, 1377.71], [-121.32096000015736, 48.67639375850558, 1373.86], [-121.32088330574334, 48.6764136236161, 1375.78], [-121.32084458135068, 48.67648403160274, 1373.86], [-121.32081415504217, 48.676581429317594, 1373.38], [-121.32088808342814, 48.67660699412227, 1370.98], [-121.32079454138875, 48.67660623975098, 1374.82], [-121.32092387415469, 48.67663213983178, 1388.76], [-121.3208887539804, 48.67664270102978, 1396.45], [-121.32106603123248, 48.6766916513443, 1400.3], [-121.3210473395884, 48.676667008548975, 1402.7], [-121.32109763100743, 48.67665946483612, 1403.66], [-121.32109151221812, 48.67672652006149, 1407.03], [-121.32112788967788, 48.67672392167151, 1408.95], [-121.32113593630493, 48.676800448447466, 1409.43], [-121.32130709476769, 48.67694042623043, 1404.14], [-121.32129913195968, 48.677024664357305, 1399.34], [-121.32123400457203, 48.67700345814228, 1400.78], [-121.32115286774933, 48.6770074814558, 1405.1], [-121.32114096544683, 48.677056934684515, 1410.39], [-121.32118849083781, 48.677065735682845, 1409.91], [-121.32119435817003, 48.67710454389453, 1406.55], [-121.32112235762179, 48.677104376256466, 1410.39], [-121.32099201902747, 48.67713446728885, 1416.16], [-121.32103828713298, 48.67723152972758, 1422.41], [-121.32111783139408, 48.67729942314327, 1416.16], [-121.32103426381946, 48.677342841401696, 1419.04], [-121.32102252915502, 48.67738366127014, 1423.37], [-121.32088422775269, 48.67734359577298, 1426.25], [-121.32090551778674, 48.6773893609643, 1432.5], [-121.32101532071829, 48.67746261879802, 1427.7], [-121.32103099487722, 48.67745096795261, 1422.89], [-121.32102889940143, 48.677542163059115, 1423.85], [-121.3209320884198, 48.67761458270252, 1428.18], [-121.32085271179676, 48.67756336927414, 1432.02], [-121.32080661132932, 48.67754987441003, 1434.42], [-121.32078263908625, 48.67759086191654, 1442.6], [-121.32074886001647, 48.67760259658098, 1447.88], [-121.32072430104017, 48.67757124826312, 1453.17], [-121.3206347823143, 48.67757552303374, 1457.02], [-121.32066311314702, 48.67769764736295, 1463.26], [-121.32066177204251, 48.67781608365476, 1455.57], [-121.32063168101013, 48.67775623686612, 1454.61], [-121.32063360884786, 48.67787140421569, 1458.94], [-121.32055800408125, 48.67781306616962, 1458.46], [-121.32053076289594, 48.67787282913923, 1459.9], [-121.32053914479911, 48.677904764190316, 1452.69], [-121.32042062468827, 48.67797173559666, 1457.02], [-121.32044384256005, 48.67803728207946, 1467.11], [-121.32043202407658, 48.67809754796326, 1470.47], [-121.32038651034236, 48.67818589322269, 1471.92], [-121.32036119699478, 48.67831053212285, 1475.28], [-121.32027075625956, 48.67838244885206, 1476.24], [-121.32019624114037, 48.67855436168611, 1475.28], [-121.32020881399512, 48.6786291282624, 1474.8], [-121.32024083286524, 48.6786722112447, 1474.32], [-121.3202925492078, 48.67870322428644, 1476.24], [-121.32048558443785, 48.678745217621326, 1473.36], [-121.32054735906422, 48.67878193035722, 1472.4], [-121.32057024165988, 48.67887572385371, 1470.47], [-121.32064911536872, 48.678902545943856, 1473.36], [-121.32067367434502, 48.67879123426974, 1473.36], [-121.32076897658408, 48.678765250369906, 1473.84], [-121.32075883448124, 48.67874186486006, 1473.36], [-121.32088934071362, 48.678756449371576, 1472.88], [-121.32096787914634, 48.678791569545865, 1470.47], [-121.32095362991095, 48.67868226952851, 1470.47], [-121.32093636319041, 48.67865351960063, 1470.47], [-121.32088456302881, 48.67866181768477, 1467.59], [-121.32088816724718, 48.678635666146874, 1459.42], [-121.32084340788424, 48.67859576828778, 1458.46], [-121.32087173871696, 48.678571712225676, 1457.98], [-121.32098506204784, 48.67855687625706, 1456.05], [-121.32103476673365, 48.67853072471917, 1453.17], [-121.32114130072296, 48.67851907387376, 1452.21], [-121.32128890603781, 48.67854254320264, 1454.61], [-121.32135068066418, 48.67856894619763, 1455.57], [-121.3213322404772, 48.67850339971483, 1457.98], [-121.32118220441043, 48.67845914326608, 1456.05], [-121.32115546613932, 48.67836627177894, 1452.69], [-121.32123542949557, 48.678288822993636, 1450.77], [-121.32133265957236, 48.67828966118395, 1445.48], [-121.32138228043914, 48.678211122751236, 1439.71], [-121.32147925905883, 48.67821263149381, 1435.87], [-121.32160062901676, 48.67819704115391, 1432.02], [-121.32184839807451, 48.67818161845207, 1424.81], [-121.32199231535196, 48.67816770449281, 1425.29], [-121.322032045573, 48.67814767174423, 1424.81], [-121.32216674275696, 48.67817130871117, 1425.77], [-121.32230420596898, 48.6781750805676, 1424.81], [-121.32225533947349, 48.678200310096145, 1423.85], [-121.32230169139802, 48.678236519917846, 1423.85], [-121.32241283543408, 48.678345987573266, 1424.81], [-121.32245097309351, 48.67833039723337, 1425.29], [-121.32257997058332, 48.678353782743216, 1425.29], [-121.32265632972121, 48.678359147161245, 1426.73], [-121.32269555702806, 48.67839024402201, 1427.7], [-121.32293997332454, 48.67850264534354, 1444.04], [-121.32299755699933, 48.67851664312184, 1445.96], [-121.3230424001813, 48.678549248725176, 1447.4], [-121.32307207211852, 48.67859694175422, 1448.84], [-121.32304650731385, 48.67866475135088, 1455.57], [-121.32305606268346, 48.67869911715388, 1460.38], [-121.3230091240257, 48.67883389815688, 1473.84], [-121.32307785563171, 48.67889592424035, 1481.53], [-121.3232755009085, 48.678905479609966, 1482.01], [-121.32301884703338, 48.67892517708242, 1484.89], [-121.32307601161301, 48.67903414182365, 1489.22], [-121.32309470325708, 48.679112093523145, 1499.79], [-121.32305539213121, 48.67912718094885, 1500.27], [-121.32314373739064, 48.67921644821763, 1500.76], [-121.32317818701267, 48.67926925420761, 1500.27], [-121.32329712621868, 48.6793424282223, 1494.03], [-121.32341028191149, 48.67947586812079, 1487.3], [-121.32335831411183, 48.67952389642596, 1537.29], [-121.32337750867009, 48.67954585701227, 1537.29], [-121.32347540929914, 48.67956907488406, 1542.57], [-121.32369509898126, 48.67964602075517, 1532.48], [-121.32375184446573, 48.67970150895417, 1524.79], [-121.32379392161965, 48.6798242200166, 1510.37], [-121.32377003319561, 48.67986336350441, 1510.37], [-121.32385117001832, 48.6799122299999, 1515.18], [-121.32394144311547, 48.67998540401459, 1519.02], [-121.32392551749945, 48.67992974817753, 1514.21], [-121.32387028075755, 48.67991114035249, 1510.85], [-121.32384764961898, 48.67987887002528, 1509.89], [-121.32417613640428, 48.68012680672109, 1517.58], [-121.3241838477552, 48.68011859245598, 1515.66], [-121.3240435346961, 48.6801297403872, 1514.69], [-121.32396373897791, 48.680127058178186, 1519.02], [-121.32388411089778, 48.68014818057418, 1518.54], [-121.3237221725285, 48.68016536347568, 1523.35], [-121.32363148033619, 48.680200818926096, 1524.79], [-121.32359359413385, 48.68018925189972, 1526.23], [-121.32360155694187, 48.68023476563394, 1527.19], [-121.32356308400631, 48.68028941564262, 1530.08], [-121.32348278537393, 48.680337527766824, 1533.44], [-121.32346476428211, 48.68042562156916, 1537.29], [-121.32332948036492, 48.68052251636982, 1541.13], [-121.32316284812987, 48.680550595745444, 1539.21], [-121.32311490364373, 48.68054682388902, 1539.69], [-121.32306402549148, 48.68057096377015, 1538.25], [-121.32300191558897, 48.68068780750036, 1541.61], [-121.32284626364708, 48.68073474615812, 1544.01], [-121.32270662114024, 48.68075276724994, 1542.09], [-121.32267912849784, 48.680785708129406, 1541.61], [-121.32265507243574, 48.680870197713375, 1544.01], [-121.32260226644576, 48.68089735507965, 1543.05], [-121.32254342548549, 48.68098477832973, 1543.05], [-121.32248282432556, 48.68102626875043, 1545.46], [-121.32250998169184, 48.6810380872339, 1546.42], [-121.32255474105477, 48.681112350896, 1546.9], [-121.32255272939801, 48.681216621771455, 1550.74], [-121.3226190302521, 48.68114520795643, 1552.19], [-121.3225910346955, 48.68108477443457, 1551.71], [-121.32251593284309, 48.68106700479984, 1548.34], [-121.32243194617331, 48.68108192458749, 1546.42], [-121.32228216156363, 48.68119390681386, 1548.34], [-121.3221824169159, 48.681236235424876, 1550.74], [-121.32212290540338, 48.68127554655075, 1551.22], [-121.32190371863544, 48.681508395820856, 1557.47], [-121.32191687822342, 48.6815838329494, 1559.4], [-121.3218452129513, 48.681637309491634, 1559.88], [-121.3217402715236, 48.68167041800916, 1558.43], [-121.32168344222009, 48.681729258969426, 1560.36], [-121.32162828929722, 48.68175432085991, 1561.8], [-121.32152812555432, 48.68182422593236, 1567.57], [-121.32156492210925, 48.68189916014671, 1571.41], [-121.32155478000641, 48.68193059228361, 1574.78], [-121.321474397555, 48.68198700249195, 1576.7], [-121.32140616886318, 48.68205741047859, 1578.14], [-121.32144933566451, 48.682128405198455, 1581.51], [-121.32150884717703, 48.682152377441525, 1581.99], [-121.32148227654397, 48.6822297424078, 1587.75], [-121.32142100483179, 48.68225270882249, 1589.68], [-121.32135847583413, 48.68225212208927, 1588.72], [-121.32127817720175, 48.68228749372065, 1590.64], [-121.32133391685784, 48.682393189519644, 1595.45], [-121.32128127850592, 48.68241364136338, 1596.41], [-121.32125604897738, 48.68244934827089, 1597.37], [-121.32119762711227, 48.68246535770595, 1605.06], [-121.3211686257273, 48.68251581676304, 1612.75], [-121.32112797349691, 48.68251514621079, 1612.27], [-121.32105069234967, 48.6825785972178, 1618.04], [-121.32113945670426, 48.682648334652185, 1626.69], [-121.32110274396837, 48.682665349915624, 1626.69], [-121.3210909254849, 48.68274531327188, 1628.61], [-121.3211218547076, 48.68278093636036, 1628.13], [-121.32106259465218, 48.682792000472546, 1632.94], [-121.3210253790021, 48.68281924165785, 1634.38], [-121.32089177146554, 48.68284061551094, 1637.26], [-121.32082253694534, 48.682881854474545, 1639.19], [-121.32077056914568, 48.682928793132305, 1640.15], [-121.32076160050929, 48.68298143148422, 1642.07], [-121.32065674290061, 48.68308528326452, 1647.36], [-121.32059446536005, 48.68312484584749, 1649.28], [-121.3205797970295, 48.68318838067353, 1651.68], [-121.32059387862682, 48.68324562907219, 1655.53], [-121.32055465131998, 48.68328267708421, 1656.49], [-121.32055968046188, 48.68333699181676, 1658.41], [-121.3205206207931, 48.68335115723312, 1658.41], [-121.32042791694403, 48.683443274348974, 1661.3], [-121.3203842472285, 48.68346305564046, 1661.3], [-121.32040922529995, 48.683535223826766, 1662.74], [-121.32035750895739, 48.683620635420084, 1660.33], [-121.32033722475171, 48.68369556963444, 1660.81], [-121.32033764384687, 48.683781484141946, 1660.33], [-121.32035440765321, 48.68387460708618, 1660.33], [-121.32043621502817, 48.68392230011523, 1661.3], [-121.32046211510897, 48.6839859187603, 1664.66], [-121.32045675069094, 48.68401492014527, 1666.1], [-121.32049405016005, 48.684089267626405, 1665.62], [-121.32059362716973, 48.68419831618667, 1664.18], [-121.32057694718242, 48.684240225702524, 1666.1], [-121.3204931281507, 48.68431608192623, 1667.06], [-121.3204413279891, 48.684410797432065, 1670.43], [-121.32052414119244, 48.684480702504516, 1670.43], [-121.32049270905554, 48.684503082185984, 1671.39], [-121.32048818282783, 48.684550020843744, 1669.95], [-121.32057124748826, 48.68462453596294, 1671.39], [-121.32054978981614, 48.684753365814686, 1669.95], [-121.32058901712298, 48.6847666092217, 1668.99], [-121.32061676122248, 48.68487280793488, 1668.02], [-121.32073955610394, 48.685072464868426, 1680.04], [-121.32080133073032, 48.68510632775724, 1682.44], [-121.32080870680511, 48.6851498298347, 1685.33], [-121.32084734737873, 48.68516491726041, 1686.29], [-121.32092194631696, 48.68516248650849, 1687.25], [-121.32099528796971, 48.685175981372595, 1687.25], [-121.32102160714567, 48.68522610515356, 1690.14], [-121.32099981419742, 48.6852811742574, 1694.46], [-121.32095052860677, 48.68530573323369, 1696.86], [-121.3209315855056, 48.68534194305539, 1698.79], [-121.3210010714829, 48.6853932403028, 1699.75], [-121.32095715031028, 48.6854262650013, 1703.59], [-121.32098648697138, 48.68554662913084, 1707.92], [-121.32105136290193, 48.68564075790346, 1707.92], [-121.32103770039976, 48.68567939847708, 1707.92], [-121.32109561935067, 48.68572348728776, 1707.92], [-121.32114708423615, 48.685800516977906, 1707.92], [-121.32114306092262, 48.68582515977323, 1707.92], [-121.32118010893464, 48.68586757220328, 1708.4], [-121.3211665302515, 48.6858974955976, 1710.32], [-121.32122478447855, 48.68605482392013, 1710.8], [-121.32128873839974, 48.686147360131145, 1712.73], [-121.3213235232979, 48.68617678061128, 1713.21], [-121.32135185413063, 48.68628725409508, 1719.46], [-121.32137951441109, 48.68632161989808, 1719.94], [-121.32153633981943, 48.686399571597576, 1719.94], [-121.32156140170991, 48.68649537675083, 1723.3], [-121.3216107711196, 48.68651892989874, 1724.74], [-121.32163767702878, 48.686618926003575, 1730.51], [-121.32172157987952, 48.68673778139055, 1734.36], [-121.32170188240707, 48.68681648746133, 1739.16], [-121.32184278219938, 48.686862755566835, 1742.05], [-121.3218489009887, 48.68690801784396, 1743.01], [-121.32182258181274, 48.68696526624262, 1747.81], [-121.32188217714429, 48.68706417270005, 1749.74], [-121.3219419401139, 48.68711605668068, 1750.22], [-121.32192517630756, 48.687174059450626, 1749.74], [-121.32196607999504, 48.6872339900583, 1749.74], [-121.32198980078101, 48.68731898255646, 1755.02], [-121.3220457918942, 48.68742333725095, 1761.27], [-121.3220597896725, 48.687496511265635, 1763.2], [-121.32202425040305, 48.68757848627865, 1765.12], [-121.32202475331724, 48.68768384680152, 1768.48], [-121.3220613822341, 48.68776154704392, 1768.0], [-121.32206213660538, 48.687804881483316, 1771.37], [-121.32210211828351, 48.687825333327055, 1774.25], [-121.32213958539069, 48.68790755979717, 1779.06], [-121.32214520126581, 48.68799959309399, 1785.79], [-121.32229096256196, 48.687989534810185, 1793.96], [-121.3222855143249, 48.688009567558765, 1794.92], [-121.32234217599034, 48.68803731165826, 1798.28], [-121.32240529172122, 48.68803312070668, 1799.24], [-121.32243638858199, 48.68806321173906, 1801.65], [-121.32249715737998, 48.68805910460651, 1806.45], [-121.32250377908349, 48.688093051314354, 1808.38], [-121.32406516000628, 48.67975791916251, 1470.95], [-121.32422684691846, 48.67961903102696, 1485.37], [-121.32422785274684, 48.679527500644326, 1489.7], [-121.32420723326504, 48.679380901157856, 1505.08], [-121.3242322113365, 48.67931568995118, 1504.12], [-121.32432374171913, 48.67916104383767, 1497.87], [-121.32428627461195, 48.679093066602945, 1497.39], [-121.32431586273015, 48.67903573438525, 1495.47], [-121.32431477308273, 48.678912268951535, 1493.06], [-121.32435743696988, 48.67882392369211, 1491.62], [-121.32437654770911, 48.678735326975584, 1494.51], [-121.32443748414516, 48.67867263033986, 1494.99], [-121.3244066387415, 48.678397703915834, 1496.43], [-121.32438375614583, 48.67838974110782, 1494.03], [-121.32436213083565, 48.678459310904145, 1494.03], [-121.32426230236888, 48.67856760509312, 1494.99], [-121.32424796931446, 48.6786137893796, 1494.03], [-121.32420019246638, 48.6785876378417, 1492.58], [-121.324183344841, 48.67861848324537, 1491.14], [-121.32410539314151, 48.67863239720464, 1487.3], [-121.32408963516355, 48.67857841774821, 1486.82], [-121.3240245077759, 48.67854539304972, 1485.37], [-121.32393825799227, 48.678521420806646, 1482.97], [-121.32389877922833, 48.67842821404338, 1481.05], [-121.32382937707007, 48.678360152989626, 1481.05], [-121.323749916628, 48.67835629731417, 1480.57], [-121.32366668432951, 48.67842393927276, 1478.65], [-121.32360843010247, 48.678448498249054, 1475.28], [-121.32354682311416, 48.67854841053486, 1472.4], [-121.32352653890848, 48.67866424843669, 1470.47], [-121.32343827746809, 48.67886960506439, 1465.19], [-121.32342788390815, 48.678909838199615, 1464.23], [-121.32329662330449, 48.6789349000901, 1458.46], [-121.32312219589949, 48.67891847155988, 1459.42], [-121.32312437519431, 48.67876382544637, 1454.13], [-121.32318732328713, 48.6786965187639, 1451.73], [-121.32319168187678, 48.67855729535222, 1452.21], [-121.32312202826142, 48.678491497412324, 1452.69], [-121.32297702133656, 48.67850222624838, 1435.87], [-121.3229504507035, 48.67843994870782, 1429.14], [-121.3228518795222, 48.67843030951917, 1432.5], [-121.32273402996361, 48.67831212468445, 1430.58], [-121.322708632797, 48.67829846218228, 1430.1], [-121.32252515293658, 48.67830952629447, 1425.77], [-121.3223666511476, 48.67823777720332, 1422.41], [-121.32225684821606, 48.678200393915176, 1422.41], [-121.32219851016998, 48.67815722711384, 1422.89], [-121.32211552932858, 48.67818111553788, 1422.41], [-121.32208610884845, 48.67814130149782, 1422.41], [-121.32210957817733, 48.67804566398263, 1419.04], [-121.32201544940472, 48.678013645112514, 1418.08], [-121.32197069004178, 48.677893951535225, 1413.76], [-121.32193255238235, 48.677846593782306, 1411.83], [-121.32177740335464, 48.67771910503507, 1408.95], [-121.32177061401308, 48.67760410532355, 1406.07], [-121.3217416126281, 48.67753210477531, 1405.1], [-121.32168863900006, 48.677499582991004, 1404.14], [-121.3216448854655, 48.67737737484276, 1401.74], [-121.32179073058069, 48.677268074825406, 1402.22], [-121.32176265120506, 48.67716824635863, 1401.26], [-121.32178980857134, 48.677178556099534, 1402.7], [-121.32184940390289, 48.677150225266814, 1404.14], [-121.321807410568, 48.67709582671523, 1406.07], [-121.32176826708019, 48.67692491970956, 1405.58], [-121.32170313969254, 48.67687311954796, 1398.86], [-121.32157657295465, 48.67679005488753, 1393.57], [-121.32141144946218, 48.67674412205815, 1389.24], [-121.32129041478038, 48.67668989114463, 1386.36], [-121.32116368040442, 48.67659743875265, 1382.99], [-121.32120190188289, 48.676455868408084, 1376.26], [-121.32126074284315, 48.6764707043767, 1370.98], [-121.32130256853998, 48.67642535828054, 1371.94], [-121.32130399346352, 48.676373725757, 1369.54], [-121.3212719745934, 48.676297115162015, 1366.65], [-121.32127247750759, 48.67620566859841, 1362.33], [-121.32116074673831, 48.67615068331361, 1356.56], [-121.32107089273632, 48.67611958645284, 1357.52], [-121.32111665792763, 48.676012801006436, 1349.83], [-121.32111540064216, 48.675951194018126, 1345.98], [-121.3209577370435, 48.67597424425185, 1341.66], [-121.32077358663082, 48.67587718181312, 1342.14], [-121.32062195800245, 48.67580300197005, 1341.18], [-121.32055909372866, 48.675719015300274, 1336.37], [-121.32052967324853, 48.675656989216805, 1333.01], [-121.32052866742015, 48.67560653015971, 1331.56], [-121.3205000013113, 48.675549952313304, 1327.72], [-121.32058423943818, 48.67538005113602, 1325.31], [-121.32065372541547, 48.67526991292834, 1323.39], [-121.32074802182615, 48.67520369589329, 1323.87], [-121.32084659300745, 48.67516363039613, 1323.87], [-121.32075028494, 48.675048630684614, 1322.91], [-121.32065800018609, 48.67501568980515, 1321.95], [-121.32057460024953, 48.67496590130031, 1320.99], [-121.32042950950563, 48.67496925406158, 1319.55], [-121.32034208625555, 48.674937821924686, 1317.14], [-121.32031325250864, 48.67485349997878, 1316.18], [-121.32024401798844, 48.674734476953745, 1316.66], [-121.32024703547359, 48.67470287717879, 1314.26], [-121.32013346068561, 48.674675300717354, 1313.78], [-121.319989124313, 48.67471553385258, 1311.86], [-121.31990212015808, 48.67464227601886, 1308.97], [-121.31973607465625, 48.674487210810184, 1306.09], [-121.31960950791836, 48.67448519915342, 1305.13], [-121.31959064863622, 48.67446365766227, 1305.13], [-121.31947782821953, 48.67447237484157, 1303.69], [-121.31943298503757, 48.67444873787463, 1303.69], [-121.31933894008398, 48.674226785078645, 1308.97], [-121.31933433003724, 48.674183366820216, 1311.38], [-121.31930113770068, 48.674114383757114, 1313.3], [-121.31916996091604, 48.67409418337047, 1312.82], [-121.31902009248734, 48.674148665741086, 1305.61], [-121.3188941963017, 48.6741064209491, 1303.2], [-121.31879637949169, 48.67405160330236, 1298.4], [-121.31873686797917, 48.67398505099118, 1296.48], [-121.31866117939353, 48.673961916938424, 1293.11], [-121.31865229457617, 48.6739319935441, 1290.23], [-121.3184935413301, 48.6739288084209, 1284.94], [-121.31829723715782, 48.67401053197682, 1281.57], [-121.3182242307812, 48.67397926747799, 1278.21], [-121.31811149418354, 48.67378883063793, 1275.33], [-121.3180114980787, 48.67382504045963, 1275.33], [-121.317901276052, 48.67379025556147, 1273.88], [-121.31783857941628, 48.67380081675947, 1270.52], [-121.31778971292078, 48.6738907545805, 1269.56], [-121.31781896576285, 48.67388069629669, 1268.12], [-121.31785500794649, 48.67379117757082, 1269.08], [-121.31786615587771, 48.67370526306331, 1271.0], [-121.3178391661495, 48.673635022714734, 1272.44], [-121.31791988387704, 48.67354818619788, 1273.88], [-121.31795114837587, 48.6734279897064, 1279.17], [-121.31793505512178, 48.67332028225064, 1283.02], [-121.317901276052, 48.67324777878821, 1283.98], [-121.31791435182095, 48.673196732997894, 1283.02], [-121.31789834238589, 48.673156751319766, 1283.02], [-121.31789750419557, 48.67308173328638, 1281.57], [-121.31786816753447, 48.67304518818855, 1281.09], [-121.31791602820158, 48.67294058203697, 1275.81], [-121.3178893737495, 48.67293085902929, 1272.92], [-121.31788962520659, 48.672889452427626, 1272.44], [-121.31805382668972, 48.672812674194574, 1273.88], [-121.318131191656, 48.67273388430476, 1272.44], [-121.31815650500357, 48.67272801697254, 1271.48], [-121.3182136695832, 48.672666074708104, 1271.96], [-121.31832481361926, 48.67248754017055, 1267.64], [-121.31848624907434, 48.672387124970555, 1268.6], [-121.31850418634713, 48.67235301062465, 1270.52], [-121.3185868319124, 48.6723193153739, 1267.64], [-121.31864324212074, 48.67227103561163, 1263.79], [-121.31864164955914, 48.67223641835153, 1260.91], [-121.31856193765998, 48.672177912667394, 1258.5], [-121.31856059655547, 48.672151593491435, 1257.06], [-121.31861633621156, 48.672098284587264, 1254.66], [-121.31839673034847, 48.672068025916815, 1254.18], [-121.31838901899755, 48.67202100344002, 1254.66], [-121.31848574616015, 48.67188949137926, 1250.33], [-121.31855640560389, 48.67177424021065, 1247.45], [-121.31872731260955, 48.671686481684446, 1246.01], [-121.31883401423693, 48.6715869884938, 1246.97], [-121.31887944415212, 48.6715195979923, 1245.53], [-121.31903878413141, 48.67144952528179, 1235.43], [-121.31906669586897, 48.67139604873955, 1230.62], [-121.3191497605294, 48.6712846532464, 1226.78], [-121.3192842900753, 48.67121608927846, 1222.45], [-121.3194293808192, 48.67113411426544, 1218.13], [-121.31958017125726, 48.67101659998298, 1212.36], [-121.3195919059217, 48.67090763524175, 1209.96], [-121.31959022954106, 48.670812249183655, 1211.88], [-121.31960095837712, 48.67071686312556, 1211.88], [-121.3196970988065, 48.67068685591221, 1212.36], [-121.31972023285925, 48.670601192861795, 1212.84], [-121.3197628967464, 48.67038100026548, 1215.72], [-121.31982408463955, 48.67029223591089, 1214.28], [-121.3198403455317, 48.67017379961908, 1212.36], [-121.31992550566792, 48.67006978020072, 1212.36], [-121.31991955451667, 48.67000389844179, 1210.44], [-121.3198350649327, 48.67000465281308, 1207.07], [-121.31985744461417, 48.66996425203979, 1201.79], [-121.3197140302509, 48.669965509325266, 1199.38], [-121.31957983598113, 48.66998034529388, 1199.38], [-121.3193738926202, 48.67005997337401, 1197.94], [-121.31933592259884, 48.67003013379872, 1197.94], [-121.31930625066161, 48.66994212381542, 1200.34], [-121.3192448951304, 48.66992812603712, 1201.3], [-121.3192018121481, 48.66988856345415, 1200.82], [-121.31920910440385, 48.66971807554364, 1194.58], [-121.31922762840986, 48.669635094702244, 1190.73], [-121.31921882741153, 48.66951095871627, 1188.81], [-121.31924154236913, 48.66942638531327, 1184.0], [-121.31930164061487, 48.66939067840576, 1182.08], [-121.31937246769667, 48.66929688490927, 1173.91], [-121.31949610076845, 48.66925237700343, 1172.95], [-121.31964731030166, 48.669228572398424, 1172.95], [-121.31979768164456, 48.66917249746621, 1167.18], [-121.31994654424489, 48.6691090464592, 1159.97], [-121.31998878903687, 48.669074680656195, 1159.49], [-121.32007302716374, 48.66897133179009, 1161.89], [-121.32022851146758, 48.66883470676839, 1165.26], [-121.32032020948827, 48.66879145614803, 1166.7], [-121.32034183479846, 48.66876262240112, 1167.18], [-121.32048340514302, 48.66867427714169, 1166.7], [-121.3206178508699, 48.668598840013146, 1166.7], [-121.32075665518641, 48.66841628216207, 1159.97], [-121.32087492384017, 48.668344197794795, 1158.53], [-121.32093745283782, 48.668219558894634, 1150.84], [-121.32104868069291, 48.66819064132869, 1150.35], [-121.32106921635568, 48.66815057583153, 1146.03], [-121.3210927695036, 48.667994756251574, 1139.78], [-121.32118823938072, 48.6678898986429, 1136.9], [-121.32124565541744, 48.66781236603856, 1133.53], [-121.32128337398171, 48.66773500107229, 1133.05], [-121.32138504646719, 48.66762368939817, 1133.05], [-121.32139518857002, 48.66757591255009, 1133.53], [-121.32148009724915, 48.667490500956774, 1137.38], [-121.32159258238971, 48.667450519278646, 1134.49], [-121.32166097871959, 48.667412800714374, 1135.45], [-121.32166340947151, 48.667358653619885, 1138.34], [-121.32175133563578, 48.66728740744293, 1138.82], [-121.3217950053513, 48.66716880351305, 1134.97], [-121.32185141555965, 48.66708045825362, 1136.9], [-121.32182945497334, 48.666973588988185, 1138.34], [-121.32175493985415, 48.66683034226298, 1130.17], [-121.321786288172, 48.66671450436115, 1127.28], [-121.32168679498136, 48.666556254029274, 1123.92], [-121.3217453006655, 48.666338408365846, 1122.48], [-121.32179014384747, 48.66621259599924, 1117.67], [-121.32188720628619, 48.66610363125801, 1113.34], [-121.32190983742476, 48.66596977226436, 1111.42], [-121.32188871502876, 48.665894670411944, 1108.06], [-121.32199290208519, 48.66582199931145, 1102.29], [-121.32214922457933, 48.665608344599605, 1096.52], [-121.32215685211122, 48.66554900072515, 1096.52], [-121.3223182875663, 48.66530165076256, 1097.0], [-121.32237268611789, 48.66525429300964, 1096.52], [-121.32240797393024, 48.665150944143534, 1094.6], [-121.32241836749017, 48.665058659389615, 1091.71], [-121.32228425703943, 48.665072405710816, 1090.27], [-121.32214402779937, 48.66513937711716, 1089.31], [-121.32212173193693, 48.665108028799295, 1091.23], [-121.32215425372124, 48.66508170962334, 1088.35], [-121.32219029590487, 48.66498657502234, 1085.47], [-121.32235374301672, 48.66486134938896, 1080.18], [-121.32241308689117, 48.664797730743885, 1078.74], [-121.32254560478032, 48.66473939269781, 1076.81], [-121.32261710241437, 48.66466077044606, 1075.85], [-121.32259178906679, 48.66457745432854, 1076.81], [-121.32249221205711, 48.664533365517855, 1075.85], [-121.32255239412189, 48.664454743266106, 1073.93], [-121.3226174376905, 48.66441987454891, 1071.05], [-121.32261266000569, 48.66439204663038, 1069.12], [-121.32267166860402, 48.66439615376294, 1066.72], [-121.32282061502337, 48.66444032639265, 1064.8], [-121.3229364529252, 48.66441727615893, 1062.39], [-121.3229832239449, 48.66437595337629, 1064.32], [-121.32291491143405, 48.66428987123072, 1058.07], [-121.32298833690584, 48.664223151281476, 1053.26], [-121.32318958640099, 48.66416288539767, 1050.86], [-121.32338790223002, 48.66414796561003, 1051.82], [-121.32355252280831, 48.664117539301515, 1052.3], [-121.32370716892183, 48.664156598970294, 1052.78], [-121.32383172400296, 48.664157101884484, 1052.78], [-121.32393708452582, 48.66417973302305, 1052.78], [-121.3240540958941, 48.66412256844342, 1055.18], [-121.32426540367305, 48.664132039994, 1057.11], [-121.32442600093782, 48.66410546936095, 1056.63], [-121.32473562844098, 48.66402693092823, 1053.74], [-121.32488080300391, 48.66398585960269, 1050.86], [-121.32490670308471, 48.66382861509919, 1049.9], [-121.32509915158153, 48.66384018212557, 1047.01], [-121.32527768611908, 48.663792572915554, 1040.76], [-121.32548329420388, 48.663763822987676, 1039.32], [-121.3256823644042, 48.66367698647082, 1035.96], [-121.32575310766697, 48.663606410846114, 1028.75], [-121.32565872743726, 48.66355243138969, 1021.06], [-121.32557381875813, 48.66343894042075, 1018.17], [-121.32543928921223, 48.663312289863825, 1016.73], [-121.32537860423326, 48.6632860545069, 1015.77], [-121.32531238719821, 48.66328722797334, 1012.41], [-121.32523443549871, 48.6633117031306, 1010.96], [-121.32512195035815, 48.66330114193261, 1010.0], [-121.32503109052777, 48.66332083940506, 1010.48], [-121.32498197257519, 48.663295693695545, 1012.89], [-121.32480771280825, 48.66330424323678, 1016.25], [-121.324701346457, 48.66328655742109, 1020.1], [-121.3245773781091, 48.66324204951525, 1023.94], [-121.32446154020727, 48.66321623325348, 1025.38], [-121.32414428517222, 48.66317910142243, 1028.75], [-121.32408804260194, 48.663177927955985, 1029.71], [-121.32386332377791, 48.66312093101442, 1031.63], [-121.32368629798293, 48.663089415058494, 1035.0], [-121.32354288361967, 48.66303937509656, 1035.0], [-121.32338723167777, 48.66296670399606, 1033.07], [-121.32306335493922, 48.66285279393196, 1028.27], [-121.32290820591152, 48.662829492241144, 1027.31], [-121.32269874215126, 48.66289420053363, 1022.98], [-121.3225225545466, 48.66291297599673, 1021.54], [-121.32232784293592, 48.66295631043613, 1015.29], [-121.32212365977466, 48.662961004301906, 1004.72], [-121.32194797508419, 48.66299847140908, 998.47], [-121.32169065065682, 48.66296268068254, 986.45], [-121.32148713804781, 48.66295589134097, 983.57], [-121.32135227322578, 48.66287944838405, 977.8], [-121.3212164863944, 48.662764113396406, 972.99], [-121.32118153385818, 48.662676606327295, 966.26], [-121.32105002179742, 48.66262363269925, 962.9], [-121.32093125022948, 48.66255272179842, 961.94], [-121.32095203734934, 48.66246881894767, 959.05], [-121.32084617391229, 48.662393130362034, 956.17], [-121.3207402266562, 48.66236446425319, 955.69], [-121.32068549282849, 48.66233680397272, 954.73], [-121.32067820057273, 48.66228433325887, 953.28], [-121.3206987362355, 48.66224728524685, 952.32], [-121.3207642827183, 48.66207369603217, 950.4], [-121.32097902707756, 48.6618079058826, 945.59], [-121.32110048085451, 48.66173615679145, 942.23], [-121.32111565209925, 48.66170723922551, 940.31], [-121.32102772593498, 48.6616868712008, 935.5], [-121.32105454802513, 48.6617680080235, 935.98], [-121.32114339619875, 48.66175183095038, 937.9], [-121.32113124243915, 48.66171880625188, 938.86], [-121.32123014889657, 48.66166985593736, 938.38], [-121.32130089215934, 48.661679746583104, 935.5], [-121.32147657684982, 48.6617576982826, 932.14], [-121.32161638699472, 48.6618665792048, 932.62], [-121.32172040641308, 48.66198593750596, 934.06], [-121.32195652462542, 48.66216723807156, 940.31], [-121.32209432311356, 48.66224627941847, 942.71], [-121.32227252237499, 48.66224250756204, 945.11], [-121.32254233583808, 48.66222440265119, 946.56], [-121.32258323952556, 48.66219070740044, 946.07], [-121.32276638410985, 48.66212457418442, 943.19], [-121.32290191948414, 48.66206053644419, 940.31], [-121.32308288477361, 48.661991050466895, 937.9], [-121.32316729053855, 48.66197110153735, 936.94], [-121.32325890474021, 48.66197085008025, 936.46], [-121.32342964410782, 48.66192910820246, 934.06], [-121.32365595549345, 48.66190488450229, 930.21], [-121.3238500803709, 48.66186439990997, 926.37], [-121.3240091688931, 48.66180513985455, 923.48], [-121.32421812973917, 48.661821987479925, 919.64], [-121.32433782331645, 48.66187043488026, 919.16], [-121.32456379942596, 48.66194210015237, 919.16], [-121.32477116771042, 48.66197369992733, 916.75], [-121.32500259205699, 48.662034049630165, 916.27], [-121.32517643272877, 48.66206070408225, 915.79], [-121.32533133029938, 48.66204938851297, 912.43], [-121.32558915764093, 48.66210613399744, 900.89], [-121.32560709491372, 48.662114180624485, 899.93], [-121.32586827501655, 48.66215801797807, 888.4], [-121.32606969214976, 48.66225214675069, 872.05], [-121.32638024166226, 48.66232515312731, 874.46], [-121.32689757272601, 48.66242808289826, 878.3], [-121.32715439423919, 48.66247342899442, 879.74], [-121.32742563262582, 48.662532940506935, 881.67], [-121.32771271280944, 48.66266596131027, 882.63], [-121.32778152823448, 48.66271105594933, 882.63], [-121.32802619598806, 48.66281574591994, 883.11], [-121.32831025868654, 48.662962932139635, 884.55], [-121.32853313349187, 48.66306954994798, 884.07], [-121.3287546671927, 48.663159906864166, 885.03], [-121.32894292473793, 48.66329250857234, 885.51], [-121.32937794551253, 48.66338294930756, 884.55], [-121.32950903847814, 48.66341706365347, 885.51], [-121.32963267154992, 48.66346165537834, 885.03], [-121.32975362241268, 48.66352108307183, 884.55], [-121.32994808256626, 48.66356274113059, 883.59], [-121.3301001302898, 48.66358319297433, 884.55], [-121.33024270646274, 48.66361705586314, 885.51], [-121.33030917495489, 48.66365569643676, 885.99], [-121.3304955046624, 48.663733061403036, 886.47], [-121.33070790208876, 48.66386407054961, 888.4], [-121.33078292012215, 48.66396767087281, 887.91], [-121.33093932643533, 48.66403422318399, 887.43], [-121.33113395422697, 48.66407236084342, 889.84], [-121.33147702552378, 48.66415458731353, 888.4], [-121.33174306713045, 48.66422960534692, 885.03], [-121.33187013678253, 48.664270006120205, 882.15], [-121.33208773098886, 48.664378551766276, 875.42], [-121.3322583027184, 48.66440746933222, 876.38], [-121.332479249686, 48.6644912045449, 876.86], [-121.33272651582956, 48.66452448070049, 875.9], [-121.33304167538881, 48.664653645828366, 875.9], [-121.33311443030834, 48.664642414078116, 875.9], [-121.33322565816343, 48.664685329422355, 874.94], [-121.33342313580215, 48.66478272713721, 875.42], [-121.33362161926925, 48.6648487765342, 873.5], [-121.333840303123, 48.66493712179363, 872.53], [-121.33395672775805, 48.66496369242668, 872.05], [-121.33418873883784, 48.66509545594454, 872.53], [-121.33439468219876, 48.66518338210881, 872.05], [-121.33452359586954, 48.66523300297558, 871.57], [-121.33473825640976, 48.665360575541854, 871.57], [-121.33486641570926, 48.66546308621764, 871.09], [-121.3351384922862, 48.665529638528824, 864.36], [-121.33524091914296, 48.66551807150245, 859.08], [-121.33543219417334, 48.66553533822298, 859.56], [-121.33551366627216, 48.665572218596935, 859.56], [-121.33570980280638, 48.66557825356722, 859.08], [-121.33603937923908, 48.66570574231446, 860.04], [-121.33631740696728, 48.66578746587038, 859.08], [-121.33659794926643, 48.66584253497422, 856.19], [-121.33680062368512, 48.665887378156185, 853.31], [-121.33699458092451, 48.66597664542496, 850.42], [-121.33719214238226, 48.66610497236252, 848.5], [-121.33728040382266, 48.66619943641126, 846.58], [-121.33736011572182, 48.66632600314915, 846.1], [-121.33746740408242, 48.666457179933786, 845.14], [-121.33759665302932, 48.666585171595216, 845.62], [-121.33776823058724, 48.66665298119187, 846.1], [-121.33791776373982, 48.66663336753845, 846.58], [-121.3380572386086, 48.66660260595381, 844.18], [-121.33811951614916, 48.66657502949238, 841.77], [-121.33813091553748, 48.666532868519425, 839.85], [-121.33810015395284, 48.66639138199389, 835.04], [-121.33814097382128, 48.666351987048984, 834.08], [-121.33828941732645, 48.666252410039306, 834.08], [-121.33824247866869, 48.66617781110108, 834.08], [-121.3381679635495, 48.665962060913444, 832.16], [-121.33818590082228, 48.66590523160994, 832.16], [-121.33813619613647, 48.665744634345174, 833.12], [-121.33807341568172, 48.665480855852365, 836.0], [-121.33808523416519, 48.66536510176957, 836.0], [-121.33804055862129, 48.66512127220631, 836.96], [-121.33803653530777, 48.664979450404644, 837.45], [-121.33802823722363, 48.66495640017092, 837.45], [-121.3380244653672, 48.66478390060365, 838.41], [-121.33803837932646, 48.664666721597314, 838.89], [-121.33808355778456, 48.66463528946042, 839.85], [-121.33817450143397, 48.66464559920132, 839.85], [-121.33821733295918, 48.6646362952888, 835.52], [-121.33812571875751, 48.66462556645274, 840.33], [-121.33805673569441, 48.66459606215358, 848.02], [-121.33803125470877, 48.66460268385708, 847.06], [-121.33794844150543, 48.66453889757395, 848.02], [-121.3379087112844, 48.66447988897562, 848.5], [-121.33783662691712, 48.66432339884341, 848.98], [-121.33779999800026, 48.66419591009617, 847.54], [-121.33782799355686, 48.66391343995929, 844.66], [-121.33775917813182, 48.66355360485613, 840.81], [-121.33769296109676, 48.66340289823711, 839.85], [-121.33763311430812, 48.66323961876333, 838.89], [-121.33749715983868, 48.66298086941242, 837.93], [-121.33748525753617, 48.6629128921777, 836.0], [-121.33741208352149, 48.66274584084749, 832.64], [-121.33731409907341, 48.66264550946653, 833.6], [-121.33720111101866, 48.66251215338707, 835.04], [-121.33712123148143, 48.662391286343336, 835.52], [-121.33705417625606, 48.66231442429125, 836.48], [-121.33687078021467, 48.66215734742582, 837.93], [-121.33673490956426, 48.66205517202616, 838.41], [-121.33670071139932, 48.661972023546696, 839.37], [-121.33663105778396, 48.66192474961281, 839.85], [-121.33661052212119, 48.661866495385766, 840.33], [-121.3365735579282, 48.661819556728005, 840.81], [-121.33643064647913, 48.66179935634136, 838.89], [-121.33633576333523, 48.66170547902584, 836.48], [-121.33601071313024, 48.661411525681615, 836.0], [-121.33574970066547, 48.66128236055374, 836.0], [-121.33554660715163, 48.66116316989064, 835.52], [-121.33540176786482, 48.661056300625205, 835.52], [-121.33535742759705, 48.66098865866661, 835.04], [-121.3352338783443, 48.660892099142075, 835.52], [-121.33504989556968, 48.660727981477976, 835.52], [-121.33490279316902, 48.660622453317046, 836.0], [-121.33485518395901, 48.66060166619718, 836.48], [-121.33472920395434, 48.6604677233845, 836.48], [-121.33442284539342, 48.66028072312474, 833.12], [-121.33424875326455, 48.66014736704528, 831.68], [-121.33408312685788, 48.66006128489971, 830.24], [-121.33396871387959, 48.65996891632676, 826.39], [-121.33385840803385, 48.65989934653044, 823.99], [-121.33367794565856, 48.659796584397554, 822.06], [-121.33350636810064, 48.65971343591809, 820.62], [-121.33344383910298, 48.65959248505533, 819.66], [-121.33330092765391, 48.65947647951543, 819.66], [-121.33324745111167, 48.6594420298934, 819.66], [-121.33316338062286, 48.65936734713614, 819.18], [-121.33309833705425, 48.659325018525124, 819.18], [-121.33304972201586, 48.65927598439157, 818.7], [-121.33285970427096, 48.65920465439558, 818.22], [-121.33279759436846, 48.659190237522125, 819.18], [-121.3324192352593, 48.65905621089041, 816.3], [-121.33225520141423, 48.6589930113405, 811.97], [-121.33210550062358, 48.658924447372556, 810.53], [-121.33194473572075, 48.65875102579594, 809.57], [-121.33171088062227, 48.658614568412304, 809.09], [-121.33156302385032, 48.65845514461398, 809.09], [-121.33138549514115, 48.658388340845704, 808.13], [-121.33116798475385, 48.65832673385739, 806.68], [-121.33094779215753, 48.658188516274095, 805.24], [-121.33086422458291, 48.658158760517836, 804.76], [-121.33081016130745, 48.6581190302968, 804.76], [-121.33038863539696, 48.657851396128535, 802.84], [-121.330153523013, 48.6577273439616, 800.44], [-121.32993752136827, 48.657543025910854, 799.47], [-121.32985998876393, 48.657459039241076, 798.99], [-121.32975429296494, 48.65733079612255, 799.47], [-121.3294196035713, 48.65710490383208, 798.03], [-121.3293072860688, 48.65701161324978, 796.59], [-121.32916688919067, 48.65693164989352, 794.19], [-121.3289925456047, 48.65678697824478, 792.74], [-121.32883546873927, 48.65668983198702, 791.78], [-121.32867503911257, 48.656548177823424, 791.3], [-121.32855308242142, 48.65650165826082, 791.3], [-121.32839994505048, 48.6564577370882, 791.3], [-121.32823398336768, 48.65642664022744, 791.78], [-121.32803834974766, 48.656350364908576, 791.3], [-121.32784699089825, 48.656220361590385, 789.86], [-121.32767650298774, 48.65613612346351, 788.9], [-121.32755362428725, 48.65604115650058, 788.42], [-121.32728607393801, 48.65588676184416, 787.94], [-121.32711105979979, 48.655794225633144, 786.98], [-121.32685557939112, 48.65565123036504, 785.05], [-121.32668886333704, 48.655584175139666, 783.61], [-121.32650043815374, 48.6554838437587, 783.61], [-121.32629809901118, 48.65534286014736, 782.17], [-121.32608721032739, 48.65511562675238, 780.25], [-121.32600699551404, 48.654967015609145, 778.81], [-121.32585922256112, 48.65475797094405, 777.84], [-121.32567062973976, 48.65459376946092, 778.32], [-121.32548538967967, 48.654387071728706, 776.88], [-121.3254511076957, 48.654209123924375, 773.52], [-121.32551606744528, 48.6540384683758, 771.11], [-121.32554087787867, 48.65392204374075, 771.11], [-121.32555697113276, 48.65376555360854, 770.63], [-121.32553241215646, 48.65367469377816, 770.63], [-121.32557549513876, 48.653477719053626, 770.63], [-121.3255200907588, 48.65331075154245, 770.63], [-121.32556065917015, 48.653308656066656, 771.11], [-121.3254460785538, 48.653282755985856, 771.6], [-121.32546837441623, 48.65327672101557, 771.6], [-121.3255446497351, 48.653156608343124, 773.04], [-121.32567599415779, 48.65336439572275, 786.98]]}}