{"type": "Feature", "properties": {}, "geometry": {"type": "LineString", "coordinates": [[-121.077045, 47.766502, 1098.2], [-121.077106, 47.766573, 1098.2], [-121.077069, 47.766594, 1098.1], [-121.07709, 47.7666, 1098.1], [-121.077115, 47.766616, 1098.1], [-121.077123, 47.766631, 1098.1], [-121.077134, 47.766614, 1098.1], [-121.077132, 47.766603, 1098.0], [-121.077107, 47.766559, 1098.0], [-121.077088, 47.766534, 1098.0], [-121.077053, 47.766504, 1098.0], [-121.077021, 47.766479, 1098.0], [-121.076988, 47.766444, 1098.0], [-121.07697, 47.766423, 1098.0], [-121.076966, 47.766412, 1098.0], [-121.076952, 47.766393, 1098.0], [-121.076918, 47.766356, 1097.9], [-121.076896, 47.766329, 1097.9], [-121.07687, 47.766307, 1097.9], [-121.076858, 47.766284, 1097.9], [-121.07684, 47.766257, 1097.9], [-121.076823, 47.766237, 1097.9], [-121.07681, 47.766218, 1098.0], [-121.076779, 47.766191, 1098.3], [-121.07676, 47.766166, 1098.5], [-121.076736, 47.766149, 1098.7], [-121.076729, 47.766141, 1098.8], [-121.076725, 47.766123, 1099.0], [-121.076717, 47.76612, 1099.0], [-121.076712, 47.766109, 1099.1], [-121.076694, 47.766094, 1099.3], [-121.076688, 47.766074, 1099.5], [-121.076692, 47.766065, 1099.6], [-121.076691, 47.766031, 1099.9], [-121.076699, 47.766021, 1100.1], [-121.076708, 47.765993, 1100.4], [-121.076719, 47.765987, 1100.5], [-121.076734, 47.765958, 1100.8], [-121.076736, 47.765928, 1101.2], [-121.076733, 47.765913, 1101.3], [-121.076745, 47.765899, 1101.5], [-121.076746, 47.765891, 1101.6], [-121.076729, 47.765876, 1101.9], [-121.076726, 47.765867, 1102.0], [-121.076729, 47.765846, 1102.3], [-121.076748, 47.765785, 1103.1], [-121.076747, 47.765777, 1103.2], [-121.076754, 47.765756, 1103.5], [-121.076765, 47.765736, 1103.8], [-121.076774, 47.765705, 1104.2], [-121.076772, 47.765684, 1104.5], [-121.076767, 47.765682, 1104.6], [-121.076764, 47.76566, 1104.8], [-121.076767, 47.765622, 1105.3], [-121.076764, 47.76561, 1105.5], [-121.076746, 47.765591, 1105.8], [-121.076729, 47.765581, 1106.0], [-121.076705, 47.765577, 1106.2], [-121.076683, 47.765582, 1106.3], [-121.076659, 47.765592, 1106.6], [-121.076641, 47.765602, 1106.8], [-121.076615, 47.765609, 1107.0], [-121.076589, 47.765622, 1107.3], [-121.076582, 47.765628, 1107.3], [-121.076552, 47.765638, 1107.6], [-121.076509, 47.765643, 1108.0], [-121.076447, 47.765646, 1108.5], [-121.076414, 47.765657, 1108.8], [-121.076402, 47.765664, 1109.0], [-121.076403, 47.76568, 1109.2], [-121.076393, 47.765678, 1109.3], [-121.076408, 47.765672, 1109.9], [-121.076429, 47.765682, 1110.2], [-121.076419, 47.765692, 1111.1], [-121.076427, 47.765697, 1111.3], [-121.07644, 47.765694, 1111.6], [-121.076434, 47.765706, 1112.0], [-121.076415, 47.765717, 1112.2], [-121.076398, 47.765734, 1112.5], [-121.076393, 47.765766, 1113.1], [-121.076391, 47.765801, 1113.6], [-121.076382, 47.765807, 1113.8], [-121.076344, 47.765803, 1114.2], [-121.076318, 47.765803, 1114.4], [-121.076287, 47.765811, 1114.8], [-121.076249, 47.765826, 1115.3], [-121.07623, 47.765839, 1115.6], [-121.076219, 47.765855, 1115.8], [-121.076206, 47.765898, 1116.5], [-121.076207, 47.765916, 1116.8], [-121.076204, 47.765932, 1117.0], [-121.076168, 47.765974, 1117.7], [-121.076155, 47.765979, 1117.9], [-121.076134, 47.766001, 1118.3], [-121.076111, 47.76603, 1118.8], [-121.076087, 47.766063, 1119.3], [-121.076073, 47.766101, 1119.9], [-121.076053, 47.766126, 1120.4], [-121.076043, 47.766142, 1120.7], [-121.076034, 47.766169, 1121.1], [-121.076016, 47.766193, 1121.5], [-121.076011, 47.766209, 1121.6], [-121.076012, 47.766248, 1121.6], [-121.076022, 47.766276, 1121.6], [-121.076024, 47.766295, 1121.5], [-121.076023, 47.766329, 1121.4], [-121.076015, 47.766339, 1121.4], [-121.076019, 47.766352, 1121.3], [-121.07603, 47.766371, 1121.2], [-121.076018, 47.766414, 1121.1], [-121.076027, 47.766464, 1120.9], [-121.07603, 47.76649, 1120.8], [-121.076015, 47.766522, 1120.7], [-121.076007, 47.766581, 1120.6], [-121.075997, 47.766613, 1120.7], [-121.075972, 47.766661, 1121.8], [-121.075969, 47.766671, 1121.8], [-121.075967, 47.766706, 1121.9], [-121.075961, 47.766722, 1121.8], [-121.075946, 47.766745, 1121.8], [-121.075937, 47.766764, 1123.4], [-121.07592, 47.766779, 1123.3], [-121.075891, 47.766793, 1125.3], [-121.075833, 47.766815, 1127.1], [-121.075811, 47.766818, 1128.9], [-121.075792, 47.766834, 1129.1], [-121.075781, 47.766835, 1129.0], [-121.075764, 47.766821, 1130.8], [-121.075747, 47.766812, 1130.3], [-121.075725, 47.766804, 1132.1], [-121.075709, 47.766804, 1132.0], [-121.075673, 47.766815, 1133.5], [-121.075665, 47.766821, 1133.7], [-121.075652, 47.76685, 1133.8], [-121.075641, 47.766858, 1135.1], [-121.075599, 47.766878, 1136.4], [-121.075587, 47.766888, 1136.6], [-121.075579, 47.766908, 1136.6], [-121.075576, 47.766926, 1136.6], [-121.075556, 47.766943, 1138.1], [-121.075553, 47.766961, 1138.1], [-121.075524, 47.767009, 1138.3], [-121.075493, 47.767041, 1139.8], [-121.075484, 47.767056, 1139.9], [-121.075483, 47.767067, 1139.7], [-121.075413, 47.767058, 1142.1], [-121.075396, 47.767054, 1142.0], [-121.075366, 47.767037, 1143.2], [-121.075358, 47.76703, 1143.2], [-121.075329, 47.766989, 1144.1], [-121.07532, 47.766967, 1144.1], [-121.075302, 47.766953, 1143.7], [-121.07529, 47.76694, 1145.3], [-121.075272, 47.766913, 1145.0], [-121.07526, 47.766901, 1144.8], [-121.075238, 47.76689, 1146.3], [-121.075209, 47.766884, 1147.8], [-121.075172, 47.766871, 1149.1], [-121.075132, 47.76687, 1149.0], [-121.075104, 47.766866, 1150.5], [-121.075085, 47.766861, 1151.9], [-121.075066, 47.766874, 1151.6], [-121.075056, 47.766889, 1151.9], [-121.075046, 47.766884, 1151.8], [-121.075037, 47.76687, 1152.9], [-121.075052, 47.766872, 1151.1], [-121.07508, 47.766847, 1150.7], [-121.075093, 47.766833, 1149.0], [-121.075111, 47.766827, 1148.8], [-121.075125, 47.766835, 1148.7], [-121.075133, 47.766848, 1147.1], [-121.075124, 47.766853, 1148.8], [-121.075111, 47.766847, 1148.4], [-121.075109, 47.766835, 1148.4], [-121.075099, 47.766829, 1148.3], [-121.075074, 47.766822, 1149.8], [-121.075057, 47.766813, 1149.5], [-121.075031, 47.766803, 1151.2], [-121.075024, 47.766798, 1151.1], [-121.074958, 47.766767, 1152.5], [-121.074931, 47.766747, 1154.2], [-121.074909, 47.766727, 1156.0], [-121.074882, 47.766695, 1155.8], [-121.074864, 47.766659, 1157.7], [-121.074858, 47.766652, 1157.6], [-121.074808, 47.766621, 1159.4], [-121.074784, 47.766601, 1161.1], [-121.074743, 47.766574, 1162.7], [-121.074719, 47.766548, 1163.5], [-121.074689, 47.766522, 1164.3], [-121.074651, 47.766492, 1165.3], [-121.074616, 47.766445, 1166.6], [-121.07461, 47.766433, 1167.0], [-121.074577, 47.766393, 1168.1], [-121.074527, 47.76635, 1169.4], [-121.074499, 47.766329, 1170.1], [-121.074479, 47.766302, 1170.8], [-121.074451, 47.766286, 1171.4], [-121.074417, 47.766256, 1172.3], [-121.074382, 47.766237, 1173.0], [-121.074361, 47.766213, 1173.7], [-121.074341, 47.766181, 1174.5], [-121.074318, 47.76614, 1175.5], [-121.074305, 47.766108, 1176.3], [-121.074289, 47.766076, 1177.1], [-121.074289, 47.766065, 1177.4], [-121.074295, 47.766048, 1177.8], [-121.074296, 47.766032, 1178.2], [-121.074245, 47.766008, 1179.3], [-121.074236, 47.765997, 1179.6], [-121.074209, 47.765986, 1180.1], [-121.074185, 47.765983, 1180.6], [-121.074146, 47.765991, 1181.3], [-121.074132, 47.76599, 1181.6], [-121.074105, 47.765974, 1182.2], [-121.074075, 47.765947, 1183.1], [-121.074019, 47.765932, 1184.2], [-121.07399, 47.765923, 1184.8], [-121.073971, 47.765914, 1185.2], [-121.073938, 47.765873, 1186.4], [-121.073931, 47.765857, 1186.7], [-121.073933, 47.765818, 1187.6], [-121.073927, 47.76579, 1188.3], [-121.073919, 47.765765, 1188.8], [-121.073899, 47.765742, 1189.3], [-121.073879, 47.765713, 1190.0], [-121.073872, 47.765699, 1190.3], [-121.073849, 47.765677, 1190.9], [-121.073832, 47.76565, 1191.5], [-121.073812, 47.765634, 1191.9], [-121.073798, 47.765632, 1192.1], [-121.073787, 47.765653, 1192.6], [-121.07379, 47.765667, 1192.8], [-121.073802, 47.76568, 1193.2], [-121.073808, 47.765696, 1193.4], [-121.07383, 47.765717, 1193.9], [-121.073842, 47.765771, 1194.9], [-121.073841, 47.765847, 1196.2], [-121.073839, 47.765856, 1196.4], [-121.073827, 47.765879, 1196.8], [-121.073807, 47.765903, 1197.3], [-121.073791, 47.765931, 1197.8], [-121.073764, 47.765958, 1198.4], [-121.073754, 47.765978, 1198.8], [-121.073763, 47.765985, 1198.9], [-121.073772, 47.766008, 1199.4], [-121.073788, 47.766034, 1199.9], [-121.073802, 47.766071, 1200.5], [-121.073802, 47.766085, 1200.7], [-121.073807, 47.766111, 1201.1], [-121.0738, 47.766154, 1201.8], [-121.073796, 47.766169, 1202.0], [-121.073778, 47.76621, 1202.6], [-121.073772, 47.766245, 1203.2], [-121.073781, 47.76627, 1203.6], [-121.073797, 47.766295, 1204.0], [-121.073798, 47.766308, 1204.2], [-121.073794, 47.766332, 1204.5], [-121.073782, 47.76637, 1205.1], [-121.073771, 47.766382, 1205.4], [-121.07377, 47.766399, 1205.6], [-121.073781, 47.766409, 1205.8], [-121.073792, 47.766425, 1206.1], [-121.073801, 47.766454, 1206.6], [-121.073798, 47.766475, 1207.0], [-121.073791, 47.766492, 1207.3], [-121.073786, 47.766521, 1207.9], [-121.073787, 47.766537, 1208.1], [-121.073811, 47.766597, 1209.3], [-121.073814, 47.766614, 1209.6], [-121.073816, 47.766648, 1210.3], [-121.073809, 47.766673, 1210.7], [-121.073809, 47.766685, 1211.0], [-121.073799, 47.766718, 1211.6], [-121.0738, 47.766731, 1211.9], [-121.073817, 47.766739, 1212.1], [-121.07382, 47.766744, 1212.2], [-121.073822, 47.766769, 1212.7], [-121.073829, 47.766792, 1213.2], [-121.073825, 47.766817, 1213.7], [-121.073828, 47.766849, 1214.3], [-121.073816, 47.766858, 1214.5], [-121.073808, 47.76687, 1214.8], [-121.073813, 47.766888, 1215.1], [-121.073811, 47.766897, 1215.3], [-121.073774, 47.766939, 1216.2], [-121.073772, 47.766946, 1216.4], [-121.073776, 47.766981, 1217.0], [-121.073787, 47.766998, 1217.4], [-121.073791, 47.767015, 1217.7], [-121.073789, 47.767065, 1218.6], [-121.073813, 47.767099, 1219.2], [-121.073821, 47.767115, 1219.5], [-121.073817, 47.767137, 1219.9], [-121.073804, 47.767159, 1220.3], [-121.073784, 47.767173, 1220.6], [-121.073772, 47.767186, 1220.9], [-121.07375, 47.767198, 1221.2], [-121.073739, 47.767211, 1221.4], [-121.073734, 47.767237, 1221.9], [-121.073726, 47.767245, 1222.0], [-121.07372, 47.767261, 1222.3], [-121.0737, 47.767289, 1222.9], [-121.073661, 47.767321, 1223.7], [-121.073651, 47.767338, 1224.0], [-121.073647, 47.767357, 1224.4], [-121.073651, 47.767388, 1225.0], [-121.073648, 47.767396, 1225.2], [-121.073656, 47.767453, 1226.3], [-121.073661, 47.76746, 1226.4], [-121.073678, 47.767465, 1226.7], [-121.073709, 47.76748, 1227.1], [-121.073731, 47.767499, 1227.6], [-121.073741, 47.767514, 1227.8], [-121.073743, 47.767527, 1228.1], [-121.073739, 47.767546, 1228.4], [-121.073725, 47.767578, 1228.9], [-121.073712, 47.767597, 1229.3], [-121.07371, 47.767607, 1229.4], [-121.0737, 47.76762, 1229.7], [-121.073705, 47.767637, 1230.0], [-121.073704, 47.76766, 1230.3], [-121.073692, 47.767704, 1231.1], [-121.073681, 47.767735, 1231.6], [-121.073678, 47.767752, 1231.9], [-121.07367, 47.767768, 1232.2], [-121.073658, 47.76778, 1232.4], [-121.073629, 47.767828, 1233.3], [-121.073625, 47.767848, 1233.7], [-121.073627, 47.767868, 1234.0], [-121.073636, 47.767893, 1234.5], [-121.073635, 47.767906, 1234.7], [-121.073603, 47.767974, 1236.0], [-121.073582, 47.767995, 1236.4], [-121.073567, 47.768016, 1236.9], [-121.073548, 47.768037, 1237.3], [-121.073541, 47.768051, 1237.6], [-121.073541, 47.768067, 1237.9], [-121.073545, 47.768095, 1238.4], [-121.073539, 47.768121, 1238.9], [-121.073542, 47.768135, 1239.2], [-121.073539, 47.768157, 1239.6], [-121.073541, 47.768176, 1239.9], [-121.073523, 47.768212, 1240.7], [-121.073511, 47.768224, 1241.0], [-121.073491, 47.768256, 1241.7], [-121.073462, 47.768278, 1242.3], [-121.073429, 47.768316, 1243.2], [-121.073408, 47.768336, 1243.7], [-121.073377, 47.768357, 1244.3], [-121.073359, 47.768385, 1244.9], [-121.073343, 47.768387, 1245.2], [-121.07331, 47.768399, 1245.7], [-121.07327, 47.768422, 1246.5], [-121.073259, 47.768431, 1246.7], [-121.073237, 47.768455, 1247.3], [-121.073203, 47.768501, 1248.4], [-121.073184, 47.768537, 1249.2], [-121.073149, 47.76857, 1250.1], [-121.073108, 47.768613, 1251.1], [-121.073089, 47.768629, 1251.6], [-121.073052, 47.768652, 1252.3], [-121.073029, 47.768672, 1252.8], [-121.073007, 47.768684, 1253.2], [-121.072966, 47.768716, 1254.1], [-121.072951, 47.768731, 1254.5], [-121.072978, 47.768753, 1255.9], [-121.07299, 47.768769, 1256.3], [-121.072992, 47.768787, 1256.6], [-121.072982, 47.768814, 1257.2], [-121.072957, 47.768852, 1258.0], [-121.072948, 47.768862, 1258.3], [-121.072907, 47.768892, 1259.1], [-121.072876, 47.768906, 1259.6], [-121.072862, 47.768916, 1259.9], [-121.072833, 47.768921, 1260.3], [-121.072794, 47.768931, 1260.9], [-121.072771, 47.76894, 1261.3], [-121.072732, 47.768968, 1262.2], [-121.072707, 47.768989, 1262.8], [-121.072687, 47.768986, 1264.5], [-121.072705, 47.768982, 1264.8], [-121.072744, 47.768977, 1265.4], [-121.072756, 47.768995, 1265.9], [-121.072744, 47.768992, 1266.4], [-121.072712, 47.768975, 1267.1], [-121.072699, 47.768974, 1268.0], [-121.072692, 47.768968, 1268.2], [-121.072708, 47.768967, 1269.0], [-121.072727, 47.768974, 1269.4], [-121.072699, 47.768968, 1269.9], [-121.072702, 47.768973, 1270.0], [-121.072677, 47.768963, 1270.5], [-121.072664, 47.768952, 1270.9], [-121.072642, 47.768938, 1271.4], [-121.072628, 47.768924, 1271.8], [-121.072618, 47.768909, 1272.2], [-121.0726, 47.768893, 1272.7], [-121.072565, 47.768878, 1273.4], [-121.072509, 47.768862, 1274.4], [-121.072463, 47.768853, 1275.2], [-121.072435, 47.76885, 1275.7], [-121.072402, 47.768851, 1276.2], [-121.072387, 47.768855, 1276.4], [-121.072338, 47.768833, 1277.3], [-121.072306, 47.768825, 1277.8], [-121.072284, 47.768816, 1278.2], [-121.072237, 47.768791, 1279.0], [-121.072212, 47.768782, 1279.4], [-121.07218, 47.768774, 1279.8], [-121.072153, 47.768765, 1280.2], [-121.072101, 47.768734, 1281.1], [-121.072077, 47.768726, 1281.4], [-121.07202, 47.768727, 1282.0], [-121.071965, 47.768715, 1282.7], [-121.071935, 47.768721, 1283.0], [-121.071914, 47.768733, 1283.3], [-121.071881, 47.768749, 1283.7], [-121.071853, 47.768754, 1284.0], [-121.071791, 47.768753, 1284.6], [-121.071779, 47.768749, 1284.7], [-121.07174, 47.768757, 1285.1], [-121.071721, 47.768759, 1285.2], [-121.071692, 47.768755, 1285.5], [-121.071681, 47.76875, 1285.6], [-121.071664, 47.768732, 1285.9], [-121.071639, 47.768717, 1286.2], [-121.071618, 47.76871, 1286.4], [-121.071597, 47.768706, 1286.6], [-121.071559, 47.768695, 1287.0], [-121.071511, 47.768689, 1287.4], [-121.071499, 47.768684, 1287.6], [-121.071504, 47.768679, 1287.7], [-121.071498, 47.768661, 1287.9], [-121.071484, 47.768638, 1288.2], [-121.071467, 47.768624, 1288.5], [-121.071433, 47.768608, 1288.8], [-121.071398, 47.7686, 1289.2], [-121.071358, 47.768597, 1289.5], [-121.071331, 47.768597, 1289.8], [-121.071318, 47.768594, 1289.9], [-121.071296, 47.768584, 1290.1], [-121.071281, 47.768573, 1290.3], [-121.071257, 47.768566, 1290.6], [-121.07122, 47.768565, 1290.9], [-121.071191, 47.768554, 1291.2], [-121.071175, 47.76855, 1291.4], [-121.071147, 47.768537, 1291.7], [-121.071124, 47.768521, 1292.0], [-121.071124, 47.768513, 1292.2], [-121.071104, 47.76849, 1292.6], [-121.071097, 47.768465, 1292.9], [-121.071095, 47.768444, 1293.2], [-121.071089, 47.768431, 1293.4], [-121.071066, 47.768408, 1293.9], [-121.071016, 47.768382, 1294.5], [-121.071001, 47.768371, 1294.7], [-121.070986, 47.768353, 1295.0], [-121.070975, 47.768349, 1295.1], [-121.07087, 47.768331, 1296.2], [-121.070855, 47.768321, 1296.4], [-121.070848, 47.768308, 1296.6], [-121.070812, 47.768269, 1297.2], [-121.07079, 47.768233, 1297.8], [-121.070772, 47.76821, 1298.3], [-121.07075, 47.768192, 1298.6], [-121.070739, 47.768177, 1298.9], [-121.070735, 47.768164, 1299.2], [-121.070735, 47.768133, 1299.8], [-121.070729, 47.768119, 1300.1], [-121.070728, 47.768094, 1300.6], [-121.070697, 47.768057, 1301.6], [-121.070681, 47.768049, 1301.9], [-121.070621, 47.768036, 1302.9], [-121.070587, 47.768012, 1303.7], [-121.070562, 47.767979, 1304.6], [-121.070561, 47.767956, 1305.2], [-121.070569, 47.767936, 1305.7], [-121.070599, 47.767901, 1306.7], [-121.070604, 47.767888, 1307.0], [-121.07062, 47.767868, 1307.6], [-121.070635, 47.767842, 1308.2], [-121.070643, 47.767813, 1309.0], [-121.070639, 47.767798, 1309.3], [-121.070616, 47.767759, 1310.4], [-121.07058, 47.767734, 1311.2], [-121.070562, 47.767727, 1311.6], [-121.070515, 47.767721, 1312.4], [-121.070467, 47.767719, 1313.2], [-121.070449, 47.767713, 1313.5], [-121.070426, 47.767717, 1313.9], [-121.070407, 47.767707, 1314.3], [-121.070405, 47.767661, 1315.5], [-121.070388, 47.767639, 1316.0], [-121.070385, 47.767625, 1316.4], [-121.070394, 47.767603, 1316.9], [-121.070435, 47.767559, 1318.1], [-121.070461, 47.767534, 1318.9], [-121.070501, 47.767506, 1319.8], [-121.070517, 47.767492, 1320.2], [-121.07055, 47.76745, 1321.3], [-121.070562, 47.767445, 1321.5], [-121.070591, 47.767417, 1322.3], [-121.070594, 47.767391, 1323.0], [-121.070587, 47.767366, 1323.6], [-121.070586, 47.767337, 1324.3], [-121.070594, 47.767308, 1325.0], [-121.070615, 47.767316, 1325.4], [-121.070629, 47.767331, 1325.8], [-121.070635, 47.767333, 1325.9], [-121.070661, 47.767319, 1326.5], [-121.070692, 47.767312, 1327.0], [-121.070733, 47.767317, 1327.8], [-121.070769, 47.767326, 1328.4], [-121.070792, 47.767334, 1329.4], [-121.070807, 47.767309, 1330.1], [-121.070799, 47.767283, 1330.7], [-121.070784, 47.76726, 1331.4], [-121.07077, 47.767234, 1332.1], [-121.070747, 47.767186, 1333.4], [-121.070737, 47.76716, 1334.1], [-121.070731, 47.767119, 1335.1], [-121.070724, 47.767094, 1335.8], [-121.070723, 47.767058, 1336.8], [-121.070728, 47.767044, 1337.1], [-121.070739, 47.767027, 1337.6], [-121.070741, 47.767014, 1338.0], [-121.070734, 47.767, 1338.3], [-121.070719, 47.766985, 1338.8], [-121.070684, 47.766962, 1339.6], [-121.070661, 47.766938, 1340.3], [-121.070651, 47.766915, 1340.9], [-121.07065, 47.766905, 1341.2], [-121.070657, 47.766886, 1341.6], [-121.070643, 47.766854, 1342.4], [-121.070637, 47.766831, 1343.0], [-121.070609, 47.7668, 1343.8], [-121.070583, 47.766777, 1344.4], [-121.070573, 47.766762, 1344.8], [-121.070569, 47.766739, 1345.3], [-121.070571, 47.766723, 1345.7], [-121.070568, 47.766715, 1345.9], [-121.07057, 47.766683, 1346.6], [-121.070568, 47.766668, 1346.9], [-121.070557, 47.766626, 1347.9], [-121.07057, 47.7666, 1348.6], [-121.070557, 47.766588, 1349.1], [-121.070472, 47.766545, 1350.7], [-121.070436, 47.766513, 1351.6], [-121.070406, 47.766492, 1352.2], [-121.070388, 47.766488, 1352.5], [-121.07038, 47.766492, 1352.9], [-121.070357, 47.766487, 1353.2], [-121.070343, 47.766487, 1353.4], [-121.070321, 47.766492, 1353.7], [-121.070294, 47.766506, 1354.1], [-121.070261, 47.766526, 1354.7], [-121.070249, 47.766537, 1355.0], [-121.070236, 47.76656, 1355.5], [-121.070219, 47.766584, 1356.0], [-121.070206, 47.766607, 1356.5], [-121.070192, 47.766626, 1356.9], [-121.070181, 47.766651, 1357.4], [-121.070135, 47.766675, 1358.2], [-121.070115, 47.766687, 1358.6], [-121.070087, 47.766699, 1359.1], [-121.070047, 47.76671, 1359.7], [-121.070035, 47.766708, 1359.9], [-121.070042, 47.7667, 1360.1], [-121.070013, 47.766701, 1360.5], [-121.069998, 47.766699, 1361.2], [-121.06999, 47.766707, 1362.6], [-121.069999, 47.766716, 1362.8], [-121.070006, 47.766693, 1363.4], [-121.06999, 47.766695, 1363.6], [-121.069986, 47.7667, 1364.1], [-121.069967, 47.766701, 1364.4], [-121.069916, 47.766691, 1365.2], [-121.069897, 47.766685, 1365.5], [-121.069882, 47.766672, 1365.9], [-121.069871, 47.766631, 1366.8], [-121.069875, 47.766616, 1367.2], [-121.069889, 47.766604, 1367.5], [-121.069905, 47.766579, 1368.2], [-121.069909, 47.766565, 1368.5], [-121.069899, 47.76653, 1369.4], [-121.069886, 47.766502, 1370.1], [-121.069866, 47.766479, 1370.7], [-121.069865, 47.766463, 1371.1], [-121.069858, 47.766449, 1371.4], [-121.069849, 47.766441, 1371.7], [-121.069828, 47.766402, 1372.6], [-121.069819, 47.766372, 1373.2], [-121.069798, 47.766356, 1373.6], [-121.069778, 47.766345, 1374.0], [-121.06976, 47.766325, 1374.5], [-121.069755, 47.7663, 1374.9], [-121.069746, 47.766269, 1375.5], [-121.069735, 47.766241, 1376.0], [-121.069715, 47.766215, 1376.5], [-121.069703, 47.766196, 1376.8], [-121.069655, 47.766154, 1377.5], [-121.069634, 47.766148, 1377.7], [-121.069608, 47.766144, 1377.9], [-121.069549, 47.76613, 1378.4], [-121.069529, 47.766131, 1378.5], [-121.069507, 47.766129, 1378.6], [-121.069485, 47.76616, 1378.9], [-121.069466, 47.766178, 1379.1], [-121.069422, 47.766197, 1379.4], [-121.069412, 47.766204, 1379.5], [-121.069395, 47.766223, 1379.7], [-121.069384, 47.766253, 1380.0], [-121.069382, 47.766272, 1380.2], [-121.069371, 47.766305, 1380.6], [-121.069364, 47.766315, 1380.7], [-121.069345, 47.766355, 1381.1], [-121.069311, 47.766396, 1381.7], [-121.069297, 47.766416, 1382.0], [-121.069274, 47.76643, 1382.2], [-121.06924, 47.766445, 1382.6], [-121.069218, 47.766459, 1382.9], [-121.069203, 47.766472, 1383.1], [-121.06916, 47.766496, 1383.7], [-121.069135, 47.766516, 1384.2], [-121.069111, 47.766531, 1384.5], [-121.069033, 47.766556, 1385.7], [-121.069018, 47.766566, 1386.0], [-121.068945, 47.766586, 1387.1], [-121.068899, 47.76659, 1387.8], [-121.068854, 47.76659, 1388.5], [-121.068834, 47.766588, 1388.8], [-121.068713, 47.766555, 1390.6], [-121.068705, 47.766556, 1390.7], [-121.068663, 47.766552, 1391.2], [-121.068606, 47.766555, 1392.0], [-121.068533, 47.766555, 1392.9], [-121.0685, 47.766551, 1393.3], [-121.068452, 47.766548, 1393.9], [-121.068421, 47.766549, 1394.2], [-121.068381, 47.766558, 1394.7], [-121.068371, 47.766562, 1394.9], [-121.068354, 47.766561, 1395.1], [-121.068335, 47.766552, 1395.3], [-121.068291, 47.766538, 1395.9], [-121.068261, 47.766519, 1396.3], [-121.06823, 47.766507, 1396.5], [-121.068175, 47.766482, 1397.1], [-121.068145, 47.76647, 1397.3], [-121.068116, 47.766464, 1397.6], [-121.068086, 47.766453, 1397.9], [-121.068067, 47.766451, 1398.0], [-121.068017, 47.766437, 1398.5], [-121.067993, 47.766425, 1398.8], [-121.067952, 47.766407, 1399.2], [-121.067933, 47.766403, 1399.4], [-121.067885, 47.766399, 1399.9], [-121.067876, 47.766396, 1400.0], [-121.067837, 47.766363, 1400.5], [-121.067816, 47.766323, 1401.1], [-121.067813, 47.766306, 1401.4], [-121.067796, 47.766282, 1401.7], [-121.067784, 47.766274, 1401.9], [-121.067776, 47.766262, 1402.1], [-121.067772, 47.766231, 1402.5], [-121.067767, 47.766208, 1402.9], [-121.067766, 47.766184, 1403.2], [-121.067784, 47.76616, 1403.7], [-121.067796, 47.76615, 1403.9], [-121.067802, 47.76614, 1404.0], [-121.067842, 47.766119, 1404.7], [-121.067873, 47.7661, 1405.2], [-121.067879, 47.766083, 1405.6], [-121.067884, 47.766051, 1406.2], [-121.067881, 47.766029, 1406.7], [-121.067872, 47.766006, 1407.2], [-121.067857, 47.765981, 1407.8], [-121.067844, 47.76595, 1408.5], [-121.067852, 47.765936, 1409.1], [-121.067861, 47.765928, 1409.4], [-121.067864, 47.765914, 1409.7], [-121.067873, 47.765909, 1409.9], [-121.067879, 47.765886, 1410.4], [-121.067873, 47.76587, 1410.8], [-121.067824, 47.765863, 1411.5], [-121.067795, 47.765854, 1411.9], [-121.067757, 47.765835, 1412.6], [-121.06774, 47.76582, 1413.0], [-121.067723, 47.765789, 1413.6], [-121.067723, 47.765774, 1413.9], [-121.067731, 47.765758, 1414.3], [-121.067738, 47.765753, 1414.4], [-121.067746, 47.765738, 1414.7], [-121.067739, 47.765722, 1415.0], [-121.067727, 47.765708, 1415.4], [-121.067719, 47.765687, 1415.8], [-121.067718, 47.765669, 1416.1], [-121.067743, 47.765645, 1416.7], [-121.067798, 47.765602, 1417.8], [-121.067826, 47.765569, 1418.5], [-121.067826, 47.765557, 1418.7], [-121.067818, 47.765549, 1418.9], [-121.067798, 47.765537, 1419.2], [-121.06777, 47.765525, 1419.6], [-121.067741, 47.765517, 1420.0], [-121.067701, 47.765515, 1420.4], [-121.067663, 47.765521, 1420.9], [-121.067632, 47.76553, 1421.3], [-121.06763, 47.765536, 1421.4], [-121.067605, 47.765555, 1421.8], [-121.06754, 47.765598, 1422.8], [-121.067524, 47.765606, 1423.0], [-121.067508, 47.765618, 1423.3], [-121.067488, 47.765629, 1423.6], [-121.067452, 47.765658, 1424.2], [-121.06743, 47.765671, 1424.5], [-121.067417, 47.765684, 1424.8], [-121.067384, 47.765705, 1425.2], [-121.067363, 47.765714, 1425.5], [-121.067343, 47.765728, 1425.8], [-121.06732, 47.76573, 1426.1], [-121.067311, 47.765735, 1426.2], [-121.067289, 47.765755, 1426.6], [-121.067277, 47.765778, 1427.0], [-121.067246, 47.765778, 1427.8], [-121.067197, 47.765768, 1428.6], [-121.067184, 47.765761, 1429.5], [-121.067163, 47.765741, 1430.2], [-121.067158, 47.765729, 1430.2], [-121.067138, 47.765709, 1431.6], [-121.067123, 47.765698, 1431.6], [-121.067109, 47.765692, 1432.1], [-121.067092, 47.76569, 1432.9], [-121.067065, 47.765702, 1432.4], [-121.067033, 47.765713, 1433.2], [-121.067015, 47.765729, 1433.3], [-121.066963, 47.765763, 1433.4], [-121.066934, 47.765776, 1433.4], [-121.066866, 47.765791, 1434.2], [-121.066822, 47.765795, 1434.9], [-121.066704, 47.765792, 1437.0], [-121.066673, 47.765785, 1437.7], [-121.066659, 47.765787, 1437.7], [-121.066628, 47.765782, 1438.4], [-121.06659, 47.76577, 1439.2], [-121.066551, 47.76577, 1440.0], [-121.06652, 47.765779, 1440.7], [-121.066507, 47.765785, 1439.9], [-121.066474, 47.765806, 1440.6], [-121.066456, 47.765813, 1440.4], [-121.066428, 47.765817, 1440.4], [-121.066389, 47.765817, 1441.2], [-121.066375, 47.765819, 1441.2], [-121.066334, 47.76582, 1441.9], [-121.066269, 47.765815, 1443.3], [-121.066258, 47.765816, 1443.3], [-121.066226, 47.765811, 1443.9], [-121.066206, 47.765803, 1444.6], [-121.066192, 47.765794, 1445.2], [-121.066177, 47.765772, 1445.9], [-121.066163, 47.76576, 1445.9], [-121.066155, 47.765758, 1446.5], [-121.066138, 47.76574, 1447.2], [-121.066132, 47.765719, 1447.8], [-121.066107, 47.765702, 1448.4], [-121.06609, 47.765693, 1449.0], [-121.066083, 47.765683, 1449.0], [-121.06608, 47.765666, 1449.6], [-121.066085, 47.765641, 1449.6], [-121.066085, 47.765627, 1450.2], [-121.066091, 47.765612, 1450.2], [-121.066116, 47.765576, 1451.5], [-121.066109, 47.765534, 1452.0], [-121.066099, 47.765514, 1452.5], [-121.066082, 47.765497, 1452.5], [-121.066045, 47.765453, 1454.2], [-121.066034, 47.765443, 1454.2], [-121.066016, 47.765442, 1454.9], [-121.066001, 47.76543, 1455.3], [-121.065968, 47.76539, 1456.4], [-121.06596, 47.765374, 1456.7], [-121.065952, 47.765339, 1457.1], [-121.065944, 47.765313, 1458.2], [-121.06595, 47.765296, 1457.4], [-121.065965, 47.765271, 1457.8], [-121.065971, 47.765268, 1457.8], [-121.065982, 47.765276, 1457.8], [-121.065977, 47.765283, 1457.8], [-121.065949, 47.765273, 1457.8], [-121.065945, 47.765265, 1458.6], [-121.065951, 47.765255, 1458.1], [-121.065959, 47.765213, 1458.4], [-121.065956, 47.765193, 1458.7], [-121.065964, 47.765158, 1459.1], [-121.065974, 47.765155, 1459.1], [-121.066015, 47.765152, 1458.3], [-121.066043, 47.765146, 1457.9], [-121.066044, 47.765128, 1457.9], [-121.066037, 47.765111, 1458.3], [-121.065991, 47.765066, 1459.6], [-121.065939, 47.76504, 1461.8], [-121.065893, 47.76502, 1463.1], [-121.065872, 47.765002, 1463.6], [-121.065852, 47.764977, 1464.4], [-121.065843, 47.764955, 1464.8], [-121.065818, 47.764936, 1465.2], [-121.065808, 47.764913, 1466.4], [-121.065792, 47.764895, 1466.4], [-121.065783, 47.764877, 1466.9], [-121.065782, 47.764855, 1467.5], [-121.06577, 47.764838, 1468.3], [-121.06576, 47.764834, 1468.3], [-121.065753, 47.764825, 1468.8], [-121.06574, 47.764825, 1468.8], [-121.065696, 47.764839, 1469.1], [-121.065683, 47.764837, 1470.0], [-121.065677, 47.764829, 1470.6], [-121.06566, 47.76482, 1470.6], [-121.065653, 47.7648, 1471.2], [-121.065645, 47.764789, 1472.2], [-121.065643, 47.764777, 1472.2], [-121.065657, 47.76476, 1471.8], [-121.065658, 47.764738, 1472.4], [-121.065663, 47.764723, 1472.4], [-121.065681, 47.764701, 1473.1], [-121.065709, 47.764684, 1472.8], [-121.065724, 47.764683, 1472.8], [-121.065767, 47.764695, 1471.2], [-121.0658, 47.764712, 1470.3], [-121.065817, 47.764708, 1469.5], [-121.065812, 47.764702, 1470.3], [-121.065792, 47.76469, 1470.3], [-121.065779, 47.764672, 1471.0], [-121.06572, 47.764632, 1473.5], [-121.065687, 47.764605, 1475.0], [-121.065668, 47.764569, 1476.2], [-121.065671, 47.764556, 1476.2], [-121.065645, 47.764548, 1477.1], [-121.065605, 47.764544, 1477.1], [-121.065546, 47.764547, 1478.9], [-121.065526, 47.764551, 1478.9], [-121.065483, 47.764568, 1479.8], [-121.065448, 47.764587, 1480.2], [-121.065399, 47.764606, 1480.6], [-121.065383, 47.764616, 1481.5], [-121.065354, 47.764627, 1481.5], [-121.065325, 47.764624, 1482.5], [-121.06529, 47.764618, 1483.4], [-121.065273, 47.764619, 1483.4], [-121.065241, 47.764625, 1484.3], [-121.065223, 47.764631, 1483.8], [-121.065203, 47.764641, 1484.7], [-121.065172, 47.764661, 1485.1], [-121.06512, 47.76469, 1485.4], [-121.065075, 47.764709, 1486.2], [-121.065045, 47.764715, 1485.6], [-121.065029, 47.764714, 1487.1], [-121.064993, 47.764699, 1487.9], [-121.064973, 47.764693, 1488.0], [-121.064979, 47.764676, 1488.5], [-121.064975, 47.764667, 1488.5], [-121.064951, 47.764647, 1489.8], [-121.064895, 47.764619, 1491.1], [-121.064866, 47.7646, 1491.9], [-121.064824, 47.764604, 1492.6], [-121.064805, 47.764611, 1492.6], [-121.064775, 47.764615, 1493.4], [-121.064742, 47.764615, 1494.1], [-121.064707, 47.764613, 1494.1], [-121.064663, 47.764616, 1494.9], [-121.064643, 47.764615, 1495.6], [-121.064613, 47.764606, 1496.2], [-121.064601, 47.764605, 1496.2], [-121.064593, 47.76461, 1496.2], [-121.064557, 47.7646, 1496.9], [-121.064519, 47.764584, 1497.9], [-121.064506, 47.764574, 1498.0], [-121.064504, 47.764567, 1498.4], [-121.064532, 47.764548, 1497.8], [-121.064525, 47.764555, 1498.5], [-121.064521, 47.764543, 1498.5], [-121.064531, 47.764535, 1498.3], [-121.06453, 47.764529, 1498.3], [-121.064512, 47.764505, 1499.5], [-121.064503, 47.764487, 1499.5], [-121.064505, 47.764467, 1500.0], [-121.064499, 47.764493, 1499.5], [-121.064465, 47.764502, 1500.2], [-121.064422, 47.764521, 1500.3], [-121.064396, 47.764526, 1500.8], [-121.064367, 47.764542, 1500.3], [-121.064342, 47.764553, 1500.8], [-121.06432, 47.764567, 1500.8], [-121.064303, 47.764586, 1500.7], [-121.064277, 47.764605, 1500.2], [-121.064263, 47.764611, 1500.6], [-121.064233, 47.764616, 1500.6], [-121.064187, 47.764614, 1500.9], [-121.064167, 47.764609, 1501.3], [-121.064157, 47.764613, 1501.3], [-121.064124, 47.764615, 1501.6], [-121.064103, 47.764609, 1501.6], [-121.064091, 47.7646, 1501.8], [-121.064078, 47.764577, 1502.4], [-121.064075, 47.764547, 1502.9], [-121.064077, 47.764533, 1503.5], [-121.064087, 47.764496, 1504.1], [-121.064089, 47.76448, 1504.7], [-121.064099, 47.76446, 1504.7], [-121.064102, 47.764397, 1506.2], [-121.064117, 47.764364, 1506.7], [-121.064144, 47.764329, 1506.8], [-121.064163, 47.764311, 1506.8], [-121.064171, 47.764285, 1507.2], [-121.06417, 47.764269, 1507.6], [-121.064176, 47.764238, 1508.0], [-121.064187, 47.764211, 1508.3], [-121.06421, 47.764188, 1508.6], [-121.064215, 47.764176, 1508.6], [-121.064234, 47.764148, 1508.7], [-121.064256, 47.76411, 1509.1], [-121.06426, 47.764099, 1509.7], [-121.064268, 47.764055, 1510.3], [-121.06427, 47.764025, 1511.0], [-121.064274, 47.764011, 1511.5], [-121.064304, 47.763962, 1513.1], [-121.064316, 47.763949, 1513.0], [-121.064323, 47.763935, 1513.8], [-121.064311, 47.763918, 1514.0], [-121.064305, 47.763901, 1514.8], [-121.064282, 47.76387, 1515.6], [-121.06427, 47.76385, 1515.6], [-121.064265, 47.763834, 1516.4], [-121.064263, 47.763806, 1517.1], [-121.064271, 47.763802, 1517.1], [-121.064257, 47.763777, 1517.8], [-121.064261, 47.76375, 1518.4], [-121.064269, 47.76373, 1518.9], [-121.064287, 47.76371, 1519.0], [-121.064313, 47.763706, 1519.0], [-121.064323, 47.763702, 1519.5], [-121.06431, 47.763673, 1519.8], [-121.06431, 47.763651, 1519.8], [-121.064315, 47.763639, 1520.4], [-121.064349, 47.76359, 1520.9], [-121.064362, 47.763576, 1521.5], [-121.06439, 47.763559, 1521.9], [-121.064406, 47.763543, 1521.8], [-121.0644, 47.763527, 1522.3], [-121.06441, 47.763514, 1522.2], [-121.064432, 47.763492, 1522.8], [-121.064437, 47.763478, 1522.8], [-121.064433, 47.763461, 1523.4], [-121.064421, 47.763445, 1524.1], [-121.064407, 47.763434, 1524.1], [-121.064361, 47.763418, 1524.4], [-121.064351, 47.763409, 1525.3], [-121.064331, 47.76338, 1526.1], [-121.064309, 47.763368, 1526.2], [-121.064276, 47.763347, 1527.0], [-121.06426, 47.763333, 1527.0], [-121.064253, 47.763318, 1527.8], [-121.064231, 47.763292, 1528.6], [-121.06425, 47.763257, 1529.4], [-121.064251, 47.763249, 1529.4], [-121.064267, 47.763239, 1530.3], [-121.06426, 47.763228, 1530.3], [-121.064258, 47.763207, 1531.1], [-121.064274, 47.763208, 1530.8], [-121.064262, 47.763184, 1531.7], [-121.064264, 47.763179, 1531.7], [-121.064309, 47.763147, 1532.0], [-121.064324, 47.763125, 1532.0], [-121.064337, 47.76311, 1532.0], [-121.06436, 47.763098, 1531.9], [-121.064393, 47.763093, 1532.0], [-121.064411, 47.763084, 1531.7], [-121.064369, 47.763086, 1532.0], [-121.064355, 47.763073, 1532.2], [-121.064339, 47.763075, 1532.2], [-121.064337, 47.763062, 1532.4], [-121.064241, 47.76303, 1533.2], [-121.064312, 47.762987, 1533.3], [-121.06432, 47.763007, 1533.1], [-121.064312, 47.763014, 1533.2], [-121.064301, 47.763015, 1533.2], [-121.064238, 47.763043, 1533.6], [-121.064265, 47.763033, 1533.9], [-121.064282, 47.763056, 1533.9], [-121.064291, 47.763056, 1533.9], [-121.064315, 47.763048, 1533.7], [-121.06435, 47.763045, 1533.7], [-121.06436, 47.763042, 1533.4], [-121.064379, 47.763052, 1533.4], [-121.064395, 47.763072, 1533.3], [-121.064361, 47.76306, 1533.5], [-121.064342, 47.763042, 1533.7], [-121.064327, 47.763045, 1533.7], [-121.064323, 47.763052, 1533.7], [-121.064301, 47.763054, 1533.9], [-121.064244, 47.763054, 1534.1], [-121.064264, 47.763046, 1534.2], [-121.064286, 47.763048, 1534.0], [-121.064308, 47.763036, 1534.1], [-121.064314, 47.763037, 1534.1], [-121.064284, 47.763045, 1534.0], [-121.064283, 47.763038, 1534.1], [-121.064294, 47.763041, 1534.1], [-121.064308, 47.763059, 1534.1], [-121.06434, 47.76308, 1533.7], [-121.064361, 47.763096, 1533.4], [-121.064382, 47.763121, 1533.2], [-121.064399, 47.763135, 1532.8], [-121.06442, 47.763143, 1532.4], [-121.064427, 47.763149, 1532.4], [-121.064429, 47.763168, 1531.9], [-121.064419, 47.76319, 1531.3], [-121.064432, 47.763202, 1531.3], [-121.064437, 47.763215, 1530.6], [-121.064445, 47.763222, 1530.2], [-121.0645, 47.763247, 1529.1], [-121.064519, 47.763259, 1529.1], [-121.064537, 47.763284, 1527.9], [-121.064541, 47.763294, 1527.9], [-121.064553, 47.763351, 1526.4], [-121.064558, 47.763401, 1525.1], [-121.064553, 47.76342, 1524.5], [-121.06451, 47.763439, 1525.0], [-121.064488, 47.763463, 1524.4], [-121.064427, 47.763487, 1524.4], [-121.0644, 47.763513, 1524.0], [-121.064395, 47.763522, 1524.0], [-121.064393, 47.763558, 1523.5], [-121.064389, 47.76359, 1522.6], [-121.064397, 47.763604, 1522.6], [-121.064427, 47.76363, 1521.8], [-121.064435, 47.763644, 1521.8], [-121.064432, 47.763657, 1521.3], [-121.064415, 47.763698, 1520.7], [-121.064398, 47.763752, 1519.9], [-121.064386, 47.763779, 1519.2], [-121.064359, 47.763813, 1518.3], [-121.06434, 47.763824, 1517.8], [-121.064348, 47.763824, 1517.8], [-121.064352, 47.763838, 1517.8], [-121.06436, 47.763842, 1517.5], [-121.064351, 47.763857, 1517.1], [-121.06435, 47.763869, 1517.1], [-121.064364, 47.763882, 1516.1], [-121.064379, 47.763927, 1515.3], [-121.064387, 47.76397, 1513.5], [-121.064379, 47.763985, 1513.5], [-121.064377, 47.764005, 1512.6], [-121.064361, 47.76402, 1512.6], [-121.064381, 47.764022, 1512.7], [-121.064404, 47.764033, 1511.5], [-121.064426, 47.764034, 1511.5], [-121.064474, 47.764073, 1510.3], [-121.064511, 47.764106, 1509.2], [-121.064517, 47.764122, 1508.6], [-121.064517, 47.764139, 1508.1], [-121.064511, 47.764162, 1508.1], [-121.064513, 47.764199, 1507.0], [-121.064503, 47.764223, 1507.0], [-121.064489, 47.764228, 1506.4], [-121.064498, 47.764239, 1506.4], [-121.06451, 47.764268, 1505.8], [-121.06451, 47.764277, 1505.8], [-121.064518, 47.764308, 1505.2], [-121.064519, 47.764339, 1504.7], [-121.064515, 47.764394, 1503.6], [-121.06451, 47.764424, 1503.0], [-121.064511, 47.764455, 1502.4], [-121.064523, 47.764486, 1501.4], [-121.064542, 47.764518, 1500.3], [-121.064565, 47.764552, 1499.8], [-121.064601, 47.764586, 1498.7], [-121.064642, 47.764617, 1497.6], [-121.064683, 47.764645, 1496.4], [-121.064722, 47.764665, 1495.3], [-121.064767, 47.764678, 1494.5], [-121.064799, 47.764677, 1493.8], [-121.064816, 47.764665, 1493.8], [-121.064819, 47.764656, 1494.2], [-121.064812, 47.764646, 1494.2], [-121.064796, 47.764633, 1494.2], [-121.064779, 47.764624, 1495.4], [-121.064754, 47.764615, 1495.4], [-121.064753, 47.764663, 1494.6], [-121.06475, 47.764694, 1494.1], [-121.06474, 47.764731, 1494.3], [-121.064728, 47.764765, 1493.9], [-121.064718, 47.764801, 1493.4], [-121.06472, 47.764811, 1492.9], [-121.064739, 47.764828, 1492.9], [-121.064761, 47.764835, 1491.5], [-121.064794, 47.764854, 1490.7], [-121.064805, 47.764893, 1489.5], [-121.064817, 47.764942, 1488.9], [-121.064846, 47.764999, 1486.9], [-121.064859, 47.765031, 1486.2], [-121.064882, 47.765066, 1484.2], [-121.064951, 47.765117, 1482.8], [-121.064986, 47.765139, 1481.2], [-121.064997, 47.765143, 1481.2], [-121.06501, 47.765158, 1479.5], [-121.065017, 47.76516, 1479.5], [-121.065033, 47.765179, 1478.6], [-121.065066, 47.765183, 1477.7], [-121.065064, 47.765156, 1478.7], [-121.065049, 47.765115, 1480.3], [-121.065063, 47.765107, 1480.3], [-121.065064, 47.765097, 1480.3], [-121.065076, 47.765097, 1480.3], [-121.065083, 47.76511, 1480.3], [-121.065107, 47.765122, 1478.7], [-121.06513, 47.765125, 1478.7], [-121.065158, 47.765124, 1477.8], [-121.065198, 47.76513, 1476.9], [-121.065261, 47.765145, 1475.2], [-121.065335, 47.765146, 1474.3], [-121.065377, 47.765139, 1473.5], [-121.0654, 47.765132, 1472.7], [-121.065419, 47.765123, 1472.7], [-121.065446, 47.765104, 1472.4], [-121.065448, 47.765095, 1472.4], [-121.065442, 47.765092, 1472.4], [-121.065447, 47.765077, 1473.0], [-121.065428, 47.765066, 1473.8], [-121.065421, 47.765056, 1474.4], [-121.065431, 47.765057, 1473.5], [-121.065474, 47.765068, 1472.1], [-121.065519, 47.765075, 1471.2], [-121.065579, 47.765079, 1470.4], [-121.065627, 47.765077, 1469.6], [-121.065764, 47.765052, 1467.5], [-121.065837, 47.765053, 1465.9], [-121.065883, 47.765065, 1464.6], [-121.065931, 47.765091, 1463.3], [-121.065943, 47.765108, 1463.3], [-121.065966, 47.765127, 1462.0], [-121.065977, 47.765123, 1462.0], [-121.065979, 47.765115, 1462.4], [-121.066014, 47.765116, 1461.6], [-121.066023, 47.765134, 1461.1], [-121.066021, 47.765143, 1461.1], [-121.065999, 47.76515, 1460.7], [-121.065966, 47.765155, 1461.6], [-121.065951, 47.765155, 1461.6], [-121.065924, 47.765146, 1462.9], [-121.065924, 47.765157, 1462.4], [-121.06594, 47.765169, 1462.4], [-121.06596, 47.76519, 1461.2], [-121.06597, 47.765196, 1461.2], [-121.065975, 47.765192, 1461.2], [-121.066029, 47.765183, 1460.4], [-121.066049, 47.765181, 1459.6], [-121.066071, 47.765183, 1459.6], [-121.066093, 47.765188, 1458.8], [-121.066144, 47.765208, 1457.8], [-121.066182, 47.765243, 1456.9], [-121.066211, 47.765279, 1456.1], [-121.066193, 47.765287, 1456.7], [-121.066187, 47.765303, 1456.4], [-121.066178, 47.765353, 1455.8], [-121.066177, 47.765381, 1455.5], [-121.066179, 47.765408, 1455.1], [-121.066195, 47.76544, 1454.7], [-121.066214, 47.765465, 1453.6], [-121.066242, 47.76549, 1453.6], [-121.066297, 47.765561, 1450.8], [-121.066316, 47.765574, 1450.8], [-121.066339, 47.765582, 1449.7], [-121.066364, 47.765586, 1449.7], [-121.066384, 47.765592, 1449.1], [-121.066398, 47.765601, 1449.1], [-121.066416, 47.765617, 1448.6], [-121.066452, 47.765658, 1447.4], [-121.066482, 47.765695, 1446.2], [-121.066535, 47.765767, 1443.3], [-121.06655, 47.765793, 1441.7], [-121.066557, 47.765813, 1440.9], [-121.066556, 47.765827, 1440.9], [-121.06655, 47.765826, 1440.9], [-121.066546, 47.765815, 1441.6], [-121.06655, 47.76581, 1441.8], [-121.066542, 47.765802, 1442.5], [-121.066521, 47.765816, 1441.7], [-121.066518, 47.765824, 1441.7], [-121.066504, 47.765824, 1441.7], [-121.066505, 47.765833, 1441.7], [-121.066533, 47.765837, 1441.7], [-121.066543, 47.765835, 1441.7], [-121.066556, 47.765825, 1441.0], [-121.066564, 47.765803, 1441.8], [-121.066582, 47.765792, 1441.8], [-121.066598, 47.765775, 1441.9], [-121.066587, 47.765768, 1442.7], [-121.066578, 47.765778, 1442.7], [-121.066572, 47.765778, 1442.7], [-121.066552, 47.765793, 1441.9], [-121.066547, 47.765803, 1441.9], [-121.066519, 47.765818, 1441.7], [-121.066528, 47.765825, 1441.7], [-121.066574, 47.765833, 1441.1], [-121.066595, 47.765853, 1439.6], [-121.066603, 47.765874, 1438.7], [-121.066624, 47.765897, 1438.7], [-121.066635, 47.765905, 1437.2], [-121.066689, 47.765916, 1436.6], [-121.066711, 47.765918, 1436.6], [-121.066818, 47.765908, 1434.6], [-121.066942, 47.765904, 1432.3], [-121.06702, 47.765905, 1430.5], [-121.067096, 47.765902, 1429.7], [-121.067172, 47.765891, 1429.1], [-121.06724, 47.765876, 1427.7], [-121.067343, 47.765846, 1427.0], [-121.067379, 47.765827, 1426.6], [-121.067393, 47.765802, 1426.3], [-121.067391, 47.765795, 1426.2], [-121.067377, 47.765783, 1426.0], [-121.06738, 47.765768, 1425.8], [-121.067391, 47.765748, 1425.5], [-121.067413, 47.765725, 1425.1], [-121.06744, 47.7657, 1424.7], [-121.06747, 47.765675, 1424.3], [-121.067507, 47.765652, 1423.9], [-121.067614, 47.765603, 1422.7], [-121.067683, 47.765576, 1422.0], [-121.067756, 47.765553, 1421.3], [-121.067819, 47.765538, 1420.6], [-121.067861, 47.765526, 1420.2], [-121.067878, 47.765524, 1420.1], [-121.067888, 47.765535, 1419.9], [-121.067884, 47.765562, 1419.5], [-121.067891, 47.76558, 1419.2], [-121.06787, 47.765584, 1419.0], [-121.067854, 47.765592, 1418.8], [-121.067839, 47.765626, 1418.2], [-121.067805, 47.765684, 1417.3], [-121.067783, 47.765734, 1416.5], [-121.067771, 47.76579, 1415.6], [-121.067776, 47.765846, 1414.7], [-121.067778, 47.765892, 1414.0], [-121.067787, 47.76593, 1413.3], [-121.067791, 47.765957, 1412.9], [-121.067798, 47.765985, 1412.4], [-121.067802, 47.765986, 1412.4], [-121.0678, 47.765943, 1411.7], [-121.067794, 47.765914, 1411.2], [-121.067792, 47.765884, 1410.6], [-121.067812, 47.765838, 1409.7], [-121.06782, 47.765825, 1409.5], [-121.067821, 47.765809, 1409.2], [-121.067863, 47.765842, 1408.4], [-121.067915, 47.765894, 1407.2], [-121.067935, 47.765935, 1406.5], [-121.067943, 47.765991, 1405.5], [-121.067942, 47.766051, 1404.6], [-121.067918, 47.76613, 1403.5], [-121.06788, 47.766191, 1402.6], [-121.067834, 47.766237, 1402.0], [-121.067773, 47.766296, 1401.2], [-121.06777, 47.766312, 1401.0], [-121.067774, 47.766324, 1400.9], [-121.067797, 47.766357, 1400.5], [-121.067891, 47.766434, 1399.3], [-121.067908, 47.766452, 1399.1], [-121.06792, 47.766459, 1399.0], [-121.067939, 47.766461, 1398.8], [-121.067998, 47.766477, 1398.4], [-121.068038, 47.766484, 1398.1], [-121.068083, 47.766477, 1397.8], [-121.068134, 47.766477, 1397.4], [-121.06822, 47.766488, 1396.8], [-121.068228, 47.766475, 1396.7], [-121.068262, 47.766503, 1396.3], [-121.06831, 47.766525, 1396.0], [-121.068364, 47.766535, 1395.2], [-121.068414, 47.766554, 1394.5], [-121.068471, 47.766571, 1393.8], [-121.068533, 47.766576, 1393.0], [-121.068557, 47.766576, 1392.7], [-121.068613, 47.766582, 1392.0], [-121.068666, 47.766593, 1391.3], [-121.068717, 47.766608, 1390.6], [-121.068765, 47.766619, 1389.9], [-121.068808, 47.766631, 1389.3], [-121.068859, 47.766655, 1388.3], [-121.068882, 47.766658, 1388.0], [-121.068923, 47.766659, 1387.4], [-121.068947, 47.766668, 1387.0], [-121.068992, 47.766677, 1386.3], [-121.069011, 47.766677, 1386.0], [-121.069058, 47.766673, 1385.4], [-121.069103, 47.766661, 1384.8], [-121.069152, 47.766645, 1384.1], [-121.069194, 47.76663, 1383.6], [-121.069243, 47.766605, 1382.9], [-121.069259, 47.766593, 1382.7], [-121.069273, 47.766574, 1382.4], [-121.069277, 47.76656, 1382.2], [-121.069274, 47.766555, 1382.1], [-121.069285, 47.76655, 1382.0], [-121.069285, 47.76653, 1381.8], [-121.069291, 47.766525, 1381.7], [-121.069334, 47.766509, 1381.1], [-121.069391, 47.766504, 1378.4], [-121.06943, 47.766496, 1377.6], [-121.069469, 47.766481, 1376.4], [-121.069506, 47.766463, 1376.7], [-121.069558, 47.766435, 1374.9], [-121.06958, 47.76643, 1374.8], [-121.069604, 47.76643, 1373.7], [-121.069652, 47.766438, 1372.6], [-121.069674, 47.766438, 1372.6], [-121.069694, 47.766424, 1371.5], [-121.069709, 47.766428, 1371.4], [-121.069747, 47.766454, 1369.8], [-121.069813, 47.766479, 1367.4], [-121.069846, 47.766495, 1367.4], [-121.069882, 47.766524, 1366.0], [-121.069918, 47.76656, 1364.6], [-121.069936, 47.766598, 1363.8], [-121.069958, 47.766634, 1362.6], [-121.069985, 47.766668, 1361.3], [-121.070005, 47.766699, 1360.8], [-121.07002, 47.766719, 1360.3], [-121.070025, 47.76673, 1359.3], [-121.069967, 47.766736, 1360.1], [-121.069954, 47.766731, 1359.5], [-121.069959, 47.766724, 1359.1], [-121.069966, 47.76673, 1358.7], [-121.06995, 47.766734, 1356.1], [-121.069965, 47.766722, 1356.5], [-121.069987, 47.76671, 1355.5], [-121.070065, 47.766694, 1354.9], [-121.070106, 47.766695, 1353.8], [-121.070149, 47.7667, 1352.7], [-121.070191, 47.7667, 1351.5], [-121.070245, 47.766694, 1349.1], [-121.070262, 47.76669, 1349.1], [-121.0703, 47.766673, 1348.4], [-121.07031, 47.766666, 1348.3], [-121.070352, 47.766647, 1347.5], [-121.070405, 47.766635, 1346.3], [-121.070448, 47.766614, 1345.5], [-121.07046, 47.766613, 1344.4], [-121.070472, 47.766618, 1344.2], [-121.070489, 47.766632, 1343.8], [-121.070513, 47.766657, 1343.2], [-121.070542, 47.766693, 1342.4], [-121.070566, 47.766733, 1341.5], [-121.070578, 47.766779, 1340.5], [-121.070591, 47.766821, 1339.5], [-121.070595, 47.766852, 1338.9], [-121.070589, 47.766866, 1338.5], [-121.070577, 47.766861, 1338.3], [-121.07057, 47.766849, 1338.0], [-121.070556, 47.766836, 1337.6], [-121.070573, 47.766814, 1336.9], [-121.070583, 47.766788, 1336.3], [-121.070607, 47.766772, 1335.8], [-121.070617, 47.766769, 1335.6], [-121.070625, 47.766773, 1335.4], [-121.070632, 47.766786, 1335.1], [-121.070657, 47.766786, 1334.7], [-121.07066, 47.766768, 1334.3], [-121.070672, 47.76675, 1333.8], [-121.070688, 47.766744, 1333.6], [-121.070689, 47.766737, 1333.4], [-121.07067, 47.766728, 1333.0], [-121.070661, 47.766711, 1332.6], [-121.07065, 47.766707, 1332.4], [-121.070664, 47.766744, 1331.5], [-121.070663, 47.766778, 1330.7], [-121.070652, 47.766866, 1328.7], [-121.070644, 47.766916, 1327.6], [-121.070651, 47.766958, 1326.6], [-121.07067, 47.766989, 1325.9], [-121.070684, 47.767017, 1325.2], [-121.070684, 47.767047, 1324.6], [-121.07068, 47.767076, 1324.0], [-121.070665, 47.767122, 1323.0], [-121.070655, 47.767214, 1321.1], [-121.070638, 47.767247, 1320.3], [-121.070576, 47.767319, 1318.6], [-121.070554, 47.767364, 1317.6], [-121.070532, 47.767414, 1316.5], [-121.070506, 47.767468, 1315.3], [-121.070496, 47.767527, 1314.0], [-121.070488, 47.767582, 1312.8], [-121.070468, 47.767625, 1311.8], [-121.070434, 47.767656, 1311.0], [-121.07048, 47.767639, 1310.2], [-121.070544, 47.767649, 1309.3], [-121.070582, 47.767681, 1308.4], [-121.070599, 47.767718, 1307.5], [-121.07061, 47.767732, 1307.2], [-121.070645, 47.767754, 1306.5], [-121.070676, 47.767777, 1305.8], [-121.07065, 47.767764, 1305.2], [-121.070594, 47.767732, 1304.1], [-121.070581, 47.767726, 1303.9], [-121.070549, 47.767717, 1303.4], [-121.070509, 47.767697, 1302.7], [-121.070494, 47.767694, 1302.4], [-121.070497, 47.767707, 1302.2], [-121.070514, 47.767724, 1301.8], [-121.070575, 47.767803, 1300.0], [-121.070581, 47.767815, 1299.8], [-121.070603, 47.767838, 1299.4], [-121.070638, 47.767856, 1298.9], [-121.070672, 47.767876, 1298.4], [-121.070718, 47.76789, 1297.9], [-121.070709, 47.767991, 1296.5], [-121.070683, 47.768178, 1294.2], [-121.070691, 47.768278, 1292.8], [-121.070713, 47.768334, 1292.1], [-121.070779, 47.768408, 1291.0], [-121.070816, 47.768434, 1290.5], [-121.070843, 47.768462, 1290.1], [-121.070819, 47.768503, 1289.6], [-121.070777, 47.768532, 1289.1], [-121.070741, 47.768553, 1288.8], [-121.070685, 47.76854, 1288.3], [-121.07067, 47.768527, 1288.1], [-121.070695, 47.76856, 1287.7], [-121.070731, 47.768576, 1287.3], [-121.070745, 47.768579, 1287.2], [-121.070807, 47.768605, 1286.6], [-121.07084, 47.76862, 1286.3], [-121.070883, 47.768642, 1285.9], [-121.070898, 47.768648, 1285.7], [-121.07094, 47.768671, 1285.3], [-121.070988, 47.768692, 1284.8], [-121.071006, 47.768705, 1284.6], [-121.071048, 47.768718, 1284.2], [-121.071068, 47.768722, 1284.0], [-121.071131, 47.768731, 1283.5], [-121.071163, 47.768737, 1283.2], [-121.071515, 47.768868, 1278.9], [-121.071566, 47.768876, 1278.3], [-121.071616, 47.768866, 1277.6], [-121.071646, 47.768844, 1277.1], [-121.071658, 47.768831, 1276.8], [-121.071675, 47.768837, 1276.5], [-121.071684, 47.768822, 1276.1], [-121.071697, 47.768824, 1275.9], [-121.071714, 47.768818, 1275.6], [-121.071731, 47.768799, 1275.1], [-121.071758, 47.768784, 1274.6], [-121.071804, 47.768773, 1273.9], [-121.071817, 47.768767, 1273.6], [-121.071859, 47.768742, 1272.8], [-121.071879, 47.768725, 1272.3], [-121.071907, 47.768728, 1271.9], [-121.071926, 47.768724, 1271.6], [-121.071974, 47.768737, 1270.8], [-121.072077, 47.768743, 1269.3], [-121.072129, 47.768752, 1268.5], [-121.072178, 47.768763, 1267.8], [-121.072232, 47.768777, 1267.0], [-121.072343, 47.76882, 1265.1], [-121.072405, 47.768819, 1264.2], [-121.072462, 47.768796, 1263.3], [-121.072561, 47.768727, 1261.3], [-121.072624, 47.768691, 1260.3], [-121.072681, 47.76866, 1259.4], [-121.072718, 47.768632, 1258.7], [-121.072742, 47.768608, 1258.2], [-121.072783, 47.768583, 1257.5], [-121.0728, 47.768576, 1257.2], [-121.072843, 47.768564, 1256.7], [-121.072958, 47.76853, 1255.1], [-121.073028, 47.768512, 1254.2], [-121.073091, 47.768492, 1253.4], [-121.073151, 47.768479, 1252.6], [-121.07323, 47.768466, 1251.6], [-121.073243, 47.768474, 1251.2], [-121.073221, 47.768483, 1250.9], [-121.073199, 47.768496, 1250.5], [-121.073197, 47.768453, 1249.7], [-121.073255, 47.768435, 1248.9], [-121.073323, 47.768419, 1247.9], [-121.073371, 47.768395, 1247.2], [-121.073407, 47.768358, 1246.3], [-121.073436, 47.768316, 1245.5], [-121.07346, 47.768275, 1244.6], [-121.073481, 47.768233, 1243.8], [-121.073503, 47.768193, 1243.0], [-121.073527, 47.768154, 1242.3], [-121.073551, 47.768118, 1241.6], [-121.073576, 47.768084, 1240.9], [-121.073604, 47.76805, 1240.2], [-121.073658, 47.767974, 1238.8], [-121.073683, 47.767934, 1238.0], [-121.073728, 47.767852, 1236.6], [-121.073749, 47.767811, 1235.9], [-121.073756, 47.767767, 1235.2], [-121.07376, 47.767687, 1234.0], [-121.073772, 47.767641, 1233.2], [-121.073793, 47.767595, 1232.5], [-121.073807, 47.767551, 1231.8], [-121.073812, 47.767511, 1231.2], [-121.073803, 47.767474, 1230.7], [-121.073777, 47.767431, 1230.0], [-121.073745, 47.767388, 1229.3], [-121.073712, 47.767349, 1228.6], [-121.073692, 47.767312, 1228.1], [-121.07368, 47.767278, 1227.5], [-121.073683, 47.767243, 1227.0], [-121.073714, 47.767164, 1225.6], [-121.073723, 47.767122, 1224.9], [-121.073727, 47.767078, 1224.1], [-121.073743, 47.767011, 1223.0], [-121.073745, 47.766982, 1222.5], [-121.073753, 47.766952, 1222.0], [-121.073758, 47.766917, 1221.5], [-121.073771, 47.766877, 1220.9], [-121.073815, 47.766803, 1219.7], [-121.07383, 47.766767, 1219.1], [-121.073835, 47.766728, 1218.5], [-121.073831, 47.766688, 1217.9], [-121.073811, 47.766616, 1216.7], [-121.073795, 47.766588, 1216.2], [-121.073786, 47.766557, 1215.6], [-121.073793, 47.766519, 1215.0], [-121.073809, 47.766474, 1214.2], [-121.073824, 47.766421, 1213.3], [-121.073825, 47.766377, 1212.5], [-121.073828, 47.766342, 1211.9], [-121.073827, 47.766332, 1211.8], [-121.073818, 47.766339, 1211.6], [-121.073814, 47.76635, 1211.4], [-121.073817, 47.766364, 1211.2], [-121.073834, 47.766389, 1210.7], [-121.073831, 47.766369, 1210.3], [-121.073846, 47.766325, 1209.6], [-121.073847, 47.766314, 1209.4], [-121.07384, 47.766311, 1209.3], [-121.073824, 47.766326, 1208.8], [-121.073849, 47.766309, 1208.4], [-121.073876, 47.766286, 1207.9], [-121.073884, 47.766292, 1207.8], [-121.073892, 47.76632, 1207.3], [-121.073904, 47.766349, 1206.8], [-121.073923, 47.766378, 1206.3], [-121.073951, 47.7664, 1205.9], [-121.073964, 47.766396, 1205.8], [-121.073973, 47.766372, 1205.4], [-121.073964, 47.766373, 1205.3], [-121.073933, 47.766369, 1205.0], [-121.073931, 47.766359, 1204.9], [-121.073935, 47.766297, 1204.0], [-121.073936, 47.766203, 1202.8], [-121.073949, 47.766196, 1202.7], [-121.073997, 47.766201, 1201.2], [-121.074055, 47.766202, 1199.7], [-121.074134, 47.766194, 1196.3], [-121.074236, 47.766193, 1191.3], [-121.074252, 47.766194, 1191.3], [-121.074253, 47.766175, 1190.9], [-121.074249, 47.766169, 1190.9], [-121.074289, 47.766176, 1189.2], [-121.074335, 47.766189, 1188.0], [-121.074351, 47.766196, 1188.0], [-121.074359, 47.766182, 1186.0], [-121.074359, 47.766163, 1186.0], [-121.074349, 47.766161, 1187.6], [-121.07432, 47.766165, 1187.6], [-121.074308, 47.766163, 1189.2], [-121.074339, 47.766131, 1186.9], [-121.074384, 47.766119, 1184.8], [-121.074398, 47.766118, 1184.8], [-121.07443, 47.766142, 1183.7], [-121.074438, 47.766152, 1183.7], [-121.074447, 47.766202, 1182.9], [-121.074466, 47.766233, 1183.3], [-121.074478, 47.766245, 1183.7], [-121.074511, 47.76627, 1182.1], [-121.074553, 47.766306, 1180.9], [-121.074601, 47.766344, 1179.5], [-121.074655, 47.766377, 1178.1], [-121.07471, 47.766414, 1174.7], [-121.074754, 47.76645, 1173.0], [-121.074805, 47.766534, 1171.3], [-121.074847, 47.766571, 1169.3], [-121.074887, 47.766608, 1167.3], [-121.074912, 47.766643, 1167.4], [-121.074949, 47.76671, 1165.6], [-121.074974, 47.766742, 1163.7], [-121.075025, 47.766772, 1162.1], [-121.075169, 47.766834, 1157.6], [-121.07522, 47.766867, 1154.7], [-121.075248, 47.766905, 1154.9], [-121.075266, 47.766949, 1153.6], [-121.075291, 47.766994, 1154.1], [-121.075318, 47.767038, 1152.8], [-121.07534, 47.767086, 1153.3], [-121.075335, 47.76709, 1153.3], [-121.075316, 47.767077, 1153.0], [-121.0753, 47.767059, 1154.7], [-121.075292, 47.767044, 1154.4], [-121.075288, 47.767017, 1154.1], [-121.075279, 47.766998, 1154.1], [-121.07528, 47.766993, 1153.8], [-121.075292, 47.767001, 1154.0], [-121.075336, 47.767006, 1152.3], [-121.075317, 47.767028, 1152.6], [-121.075288, 47.767044, 1154.3], [-121.075268, 47.767059, 1154.6], [-121.075254, 47.767074, 1156.3], [-121.075241, 47.767098, 1156.5], [-121.075241, 47.767108, 1156.5], [-121.075229, 47.767104, 1156.5], [-121.075224, 47.767112, 1156.8], [-121.075217, 47.767139, 1157.1], [-121.075289, 47.767153, 1155.5], [-121.075395, 47.767149, 1150.6], [-121.075447, 47.767135, 1148.7], [-121.07553, 47.767072, 1145.2], [-121.0756, 47.767011, 1143.4], [-121.075666, 47.766961, 1140.0], [-121.075717, 47.766913, 1138.2], [-121.075741, 47.766878, 1135.8], [-121.075779, 47.766845, 1133.5], [-121.075836, 47.766808, 1131.2], [-121.075866, 47.766784, 1129.0], [-121.075867, 47.766778, 1129.0], [-121.075844, 47.76676, 1130.5], [-121.075823, 47.766756, 1130.5], [-121.075808, 47.766758, 1132.5], [-121.075821, 47.766751, 1130.5], [-121.075821, 47.766745, 1130.5], [-121.075807, 47.766737, 1132.4], [-121.075848, 47.766765, 1130.8], [-121.075868, 47.766769, 1128.9], [-121.075871, 47.766775, 1128.9], [-121.075903, 47.766765, 1127.2], [-121.075925, 47.766739, 1126.9], [-121.075927, 47.766727, 1126.7], [-121.075922, 47.766669, 1126.2], [-121.075921, 47.766607, 1125.9], [-121.075924, 47.766575, 1125.8], [-121.075931, 47.76654, 1125.7], [-121.075944, 47.76651, 1125.6], [-121.075968, 47.766471, 1124.4], [-121.075978, 47.76644, 1124.4], [-121.076001, 47.766391, 1123.4], [-121.07605, 47.766322, 1122.2], [-121.076094, 47.766251, 1121.1], [-121.076112, 47.766218, 1120.5], [-121.076138, 47.766155, 1119.6], [-121.076164, 47.766118, 1118.9], [-121.076197, 47.766084, 1118.3], [-121.07622, 47.766051, 1117.8], [-121.07626, 47.765988, 1116.8], [-121.076324, 47.765903, 1115.4], [-121.076353, 47.765855, 1114.6], [-121.07639, 47.765814, 1113.9], [-121.076431, 47.765779, 1113.2], [-121.076484, 47.765727, 1112.2], [-121.07647, 47.765721, 1112.1], [-121.076441, 47.765723, 1111.8], [-121.076377, 47.765744, 1111.1], [-121.076383, 47.765751, 1110.9], [-121.076401, 47.765748, 1110.7], [-121.076412, 47.765739, 1110.5], [-121.076408, 47.765723, 1110.3], [-121.076376, 47.765696, 1109.8], [-121.076357, 47.765688, 1109.6], [-121.076353, 47.765666, 1109.3], [-121.076361, 47.765657, 1109.2], [-121.076392, 47.765652, 1108.9], [-121.076427, 47.765649, 1108.6], [-121.076471, 47.765639, 1108.2], [-121.076522, 47.765617, 1107.7], [-121.076658, 47.765603, 1106.6], [-121.0767, 47.765605, 1106.3], [-121.076744, 47.765605, 1105.9], [-121.076772, 47.765609, 1105.7], [-121.076828, 47.765622, 1105.2], [-121.076846, 47.765635, 1105.0], [-121.076855, 47.765649, 1104.8], [-121.07686, 47.765664, 1104.6], [-121.076865, 47.765723, 1103.8], [-121.076864, 47.765736, 1103.7], [-121.076854, 47.765769, 1103.2], [-121.076831, 47.765838, 1102.3], [-121.076806, 47.765897, 1101.5], [-121.076799, 47.765936, 1101.1], [-121.076803, 47.765969, 1100.7], [-121.076793, 47.765976, 1100.6], [-121.076784, 47.765966, 1100.5], [-121.07678, 47.765951, 1100.3], [-121.076802, 47.765944, 1100.1], [-121.076799, 47.765963, 1099.9], [-121.076803, 47.765999, 1099.6], [-121.076801, 47.766012, 1099.4], [-121.076807, 47.766034, 1099.2], [-121.076809, 47.766061, 1099.0], [-121.076824, 47.766109, 1098.6], [-121.076828, 47.766145, 1098.3], [-121.076839, 47.766167, 1098.1], [-121.076849, 47.766178, 1098.0], [-121.076879, 47.766204, 1097.9], [-121.076907, 47.766246, 1097.9], [-121.076932, 47.766279, 1098.0], [-121.076951, 47.766297, 1098.0], [-121.076981, 47.766313, 1098.0], [-121.077009, 47.766337, 1098.0], [-121.077022, 47.766354, 1098.0], [-121.076991, 47.766369, 1098.1], [-121.076997, 47.76639, 1098.1], [-121.077023, 47.766418, 1098.1], [-121.077053, 47.766445, 1098.1], [-121.077067, 47.766464, 1098.1], [-121.077085, 47.766478, 1098.1], [-121.077105, 47.766509, 1098.1], [-121.07711, 47.766523, 1098.1], [-121.077105, 47.766554, 1098.1], [-121.077095, 47.766582, 1098.1], [-121.077093, 47.766622, 1098.1], [-121.077104, 47.766635, 1098.1], [-121.077139, 47.766646, 1098.1], [-121.077155, 47.766653, 1098.2], [-121.077163, 47.766648, 1098.2], [-121.077166, 47.766637, 1098.2], [-121.077161, 47.766625, 1098.2], [-121.077167, 47.766617, 1098.2], [-121.07716, 47.766611, 1098.2], [-121.077126, 47.766606, 1098.2], [-121.077106, 47.766589, 1098.2], [-121.077096, 47.766585, 1098.2], [-121.07705, 47.766576, 1098.2], [-121.07704, 47.766578, 1098.3], [-121.077079, 47.766577, 1098.3], [-121.077089, 47.766579, 1098.3], [-121.077095, 47.766567, 1098.4], [-121.077106, 47.766574, 1098.4], [-121.077117, 47.766596, 1098.5], [-121.077116, 47.766602, 1098.5], [-121.077082, 47.766609, 1098.6], [-121.077064, 47.766615, 1098.6], [-121.077058, 47.766623, 1098.6]]}}