{"type": "Feature", "properties": {}, "geometry": {"type": "LineString", "coordinates": [[-120.326211, 39.316463, 2159.4], [-120.326289, 39.316498, 2160.2], [-120.326245, 39.316472, 2160.3], [-120.326211, 39.316481, 2160.3], [-120.326189, 39.316447, 2160.3], [-120.326202, 39.316393, 2160.4], [-120.326129, 39.316371, 2160.5], [-120.325988, 39.316376, 2160.6], [-120.32588, 39.316409, 2160.6], [-120.325947, 39.316411, 2160.8], [-120.325937, 39.316394, 2160.8], [-120.325985, 39.316354, 2160.8], [-120.326012, 39.316346, 2160.9], [-120.326039, 39.316316, 2160.9], [-120.326154, 39.316285, 2161.0], [-120.32622, 39.316289, 2161.0], [-120.326242, 39.316243, 2161.1], [-120.326231, 39.316211, 2161.2], [-120.326251, 39.316156, 2161.3], [-120.326275, 39.316115, 2161.3], [-120.326377, 39.316042, 2161.3], [-120.326446, 39.316031, 2161.3], [-120.326462, 39.316008, 2161.2], [-120.326443, 39.315984, 2161.2], [-120.326475, 39.315957, 2161.1], [-120.326526, 39.31593, 2161.0], [-120.326642, 39.315845, 2160.6], [-120.326683, 39.315806, 2160.4], [-120.326769, 39.31575, 2159.9], [-120.326848, 39.315658, 2159.2], [-120.326892, 39.315598, 2158.7], [-120.326965, 39.315523, 2158.1], [-120.327, 39.315444, 2157.6], [-120.327042, 39.31538, 2157.1], [-120.327091, 39.315322, 2156.7], [-120.327127, 39.315258, 2156.3], [-120.327127, 39.315201, 2155.9], [-120.327154, 39.315116, 2155.5], [-120.327149, 39.315092, 2155.4], [-120.327176, 39.315029, 2155.0], [-120.327208, 39.3149, 2154.5], [-120.327228, 39.31485, 2154.4], [-120.327218, 39.314705, 2154.0], [-120.327225, 39.314681, 2154.1], [-120.327251, 39.314687, 2154.2], [-120.327286, 39.314751, 2154.3], [-120.327318, 39.314827, 2154.4], [-120.327305, 39.314834, 2154.5], [-120.327238, 39.314808, 2154.6], [-120.32717, 39.314743, 2154.7], [-120.32708, 39.314673, 2154.8], [-120.327041, 39.314653, 2154.8], [-120.326906, 39.314562, 2154.9], [-120.326841, 39.314534, 2154.9], [-120.326807, 39.314505, 2154.9], [-120.326789, 39.314437, 2154.7], [-120.326806, 39.31439, 2154.7], [-120.32676, 39.314358, 2154.8], [-120.326696, 39.31434, 2154.9], [-120.326643, 39.314339, 2155.1], [-120.326569, 39.314319, 2155.4], [-120.326521, 39.314324, 2155.7], [-120.326479, 39.314309, 2155.9], [-120.32643, 39.314304, 2156.2], [-120.326397, 39.314318, 2156.4], [-120.326314, 39.314325, 2156.9], [-120.326225, 39.314316, 2157.4], [-120.326161, 39.314341, 2157.8], [-120.326119, 39.314343, 2158.1], [-120.325997, 39.314395, 2159.2], [-120.325954, 39.314389, 2159.6], [-120.325941, 39.314354, 2160.1], [-120.325971, 39.314301, 2160.9], [-120.326027, 39.314272, 2161.7], [-120.326046, 39.314225, 2162.4], [-120.326078, 39.314224, 2163.0], [-120.326079, 39.314182, 2163.7], [-120.326059, 39.314167, 2164.0], [-120.325952, 39.314171, 2165.3], [-120.325796, 39.314215, 2167.1], [-120.325732, 39.31423, 2167.8], [-120.325705, 39.314247, 2168.2], [-120.325616, 39.314282, 2169.3], [-120.325532, 39.314345, 2170.5], [-120.325514, 39.314369, 2170.8], [-120.325432, 39.314402, 2171.7], [-120.32535, 39.314408, 2172.4], [-120.325314, 39.314398, 2172.7], [-120.325296, 39.314371, 2173.1], [-120.325337, 39.314344, 2173.6], [-120.325383, 39.314356, 2174.0], [-120.325383, 39.314336, 2174.5], [-120.325454, 39.314294, 2175.1], [-120.325521, 39.314268, 2175.6], [-120.325533, 39.314248, 2175.8], [-120.325646, 39.314192, 2176.5], [-120.325647, 39.3142, 2176.7], [-120.325697, 39.314163, 2177.2], [-120.325758, 39.3141, 2178.0], [-120.325795, 39.314073, 2178.4], [-120.325895, 39.314014, 2179.5], [-120.325936, 39.313974, 2180.2], [-120.326043, 39.313929, 2181.4], [-120.326091, 39.313917, 2182.0], [-120.326115, 39.313884, 2182.7], [-120.326088, 39.313874, 2183.1], [-120.326022, 39.313879, 2184.1], [-120.325957, 39.313905, 2185.1], [-120.325897, 39.313942, 2186.2], [-120.325754, 39.313942, 2188.3], [-120.325695, 39.313954, 2189.2], [-120.325686, 39.313928, 2189.9], [-120.325765, 39.31388, 2191.3], [-120.325855, 39.313851, 2192.6], [-120.325899, 39.313813, 2193.4], [-120.325924, 39.313776, 2194.0], [-120.325967, 39.313738, 2194.7], [-120.326012, 39.313709, 2195.3], [-120.326042, 39.313676, 2195.8], [-120.326094, 39.313597, 2196.9], [-120.326142, 39.313511, 2198.1], [-120.326178, 39.313476, 2198.7], [-120.326153, 39.313467, 2199.0], [-120.326102, 39.313488, 2199.6], [-120.326053, 39.313494, 2200.1], [-120.325999, 39.313513, 2200.7], [-120.32598, 39.313545, 2202.4], [-120.325916, 39.313595, 2203.1], [-120.32588, 39.313607, 2203.4], [-120.325801, 39.313656, 2204.2], [-120.325795, 39.313676, 2204.5], [-120.325763, 39.313703, 2204.9], [-120.325706, 39.313727, 2205.5], [-120.325649, 39.313735, 2206.1], [-120.325607, 39.313726, 2206.5], [-120.325594, 39.313679, 2207.1], [-120.325614, 39.313651, 2207.4], [-120.325673, 39.313625, 2208.0], [-120.325704, 39.313583, 2208.5], [-120.325712, 39.313521, 2209.5], [-120.32576, 39.31347, 2210.1], [-120.325779, 39.313427, 2210.5], [-120.325788, 39.313329, 2211.4], [-120.325801, 39.313258, 2212.0], [-120.325831, 39.313175, 2212.7], [-120.325839, 39.313123, 2213.0], [-120.325869, 39.313062, 2213.4], [-120.325878, 39.312981, 2213.8], [-120.325845, 39.312915, 2214.1], [-120.325892, 39.312868, 2214.4], [-120.325904, 39.312824, 2214.7], [-120.325986, 39.312734, 2215.6], [-120.326044, 39.312714, 2216.1], [-120.326108, 39.312654, 2216.8], [-120.326164, 39.312552, 2217.8], [-120.326201, 39.312476, 2218.3], [-120.326205, 39.312443, 2218.5], [-120.326177, 39.312343, 2219.0], [-120.326188, 39.312269, 2219.4], [-120.326216, 39.312201, 2219.7], [-120.3262, 39.312178, 2219.8], [-120.326192, 39.312129, 2220.0], [-120.326214, 39.312089, 2220.1], [-120.326213, 39.312039, 2220.2], [-120.326174, 39.311966, 2220.4], [-120.326155, 39.311904, 2220.6], [-120.326152, 39.311849, 2220.9], [-120.326139, 39.31182, 2221.1], [-120.326143, 39.311764, 2221.5], [-120.326137, 39.311734, 2221.8], [-120.326086, 39.31164, 2222.7], [-120.326001, 39.311555, 2224.2], [-120.325972, 39.31151, 2224.8], [-120.325913, 39.31146, 2225.6], [-120.325858, 39.311429, 2226.2], [-120.325825, 39.311393, 2226.7], [-120.325795, 39.311398, 2227.0], [-120.325881, 39.311541, 2228.5], [-120.325891, 39.311598, 2229.0], [-120.325888, 39.311633, 2229.3], [-120.325866, 39.311686, 2229.9], [-120.32584, 39.311713, 2230.2], [-120.325843, 39.311748, 2230.6], [-120.325802, 39.311806, 2231.3], [-120.325797, 39.311829, 2231.5], [-120.325769, 39.311826, 2231.7], [-120.325754, 39.31178, 2232.0], [-120.325728, 39.31176, 2232.2], [-120.32571, 39.311725, 2232.4], [-120.325708, 39.31163, 2232.9], [-120.32569, 39.311584, 2233.2], [-120.325673, 39.311565, 2233.3], [-120.325639, 39.3115, 2233.7], [-120.325626, 39.311453, 2234.1], [-120.325618, 39.311466, 2234.2], [-120.325539, 39.311379, 2235.1], [-120.325489, 39.311347, 2235.5], [-120.325476, 39.311307, 2235.8], [-120.32545, 39.311267, 2236.2], [-120.325422, 39.311244, 2236.4], [-120.325424, 39.311215, 2236.7], [-120.325392, 39.311177, 2237.0], [-120.325339, 39.311065, 2237.9], [-120.325274, 39.310989, 2238.6], [-120.325251, 39.310929, 2239.1], [-120.325179, 39.31085, 2239.7], [-120.325163, 39.310797, 2240.1], [-120.32516, 39.310745, 2240.5], [-120.325123, 39.310695, 2240.9], [-120.325035, 39.310636, 2241.6], [-120.324989, 39.310627, 2241.9], [-120.324967, 39.31061, 2242.1], [-120.324931, 39.310604, 2242.6], [-120.32489, 39.310577, 2242.9], [-120.324799, 39.31053, 2243.6], [-120.324749, 39.310487, 2244.1], [-120.324716, 39.310469, 2244.5], [-120.324581, 39.310426, 2245.8], [-120.324558, 39.31041, 2246.1], [-120.324446, 39.310405, 2247.3], [-120.32432, 39.310354, 2248.7], [-120.324295, 39.310319, 2249.2], [-120.324248, 39.310295, 2249.6], [-120.324193, 39.310223, 2250.4], [-120.324136, 39.310168, 2251.0], [-120.324128, 39.310129, 2251.3], [-120.324082, 39.310056, 2252.0], [-120.324042, 39.310007, 2252.4], [-120.32402, 39.309993, 2252.6], [-120.324006, 39.309962, 2252.9], [-120.323962, 39.309907, 2253.5], [-120.323959, 39.309886, 2253.7], [-120.323917, 39.309835, 2254.2], [-120.323909, 39.309801, 2254.6], [-120.323879, 39.309766, 2255.0], [-120.323819, 39.309729, 2255.5], [-120.323821, 39.309679, 2256.1], [-120.323765, 39.309653, 2256.6], [-120.32376, 39.309673, 2256.8], [-120.323733, 39.309631, 2257.3], [-120.32372, 39.309579, 2257.9], [-120.323656, 39.309541, 2258.6], [-120.323613, 39.309505, 2259.2], [-120.323557, 39.309488, 2259.7], [-120.323499, 39.309441, 2260.5], [-120.323415, 39.309344, 2261.9], [-120.32339, 39.309328, 2262.2], [-120.323292, 39.30922, 2264.0], [-120.32328, 39.309176, 2264.6], [-120.323249, 39.309117, 2265.5], [-120.323209, 39.309082, 2266.0], [-120.323189, 39.309043, 2266.5], [-120.323021, 39.308956, 2268.5], [-120.323005, 39.308935, 2268.8], [-120.322963, 39.308794, 2270.7], [-120.322934, 39.308808, 2271.1], [-120.322927, 39.308846, 2271.6], [-120.32294, 39.308896, 2272.2], [-120.322931, 39.308959, 2273.3], [-120.322954, 39.309008, 2274.0], [-120.322927, 39.309033, 2274.5], [-120.322841, 39.30893, 2276.3], [-120.322817, 39.308864, 2277.2], [-120.322813, 39.308793, 2278.1], [-120.322819, 39.308765, 2278.3], [-120.322793, 39.308712, 2278.9], [-120.32272, 39.308651, 2279.8], [-120.322669, 39.308653, 2280.3], [-120.322655, 39.308628, 2280.6], [-120.322664, 39.308568, 2281.2], [-120.322682, 39.308529, 2281.7], [-120.322665, 39.3085, 2282.1], [-120.322665, 39.308467, 2282.5], [-120.322619, 39.308422, 2283.2], [-120.322582, 39.3084, 2283.6], [-120.322511, 39.308379, 2284.4], [-120.322454, 39.308354, 2285.0], [-120.322362, 39.308285, 2286.1], [-120.322328, 39.308268, 2286.4], [-120.322324, 39.308246, 2286.6], [-120.322342, 39.308161, 2287.2], [-120.322337, 39.308133, 2287.5], [-120.322363, 39.308102, 2287.8], [-120.322385, 39.307976, 2288.7], [-120.322362, 39.307936, 2289.1], [-120.322351, 39.307805, 2290.3], [-120.322336, 39.307712, 2291.3], [-120.32234, 39.307675, 2291.6], [-120.322329, 39.307637, 2292.0], [-120.32234, 39.307591, 2292.4], [-120.32233, 39.307544, 2292.8], [-120.322344, 39.307453, 2293.4], [-120.322365, 39.307419, 2293.7], [-120.322382, 39.307305, 2294.4], [-120.322415, 39.307217, 2295.2], [-120.322419, 39.307168, 2295.6], [-120.322444, 39.307089, 2296.3], [-120.322494, 39.307034, 2296.8], [-120.322559, 39.306988, 2297.1], [-120.322603, 39.306942, 2297.3], [-120.322619, 39.306906, 2297.4], [-120.322596, 39.306819, 2297.4], [-120.322605, 39.306782, 2297.4], [-120.322669, 39.306745, 2297.3], [-120.322743, 39.30669, 2297.1], [-120.322748, 39.306706, 2297.0], [-120.322787, 39.306683, 2297.0], [-120.322819, 39.306634, 2297.0], [-120.322867, 39.306575, 2297.2], [-120.322916, 39.306527, 2297.3], [-120.32301, 39.306394, 2298.0], [-120.323027, 39.306329, 2298.5], [-120.323023, 39.306287, 2298.9], [-120.322997, 39.306213, 2299.6], [-120.323001, 39.306176, 2300.1], [-120.322983, 39.306131, 2300.7], [-120.322912, 39.306123, 2301.4], [-120.322897, 39.306114, 2301.7], [-120.322849, 39.306155, 2302.5], [-120.322814, 39.30617, 2302.8], [-120.322753, 39.306262, 2304.0], [-120.322699, 39.3063, 2304.5], [-120.322579, 39.306405, 2305.5], [-120.322543, 39.306472, 2305.9], [-120.322512, 39.306516, 2306.2], [-120.322483, 39.306539, 2306.4], [-120.322421, 39.306559, 2306.8], [-120.322359, 39.3066, 2307.3], [-120.322298, 39.306622, 2307.8], [-120.322254, 39.30665, 2308.1], [-120.322238, 39.306688, 2308.4], [-120.322225, 39.306765, 2308.9], [-120.322227, 39.306814, 2309.3], [-120.322206, 39.306837, 2309.4], [-120.322153, 39.306856, 2309.6], [-120.322108, 39.306882, 2309.8], [-120.322074, 39.306963, 2310.1], [-120.322061, 39.307011, 2310.2], [-120.322016, 39.307096, 2310.7], [-120.321997, 39.307115, 2310.9], [-120.321994, 39.307148, 2311.1], [-120.321953, 39.307206, 2311.6], [-120.321896, 39.307251, 2312.1], [-120.321817, 39.307356, 2313.1], [-120.321749, 39.307402, 2313.7], [-120.321633, 39.307506, 2314.7], [-120.321592, 39.307576, 2315.2], [-120.321538, 39.307744, 2316.6], [-120.321532, 39.307874, 2317.9], [-120.321479, 39.307967, 2318.8], [-120.321419, 39.308059, 2319.6], [-120.321404, 39.308096, 2319.9], [-120.321346, 39.308193, 2320.7], [-120.321335, 39.308286, 2321.4], [-120.321345, 39.308329, 2321.7], [-120.32133, 39.30836, 2321.9], [-120.321333, 39.308442, 2322.4], [-120.321321, 39.308459, 2322.5], [-120.321268, 39.308477, 2322.9], [-120.321239, 39.308517, 2323.2], [-120.321241, 39.308608, 2324.0], [-120.321233, 39.308724, 2325.1], [-120.321253, 39.308798, 2325.7], [-120.321275, 39.308847, 2326.3], [-120.321275, 39.308894, 2326.8], [-120.321227, 39.308957, 2327.5], [-120.321223, 39.309037, 2328.2], [-120.321238, 39.309141, 2329.0], [-120.321225, 39.309174, 2329.2], [-120.321228, 39.309205, 2329.5], [-120.32121, 39.309247, 2329.8], [-120.321199, 39.309302, 2330.3], [-120.321168, 39.30934, 2330.8], [-120.321118, 39.309363, 2331.3], [-120.321095, 39.309397, 2331.8], [-120.321068, 39.309416, 2332.1], [-120.321029, 39.309464, 2332.8], [-120.320967, 39.309472, 2333.4], [-120.320932, 39.309453, 2333.8], [-120.320763, 39.309423, 2335.7], [-120.320682, 39.309421, 2336.5], [-120.320577, 39.309369, 2337.4], [-120.320518, 39.309344, 2337.7], [-120.320403, 39.309305, 2338.0], [-120.320372, 39.309289, 2337.8], [-120.320317, 39.309206, 2337.5], [-120.320233, 39.309167, 2337.2], [-120.320183, 39.30912, 2337.2], [-120.320101, 39.309101, 2337.4], [-120.32003, 39.309048, 2337.9], [-120.319981, 39.308997, 2338.5], [-120.319849, 39.308918, 2338.9], [-120.319813, 39.308892, 2338.9], [-120.31975, 39.308826, 2339.0], [-120.319742, 39.308799, 2339.0], [-120.319693, 39.308738, 2339.1], [-120.3196, 39.308677, 2339.4], [-120.319537, 39.308645, 2339.6], [-120.319505, 39.308616, 2339.8], [-120.319468, 39.308555, 2340.2], [-120.319433, 39.308473, 2340.8], [-120.319414, 39.308414, 2341.3], [-120.319401, 39.308325, 2342.1], [-120.319376, 39.308257, 2342.8], [-120.31927, 39.308132, 2344.6], [-120.319185, 39.308101, 2345.5], [-120.319147, 39.308073, 2346.0], [-120.319109, 39.308061, 2346.4], [-120.319068, 39.308035, 2347.0], [-120.319009, 39.308017, 2347.6], [-120.318952, 39.307992, 2348.2], [-120.318831, 39.30796, 2349.5], [-120.318711, 39.307945, 2350.6], [-120.318637, 39.307926, 2351.3], [-120.318603, 39.307934, 2351.7], [-120.318571, 39.307922, 2352.0], [-120.318588, 39.307909, 2352.7], [-120.318554, 39.307902, 2353.0], [-120.318513, 39.307907, 2353.4], [-120.318419, 39.307906, 2354.2], [-120.318373, 39.307894, 2354.7], [-120.318338, 39.307872, 2355.1], [-120.318263, 39.307856, 2355.8], [-120.318235, 39.307843, 2356.1], [-120.31821, 39.307847, 2356.3], [-120.318167, 39.307834, 2356.7], [-120.318094, 39.307833, 2357.3], [-120.318045, 39.307809, 2357.7], [-120.318011, 39.307772, 2358.2], [-120.317896, 39.307703, 2359.2], [-120.317878, 39.307685, 2359.4], [-120.317767, 39.307628, 2360.4], [-120.317752, 39.307641, 2360.6], [-120.31764, 39.307562, 2361.8], [-120.317615, 39.307559, 2362.0], [-120.317587, 39.307535, 2362.3], [-120.317575, 39.307499, 2362.8], [-120.317551, 39.307465, 2363.2], [-120.317506, 39.307448, 2363.6], [-120.317341, 39.307366, 2365.4], [-120.3173, 39.30734, 2365.9], [-120.31727, 39.307305, 2366.4], [-120.317237, 39.307286, 2366.8], [-120.317191, 39.307246, 2367.5], [-120.317102, 39.307205, 2368.5], [-120.317036, 39.307156, 2369.2], [-120.317001, 39.307137, 2369.6], [-120.316967, 39.307089, 2370.2], [-120.316922, 39.307055, 2370.7], [-120.316861, 39.307056, 2371.2], [-120.316794, 39.307066, 2371.7], [-120.316736, 39.307095, 2372.2], [-120.316684, 39.307094, 2372.6], [-120.316656, 39.307081, 2372.8], [-120.316613, 39.307042, 2373.2], [-120.316489, 39.307013, 2374.2], [-120.316404, 39.306981, 2374.9], [-120.316359, 39.306974, 2375.2], [-120.316244, 39.306987, 2376.1], [-120.316182, 39.306977, 2376.6], [-120.31606, 39.306966, 2377.5], [-120.316016, 39.306971, 2377.9], [-120.315954, 39.30696, 2378.4], [-120.315876, 39.306955, 2379.0], [-120.315836, 39.306944, 2379.3], [-120.315746, 39.306941, 2380.0], [-120.315689, 39.306948, 2380.5], [-120.315616, 39.306948, 2381.0], [-120.31555, 39.306942, 2381.4], [-120.315479, 39.306958, 2381.8], [-120.315395, 39.306964, 2382.2], [-120.315247, 39.306968, 2382.7], [-120.315114, 39.30699, 2383.0], [-120.315035, 39.30701, 2383.2], [-120.314998, 39.307011, 2383.3], [-120.314739, 39.306999, 2384.1], [-120.314643, 39.307016, 2384.3], [-120.314581, 39.307016, 2384.3], [-120.314567, 39.307035, 2384.3], [-120.314644, 39.307041, 2384.4], [-120.314674, 39.307013, 2384.4], [-120.31467, 39.306991, 2384.4], [-120.314625, 39.307002, 2384.4], [-120.314531, 39.307059, 2384.5], [-120.314484, 39.307072, 2384.5], [-120.314402, 39.307118, 2384.6], [-120.314361, 39.307153, 2384.6], [-120.3143, 39.307229, 2384.7], [-120.314265, 39.307261, 2384.8], [-120.314209, 39.307334, 2385.1], [-120.314138, 39.307368, 2385.3], [-120.31412, 39.307411, 2385.5], [-120.314097, 39.307437, 2385.6], [-120.314038, 39.30743, 2385.8], [-120.313995, 39.307409, 2386.0], [-120.313957, 39.30743, 2386.2], [-120.313964, 39.30747, 2386.4], [-120.313948, 39.307487, 2386.5], [-120.313882, 39.307483, 2386.7], [-120.313828, 39.307501, 2386.9], [-120.3138, 39.307521, 2387.1], [-120.313772, 39.307558, 2387.3], [-120.313727, 39.307569, 2387.5], [-120.313651, 39.307534, 2387.8], [-120.313586, 39.307572, 2388.2], [-120.31358, 39.307602, 2388.4], [-120.313543, 39.307651, 2388.7], [-120.313502, 39.30766, 2388.9], [-120.313485, 39.307699, 2389.1], [-120.313442, 39.30772, 2389.4], [-120.313375, 39.307736, 2389.7], [-120.313331, 39.30778, 2390.1], [-120.313303, 39.307832, 2390.4], [-120.313281, 39.30784, 2390.5], [-120.313243, 39.307832, 2390.7], [-120.313166, 39.307862, 2391.2], [-120.313107, 39.307864, 2391.5], [-120.313082, 39.307882, 2391.8], [-120.313031, 39.307941, 2392.4], [-120.313006, 39.307958, 2392.6], [-120.312972, 39.307999, 2393.0], [-120.312945, 39.30801, 2393.2], [-120.312928, 39.30805, 2393.5], [-120.31289, 39.308072, 2393.9], [-120.312886, 39.308098, 2394.1], [-120.312816, 39.308136, 2394.8], [-120.3128, 39.308169, 2395.1], [-120.31271, 39.308235, 2396.1], [-120.312712, 39.308283, 2396.6], [-120.312675, 39.308337, 2397.2], [-120.312645, 39.308395, 2397.9], [-120.312577, 39.308418, 2398.5], [-120.31249, 39.308469, 2399.4], [-120.312484, 39.308501, 2399.7], [-120.312417, 39.308559, 2407.1], [-120.312391, 39.30856, 2409.1], [-120.312384, 39.308582, 2412.8], [-120.312411, 39.308598, 2413.2], [-120.312483, 39.308684, 2414.0], [-120.312478, 39.308714, 2414.3], [-120.31245, 39.308695, 2414.5], [-120.312379, 39.308814, 2425.2], [-120.312373, 39.308736, 2425.8], [-120.312395, 39.308718, 2426.0], [-120.312399, 39.308689, 2426.2], [-120.312462, 39.308673, 2426.5], [-120.31247, 39.308641, 2426.8], [-120.312361, 39.308566, 2428.5], [-120.312392, 39.308558, 2426.3], [-120.312378, 39.30854, 2426.2], [-120.312251, 39.308498, 2425.6], [-120.312166, 39.308462, 2421.1], [-120.312194, 39.308503, 2413.8], [-120.312162, 39.308493, 2413.7], [-120.312086, 39.308501, 2413.0], [-120.312159, 39.308507, 2412.7], [-120.312195, 39.308523, 2412.5], [-120.312184, 39.308538, 2412.4], [-120.312305, 39.308542, 2411.8], [-120.312393, 39.308579, 2401.2], [-120.312325, 39.30857, 2397.0], [-120.312361, 39.308585, 2396.2], [-120.312382, 39.308563, 2395.8], [-120.312405, 39.308567, 2395.4], [-120.31239, 39.308539, 2395.1], [-120.312402, 39.308489, 2394.8], [-120.312449, 39.308468, 2394.5], [-120.312491, 39.308461, 2394.2], [-120.31255, 39.308435, 2393.9], [-120.31257, 39.308414, 2393.7], [-120.312619, 39.308387, 2393.4], [-120.312639, 39.308364, 2393.3], [-120.312675, 39.308358, 2393.1], [-120.31274, 39.308334, 2392.7], [-120.312763, 39.3083, 2392.5], [-120.312767, 39.308242, 2392.2], [-120.312798, 39.308186, 2391.8], [-120.31286, 39.308144, 2391.5], [-120.312905, 39.308103, 2391.2], [-120.312924, 39.308034, 2390.9], [-120.312943, 39.308004, 2390.7], [-120.313006, 39.307982, 2390.5], [-120.31305, 39.307978, 2390.3], [-120.31309, 39.307958, 2390.2], [-120.313135, 39.307924, 2389.9], [-120.313201, 39.307847, 2389.5], [-120.313257, 39.30782, 2389.3], [-120.31331, 39.307814, 2389.2], [-120.313341, 39.307795, 2389.0], [-120.313449, 39.307683, 2388.5], [-120.313441, 39.307627, 2388.3], [-120.313451, 39.307595, 2388.2], [-120.313554, 39.307607, 2387.9], [-120.313564, 39.30758, 2387.7], [-120.313606, 39.307549, 2387.6], [-120.313652, 39.307549, 2387.2], [-120.313714, 39.307578, 2387.0], [-120.313751, 39.307586, 2386.9], [-120.313788, 39.307569, 2386.8], [-120.313858, 39.307522, 2386.5], [-120.31391, 39.307458, 2386.0], [-120.31397, 39.307426, 2385.8], [-120.314001, 39.307419, 2385.7], [-120.314023, 39.307388, 2385.6], [-120.314068, 39.307388, 2385.5], [-120.3141, 39.307372, 2385.4], [-120.314153, 39.307363, 2385.3], [-120.314185, 39.307374, 2385.2], [-120.314214, 39.307364, 2385.2], [-120.314217, 39.307325, 2385.1], [-120.314262, 39.307257, 2384.8], [-120.314294, 39.307226, 2384.7], [-120.314323, 39.307227, 2384.6], [-120.314376, 39.307188, 2384.5], [-120.314419, 39.307169, 2384.5], [-120.314456, 39.307135, 2384.4], [-120.314483, 39.307125, 2384.4], [-120.314545, 39.307066, 2384.3], [-120.314591, 39.307042, 2384.3], [-120.314682, 39.307019, 2384.3], [-120.31475, 39.307027, 2384.1], [-120.31476, 39.307051, 2384.0], [-120.314796, 39.307035, 2383.9], [-120.314903, 39.307016, 2383.5], [-120.314982, 39.307022, 2383.3], [-120.315033, 39.307037, 2383.2], [-120.315138, 39.307027, 2382.9], [-120.315262, 39.307023, 2382.6], [-120.315367, 39.306994, 2382.3], [-120.315515, 39.306983, 2381.5], [-120.315558, 39.307001, 2381.2], [-120.315634, 39.306997, 2380.7], [-120.315668, 39.306983, 2380.4], [-120.315722, 39.306982, 2380.0], [-120.315771, 39.306996, 2379.6], [-120.315846, 39.307002, 2379.0], [-120.315897, 39.306998, 2378.6], [-120.316009, 39.306972, 2377.6], [-120.316068, 39.306953, 2377.2], [-120.31612, 39.306953, 2376.8], [-120.316169, 39.306963, 2376.4], [-120.31622, 39.306983, 2376.0], [-120.31626, 39.307011, 2375.5], [-120.316308, 39.307021, 2375.2], [-120.31637, 39.307053, 2374.6], [-120.31641, 39.307065, 2374.3], [-120.316496, 39.307077, 2373.6], [-120.316628, 39.307116, 2372.6], [-120.316699, 39.307129, 2372.1], [-120.316773, 39.307126, 2371.6], [-120.316874, 39.307111, 2370.8], [-120.316934, 39.307121, 2370.3], [-120.317018, 39.307189, 2369.3], [-120.317094, 39.307259, 2368.2], [-120.317158, 39.307309, 2367.4], [-120.317201, 39.307327, 2366.9], [-120.317286, 39.307373, 2365.9], [-120.317316, 39.307396, 2365.5], [-120.317351, 39.307374, 2365.1], [-120.317422, 39.307407, 2364.3], [-120.317518, 39.307435, 2363.4], [-120.317581, 39.307491, 2362.6], [-120.317595, 39.307524, 2362.2], [-120.317622, 39.30755, 2361.8], [-120.317649, 39.307559, 2361.6], [-120.317697, 39.307607, 2360.9], [-120.317746, 39.307624, 2360.5], [-120.317778, 39.307662, 2360.1], [-120.317833, 39.307683, 2359.7], [-120.31791, 39.307729, 2358.9], [-120.317989, 39.307747, 2358.3], [-120.318033, 39.307777, 2357.9], [-120.318109, 39.307818, 2357.2], [-120.318157, 39.307868, 2356.5], [-120.318184, 39.30788, 2356.2], [-120.318253, 39.307885, 2355.6], [-120.318362, 39.307866, 2354.6], [-120.318396, 39.307875, 2354.3], [-120.318422, 39.307899, 2353.9], [-120.318484, 39.307906, 2353.3], [-120.318535, 39.307893, 2352.8], [-120.318596, 39.30791, 2352.2], [-120.31872, 39.307935, 2351.0], [-120.318814, 39.307963, 2350.1], [-120.318862, 39.307986, 2349.5], [-120.318952, 39.30797, 2348.7], [-120.319004, 39.307974, 2348.2], [-120.319078, 39.308024, 2347.2], [-120.319134, 39.308052, 2346.5], [-120.319136, 39.308063, 2346.4], [-120.319191, 39.308111, 2345.5], [-120.31924, 39.308168, 2344.6], [-120.319272, 39.308235, 2343.7], [-120.319325, 39.308299, 2342.9], [-120.319345, 39.308388, 2342.0], [-120.319347, 39.308446, 2341.5], [-120.319439, 39.308585, 2340.3], [-120.319472, 39.308656, 2339.8], [-120.319482, 39.308691, 2339.6], [-120.319535, 39.308766, 2339.3], [-120.319621, 39.308834, 2339.1], [-120.319689, 39.308909, 2339.0], [-120.319704, 39.308918, 2339.0], [-120.319813, 39.308953, 2338.9], [-120.319938, 39.309005, 2338.6], [-120.320007, 39.309028, 2338.1], [-120.320074, 39.309082, 2337.5], [-120.320101, 39.309112, 2337.3], [-120.320135, 39.309166, 2337.2], [-120.320174, 39.309182, 2337.2], [-120.320237, 39.309192, 2337.3], [-120.320275, 39.309219, 2337.5], [-120.320305, 39.30927, 2337.7], [-120.32035, 39.30929, 2337.8], [-120.320399, 39.30933, 2338.1], [-120.320506, 39.309337, 2337.7], [-120.320604, 39.309367, 2337.2], [-120.320727, 39.309423, 2336.1], [-120.320753, 39.309429, 2335.9], [-120.320841, 39.309426, 2335.1], [-120.320872, 39.309437, 2334.7], [-120.32092, 39.30949, 2333.9], [-120.320992, 39.30952, 2333.2], [-120.321038, 39.309514, 2332.8], [-120.321054, 39.309485, 2332.4], [-120.321109, 39.309427, 2331.6], [-120.321134, 39.30938, 2331.1], [-120.321202, 39.309331, 2330.4], [-120.321212, 39.309282, 2330.0], [-120.321187, 39.309265, 2329.8], [-120.321209, 39.309239, 2329.3], [-120.321204, 39.30916, 2328.6], [-120.321247, 39.309174, 2327.6], [-120.321303, 39.30915, 2327.1], [-120.321253, 39.309104, 2326.5], [-120.321201, 39.309031, 2325.8], [-120.321195, 39.308946, 2325.1], [-120.321232, 39.308873, 2324.4], [-120.321225, 39.308823, 2324.0], [-120.321186, 39.308772, 2323.6], [-120.321178, 39.308717, 2323.1], [-120.321157, 39.308686, 2322.9], [-120.321175, 39.308612, 2322.4], [-120.321205, 39.308531, 2321.9], [-120.321228, 39.30851, 2321.8], [-120.321278, 39.308489, 2321.5], [-120.32132, 39.308492, 2321.3], [-120.321361, 39.308472, 2321.1], [-120.321369, 39.308432, 2320.8], [-120.32136, 39.308387, 2320.5], [-120.321377, 39.308331, 2320.1], [-120.321394, 39.308174, 2319.0], [-120.321431, 39.308061, 2318.2], [-120.321476, 39.308017, 2317.7], [-120.321505, 39.307971, 2317.2], [-120.321523, 39.307913, 2316.7], [-120.321508, 39.307841, 2316.0], [-120.321549, 39.307771, 2315.5], [-120.321595, 39.307725, 2314.9], [-120.321635, 39.307665, 2314.5], [-120.321651, 39.307617, 2314.2], [-120.321653, 39.307559, 2313.8], [-120.321664, 39.307498, 2313.4], [-120.321684, 39.307457, 2313.0], [-120.321751, 39.307396, 2312.4], [-120.321756, 39.307341, 2312.0], [-120.321844, 39.307254, 2311.3], [-120.321858, 39.307215, 2311.0], [-120.322017, 39.307045, 2310.0], [-120.322059, 39.30699, 2309.9], [-120.322071, 39.306918, 2309.6], [-120.3221, 39.306872, 2309.4], [-120.322155, 39.306843, 2309.1], [-120.322202, 39.306791, 2308.7], [-120.322202, 39.306733, 2308.4], [-120.322226, 39.306663, 2307.9], [-120.322244, 39.306631, 2307.6], [-120.322311, 39.306604, 2307.2], [-120.322395, 39.306578, 2306.6], [-120.322436, 39.306554, 2306.4], [-120.322482, 39.306544, 2306.2], [-120.322521, 39.306526, 2306.0], [-120.322597, 39.306443, 2305.5], [-120.322782, 39.306298, 2304.1], [-120.322814, 39.306227, 2303.4], [-120.32287, 39.306149, 2302.4], [-120.32292, 39.306102, 2301.7], [-120.322947, 39.306099, 2300.8], [-120.322971, 39.306131, 2300.2], [-120.322942, 39.306154, 2299.5], [-120.322908, 39.306229, 2298.7], [-120.322921, 39.306302, 2298.2], [-120.322978, 39.306355, 2297.8], [-120.322989, 39.306385, 2297.6], [-120.322938, 39.306477, 2297.3], [-120.322906, 39.306521, 2297.2], [-120.322861, 39.306621, 2297.0], [-120.322818, 39.30664, 2297.0], [-120.322776, 39.30667, 2297.0], [-120.322684, 39.30672, 2297.0], [-120.322645, 39.306734, 2297.1], [-120.322623, 39.306772, 2297.2], [-120.322634, 39.306814, 2297.3], [-120.322619, 39.306903, 2297.4], [-120.322588, 39.306937, 2297.4], [-120.322493, 39.306977, 2297.4], [-120.322457, 39.307, 2297.3], [-120.322429, 39.307036, 2297.1], [-120.322413, 39.307075, 2296.9], [-120.322409, 39.307137, 2296.5], [-120.32239, 39.307174, 2296.2], [-120.322384, 39.307245, 2295.6], [-120.322386, 39.307318, 2295.0], [-120.322376, 39.30738, 2294.5], [-120.322339, 39.307441, 2294.1], [-120.322338, 39.307479, 2293.8], [-120.322357, 39.307534, 2293.4], [-120.322375, 39.307559, 2293.2], [-120.322373, 39.30763, 2292.7], [-120.322394, 39.307699, 2292.2], [-120.322372, 39.307753, 2291.7], [-120.322388, 39.307887, 2290.4], [-120.322394, 39.30798, 2289.5], [-120.322382, 39.308051, 2288.9], [-120.32235, 39.308139, 2288.2], [-120.32235, 39.308205, 2287.7], [-120.322387, 39.308266, 2287.2], [-120.322423, 39.308295, 2286.9], [-120.322564, 39.308367, 2285.7], [-120.322617, 39.308377, 2285.3], [-120.322629, 39.308469, 2284.2], [-120.322663, 39.308507, 2283.6], [-120.322661, 39.308573, 2282.8], [-120.322679, 39.308622, 2282.2], [-120.322732, 39.308663, 2281.5], [-120.322738, 39.308724, 2280.9], [-120.322731, 39.308752, 2280.6], [-120.322751, 39.308804, 2279.9], [-120.322817, 39.308896, 2278.9], [-120.322903, 39.308939, 2278.1], [-120.322968, 39.309006, 2277.1], [-120.322995, 39.309046, 2276.5], [-120.323022, 39.309068, 2276.0], [-120.323037, 39.309041, 2275.6], [-120.323032, 39.30901, 2275.2], [-120.32299, 39.308969, 2274.5], [-120.322966, 39.308922, 2273.8], [-120.322978, 39.308807, 2272.5], [-120.322993, 39.308791, 2272.2], [-120.323076, 39.308753, 2271.4], [-120.323101, 39.308796, 2270.8], [-120.323106, 39.308831, 2270.3], [-120.323089, 39.308892, 2269.5], [-120.323101, 39.30894, 2268.8], [-120.323125, 39.308976, 2268.3], [-120.323173, 39.309027, 2267.5], [-120.323257, 39.309166, 2265.7], [-120.323343, 39.309255, 2264.2], [-120.323393, 39.309291, 2263.5], [-120.323426, 39.309324, 2263.0], [-120.323459, 39.309409, 2261.9], [-120.323487, 39.309463, 2261.2], [-120.32356, 39.309524, 2260.2], [-120.323588, 39.309534, 2259.9], [-120.323629, 39.309533, 2259.5], [-120.323633, 39.309556, 2259.2], [-120.323653, 39.309554, 2258.7], [-120.323692, 39.309573, 2258.3], [-120.323762, 39.309624, 2257.5], [-120.323811, 39.309711, 2256.6], [-120.323846, 39.309752, 2256.1], [-120.323866, 39.309761, 2255.9], [-120.323932, 39.309828, 2255.1], [-120.323922, 39.309835, 2255.0], [-120.323971, 39.309854, 2254.2], [-120.324003, 39.309887, 2253.9], [-120.32408, 39.310017, 2252.6], [-120.324116, 39.310042, 2252.3], [-120.32418, 39.310138, 2251.4], [-120.324193, 39.310184, 2251.0], [-120.324225, 39.310207, 2250.8], [-120.324299, 39.310277, 2250.0], [-120.324321, 39.310287, 2249.9], [-120.324365, 39.31034, 2249.2], [-120.324426, 39.310359, 2248.7], [-120.324466, 39.310379, 2248.2], [-120.324552, 39.3104, 2247.3], [-120.324628, 39.310449, 2246.3], [-120.324668, 39.310446, 2245.9], [-120.324722, 39.31046, 2245.4], [-120.32477, 39.310485, 2244.8], [-120.324865, 39.310547, 2243.9], [-120.324902, 39.310579, 2243.5], [-120.324947, 39.310634, 2242.9], [-120.325039, 39.31067, 2242.4], [-120.325087, 39.310706, 2242.0], [-120.32511, 39.310739, 2241.8], [-120.325099, 39.310749, 2241.0], [-120.325103, 39.310795, 2240.7], [-120.325145, 39.31082, 2240.3], [-120.32526, 39.310835, 2239.6], [-120.325292, 39.310865, 2239.3], [-120.325237, 39.310924, 2238.8], [-120.325218, 39.310981, 2238.4], [-120.325228, 39.311009, 2238.1], [-120.325226, 39.311058, 2237.8], [-120.325255, 39.3111, 2237.4], [-120.325306, 39.311152, 2236.9], [-120.325354, 39.311179, 2236.6], [-120.325387, 39.311207, 2236.3], [-120.325409, 39.311241, 2236.0], [-120.325441, 39.311255, 2235.8], [-120.325513, 39.311346, 2235.0], [-120.325541, 39.311372, 2234.7], [-120.325555, 39.311407, 2234.4], [-120.325605, 39.311447, 2234.1], [-120.325639, 39.311496, 2233.7], [-120.325665, 39.311559, 2233.3], [-120.325676, 39.311607, 2233.1], [-120.325725, 39.311672, 2232.7], [-120.325721, 39.311709, 2232.5], [-120.325791, 39.311814, 2231.8], [-120.325843, 39.311842, 2231.4], [-120.325852, 39.311797, 2230.9], [-120.325843, 39.311735, 2230.3], [-120.325853, 39.311716, 2230.1], [-120.325864, 39.311642, 2229.4], [-120.325854, 39.31154, 2228.4], [-120.325834, 39.311449, 2227.6], [-120.325809, 39.311393, 2227.1], [-120.325811, 39.311376, 2226.9], [-120.325839, 39.311372, 2226.6], [-120.325904, 39.311447, 2225.7], [-120.325945, 39.311468, 2225.2], [-120.326001, 39.311536, 2224.3], [-120.326075, 39.311558, 2223.5], [-120.326099, 39.311592, 2223.1], [-120.326123, 39.311651, 2222.6], [-120.326179, 39.311729, 2221.8], [-120.326176, 39.311768, 2221.5], [-120.326144, 39.311814, 2221.1], [-120.32614, 39.311907, 2220.6], [-120.326191, 39.312049, 2220.2], [-120.326191, 39.312097, 2220.1], [-120.326206, 39.312134, 2220.0], [-120.326211, 39.312178, 2219.8], [-120.326186, 39.312216, 2219.7], [-120.326176, 39.312252, 2219.5], [-120.326185, 39.312358, 2219.0], [-120.32621, 39.312424, 2218.7], [-120.326215, 39.312529, 2218.1], [-120.326212, 39.312559, 2217.9], [-120.326191, 39.312601, 2217.5], [-120.326148, 39.312663, 2216.9], [-120.326091, 39.312717, 2216.3], [-120.326048, 39.312746, 2215.9], [-120.325999, 39.312759, 2215.2], [-120.325992, 39.3128, 2214.8], [-120.325975, 39.312831, 2214.6], [-120.325926, 39.312871, 2214.3], [-120.325916, 39.312891, 2214.2], [-120.325867, 39.312931, 2213.9], [-120.325874, 39.313068, 2213.3], [-120.325865, 39.313097, 2213.1], [-120.325862, 39.313161, 2212.7], [-120.325843, 39.313219, 2212.3], [-120.325841, 39.313252, 2212.0], [-120.325817, 39.313283, 2211.8], [-120.325804, 39.31333, 2211.3], [-120.325818, 39.31336, 2211.1], [-120.325809, 39.31339, 2210.8], [-120.325816, 39.313458, 2210.2], [-120.325809, 39.313486, 2209.9], [-120.325759, 39.31354, 2209.3], [-120.325729, 39.313558, 2209.0], [-120.325721, 39.313584, 2208.7], [-120.325726, 39.313628, 2208.2], [-120.32571, 39.313661, 2207.8], [-120.325653, 39.313692, 2207.2], [-120.325631, 39.313719, 2206.9], [-120.325635, 39.313759, 2206.4], [-120.325696, 39.313777, 2205.8], [-120.325768, 39.313747, 2205.1], [-120.325832, 39.313682, 2204.1], [-120.325848, 39.313651, 2203.8], [-120.325892, 39.313596, 2203.1], [-120.325947, 39.313553, 2202.5], [-120.326032, 39.313504, 2201.7], [-120.326083, 39.313495, 2201.2], [-120.326155, 39.313497, 2200.6], [-120.326205, 39.313488, 2200.1], [-120.326189, 39.313523, 2199.6], [-120.326158, 39.313551, 2199.1], [-120.326129, 39.313598, 2198.5], [-120.326084, 39.313653, 2197.6], [-120.326041, 39.313692, 2197.0], [-120.326028, 39.313727, 2196.6], [-120.32601, 39.313737, 2196.4], [-120.32597, 39.313784, 2195.7], [-120.325934, 39.313796, 2195.3], [-120.325903, 39.313822, 2194.9], [-120.325883, 39.313879, 2194.1], [-120.325846, 39.313921, 2193.3], [-120.325744, 39.313948, 2192.0], [-120.325687, 39.313985, 2191.0], [-120.325697, 39.314001, 2190.7], [-120.325768, 39.313995, 2189.7], [-120.325871, 39.31396, 2188.0], [-120.325945, 39.313969, 2187.0], [-120.326005, 39.313936, 2185.9], [-120.326044, 39.313932, 2185.4], [-120.326074, 39.313916, 2184.9], [-120.326124, 39.313917, 2184.1], [-120.32607, 39.313981, 2182.7], [-120.325966, 39.313989, 2181.4], [-120.325927, 39.314004, 2181.0], [-120.325885, 39.314048, 2180.3], [-120.325796, 39.314107, 2179.2], [-120.325748, 39.314144, 2178.6], [-120.32574, 39.31416, 2178.4], [-120.325702, 39.31418, 2178.0], [-120.325645, 39.314235, 2177.3], [-120.325543, 39.314313, 2176.4], [-120.325487, 39.314343, 2176.0], [-120.325418, 39.314344, 2175.7], [-120.325325, 39.314363, 2175.1], [-120.325306, 39.314382, 2174.8], [-120.325336, 39.314396, 2174.6], [-120.325411, 39.314394, 2174.0], [-120.325553, 39.314356, 2172.7], [-120.325633, 39.314321, 2171.9], [-120.325701, 39.314276, 2171.1], [-120.325769, 39.314245, 2170.4], [-120.325822, 39.314235, 2169.9], [-120.325864, 39.314239, 2169.5], [-120.325918, 39.31423, 2168.9], [-120.325997, 39.314201, 2168.0], [-120.326056, 39.314166, 2167.2], [-120.326102, 39.314147, 2166.6], [-120.326131, 39.31415, 2166.3], [-120.326144, 39.314169, 2166.0], [-120.326136, 39.314192, 2165.7], [-120.326086, 39.314221, 2165.0], [-120.326053, 39.314265, 2164.2], [-120.326047, 39.314292, 2163.8], [-120.326018, 39.314318, 2163.3], [-120.325956, 39.31435, 2162.4], [-120.325946, 39.314384, 2161.9], [-120.325984, 39.314416, 2161.2], [-120.326029, 39.314398, 2160.7], [-120.326076, 39.314391, 2160.2], [-120.326143, 39.314363, 2159.4], [-120.326183, 39.314359, 2159.1], [-120.326229, 39.314342, 2158.7], [-120.326386, 39.314327, 2157.6], [-120.326436, 39.314315, 2157.3], [-120.326469, 39.314319, 2157.1], [-120.32653, 39.314346, 2156.7], [-120.326583, 39.314379, 2156.4], [-120.326621, 39.314393, 2156.1], [-120.326737, 39.314405, 2155.5], [-120.326794, 39.314433, 2155.2], [-120.326801, 39.314468, 2155.1], [-120.326839, 39.314518, 2154.8], [-120.326885, 39.314551, 2154.7], [-120.326854, 39.314564, 2154.7], [-120.326853, 39.314516, 2154.8], [-120.326863, 39.314468, 2154.9], [-120.32691, 39.31452, 2154.8], [-120.32698, 39.314561, 2154.7], [-120.327035, 39.314636, 2154.5], [-120.327109, 39.314664, 2154.3], [-120.327183, 39.314714, 2154.0], [-120.327214, 39.314789, 2154.1], [-120.327201, 39.314846, 2154.3], [-120.327167, 39.314911, 2154.5], [-120.32714, 39.315033, 2155.0], [-120.32711, 39.315108, 2155.4], [-120.327101, 39.315164, 2155.7], [-120.327103, 39.315313, 2156.5], [-120.32707, 39.315397, 2157.1], [-120.327027, 39.315451, 2157.5], [-120.326978, 39.315498, 2157.9], [-120.326858, 39.315583, 2158.7], [-120.326839, 39.315616, 2159.0], [-120.326836, 39.315667, 2159.3], [-120.326809, 39.31569, 2159.5], [-120.326776, 39.3157, 2159.7], [-120.326645, 39.315755, 2160.4], [-120.326602, 39.315797, 2160.7], [-120.326582, 39.315841, 2160.8], [-120.326533, 39.315891, 2161.0], [-120.326479, 39.315931, 2161.1], [-120.326385, 39.316029, 2161.3], [-120.326328, 39.316064, 2161.3], [-120.326295, 39.3161, 2161.3], [-120.326272, 39.31614, 2161.3], [-120.326216, 39.316192, 2161.2], [-120.326157, 39.316258, 2161.0], [-120.326129, 39.316299, 2160.8], [-120.326039, 39.316366, 2160.4], [-120.325984, 39.316389, 2160.2], [-120.325908, 39.316436, 2159.6]]}}