<?xml version="1.0" encoding="UTF-8"?>
<gpx xmlns="http://www.topografix.com/GPX/1/1" xmlns:adv="http://www.garmin.com/xmlschemas/AdventuresExtensions/v1" xmlns:ctx="http://www.garmin.com/xmlschemas/CreationTimeExtension/v1" xmlns:gpxacc="http://www.garmin.com/xmlschemas/AccelerationExtension/v1" xmlns:gpxpx="http://www.garmin.com/xmlschemas/PowerExtension/v1" xmlns:gpxtpx="http://www.garmin.com/xmlschemas/TrackPointExtension/v1" xmlns:gpxtrkx="http://www.garmin.com/xmlschemas/TrackStatsExtension/v1" xmlns:gpxtrx="http://www.garmin.com/xmlschemas/GpxExtensions/v3" xmlns:gpxx="http://www.garmin.com/xmlschemas/GpxExtensions/v3" xmlns:prs="http://www.garmin.com/xmlschemas/PressureExtension/v1" xmlns:tmd="http://www.garmin.com/xmlschemas/TripMetaDataExtensions/v1" xmlns:trp="http://www.garmin.com/xmlschemas/TripExtensions/v1" xmlns:vidx1="http://www.garmin.com/xmlschemas/VideoExtension/v1" xmlns:vptm="http://www.garmin.com/xmlschemas/ViaPointTransportationModeExtensions/v1" xmlns:wptx1="http://www.garmin.com/xmlschemas/WaypointExtension/v1" xmlns:xsi="http://www.w3.org/2001/XMLSchema-instance" xsi:schemaLocation="http://www.topografix.com/GPX/1/1 http://www.topografix.com/GPX/1/1/gpx.xsd http://www.garmin.com/xmlschemas/WaypointExtension/v1 http://www8.garmin.com/xmlschemas/WaypointExtensionv1.xsd http://www.garmin.com/xmlschemas/TrackPointExtension/v1 http://www.garmin.com/xmlschemas/TrackPointExtensionv1.xsd http://www.garmin.com/xmlschemas/GpxExtensions/v3 http://www8.garmin.com/xmlschemas/GpxExtensionsv3.xsd http://www.garmin.com/xmlschemas/ActivityExtension/v1 http://www8.garmin.com/xmlschemas/ActivityExtensionv1.xsd http://www.garmin.com/xmlschemas/AdventuresExtensions/v1 http://www8.garmin.com/xmlschemas/AdventuresExtensionv1.xsd http://www.garmin.com/xmlschemas/PressureExtension/v1 http://www.garmin.com/xmlschemas/PressureExtensionv1.xsd http://www.garmin.com/xmlschemas/TripExtensions/v1 http://www.garmin.com/xmlschemas/TripExtensionsv1.xsd http://www.garmin.com/xmlschemas/TripMetaDataExtensions/v1 http://www.garmin.com/xmlschemas/TripMetaDataExtensionsv1.xsd http://www.garmin.com/xmlschemas/ViaPointTransportationModeExtensions/v1 http://www.garmin.com/xmlschemas/ViaPointTransportationModeExtensionsv1.xsd http://www.garmin.com/xmlschemas/CreationTimeExtension/v1 http://www.garmin.com/xmlschemas/CreationTimeExtensionsv1.xsd http://www.garmin.com/xmlschemas/AccelerationExtension/v1 http://www.garmin.com/xmlschemas/AccelerationExtensionv1.xsd http://www.garmin.com/xmlschemas/PowerExtension/v1 http://www.garmin.com/xmlschemas/PowerExtensionv1.xsd http://www.garmin.com/xmlschemas/VideoExtension/v1 http://www.garmin.com/xmlschemas/VideoExtensionv1.xsd" version="1.1" creator="Garmin Desktop App">
  <metadata>
    <link href="http://www.garmin.com">
      <text>Garmin International</text>
    </link>
    <time>2016-01-28T09:13:28Z</time>
    <bounds minlat="47.46079048141837" maxlat="47.470130352303386" minlon="-121.67428596876562" maxlon="-121.63925606757402" />
  </metadata>
  <trk>
    <name>MAILBOX</name>
    <extensions>
      <gpxtrx:TrackExtension>
        <gpxtrx:DisplayColor>Red</gpxtrx:DisplayColor>
      </gpxtrx:TrackExtension>
      <gpxtrkx:TrackStatsExtension>
        <gpxtrkx:Distance>10406</gpxtrkx:Distance>
      </gpxtrkx:TrackStatsExtension>
    </extensions>
    <trkseg>
      <trkpt lat="47.46878589503467" lon="-121.66569728404284">
        <ele>335.64</ele>
        <time>2016-01-24T20:54:49Z</time>
      </trkpt>
      <trkpt lat="47.46886300854385" lon="-121.66532831266522">
        <ele>338.04</ele>
        <time>2016-01-24T20:55:07Z</time>
      </trkpt>
      <trkpt lat="47.469049505889416" lon="-121.66484543122351">
        <ele>338.52</ele>
        <time>2016-01-24T20:55:33Z</time>
      </trkpt>
      <trkpt lat="47.46901790611446" lon="-121.66441661305726">
        <ele>341.41</ele>
        <time>2016-01-24T20:56:00Z</time>
      </trkpt>
      <trkpt lat="47.4692127853632" lon="-121.66399986483157">
        <ele>351.02</ele>
        <time>2016-01-24T20:56:25Z</time>
      </trkpt>
      <trkpt lat="47.469319654628634" lon="-121.66354808025062">
        <ele>370.24</ele>
        <time>2016-01-24T20:56:55Z</time>
      </trkpt>
      <trkpt lat="47.469349494203925" lon="-121.66329477913678">
        <ele>378.42</ele>
        <time>2016-01-24T20:57:09Z</time>
      </trkpt>
      <trkpt lat="47.46946943923831" lon="-121.66273285634816">
        <ele>396.68</ele>
        <time>2016-01-24T20:57:37Z</time>
      </trkpt>
      <trkpt lat="47.46951235458255" lon="-121.6623936407268">
        <ele>404.85</ele>
        <time>2016-01-24T20:57:55Z</time>
      </trkpt>
      <trkpt lat="47.46959927491844" lon="-121.66211645118892">
        <ele>411.1</ele>
        <time>2016-01-24T20:58:10Z</time>
      </trkpt>
      <trkpt lat="47.46958184055984" lon="-121.66200840845704">
        <ele>415.43</ele>
        <time>2016-01-24T20:58:19Z</time>
      </trkpt>
      <trkpt lat="47.46984528377652" lon="-121.6615788359195">
        <ele>473.11</ele>
        <time>2016-01-24T20:59:10Z</time>
      </trkpt>
      <trkpt lat="47.469953494146466" lon="-121.66124272160232">
        <ele>494.74</ele>
        <time>2016-01-24T20:59:33Z</time>
      </trkpt>
      <trkpt lat="47.47011886909604" lon="-121.66087525896728">
        <ele>503.39</ele>
        <time>2016-01-24T20:59:54Z</time>
      </trkpt>
      <trkpt lat="47.470093220472336" lon="-121.66063989512622">
        <ele>499.06</ele>
        <time>2016-01-24T21:00:16Z</time>
      </trkpt>
      <trkpt lat="47.47003924101591" lon="-121.66060938499868">
        <ele>501.46</ele>
        <time>2016-01-24T21:00:28Z</time>
      </trkpt>
      <trkpt lat="47.469875207170844" lon="-121.66082723066211">
        <ele>521.17</ele>
        <time>2016-01-24T21:01:05Z</time>
      </trkpt>
      <trkpt lat="47.46960740536451" lon="-121.660937955603">
        <ele>527.9</ele>
        <time>2016-01-24T21:01:21Z</time>
      </trkpt>
      <trkpt lat="47.46948427520692" lon="-121.6608740016818">
        <ele>529.82</ele>
        <time>2016-01-24T21:01:34Z</time>
      </trkpt>
      <trkpt lat="47.46942937374115" lon="-121.66076252236962">
        <ele>530.79</ele>
        <time>2016-01-24T21:01:46Z</time>
      </trkpt>
      <trkpt lat="47.469441862776875" lon="-121.66061290539801">
        <ele>534.15</ele>
        <time>2016-01-24T21:02:02Z</time>
      </trkpt>
      <trkpt lat="47.46954973787069" lon="-121.66026371531188">
        <ele>530.3</ele>
        <time>2016-01-24T21:02:24Z</time>
      </trkpt>
      <trkpt lat="47.469672448933125" lon="-121.65997730568051">
        <ele>520.69</ele>
        <time>2016-01-24T21:03:13Z</time>
      </trkpt>
      <trkpt lat="47.46949181891978" lon="-121.66024100035429">
        <ele>521.17</ele>
        <time>2016-01-24T21:03:39Z</time>
      </trkpt>
      <trkpt lat="47.4693354126066" lon="-121.6603477858007">
        <ele>524.06</ele>
        <time>2016-01-24T21:03:52Z</time>
      </trkpt>
      <trkpt lat="47.468869630247355" lon="-121.66055507026613">
        <ele>533.67</ele>
        <time>2016-01-24T21:04:30Z</time>
      </trkpt>
      <trkpt lat="47.46857911348343" lon="-121.66070787236094">
        <ele>547.13</ele>
        <time>2016-01-24T21:04:55Z</time>
      </trkpt>
      <trkpt lat="47.46838264167309" lon="-121.66074768640101">
        <ele>550.49</ele>
        <time>2016-01-24T21:05:08Z</time>
      </trkpt>
      <trkpt lat="47.4680557474494" lon="-121.6608827188611">
        <ele>562.03</ele>
        <time>2016-01-24T21:05:39Z</time>
      </trkpt>
      <trkpt lat="47.467784341424704" lon="-121.66103267110884">
        <ele>572.6</ele>
        <time>2016-01-24T21:06:07Z</time>
      </trkpt>
      <trkpt lat="47.4677275121212" lon="-121.66096645407379">
        <ele>575.01</ele>
        <time>2016-01-24T21:06:21Z</time>
      </trkpt>
      <trkpt lat="47.46774394065142" lon="-121.66077652014792">
        <ele>573.08</ele>
        <time>2016-01-24T21:06:39Z</time>
      </trkpt>
      <trkpt lat="47.46785407885909" lon="-121.66056772693992">
        <ele>564.91</ele>
        <time>2016-01-24T21:06:50Z</time>
      </trkpt>
      <trkpt lat="47.467911494895816" lon="-121.66032984852791">
        <ele>563.47</ele>
        <time>2016-01-24T21:07:02Z</time>
      </trkpt>
      <trkpt lat="47.468164041638374" lon="-121.65988082997501">
        <ele>575.01</ele>
        <time>2016-01-24T21:07:37Z</time>
      </trkpt>
      <trkpt lat="47.46854189783335" lon="-121.65932485833764">
        <ele>575.49</ele>
        <time>2016-01-24T21:08:14Z</time>
      </trkpt>
      <trkpt lat="47.468714229762554" lon="-121.65875036269426">
        <ele>573.08</ele>
        <time>2016-01-24T21:08:48Z</time>
      </trkpt>
      <trkpt lat="47.46877332217991" lon="-121.65862957946956">
        <ele>579.81</ele>
        <time>2016-01-24T21:09:00Z</time>
      </trkpt>
      <trkpt lat="47.46875219978392" lon="-121.65882932022214">
        <ele>600.96</ele>
        <time>2016-01-24T21:09:36Z</time>
      </trkpt>
      <trkpt lat="47.46849571354687" lon="-121.65895521640778">
        <ele>612.02</ele>
        <time>2016-01-24T21:10:00Z</time>
      </trkpt>
      <trkpt lat="47.46772851794958" lon="-121.65940473787487">
        <ele>637.97</ele>
        <time>2016-01-24T21:11:07Z</time>
      </trkpt>
      <trkpt lat="47.467336831614375" lon="-121.65966608561575">
        <ele>634.13</ele>
        <time>2016-01-24T21:11:30Z</time>
      </trkpt>
      <trkpt lat="47.46708998456597" lon="-121.65962032042444">
        <ele>630.28</ele>
        <time>2016-01-24T21:11:43Z</time>
      </trkpt>
      <trkpt lat="47.46698529459536" lon="-121.65969089604914">
        <ele>627.4</ele>
        <time>2016-01-24T21:11:55Z</time>
      </trkpt>
      <trkpt lat="47.466737776994705" lon="-121.66029196232557">
        <ele>642.78</ele>
        <time>2016-01-24T21:12:42Z</time>
      </trkpt>
      <trkpt lat="47.46633787639439" lon="-121.6607999894768">
        <ele>648.55</ele>
        <time>2016-01-24T21:13:21Z</time>
      </trkpt>
      <trkpt lat="47.46621013619006" lon="-121.66092479601502">
        <ele>655.28</ele>
        <time>2016-01-24T21:13:34Z</time>
      </trkpt>
      <trkpt lat="47.46587703935802" lon="-121.66107550263405">
        <ele>662.49</ele>
        <time>2016-01-24T21:13:58Z</time>
      </trkpt>
      <trkpt lat="47.46557788923383" lon="-121.6613301448524">
        <ele>668.73</ele>
        <time>2016-01-24T21:14:28Z</time>
      </trkpt>
      <trkpt lat="47.46522677130997" lon="-121.66169341653585">
        <ele>658.64</ele>
        <time>2016-01-24T21:14:57Z</time>
      </trkpt>
      <trkpt lat="47.46510858647525" lon="-121.66186801157892">
        <ele>655.28</ele>
        <time>2016-01-24T21:15:11Z</time>
      </trkpt>
      <trkpt lat="47.46494472026825" lon="-121.66185703128576">
        <ele>652.39</ele>
        <time>2016-01-24T21:15:27Z</time>
      </trkpt>
      <trkpt lat="47.46481035836041" lon="-121.66179349645972">
        <ele>643.74</ele>
        <time>2016-01-24T21:15:41Z</time>
      </trkpt>
      <trkpt lat="47.464793007820845" lon="-121.66167162358761">
        <ele>636.53</ele>
        <time>2016-01-24T21:15:54Z</time>
      </trkpt>
      <trkpt lat="47.464904990047216" lon="-121.66136174462736">
        <ele>631.24</ele>
        <time>2016-01-24T21:16:22Z</time>
      </trkpt>
      <trkpt lat="47.46503968723118" lon="-121.66088975965977">
        <ele>634.13</ele>
        <time>2016-01-24T21:16:52Z</time>
      </trkpt>
      <trkpt lat="47.46531939134002" lon="-121.66049430146813">
        <ele>643.26</ele>
        <time>2016-01-24T21:17:33Z</time>
      </trkpt>
      <trkpt lat="47.465167846530676" lon="-121.66057309135795">
        <ele>645.18</ele>
        <time>2016-01-24T21:18:02Z</time>
      </trkpt>
      <trkpt lat="47.46505376882851" lon="-121.66086151264608">
        <ele>645.66</ele>
        <time>2016-01-24T21:18:33Z</time>
      </trkpt>
      <trkpt lat="47.46481345966458" lon="-121.66105488315225">
        <ele>649.51</ele>
        <time>2016-01-24T21:18:55Z</time>
      </trkpt>
      <trkpt lat="47.46457256376743" lon="-121.66128764860332">
        <ele>658.64</ele>
        <time>2016-01-24T21:19:20Z</time>
      </trkpt>
      <trkpt lat="47.46418037451804" lon="-121.66137406602502">
        <ele>673.54</ele>
        <time>2016-01-24T21:19:52Z</time>
      </trkpt>
      <trkpt lat="47.464122623205185" lon="-121.66151161305606">
        <ele>678.35</ele>
        <time>2016-01-24T21:20:07Z</time>
      </trkpt>
      <trkpt lat="47.46393461711705" lon="-121.66178343817592">
        <ele>687.96</ele>
        <time>2016-01-24T21:20:33Z</time>
      </trkpt>
      <trkpt lat="47.46378709562123" lon="-121.66212181560695">
        <ele>699.02</ele>
        <time>2016-01-24T21:20:53Z</time>
      </trkpt>
      <trkpt lat="47.46365373954177" lon="-121.6623473726213">
        <ele>707.19</ele>
        <time>2016-01-24T21:21:07Z</time>
      </trkpt>
      <trkpt lat="47.463353583589196" lon="-121.6627031005919">
        <ele>713.44</ele>
        <time>2016-01-24T21:21:37Z</time>
      </trkpt>
      <trkpt lat="47.46314210817218" lon="-121.66286654770374">
        <ele>718.72</ele>
        <time>2016-01-24T21:21:56Z</time>
      </trkpt>
      <trkpt lat="47.46298737823963" lon="-121.66292597539723">
        <ele>712.95</ele>
        <time>2016-01-24T21:22:10Z</time>
      </trkpt>
      <trkpt lat="47.46295510791242" lon="-121.66283017024398">
        <ele>710.07</ele>
        <time>2016-01-24T21:22:23Z</time>
      </trkpt>
      <trkpt lat="47.463069101795554" lon="-121.66230512782931">
        <ele>713.44</ele>
        <time>2016-01-24T21:23:05Z</time>
      </trkpt>
      <trkpt lat="47.46323171071708" lon="-121.66202852502465">
        <ele>711.99</ele>
        <time>2016-01-24T21:23:18Z</time>
      </trkpt>
      <trkpt lat="47.46335584670305" lon="-121.66188402101398">
        <ele>709.11</ele>
        <time>2016-01-24T21:23:30Z</time>
      </trkpt>
      <trkpt lat="47.463436564430594" lon="-121.66152477264404">
        <ele>710.07</ele>
        <time>2016-01-24T21:23:58Z</time>
      </trkpt>
      <trkpt lat="47.46364602819085" lon="-121.6610523685813">
        <ele>714.4</ele>
        <time>2016-01-24T21:24:29Z</time>
      </trkpt>
      <trkpt lat="47.463714173063636" lon="-121.66083427146077">
        <ele>720.16</ele>
        <time>2016-01-24T21:24:46Z</time>
      </trkpt>
      <trkpt lat="47.464063949882984" lon="-121.66029129177332">
        <ele>728.34</ele>
        <time>2016-01-24T21:25:27Z</time>
      </trkpt>
      <trkpt lat="47.4642529617995" lon="-121.65976381860673">
        <ele>732.66</ele>
        <time>2016-01-24T21:25:58Z</time>
      </trkpt>
      <trkpt lat="47.46443501673639" lon="-121.65915017947555">
        <ele>746.12</ele>
        <time>2016-01-24T21:26:40Z</time>
      </trkpt>
      <trkpt lat="47.46452461928129" lon="-121.65890911594033">
        <ele>747.56</ele>
        <time>2016-01-24T21:26:54Z</time>
      </trkpt>
      <trkpt lat="47.464578514918685" lon="-121.65850603021681">
        <ele>750.45</ele>
        <time>2016-01-24T21:27:27Z</time>
      </trkpt>
      <trkpt lat="47.4647313170135" lon="-121.65831810794771">
        <ele>748.52</ele>
        <time>2016-01-24T21:27:43Z</time>
      </trkpt>
      <trkpt lat="47.46491689234972" lon="-121.6580268368125">
        <ele>744.68</ele>
        <time>2016-01-24T21:27:58Z</time>
      </trkpt>
      <trkpt lat="47.464970871806145" lon="-121.65777118876576">
        <ele>744.2</ele>
        <time>2016-01-24T21:28:14Z</time>
      </trkpt>
      <trkpt lat="47.4651147890836" lon="-121.65732468478382">
        <ele>745.64</ele>
        <time>2016-01-24T21:28:40Z</time>
      </trkpt>
      <trkpt lat="47.46515485458076" lon="-121.65709175169468">
        <ele>747.56</ele>
        <time>2016-01-24T21:28:54Z</time>
      </trkpt>
      <trkpt lat="47.46514798142016" lon="-121.65681757964194">
        <ele>751.89</ele>
        <time>2016-01-24T21:29:10Z</time>
      </trkpt>
      <trkpt lat="47.46518754400313" lon="-121.65668657049537">
        <ele>754.77</ele>
        <time>2016-01-24T21:29:28Z</time>
      </trkpt>
      <trkpt lat="47.46514638885856" lon="-121.65651306509972">
        <ele>759.1</ele>
        <time>2016-01-24T21:29:42Z</time>
      </trkpt>
      <trkpt lat="47.46522559784353" lon="-121.65638264268637">
        <ele>762.94</ele>
        <time>2016-01-24T21:29:57Z</time>
      </trkpt>
      <trkpt lat="47.4654031265527" lon="-121.65624585002661">
        <ele>768.71</ele>
        <time>2016-01-24T21:30:14Z</time>
      </trkpt>
      <trkpt lat="47.4656415078789" lon="-121.65611919946969">
        <ele>771.11</ele>
        <time>2016-01-24T21:30:32Z</time>
      </trkpt>
      <trkpt lat="47.46617811731994" lon="-121.65575877763331">
        <ele>779.29</ele>
        <time>2016-01-24T21:31:18Z</time>
      </trkpt>
      <trkpt lat="47.46634894050658" lon="-121.65553892031312">
        <ele>779.77</ele>
        <time>2016-01-24T21:31:46Z</time>
      </trkpt>
      <trkpt lat="47.466581370681524" lon="-121.65488563477993">
        <ele>805.72</ele>
        <time>2016-01-24T21:32:34Z</time>
      </trkpt>
      <trkpt lat="47.46669301763177" lon="-121.6546641010791">
        <ele>813.41</ele>
        <time>2016-01-24T21:32:49Z</time>
      </trkpt>
      <trkpt lat="47.46682746335864" lon="-121.65450593456626">
        <ele>823.03</ele>
        <time>2016-01-24T21:33:05Z</time>
      </trkpt>
      <trkpt lat="47.467248905450106" lon="-121.65375038981438">
        <ele>842.25</ele>
        <time>2016-01-24T21:34:03Z</time>
      </trkpt>
      <trkpt lat="47.46735284104943" lon="-121.65353011339903">
        <ele>845.14</ele>
        <time>2016-01-24T21:34:17Z</time>
      </trkpt>
      <trkpt lat="47.46753053739667" lon="-121.65331587195396">
        <ele>842.25</ele>
        <time>2016-01-24T21:34:32Z</time>
      </trkpt>
      <trkpt lat="47.46754000894725" lon="-121.65340421721339">
        <ele>844.18</ele>
        <time>2016-01-24T21:35:08Z</time>
      </trkpt>
      <trkpt lat="47.467237170785666" lon="-121.65359138511121">
        <ele>842.73</ele>
        <time>2016-01-24T21:35:42Z</time>
      </trkpt>
      <trkpt lat="47.467077327892184" lon="-121.65360043756664">
        <ele>843.21</ele>
        <time>2016-01-24T21:35:58Z</time>
      </trkpt>
      <trkpt lat="47.46683827601373" lon="-121.6537819057703">
        <ele>850.9</ele>
        <time>2016-01-24T21:36:29Z</time>
      </trkpt>
      <trkpt lat="47.466571563854814" lon="-121.65393495932221">
        <ele>861.0</ele>
        <time>2016-01-24T21:36:59Z</time>
      </trkpt>
      <trkpt lat="47.466012155637145" lon="-121.65411282330751">
        <ele>869.65</ele>
        <time>2016-01-24T21:37:54Z</time>
      </trkpt>
      <trkpt lat="47.465835213661194" lon="-121.65412170812488">
        <ele>870.61</ele>
        <time>2016-01-24T21:38:09Z</time>
      </trkpt>
      <trkpt lat="47.465680819004774" lon="-121.65421843528748">
        <ele>873.5</ele>
        <time>2016-01-24T21:38:26Z</time>
      </trkpt>
      <trkpt lat="47.46530547738075" lon="-121.6543931979686">
        <ele>870.61</ele>
        <time>2016-01-24T21:39:03Z</time>
      </trkpt>
      <trkpt lat="47.46513297781348" lon="-121.6544346883893">
        <ele>871.09</ele>
        <time>2016-01-24T21:39:22Z</time>
      </trkpt>
      <trkpt lat="47.46478395536542" lon="-121.65441054850817">
        <ele>886.95</ele>
        <time>2016-01-24T21:39:56Z</time>
      </trkpt>
      <trkpt lat="47.46433803811669" lon="-121.65502360090613">
        <ele>933.1</ele>
        <time>2016-01-24T21:41:00Z</time>
      </trkpt>
      <trkpt lat="47.46405657380819" lon="-121.65532099083066">
        <ele>931.65</ele>
        <time>2016-01-24T21:41:34Z</time>
      </trkpt>
      <trkpt lat="47.46389471925795" lon="-121.65536692366004">
        <ele>938.86</ele>
        <time>2016-01-24T21:41:51Z</time>
      </trkpt>
      <trkpt lat="47.46364393271506" lon="-121.65568719618022">
        <ele>964.82</ele>
        <time>2016-01-24T21:42:21Z</time>
      </trkpt>
      <trkpt lat="47.46318527497351" lon="-121.65619195438921">
        <ele>997.51</ele>
        <time>2016-01-24T21:43:09Z</time>
      </trkpt>
      <trkpt lat="47.463066251948476" lon="-121.656413404271">
        <ele>995.1</ele>
        <time>2016-01-24T21:43:22Z</time>
      </trkpt>
      <trkpt lat="47.46254841797054" lon="-121.65718680247664">
        <ele>935.5</ele>
        <time>2016-01-24T21:44:13Z</time>
      </trkpt>
      <trkpt lat="47.462367033585906" lon="-121.65732988156378">
        <ele>924.93</ele>
        <time>2016-01-24T21:44:31Z</time>
      </trkpt>
      <trkpt lat="47.46199864894152" lon="-121.65746977552772">
        <ele>908.1</ele>
        <time>2016-01-24T21:45:03Z</time>
      </trkpt>
      <trkpt lat="47.46226167306304" lon="-121.65726299397647">
        <ele>898.49</ele>
        <time>2016-01-24T21:45:40Z</time>
      </trkpt>
      <trkpt lat="47.46245613321662" lon="-121.65704774670303">
        <ele>890.32</ele>
        <time>2016-01-24T21:45:57Z</time>
      </trkpt>
      <trkpt lat="47.46252159588039" lon="-121.65689653716981">
        <ele>889.84</ele>
        <time>2016-01-24T21:46:14Z</time>
      </trkpt>
      <trkpt lat="47.46277766302228" lon="-121.6564572416246">
        <ele>889.36</ele>
        <time>2016-01-24T21:46:46Z</time>
      </trkpt>
      <trkpt lat="47.462954269722104" lon="-121.6558697540313">
        <ele>898.97</ele>
        <time>2016-01-24T21:47:24Z</time>
      </trkpt>
      <trkpt lat="47.46300489641726" lon="-121.65559826418757">
        <ele>906.18</ele>
        <time>2016-01-24T21:47:43Z</time>
      </trkpt>
      <trkpt lat="47.463237745687366" lon="-121.65513751097023">
        <ele>919.16</ele>
        <time>2016-01-24T21:48:19Z</time>
      </trkpt>
      <trkpt lat="47.46399865485728" lon="-121.65409765206277">
        <ele>920.12</ele>
        <time>2016-01-24T21:49:33Z</time>
      </trkpt>
      <trkpt lat="47.4640232976526" lon="-121.65400411002338">
        <ele>920.12</ele>
        <time>2016-01-24T21:49:51Z</time>
      </trkpt>
      <trkpt lat="47.46375968679786" lon="-121.65369481779635">
        <ele>920.12</ele>
        <time>2016-01-24T21:50:14Z</time>
      </trkpt>
      <trkpt lat="47.46369196102023" lon="-121.65370135568082">
        <ele>920.12</ele>
        <time>2016-01-24T21:50:22Z</time>
      </trkpt>
      <trkpt lat="47.46375256218016" lon="-121.65392003953457">
        <ele>921.56</ele>
        <time>2016-01-24T21:52:15Z</time>
      </trkpt>
      <trkpt lat="47.463944256305695" lon="-121.6538321133703">
        <ele>922.04</ele>
        <time>2016-01-24T21:52:37Z</time>
      </trkpt>
      <trkpt lat="47.46384928934276" lon="-121.65363765321672">
        <ele>934.54</ele>
        <time>2016-01-24T21:52:57Z</time>
      </trkpt>
      <trkpt lat="47.463898826390505" lon="-121.65349130518734">
        <ele>940.31</ele>
        <time>2016-01-24T21:53:42Z</time>
      </trkpt>
      <trkpt lat="47.46421189047396" lon="-121.65322434157133">
        <ele>945.11</ele>
        <time>2016-01-24T21:54:10Z</time>
      </trkpt>
      <trkpt lat="47.46450106613338" lon="-121.65301420725882">
        <ele>949.92</ele>
        <time>2016-01-24T21:54:37Z</time>
      </trkpt>
      <trkpt lat="47.464622436091304" lon="-121.65296483784914">
        <ele>952.8</ele>
        <time>2016-01-24T21:54:50Z</time>
      </trkpt>
      <trkpt lat="47.46504991315305" lon="-121.65252327919006">
        <ele>955.21</ele>
        <time>2016-01-24T21:55:32Z</time>
      </trkpt>
      <trkpt lat="47.46520112268627" lon="-121.65226930752397">
        <ele>948.96</ele>
        <time>2016-01-24T21:56:13Z</time>
      </trkpt>
      <trkpt lat="47.46537580154836" lon="-121.65213502943516">
        <ele>950.4</ele>
        <time>2016-01-24T21:56:30Z</time>
      </trkpt>
      <trkpt lat="47.46550706215203" lon="-121.65195733308792">
        <ele>953.28</ele>
        <time>2016-01-24T21:56:48Z</time>
      </trkpt>
      <trkpt lat="47.465538661926985" lon="-121.65184224955738">
        <ele>958.57</ele>
        <time>2016-01-24T21:57:04Z</time>
      </trkpt>
      <trkpt lat="47.465614853426814" lon="-121.65186077356339">
        <ele>966.26</ele>
        <time>2016-01-24T21:57:22Z</time>
      </trkpt>
      <trkpt lat="47.46583831496537" lon="-121.65174325928092">
        <ele>979.72</ele>
        <time>2016-01-24T21:57:54Z</time>
      </trkpt>
      <trkpt lat="47.46601534076035" lon="-121.65155827067792">
        <ele>980.68</ele>
        <time>2016-01-24T21:58:11Z</time>
      </trkpt>
      <trkpt lat="47.46637693606317" lon="-121.6510468069464">
        <ele>972.51</ele>
        <time>2016-01-24T21:58:46Z</time>
      </trkpt>
      <trkpt lat="47.466621017083526" lon="-121.65063341148198">
        <ele>982.12</ele>
        <time>2016-01-24T21:59:22Z</time>
      </trkpt>
      <trkpt lat="47.46682142838836" lon="-121.65020677261055">
        <ele>988.37</ele>
        <time>2016-01-24T21:59:56Z</time>
      </trkpt>
      <trkpt lat="47.466812962666154" lon="-121.65010996162891">
        <ele>987.89</ele>
        <time>2016-01-24T22:00:13Z</time>
      </trkpt>
      <trkpt lat="47.466587740927935" lon="-121.65023476816714">
        <ele>988.85</ele>
        <time>2016-01-24T22:00:42Z</time>
      </trkpt>
      <trkpt lat="47.46628263965249" lon="-121.65067029185593">
        <ele>987.89</ele>
        <time>2016-01-24T22:01:19Z</time>
      </trkpt>
      <trkpt lat="47.4661093018949" lon="-121.65071521885693">
        <ele>995.1</ele>
        <time>2016-01-24T22:01:41Z</time>
      </trkpt>
      <trkpt lat="47.46597535908222" lon="-121.65066962130368">
        <ele>1010.96</ele>
        <time>2016-01-24T22:02:01Z</time>
      </trkpt>
      <trkpt lat="47.46608482673764" lon="-121.65057557635009">
        <ele>1015.29</ele>
        <time>2016-01-24T22:02:33Z</time>
      </trkpt>
      <trkpt lat="47.46638288721442" lon="-121.64993016980588">
        <ele>1007.6</ele>
        <time>2016-01-24T22:03:34Z</time>
      </trkpt>
      <trkpt lat="47.46640468016267" lon="-121.64964325726032">
        <ele>1010.48</ele>
        <time>2016-01-24T22:03:54Z</time>
      </trkpt>
      <trkpt lat="47.46633536182344" lon="-121.64944452233613">
        <ele>1014.81</ele>
        <time>2016-01-24T22:04:12Z</time>
      </trkpt>
      <trkpt lat="47.466323962435126" lon="-121.64923212490976">
        <ele>1019.13</ele>
        <time>2016-01-24T22:04:28Z</time>
      </trkpt>
      <trkpt lat="47.466389425098896" lon="-121.6488984413445">
        <ele>1023.94</ele>
        <time>2016-01-24T22:04:59Z</time>
      </trkpt>
      <trkpt lat="47.466472908854485" lon="-121.64862334728241">
        <ele>1022.98</ele>
        <time>2016-01-24T22:05:12Z</time>
      </trkpt>
      <trkpt lat="47.46641197241843" lon="-121.64847926236689">
        <ele>1025.38</ele>
        <time>2016-01-24T22:05:28Z</time>
      </trkpt>
      <trkpt lat="47.46608407236636" lon="-121.64813049137592">
        <ele>1048.94</ele>
        <time>2016-01-24T22:06:26Z</time>
      </trkpt>
      <trkpt lat="47.46606655418873" lon="-121.64802194572985">
        <ele>1055.67</ele>
        <time>2016-01-24T22:06:40Z</time>
      </trkpt>
      <trkpt lat="47.46583697386086" lon="-121.64769915863872">
        <ele>1098.92</ele>
        <time>2016-01-24T22:08:11Z</time>
      </trkpt>
      <trkpt lat="47.465813839808106" lon="-121.64750545285642">
        <ele>1113.82</ele>
        <time>2016-01-24T22:08:41Z</time>
      </trkpt>
      <trkpt lat="47.46588969603181" lon="-121.64720370434225">
        <ele>1123.44</ele>
        <time>2016-01-24T22:09:01Z</time>
      </trkpt>
      <trkpt lat="47.46590830385685" lon="-121.6468468029052">
        <ele>1139.3</ele>
        <time>2016-01-24T22:09:37Z</time>
      </trkpt>
      <trkpt lat="47.466058507561684" lon="-121.64646366611123">
        <ele>1165.26</ele>
        <time>2016-01-24T22:10:11Z</time>
      </trkpt>
      <trkpt lat="47.465967228636146" lon="-121.64644145406783">
        <ele>1176.31</ele>
        <time>2016-01-24T22:10:25Z</time>
      </trkpt>
      <trkpt lat="47.465935461223125" lon="-121.64655167609453">
        <ele>1186.4</ele>
        <time>2016-01-24T22:10:42Z</time>
      </trkpt>
      <trkpt lat="47.46578961610794" lon="-121.64668905548751">
        <ele>1184.0</ele>
        <time>2016-01-24T22:10:59Z</time>
      </trkpt>
      <trkpt lat="47.46572884730995" lon="-121.6468518320471">
        <ele>1175.35</ele>
        <time>2016-01-24T22:11:17Z</time>
      </trkpt>
      <trkpt lat="47.46563874185085" lon="-121.64673943072557">
        <ele>1183.52</ele>
        <time>2016-01-24T22:11:50Z</time>
      </trkpt>
      <trkpt lat="47.4656724371016" lon="-121.64619008079171">
        <ele>1220.53</ele>
        <time>2016-01-24T22:12:47Z</time>
      </trkpt>
      <trkpt lat="47.46562977321446" lon="-121.64609989151359">
        <ele>1231.11</ele>
        <time>2016-01-24T22:13:07Z</time>
      </trkpt>
      <trkpt lat="47.46545341797173" lon="-121.64615110494196">
        <ele>1275.81</ele>
        <time>2016-01-24T22:14:20Z</time>
      </trkpt>
      <trkpt lat="47.46523490175605" lon="-121.64629510603845">
        <ele>1330.6</ele>
        <time>2016-01-24T22:15:26Z</time>
      </trkpt>
      <trkpt lat="47.46521822176874" lon="-121.64660783484578">
        <ele>1349.83</ele>
        <time>2016-01-24T22:15:59Z</time>
      </trkpt>
      <trkpt lat="47.46514161117375" lon="-121.64678930304945">
        <ele>1352.71</ele>
        <time>2016-01-24T22:16:24Z</time>
      </trkpt>
      <trkpt lat="47.465147813782096" lon="-121.64707026444376">
        <ele>1324.83</ele>
        <time>2016-01-24T22:16:40Z</time>
      </trkpt>
      <trkpt lat="47.4649437982589" lon="-121.64725231938064">
        <ele>1253.7</ele>
        <time>2016-01-24T22:16:55Z</time>
      </trkpt>
      <trkpt lat="47.464841455221176" lon="-121.64740084670484">
        <ele>1206.11</ele>
        <time>2016-01-24T22:17:10Z</time>
      </trkpt>
      <trkpt lat="47.46505510993302" lon="-121.64765322580934">
        <ele>1200.34</ele>
        <time>2016-01-24T22:17:43Z</time>
      </trkpt>
      <trkpt lat="47.46507438831031" lon="-121.64791180752218">
        <ele>1196.5</ele>
        <time>2016-01-24T22:18:00Z</time>
      </trkpt>
      <trkpt lat="47.465007081627846" lon="-121.64818556047976">
        <ele>1194.09</ele>
        <time>2016-01-24T22:18:33Z</time>
      </trkpt>
      <trkpt lat="47.464980678632855" lon="-121.64805706590414">
        <ele>1191.21</ele>
        <time>2016-01-24T22:18:49Z</time>
      </trkpt>
      <trkpt lat="47.46485134586692" lon="-121.64833802729845">
        <ele>1190.25</ele>
        <time>2016-01-24T22:19:23Z</time>
      </trkpt>
      <trkpt lat="47.46472494676709" lon="-121.64828253909945">
        <ele>1188.81</ele>
        <time>2016-01-24T22:19:52Z</time>
      </trkpt>
      <trkpt lat="47.46455965563655" lon="-121.64833819493651">
        <ele>1193.61</ele>
        <time>2016-01-24T22:20:24Z</time>
      </trkpt>
      <trkpt lat="47.464434346184134" lon="-121.64827633649111">
        <ele>1196.5</ele>
        <time>2016-01-24T22:20:40Z</time>
      </trkpt>
      <trkpt lat="47.46413226239383" lon="-121.64859736338258">
        <ele>1208.03</ele>
        <time>2016-01-24T22:21:28Z</time>
      </trkpt>
      <trkpt lat="47.46400988660753" lon="-121.648672465235">
        <ele>1214.76</ele>
        <time>2016-01-24T22:21:43Z</time>
      </trkpt>
      <trkpt lat="47.4635536596179" lon="-121.64870968088508">
        <ele>1227.26</ele>
        <time>2016-01-24T22:22:27Z</time>
      </trkpt>
      <trkpt lat="47.46334654279053" lon="-121.64877405390143">
        <ele>1220.05</ele>
        <time>2016-01-24T22:22:42Z</time>
      </trkpt>
      <trkpt lat="47.46308653615415" lon="-121.64899273775518">
        <ele>1193.61</ele>
        <time>2016-01-24T22:22:59Z</time>
      </trkpt>
      <trkpt lat="47.46291504241526" lon="-121.64897195063531">
        <ele>1190.25</ele>
        <time>2016-01-24T22:23:17Z</time>
      </trkpt>
      <trkpt lat="47.46271555311978" lon="-121.64878604002297">
        <ele>1196.5</ele>
        <time>2016-01-24T22:23:50Z</time>
      </trkpt>
      <trkpt lat="47.46250743046403" lon="-121.64875217713416">
        <ele>1195.54</ele>
        <time>2016-01-24T22:24:06Z</time>
      </trkpt>
      <trkpt lat="47.462326884269714" lon="-121.64878620766103">
        <ele>1197.94</ele>
        <time>2016-01-24T22:24:22Z</time>
      </trkpt>
      <trkpt lat="47.46225622482598" lon="-121.64851002395153">
        <ele>1201.3</ele>
        <time>2016-01-24T22:24:56Z</time>
      </trkpt>
      <trkpt lat="47.46238639578223" lon="-121.64837071672082">
        <ele>1207.55</ele>
        <time>2016-01-24T22:25:27Z</time>
      </trkpt>
      <trkpt lat="47.462412212044" lon="-121.64820559322834">
        <ele>1207.55</ele>
        <time>2016-01-24T22:25:45Z</time>
      </trkpt>
      <trkpt lat="47.46230257675052" lon="-121.64820718578994">
        <ele>1212.84</ele>
        <time>2016-01-24T22:26:00Z</time>
      </trkpt>
      <trkpt lat="47.46236560866237" lon="-121.64795371703804">
        <ele>1209.96</ele>
        <time>2016-01-24T22:26:18Z</time>
      </trkpt>
      <trkpt lat="47.46244054287672" lon="-121.64783243089914">
        <ele>1209.48</ele>
        <time>2016-01-24T22:26:32Z</time>
      </trkpt>
      <trkpt lat="47.462400142103434" lon="-121.64760796353221">
        <ele>1215.72</ele>
        <time>2016-01-24T22:27:21Z</time>
      </trkpt>
      <trkpt lat="47.462241891771555" lon="-121.64738986641169">
        <ele>1229.66</ele>
        <time>2016-01-24T22:28:07Z</time>
      </trkpt>
      <trkpt lat="47.46222705580294" lon="-121.64729380980134">
        <ele>1232.55</ele>
        <time>2016-01-24T22:28:16Z</time>
      </trkpt>
      <trkpt lat="47.46209713630378" lon="-121.64728903211653">
        <ele>1237.83</ele>
        <time>2016-01-24T22:28:30Z</time>
      </trkpt>
      <trkpt lat="47.46203552931547" lon="-121.64715383201838">
        <ele>1240.72</ele>
        <time>2016-01-24T22:28:44Z</time>
      </trkpt>
      <trkpt lat="47.4619890935719" lon="-121.64682827889919">
        <ele>1243.12</ele>
        <time>2016-01-24T22:29:40Z</time>
      </trkpt>
      <trkpt lat="47.46192446909845" lon="-121.64662350900471">
        <ele>1246.49</ele>
        <time>2016-01-24T22:30:21Z</time>
      </trkpt>
      <trkpt lat="47.46193025261164" lon="-121.64646760560572">
        <ele>1245.04</ele>
        <time>2016-01-24T22:30:35Z</time>
      </trkpt>
      <trkpt lat="47.462026476860046" lon="-121.64627968333662">
        <ele>1242.16</ele>
        <time>2016-01-24T22:30:50Z</time>
      </trkpt>
      <trkpt lat="47.462009377777576" lon="-121.64605731144547">
        <ele>1242.64</ele>
        <time>2016-01-24T22:31:04Z</time>
      </trkpt>
      <trkpt lat="47.46191977523267" lon="-121.64588992483914">
        <ele>1243.12</ele>
        <time>2016-01-24T22:31:20Z</time>
      </trkpt>
      <trkpt lat="47.46201817877591" lon="-121.64556009694934">
        <ele>1247.45</ele>
        <time>2016-01-24T22:32:03Z</time>
      </trkpt>
      <trkpt lat="47.461998062208295" lon="-121.64524652995169">
        <ele>1258.98</ele>
        <time>2016-01-24T22:32:47Z</time>
      </trkpt>
      <trkpt lat="47.46203410439193" lon="-121.64510169066489">
        <ele>1265.71</ele>
        <time>2016-01-24T22:33:15Z</time>
      </trkpt>
      <trkpt lat="47.46202957816422" lon="-121.64473531767726">
        <ele>1278.69</ele>
        <time>2016-01-24T22:34:09Z</time>
      </trkpt>
      <trkpt lat="47.46199772693217" lon="-121.64463263936341">
        <ele>1287.82</ele>
        <time>2016-01-24T22:34:34Z</time>
      </trkpt>
      <trkpt lat="47.46201038360596" lon="-121.64436123333871">
        <ele>1295.51</ele>
        <time>2016-01-24T22:35:13Z</time>
      </trkpt>
      <trkpt lat="47.46193771250546" lon="-121.64419929496944">
        <ele>1301.28</ele>
        <time>2016-01-24T22:35:41Z</time>
      </trkpt>
      <trkpt lat="47.461845595389605" lon="-121.64416207931936">
        <ele>1303.2</ele>
        <time>2016-01-24T22:36:02Z</time>
      </trkpt>
      <trkpt lat="47.46174819767475" lon="-121.64385597221553">
        <ele>1309.45</ele>
        <time>2016-01-24T22:37:27Z</time>
      </trkpt>
      <trkpt lat="47.461776277050376" lon="-121.64346772246063">
        <ele>1315.7</ele>
        <time>2016-01-24T22:38:01Z</time>
      </trkpt>
      <trkpt lat="47.46193829923868" lon="-121.64296606555581">
        <ele>1334.45</ele>
        <time>2016-01-24T22:39:14Z</time>
      </trkpt>
      <trkpt lat="47.46195137500763" lon="-121.64276448078454">
        <ele>1339.73</ele>
        <time>2016-01-24T22:39:43Z</time>
      </trkpt>
      <trkpt lat="47.46201633475721" lon="-121.64245476946235">
        <ele>1348.87</ele>
        <time>2016-01-24T22:40:28Z</time>
      </trkpt>
      <trkpt lat="47.46229796670377" lon="-121.6421982832253">
        <ele>1358.48</ele>
        <time>2016-01-24T22:41:29Z</time>
      </trkpt>
      <trkpt lat="47.46239326894283" lon="-121.64150275290012">
        <ele>1395.49</ele>
        <time>2016-01-24T22:44:13Z</time>
      </trkpt>
      <trkpt lat="47.46253525838256" lon="-121.64107913151383">
        <ele>1414.24</ele>
        <time>2016-01-24T22:45:34Z</time>
      </trkpt>
      <trkpt lat="47.46256124228239" lon="-121.64054897613823">
        <ele>1433.46</ele>
        <time>2016-01-24T22:47:04Z</time>
      </trkpt>
      <trkpt lat="47.462503826245666" lon="-121.6402465570718">
        <ele>1439.71</ele>
        <time>2016-01-24T22:47:41Z</time>
      </trkpt>
      <trkpt lat="47.46250835247338" lon="-121.63977012969553">
        <ele>1456.05</ele>
        <time>2016-01-24T22:48:44Z</time>
      </trkpt>
      <trkpt lat="47.46251874603331" lon="-121.63962059654295">
        <ele>1458.94</ele>
        <time>2016-01-24T23:04:39Z</time>
      </trkpt>
      <trkpt lat="47.46253081597388" lon="-121.63985570892692">
        <ele>1452.21</ele>
        <time>2016-01-24T23:04:55Z</time>
      </trkpt>
      <trkpt lat="47.46249804273248" lon="-121.6399875562638">
        <ele>1447.88</ele>
        <time>2016-01-24T23:05:08Z</time>
      </trkpt>
      <trkpt lat="47.4625538662076" lon="-121.64048552513123">
        <ele>1435.87</ele>
        <time>2016-01-24T23:05:43Z</time>
      </trkpt>
      <trkpt lat="47.46254757978022" lon="-121.64075575768948">
        <ele>1423.85</ele>
        <time>2016-01-24T23:06:21Z</time>
      </trkpt>
      <trkpt lat="47.462579095736146" lon="-121.64087310433388">
        <ele>1419.52</ele>
        <time>2016-01-24T23:06:33Z</time>
      </trkpt>
      <trkpt lat="47.46246334165335" lon="-121.64133721031249">
        <ele>1404.14</ele>
        <time>2016-01-24T23:07:14Z</time>
      </trkpt>
      <trkpt lat="47.46239201165736" lon="-121.64145363494754">
        <ele>1399.34</ele>
        <time>2016-01-24T23:07:50Z</time>
      </trkpt>
      <trkpt lat="47.462335266172886" lon="-121.64200943894684">
        <ele>1374.34</ele>
        <time>2016-01-24T23:08:37Z</time>
      </trkpt>
      <trkpt lat="47.46228866279125" lon="-121.64219467900693">
        <ele>1358.96</ele>
        <time>2016-01-24T23:09:29Z</time>
      </trkpt>
      <trkpt lat="47.462089508771896" lon="-121.64234161376953">
        <ele>1352.71</ele>
        <time>2016-01-24T23:10:06Z</time>
      </trkpt>
      <trkpt lat="47.461998062208295" lon="-121.64259290322661">
        <ele>1342.14</ele>
        <time>2016-01-24T23:10:30Z</time>
      </trkpt>
      <trkpt lat="47.46194802224636" lon="-121.64297142997384">
        <ele>1332.04</ele>
        <time>2016-01-24T23:10:57Z</time>
      </trkpt>
      <trkpt lat="47.46179454959929" lon="-121.64341248571873">
        <ele>1316.18</ele>
        <time>2016-01-24T23:11:34Z</time>
      </trkpt>
      <trkpt lat="47.46174140833318" lon="-121.64387784898281">
        <ele>1308.01</ele>
        <time>2016-01-24T23:12:03Z</time>
      </trkpt>
      <trkpt lat="47.461878284811974" lon="-121.64418881759048">
        <ele>1299.84</ele>
        <time>2016-01-24T23:12:52Z</time>
      </trkpt>
      <trkpt lat="47.46202144771814" lon="-121.64431102573872">
        <ele>1291.67</ele>
        <time>2016-01-24T23:13:11Z</time>
      </trkpt>
      <trkpt lat="47.46200904250145" lon="-121.64458218030632">
        <ele>1282.54</ele>
        <time>2016-01-24T23:13:36Z</time>
      </trkpt>
      <trkpt lat="47.462114403024316" lon="-121.64493924938142">
        <ele>1264.75</ele>
        <time>2016-01-24T23:14:13Z</time>
      </trkpt>
      <trkpt lat="47.4621616769582" lon="-121.64519565179944">
        <ele>1254.66</ele>
        <time>2016-01-24T23:14:22Z</time>
      </trkpt>
      <trkpt lat="47.462088922038674" lon="-121.64551726542413">
        <ele>1243.12</ele>
        <time>2016-01-24T23:14:43Z</time>
      </trkpt>
      <trkpt lat="47.46196864172816" lon="-121.64566369727254">
        <ele>1240.72</ele>
        <time>2016-01-24T23:14:56Z</time>
      </trkpt>
      <trkpt lat="47.461993200704455" lon="-121.6459125559777">
        <ele>1235.43</ele>
        <time>2016-01-24T23:15:10Z</time>
      </trkpt>
      <trkpt lat="47.462066458538175" lon="-121.64608648046851">
        <ele>1234.47</ele>
        <time>2016-01-24T23:15:22Z</time>
      </trkpt>
      <trkpt lat="47.46205531060696" lon="-121.64646056480706">
        <ele>1229.18</ele>
        <time>2016-01-24T23:15:48Z</time>
      </trkpt>
      <trkpt lat="47.4621738307178" lon="-121.64655041880906">
        <ele>1226.3</ele>
        <time>2016-01-24T23:15:59Z</time>
      </trkpt>
      <trkpt lat="47.462258990854025" lon="-121.64670607075095">
        <ele>1222.93</ele>
        <time>2016-01-24T23:16:13Z</time>
      </trkpt>
      <trkpt lat="47.462195036932826" lon="-121.64676734246314">
        <ele>1221.97</ele>
        <time>2016-01-24T23:16:25Z</time>
      </trkpt>
      <trkpt lat="47.462221859022975" lon="-121.64688921533525">
        <ele>1217.65</ele>
        <time>2016-01-24T23:16:37Z</time>
      </trkpt>
      <trkpt lat="47.46237901970744" lon="-121.64707076735795">
        <ele>1209.96</ele>
        <time>2016-01-24T23:16:53Z</time>
      </trkpt>
      <trkpt lat="47.462412463501096" lon="-121.6473684925586">
        <ele>1204.67</ele>
        <time>2016-01-24T23:17:22Z</time>
      </trkpt>
      <trkpt lat="47.46247666887939" lon="-121.64749396964908">
        <ele>1198.9</ele>
        <time>2016-01-24T23:17:37Z</time>
      </trkpt>
      <trkpt lat="47.46249753981829" lon="-121.64768306538463">
        <ele>1196.5</ele>
        <time>2016-01-24T23:17:50Z</time>
      </trkpt>
      <trkpt lat="47.46242185123265" lon="-121.6478378791362">
        <ele>1194.09</ele>
        <time>2016-01-24T23:18:02Z</time>
      </trkpt>
      <trkpt lat="47.46251371689141" lon="-121.6480971314013">
        <ele>1184.48</ele>
        <time>2016-01-24T23:18:28Z</time>
      </trkpt>
      <trkpt lat="47.46235705912113" lon="-121.64837557822466">
        <ele>1178.23</ele>
        <time>2016-01-24T23:19:09Z</time>
      </trkpt>
      <trkpt lat="47.46217114850879" lon="-121.6484111174941">
        <ele>1171.5</ele>
        <time>2016-01-24T23:19:36Z</time>
      </trkpt>
      <trkpt lat="47.46214843355119" lon="-121.64851010777056">
        <ele>1163.81</ele>
        <time>2016-01-24T23:19:49Z</time>
      </trkpt>
      <trkpt lat="47.46220953762531" lon="-121.64902559481561">
        <ele>1144.59</ele>
        <time>2016-01-24T23:20:29Z</time>
      </trkpt>
      <trkpt lat="47.46208028867841" lon="-121.64892878383398">
        <ele>1137.38</ele>
        <time>2016-01-24T23:20:47Z</time>
      </trkpt>
      <trkpt lat="47.462023962289095" lon="-121.64895912632346">
        <ele>1134.97</ele>
        <time>2016-01-24T23:20:59Z</time>
      </trkpt>
      <trkpt lat="47.462045503780246" lon="-121.64920915849507">
        <ele>1127.28</ele>
        <time>2016-01-24T23:21:16Z</time>
      </trkpt>
      <trkpt lat="47.46197593398392" lon="-121.64939129725099">
        <ele>1123.92</ele>
        <time>2016-01-24T23:21:44Z</time>
      </trkpt>
      <trkpt lat="47.462063357234" lon="-121.64981215260923">
        <ele>1118.15</ele>
        <time>2016-01-24T23:22:12Z</time>
      </trkpt>
      <trkpt lat="47.46224767528474" lon="-121.65008858777583">
        <ele>1108.54</ele>
        <time>2016-01-24T23:22:38Z</time>
      </trkpt>
      <trkpt lat="47.46230551041663" lon="-121.65027081035078">
        <ele>1105.65</ele>
        <time>2016-01-24T23:22:54Z</time>
      </trkpt>
      <trkpt lat="47.46222345158458" lon="-121.65044632740319">
        <ele>1102.77</ele>
        <time>2016-01-24T23:23:10Z</time>
      </trkpt>
      <trkpt lat="47.462164694443345" lon="-121.65078453719616">
        <ele>1091.23</ele>
        <time>2016-01-24T23:23:39Z</time>
      </trkpt>
      <trkpt lat="47.46210635639727" lon="-121.65089509449899">
        <ele>1087.87</ele>
        <time>2016-01-24T23:23:52Z</time>
      </trkpt>
      <trkpt lat="47.46194249019027" lon="-121.6509828530252">
        <ele>1086.91</ele>
        <time>2016-01-24T23:24:08Z</time>
      </trkpt>
      <trkpt lat="47.461912063881755" lon="-121.65121989324689">
        <ele>1076.81</ele>
        <time>2016-01-24T23:24:40Z</time>
      </trkpt>
      <trkpt lat="47.46183645911515" lon="-121.65127873420715">
        <ele>1071.05</ele>
        <time>2016-01-24T23:24:57Z</time>
      </trkpt>
      <trkpt lat="47.4617922026664" lon="-121.65143212303519">
        <ele>1065.76</ele>
        <time>2016-01-24T23:25:13Z</time>
      </trkpt>
      <trkpt lat="47.46186881326139" lon="-121.65161996148527">
        <ele>1061.91</ele>
        <time>2016-01-24T23:25:30Z</time>
      </trkpt>
      <trkpt lat="47.4618543125689" lon="-121.65179179050028">
        <ele>1058.07</ele>
        <time>2016-01-24T23:25:45Z</time>
      </trkpt>
      <trkpt lat="47.461632024496794" lon="-121.65165273472667">
        <ele>1048.45</ele>
        <time>2016-01-24T23:26:17Z</time>
      </trkpt>
      <trkpt lat="47.46143253520131" lon="-121.65159238502383">
        <ele>1038.36</ele>
        <time>2016-01-24T23:26:50Z</time>
      </trkpt>
      <trkpt lat="47.461236817762256" lon="-121.65170721709728">
        <ele>1032.59</ele>
        <time>2016-01-24T23:27:48Z</time>
      </trkpt>
      <trkpt lat="47.46119214221835" lon="-121.65182263590395">
        <ele>1026.34</ele>
        <time>2016-01-24T23:28:05Z</time>
      </trkpt>
      <trkpt lat="47.46110756881535" lon="-121.65171886794269">
        <ele>1017.21</ele>
        <time>2016-01-24T23:28:21Z</time>
      </trkpt>
      <trkpt lat="47.46117152273655" lon="-121.65243384428322">
        <ele>1003.27</ele>
        <time>2016-01-24T23:30:07Z</time>
      </trkpt>
      <trkpt lat="47.46126447804272" lon="-121.65286358445883">
        <ele>994.62</ele>
        <time>2016-01-24T23:30:40Z</time>
      </trkpt>
      <trkpt lat="47.46138936839998" lon="-121.65308168157935">
        <ele>994.62</ele>
        <time>2016-01-24T23:30:57Z</time>
      </trkpt>
      <trkpt lat="47.461484586820006" lon="-121.65354436263442">
        <ele>982.6</ele>
        <time>2016-01-24T23:32:04Z</time>
      </trkpt>
      <trkpt lat="47.461518198251724" lon="-121.6538823209703">
        <ele>976.84</ele>
        <time>2016-01-24T23:32:37Z</time>
      </trkpt>
      <trkpt lat="47.46161676943302" lon="-121.65407828986645">
        <ele>968.67</ele>
        <time>2016-01-24T23:33:46Z</time>
      </trkpt>
      <trkpt lat="47.461654068902135" lon="-121.65435363538563">
        <ele>961.94</ele>
        <time>2016-01-24T23:34:07Z</time>
      </trkpt>
      <trkpt lat="47.461460111662745" lon="-121.65453602559865">
        <ele>952.32</ele>
        <time>2016-01-24T23:34:50Z</time>
      </trkpt>
      <trkpt lat="47.46136212721467" lon="-121.65451976470649">
        <ele>943.67</ele>
        <time>2016-01-24T23:35:12Z</time>
      </trkpt>
      <trkpt lat="47.46128777973354" lon="-121.65462043136358">
        <ele>935.98</ele>
        <time>2016-01-24T23:35:31Z</time>
      </trkpt>
      <trkpt lat="47.46118099428713" lon="-121.65456343442202">
        <ele>931.65</ele>
        <time>2016-01-24T23:35:49Z</time>
      </trkpt>
      <trkpt lat="47.46110639534891" lon="-121.65473752655089">
        <ele>922.52</ele>
        <time>2016-01-24T23:36:27Z</time>
      </trkpt>
      <trkpt lat="47.461156602948904" lon="-121.65491580963135">
        <ele>921.08</ele>
        <time>2016-01-24T23:38:56Z</time>
      </trkpt>
      <trkpt lat="47.46097857132554" lon="-121.65517874993384">
        <ele>910.03</ele>
        <time>2016-01-24T23:39:59Z</time>
      </trkpt>
      <trkpt lat="47.460990557447076" lon="-121.65528981015086">
        <ele>903.3</ele>
        <time>2016-01-24T23:40:27Z</time>
      </trkpt>
      <trkpt lat="47.46080406010151" lon="-121.65554763749242">
        <ele>886.95</ele>
        <time>2016-01-24T23:41:47Z</time>
      </trkpt>
      <trkpt lat="47.46079048141837" lon="-121.655676048249">
        <ele>883.59</ele>
        <time>2016-01-24T23:42:01Z</time>
      </trkpt>
      <trkpt lat="47.460859045386314" lon="-121.65585475042462">
        <ele>873.98</ele>
        <time>2016-01-24T23:42:30Z</time>
      </trkpt>
      <trkpt lat="47.46091310866177" lon="-121.65625758469105">
        <ele>861.48</ele>
        <time>2016-01-24T23:43:08Z</time>
      </trkpt>
      <trkpt lat="47.46087606064975" lon="-121.65636034682393">
        <ele>856.19</ele>
        <time>2016-01-24T23:43:23Z</time>
      </trkpt>
      <trkpt lat="47.46097312308848" lon="-121.65670190937817">
        <ele>839.37</ele>
        <time>2016-01-24T23:43:59Z</time>
      </trkpt>
      <trkpt lat="47.46104260906577" lon="-121.65705906227231">
        <ele>828.79</ele>
        <time>2016-01-24T23:44:28Z</time>
      </trkpt>
      <trkpt lat="47.461033472791314" lon="-121.65725151076913">
        <ele>821.58</ele>
        <time>2016-01-24T23:44:47Z</time>
      </trkpt>
      <trkpt lat="47.46110379695892" lon="-121.65767680853605">
        <ele>814.37</ele>
        <time>2016-01-24T23:45:16Z</time>
      </trkpt>
      <trkpt lat="47.46120932511985" lon="-121.65783455595374">
        <ele>805.24</ele>
        <time>2016-01-24T23:45:29Z</time>
      </trkpt>
      <trkpt lat="47.4613450281322" lon="-121.65839186869562">
        <ele>786.98</ele>
        <time>2016-01-24T23:46:08Z</time>
      </trkpt>
      <trkpt lat="47.461365815252066" lon="-121.65857962332666">
        <ele>782.17</ele>
        <time>2016-01-24T23:46:23Z</time>
      </trkpt>
      <trkpt lat="47.4612136837095" lon="-121.65879654698074">
        <ele>766.31</ele>
        <time>2016-01-24T23:46:53Z</time>
      </trkpt>
      <trkpt lat="47.46123606339097" lon="-121.6590435616672">
        <ele>759.1</ele>
        <time>2016-01-24T23:47:09Z</time>
      </trkpt>
      <trkpt lat="47.46120823547244" lon="-121.65918353945017">
        <ele>750.93</ele>
        <time>2016-01-24T23:47:27Z</time>
      </trkpt>
      <trkpt lat="47.4612622987479" lon="-121.65954245254397">
        <ele>740.83</ele>
        <time>2016-01-24T23:47:57Z</time>
      </trkpt>
      <trkpt lat="47.46123790740967" lon="-121.65983422659338">
        <ele>729.78</ele>
        <time>2016-01-24T23:48:27Z</time>
      </trkpt>
      <trkpt lat="47.46142951771617" lon="-121.66027612052858">
        <ele>721.13</ele>
        <time>2016-01-24T23:48:55Z</time>
      </trkpt>
      <trkpt lat="47.46145843528211" lon="-121.66045851074159">
        <ele>718.24</ele>
        <time>2016-01-24T23:49:07Z</time>
      </trkpt>
      <trkpt lat="47.46165130287409" lon="-121.66092965751886">
        <ele>708.63</ele>
        <time>2016-01-24T23:49:35Z</time>
      </trkpt>
      <trkpt lat="47.46164015494287" lon="-121.66134623810649">
        <ele>698.53</ele>
        <time>2016-01-24T23:50:07Z</time>
      </trkpt>
      <trkpt lat="47.4617060367018" lon="-121.66154044680297">
        <ele>694.69</ele>
        <time>2016-01-24T23:50:19Z</time>
      </trkpt>
      <trkpt lat="47.46180293150246" lon="-121.66168277151883">
        <ele>693.25</ele>
        <time>2016-01-24T23:50:32Z</time>
      </trkpt>
      <trkpt lat="47.46188490651548" lon="-121.66195794939995">
        <ele>693.25</ele>
        <time>2016-01-24T23:50:53Z</time>
      </trkpt>
      <trkpt lat="47.46213041245937" lon="-121.66250629350543">
        <ele>678.35</ele>
        <time>2016-01-24T23:51:35Z</time>
      </trkpt>
      <trkpt lat="47.46226913295686" lon="-121.66288373060524">
        <ele>662.49</ele>
        <time>2016-01-24T23:52:06Z</time>
      </trkpt>
      <trkpt lat="47.46232311241329" lon="-121.66325261816382">
        <ele>646.62</ele>
        <time>2016-01-24T23:52:40Z</time>
      </trkpt>
      <trkpt lat="47.46218925341964" lon="-121.66335496120155">
        <ele>644.22</ele>
        <time>2016-01-24T23:52:55Z</time>
      </trkpt>
      <trkpt lat="47.46222076937556" lon="-121.66351505555212">
        <ele>640.86</ele>
        <time>2016-01-24T23:53:08Z</time>
      </trkpt>
      <trkpt lat="47.46249728836119" lon="-121.66377648711205">
        <ele>628.84</ele>
        <time>2016-01-24T23:53:48Z</time>
      </trkpt>
      <trkpt lat="47.46249536052346" lon="-121.66389299556613">
        <ele>624.99</ele>
        <time>2016-01-24T23:54:03Z</time>
      </trkpt>
      <trkpt lat="47.46233216486871" lon="-121.66417102329433">
        <ele>610.09</ele>
        <time>2016-01-24T23:55:04Z</time>
      </trkpt>
      <trkpt lat="47.462404165416956" lon="-121.66419256478548">
        <ele>608.17</ele>
        <time>2016-01-24T23:55:24Z</time>
      </trkpt>
      <trkpt lat="47.46228371746838" lon="-121.66438325308263">
        <ele>598.56</ele>
        <time>2016-01-24T23:55:50Z</time>
      </trkpt>
      <trkpt lat="47.46212110854685" lon="-121.6643985081464">
        <ele>591.83</ele>
        <time>2016-01-24T23:56:03Z</time>
      </trkpt>
      <trkpt lat="47.46210333891213" lon="-121.66449691168964">
        <ele>588.95</ele>
        <time>2016-01-24T23:56:19Z</time>
      </trkpt>
      <trkpt lat="47.46215723454952" lon="-121.66479648090899">
        <ele>577.41</ele>
        <time>2016-01-24T23:56:46Z</time>
      </trkpt>
      <trkpt lat="47.462231665849686" lon="-121.66490770876408">
        <ele>568.28</ele>
        <time>2016-01-24T23:57:02Z</time>
      </trkpt>
      <trkpt lat="47.46203343383968" lon="-121.66512588970363">
        <ele>550.49</ele>
        <time>2016-01-24T23:57:39Z</time>
      </trkpt>
      <trkpt lat="47.462103171274066" lon="-121.66517249308527">
        <ele>546.17</ele>
        <time>2016-01-24T23:57:52Z</time>
      </trkpt>
      <trkpt lat="47.46231447905302" lon="-121.66558865457773">
        <ele>536.07</ele>
        <time>2016-01-24T23:58:31Z</time>
      </trkpt>
      <trkpt lat="47.46238782070577" lon="-121.66577942669392">
        <ele>526.46</ele>
        <time>2016-01-24T23:58:55Z</time>
      </trkpt>
      <trkpt lat="47.462570713832974" lon="-121.66591739282012">
        <ele>516.85</ele>
        <time>2016-01-24T23:59:16Z</time>
      </trkpt>
      <trkpt lat="47.462582532316446" lon="-121.66607975028455">
        <ele>516.37</ele>
        <time>2016-01-24T23:59:28Z</time>
      </trkpt>
      <trkpt lat="47.46269568800926" lon="-121.66630639694631">
        <ele>509.16</ele>
        <time>2016-01-24T23:59:49Z</time>
      </trkpt>
      <trkpt lat="47.46270004659891" lon="-121.66651141829789">
        <ele>503.87</ele>
        <time>2016-01-25T00:00:07Z</time>
      </trkpt>
      <trkpt lat="47.46261010877788" lon="-121.66664242744446">
        <ele>496.18</ele>
        <time>2016-01-25T00:00:20Z</time>
      </trkpt>
      <trkpt lat="47.46246200054884" lon="-121.66673907078803">
        <ele>489.93</ele>
        <time>2016-01-25T00:00:33Z</time>
      </trkpt>
      <trkpt lat="47.46240567415953" lon="-121.6670445073396">
        <ele>477.91</ele>
        <time>2016-01-25T00:01:02Z</time>
      </trkpt>
      <trkpt lat="47.462471053004265" lon="-121.66717593558133">
        <ele>475.99</ele>
        <time>2016-01-25T00:01:15Z</time>
      </trkpt>
      <trkpt lat="47.46245076879859" lon="-121.66761975735426">
        <ele>459.17</ele>
        <time>2016-01-25T00:01:58Z</time>
      </trkpt>
      <trkpt lat="47.46256115846336" lon="-121.66809132322669">
        <ele>447.63</ele>
        <time>2016-01-25T00:02:29Z</time>
      </trkpt>
      <trkpt lat="47.462535090744495" lon="-121.66822685860097">
        <ele>438.5</ele>
        <time>2016-01-25T00:02:45Z</time>
      </trkpt>
      <trkpt lat="47.46263508684933" lon="-121.66837588883936">
        <ele>430.81</ele>
        <time>2016-01-25T00:03:00Z</time>
      </trkpt>
      <trkpt lat="47.46256962418556" lon="-121.66860370896757">
        <ele>419.27</ele>
        <time>2016-01-25T00:03:18Z</time>
      </trkpt>
      <trkpt lat="47.46269082650542" lon="-121.66891752742231">
        <ele>405.33</ele>
        <time>2016-01-25T00:03:59Z</time>
      </trkpt>
      <trkpt lat="47.46256618760526" lon="-121.669104360044">
        <ele>399.57</ele>
        <time>2016-01-25T00:04:16Z</time>
      </trkpt>
      <trkpt lat="47.46274447068572" lon="-121.66919664479792">
        <ele>392.84</ele>
        <time>2016-01-25T00:04:33Z</time>
      </trkpt>
      <trkpt lat="47.462538946419954" lon="-121.66937191039324">
        <ele>384.18</ele>
        <time>2016-01-25T00:04:50Z</time>
      </trkpt>
      <trkpt lat="47.462381115183234" lon="-121.66978723369539">
        <ele>374.09</ele>
        <time>2016-01-25T00:05:35Z</time>
      </trkpt>
      <trkpt lat="47.462414810433984" lon="-121.66988488286734">
        <ele>371.69</ele>
        <time>2016-01-25T00:05:57Z</time>
      </trkpt>
      <trkpt lat="47.46227986179292" lon="-121.66992268525064">
        <ele>368.32</ele>
        <time>2016-01-25T00:06:14Z</time>
      </trkpt>
      <trkpt lat="47.4620445817709" lon="-121.66983752511442">
        <ele>364.96</ele>
        <time>2016-01-25T00:06:35Z</time>
      </trkpt>
      <trkpt lat="47.46193637140095" lon="-121.66973585262895">
        <ele>364.96</ele>
        <time>2016-01-25T00:06:46Z</time>
      </trkpt>
      <trkpt lat="47.46190493926406" lon="-121.66987650096416">
        <ele>367.84</ele>
        <time>2016-01-25T00:07:00Z</time>
      </trkpt>
      <trkpt lat="47.46193033643067" lon="-121.67008286342025">
        <ele>361.59</ele>
        <time>2016-01-25T00:07:14Z</time>
      </trkpt>
      <trkpt lat="47.46209847740829" lon="-121.67044621892273">
        <ele>341.41</ele>
        <time>2016-01-25T00:07:42Z</time>
      </trkpt>
      <trkpt lat="47.462085485458374" lon="-121.67060505598783">
        <ele>339.48</ele>
        <time>2016-01-25T00:07:53Z</time>
      </trkpt>
      <trkpt lat="47.46187945827842" lon="-121.67119321413338">
        <ele>340.92</ele>
        <time>2016-01-25T00:08:16Z</time>
      </trkpt>
      <trkpt lat="47.461833944544196" lon="-121.67139580473304">
        <ele>339.96</ele>
        <time>2016-01-25T00:08:25Z</time>
      </trkpt>
      <trkpt lat="47.46169941499829" lon="-121.67152304202318">
        <ele>340.92</ele>
        <time>2016-01-25T00:08:38Z</time>
      </trkpt>
      <trkpt lat="47.46161148883402" lon="-121.67175270617008">
        <ele>341.41</ele>
        <time>2016-01-25T00:08:50Z</time>
      </trkpt>
      <trkpt lat="47.461594976484776" lon="-121.6719921771437">
        <ele>340.92</ele>
        <time>2016-01-25T00:09:02Z</time>
      </trkpt>
      <trkpt lat="47.46177242137492" lon="-121.67221857234836">
        <ele>337.56</ele>
        <time>2016-01-25T00:09:30Z</time>
      </trkpt>
      <trkpt lat="47.461989764124155" lon="-121.67236818931997">
        <ele>332.27</ele>
        <time>2016-01-25T00:09:49Z</time>
      </trkpt>
      <trkpt lat="47.462174417451024" lon="-121.67280983179808">
        <ele>329.39</ele>
        <time>2016-01-25T00:10:09Z</time>
      </trkpt>
      <trkpt lat="47.46226762421429" lon="-121.67311686091125">
        <ele>322.66</ele>
        <time>2016-01-25T00:10:24Z</time>
      </trkpt>
      <trkpt lat="47.46249720454216" lon="-121.67331936769187">
        <ele>315.45</ele>
        <time>2016-01-25T00:10:46Z</time>
      </trkpt>
      <trkpt lat="47.46259242296219" lon="-121.67355506680906">
        <ele>311.6</ele>
        <time>2016-01-25T00:11:02Z</time>
      </trkpt>
      <trkpt lat="47.46275410987437" lon="-121.67361851781607">
        <ele>313.53</ele>
        <time>2016-01-25T00:11:14Z</time>
      </trkpt>
      <trkpt lat="47.46332039125264" lon="-121.67348616756499">
        <ele>302.95</ele>
        <time>2016-01-25T00:11:46Z</time>
      </trkpt>
      <trkpt lat="47.46343379840255" lon="-121.67354291304946">
        <ele>300.07</ele>
        <time>2016-01-25T00:11:53Z</time>
      </trkpt>
      <trkpt lat="47.46379246003926" lon="-121.67357903905213">
        <ele>297.18</ele>
        <time>2016-01-25T00:12:19Z</time>
      </trkpt>
      <trkpt lat="47.46398474089801" lon="-121.67354500852525">
        <ele>295.74</ele>
        <time>2016-01-25T00:12:32Z</time>
      </trkpt>
      <trkpt lat="47.46443233452737" lon="-121.67356437072158">
        <ele>293.34</ele>
        <time>2016-01-25T00:13:04Z</time>
      </trkpt>
      <trkpt lat="47.46486785821617" lon="-121.67333613149822">
        <ele>279.4</ele>
        <time>2016-01-25T00:13:23Z</time>
      </trkpt>
      <trkpt lat="47.4651993624866" lon="-121.67292868718505">
        <ele>263.06</ele>
        <time>2016-01-25T00:13:52Z</time>
      </trkpt>
      <trkpt lat="47.46540103107691" lon="-121.67277798056602">
        <ele>256.33</ele>
        <time>2016-01-25T00:14:08Z</time>
      </trkpt>
      <trkpt lat="47.4659644626081" lon="-121.67264487594366">
        <ele>264.5</ele>
        <time>2016-01-25T00:14:40Z</time>
      </trkpt>
      <trkpt lat="47.466096729040146" lon="-121.67258745990694">
        <ele>266.9</ele>
        <time>2016-01-25T00:14:51Z</time>
      </trkpt>
      <trkpt lat="47.46630376204848" lon="-121.67242300696671">
        <ele>264.98</ele>
        <time>2016-01-25T00:15:06Z</time>
      </trkpt>
      <trkpt lat="47.46683735400438" lon="-121.67236894369125">
        <ele>260.17</ele>
        <time>2016-01-25T00:15:38Z</time>
      </trkpt>
      <trkpt lat="47.46715192683041" lon="-121.67241889983416">
        <ele>256.81</ele>
        <time>2016-01-25T00:15:54Z</time>
      </trkpt>
      <trkpt lat="47.46739827096462" lon="-121.67255728505552">
        <ele>257.29</ele>
        <time>2016-01-25T00:16:08Z</time>
      </trkpt>
      <trkpt lat="47.467463901266456" lon="-121.67271268554032">
        <ele>258.25</ele>
        <time>2016-01-25T00:16:16Z</time>
      </trkpt>
      <trkpt lat="47.46747714467347" lon="-121.67309154756367">
        <ele>257.77</ele>
        <time>2016-01-25T00:16:30Z</time>
      </trkpt>
      <trkpt lat="47.46755249798298" lon="-121.67344132438302">
        <ele>253.93</ele>
        <time>2016-01-25T00:16:44Z</time>
      </trkpt>
      <trkpt lat="47.467498602345586" lon="-121.6740573104471">
        <ele>250.08</ele>
        <time>2016-01-25T00:17:14Z</time>
      </trkpt>
      <trkpt lat="47.46737798675895" lon="-121.67422017082572">
        <ele>248.16</ele>
        <time>2016-01-25T00:18:11Z</time>
      </trkpt>
      <trkpt lat="47.467434983700514" lon="-121.67428596876562">
        <ele>249.6</ele>
        <time>2016-01-25T00:18:57Z</time>
      </trkpt>
    </trkseg>
  </trk>
</gpx>