{"type": "Feature", "properties": {}, "geometry": {"type": "LineString", "coordinates": [[-121.3495923299, 48.2692722324, 305.84], [-121.3495586347, 48.2692355197, 312.57], [-121.34955897, 48.269272903, 305.84], [-121.3496537693, 48.2692918461, 303.91], [-121.3496616483, 48.2692604978, 302.95], [-121.349544134, 48.2691901736, 310.16], [-121.3495015539, 48.2691982202, 306.32], [-121.349388482, 48.2691728231, 305.84], [-121.3492646813, 48.269201573, 304.88], [-121.3492408767, 48.2692177501, 305.84], [-121.3494075928, 48.2692040037, 311.6], [-121.3495391048, 48.2692016568, 311.12], [-121.3496047352, 48.2692340109, 311.12], [-121.34942092, 48.2692403812, 310.16], [-121.3492431398, 48.2692215219, 311.6], [-121.3491599075, 48.2693300676, 315.45], [-121.3491619192, 48.2694616634, 317.37], [-121.3491451554, 48.2695148885, 317.85], [-121.349058738, 48.2696315646, 321.22], [-121.348956814, 48.2696372643, 324.58], [-121.3488040119, 48.2696819399, 334.68], [-121.3489668723, 48.2697924972, 330.35], [-121.3489423972, 48.2698085904, 330.35], [-121.3486156706, 48.2698634919, 338.04], [-121.3484388962, 48.2699131966, 345.73], [-121.3484694902, 48.2699483167, 350.06], [-121.348613156, 48.2700419426, 346.69], [-121.3488154951, 48.2700893003, 351.98], [-121.3490113802, 48.2701777294, 359.19], [-121.3492641784, 48.2701962534, 362.07], [-121.349464925, 48.2701597083, 356.79], [-121.3497503288, 48.2702700142, 346.69], [-121.3497789949, 48.2703015301, 345.73], [-121.3497512508, 48.2703244127, 347.65], [-121.3496258575, 48.2703309506, 354.86], [-121.3494441379, 48.270356264, 364.48], [-121.3493117876, 48.2703499775, 373.61], [-121.3492500968, 48.270306224, 383.22], [-121.3491588179, 48.2703239098, 387.55], [-121.3491526153, 48.2703104988, 388.99], [-121.3490511104, 48.2703294419, 388.99], [-121.349031413, 48.2702856045, 373.61], [-121.3489775173, 48.2703026198, 364.0], [-121.3489156589, 48.2703446969, 359.67], [-121.3488676306, 48.2704484649, 358.23], [-121.3488258887, 48.2704192959, 355.34], [-121.3488048501, 48.2703758776, 358.23], [-121.3486236334, 48.2703567669, 362.07], [-121.3484861702, 48.2703795657, 365.44], [-121.3483265787, 48.2703813259, 372.65], [-121.3480232377, 48.2704586908, 381.3], [-121.3478385005, 48.2705879398, 394.28], [-121.3477810007, 48.27066103, 403.41], [-121.3476021308, 48.270604033, 409.66], [-121.34753583, 48.2706194557, 409.66], [-121.3474233449, 48.2705951482, 409.18], [-121.3473235164, 48.270679554, 410.14], [-121.3472738955, 48.2706907857, 411.58], [-121.3470746577, 48.2708181068, 413.02], [-121.3469174132, 48.2707726769, 415.43], [-121.3466661237, 48.2707456034, 429.37], [-121.3466496952, 48.270778209, 427.44], [-121.3467668742, 48.270872673, 427.92], [-121.3466834743, 48.2710163388, 420.23], [-121.3466716558, 48.2710932009, 414.95], [-121.3467204385, 48.271258492, 413.02], [-121.3467895053, 48.2713760063, 414.47], [-121.3469963707, 48.2714534551, 415.91], [-121.3470695447, 48.2714751642, 418.31], [-121.347178258, 48.2715470809, 419.27], [-121.3472821936, 48.2715926785, 421.68], [-121.3478454575, 48.2717455644, 416.87], [-121.3479908835, 48.2718007173, 417.83], [-121.348029105, 48.2718531881, 420.71], [-121.3481322862, 48.2718882244, 424.08], [-121.3482995052, 48.2719017193, 426.48], [-121.3484230544, 48.2718826085, 429.85], [-121.3485854957, 48.271929631, 434.65], [-121.3486020081, 48.271978749, 441.86], [-121.3485703245, 48.271995848, 449.55], [-121.3483998366, 48.272006996, 466.86], [-121.3483013492, 48.2719848678, 477.91], [-121.3482430112, 48.2720229216, 489.93], [-121.3480553403, 48.2719864603, 497.14], [-121.3478149474, 48.2720070798, 491.85], [-121.3477582857, 48.2720225863, 492.81], [-121.3475486543, 48.2720599696, 493.77], [-121.3474111073, 48.272011606, 506.75], [-121.3471563812, 48.2720274478, 506.75], [-121.3468305767, 48.2721520867, 501.95], [-121.3466421515, 48.2723193895, 492.33], [-121.3464014232, 48.272267757, 471.66], [-121.3464310952, 48.2723186351, 463.01], [-121.3464832306, 48.2723690104, 458.21], [-121.3464625273, 48.2723702677, 456.76], [-121.346458504, 48.2724229898, 458.21], [-121.3463879284, 48.2724610437, 456.28], [-121.3461545762, 48.272384014, 462.05], [-121.3460721821, 48.2724357303, 468.3], [-121.3458972517, 48.272397425, 484.64], [-121.3458512351, 48.2723547611, 494.74], [-121.3457731996, 48.2724222355, 504.83], [-121.3456483092, 48.2724736165, 512.04], [-121.345614614, 48.27244143, 516.37], [-121.345482599, 48.27234881, 523.58], [-121.3452484086, 48.2723667473, 516.37], [-121.3450428005, 48.2724151108, 509.16], [-121.3448671997, 48.2724496443, 506.27], [-121.3446457498, 48.272505803, 500.5], [-121.3446036726, 48.2725639734, 499.06], [-121.344499737, 48.2726047095, 494.26], [-121.3447384536, 48.2728680689, 490.41], [-121.3448191714, 48.273006957, 492.33], [-121.3448401261, 48.273060685, 497.14], [-121.3449491747, 48.273082478, 498.1], [-121.3450549543, 48.2730751019, 503.39], [-121.3452224247, 48.2730437536, 508.67], [-121.3453867938, 48.2731284108, 512.52], [-121.3454797491, 48.2731083781, 517.33], [-121.3456939906, 48.2730818074, 518.77], [-121.3457710203, 48.2730416581, 521.65], [-121.3460006006, 48.2730168477, 523.58], [-121.3461906184, 48.2730087172, 523.58], [-121.3463225495, 48.2730269898, 523.58], [-121.3464769442, 48.2730759401, 519.25], [-121.346925376, 48.2731269859, 522.13], [-121.3471047487, 48.2730987389, 526.94], [-121.347216228, 48.2731581666, 532.23], [-121.3474276196, 48.2732399739, 534.15], [-121.347522838, 48.273244584, 538.96], [-121.3475735486, 48.2732808776, 537.03], [-121.3476612233, 48.2732844818, 533.67], [-121.3476735447, 48.2733931951, 532.71], [-121.3475152943, 48.2734890003, 538.96], [-121.3474645838, 48.2734904252, 544.72], [-121.347328797, 48.2734683808, 553.86], [-121.3471435569, 48.2735270541, 553.38], [-121.3472490013, 48.2735988032, 550.49], [-121.3473331556, 48.273630403, 550.49], [-121.3473833632, 48.2737448998, 550.01], [-121.3474816829, 48.2737656869, 552.9], [-121.3475779071, 48.2738173194, 557.22], [-121.3475578744, 48.2738924213, 559.14], [-121.3475700282, 48.2739545312, 558.66], [-121.347525185, 48.2741199061, 557.22], [-121.3475508336, 48.2741530146, 556.74], [-121.3476409391, 48.2741526794, 557.7], [-121.3475869596, 48.2742017973, 552.9], [-121.3476162124, 48.2742310502, 552.9], [-121.3476868719, 48.2742493227, 553.38], [-121.3477521669, 48.2742943335, 555.78], [-121.3477789052, 48.27435527, 559.14], [-121.3478286937, 48.2743473072, 562.03], [-121.3479264267, 48.2743634004, 566.83], [-121.3479747903, 48.2744219061, 567.32], [-121.3479467109, 48.2744949125, 565.87], [-121.3479754608, 48.2746018656, 561.55], [-121.3479643967, 48.2747120038, 561.55], [-121.3479816634, 48.2747527398, 561.55], [-121.3479867764, 48.2748563401, 561.07], [-121.3480353914, 48.2748835813, 561.55], [-121.3481000997, 48.27487587, 562.51], [-121.3481306098, 48.2749289274, 563.47], [-121.3482744433, 48.2749889418, 564.43], [-121.3484153431, 48.2750853337, 567.8], [-121.3485186081, 48.2750950567, 573.56], [-121.3486309256, 48.2751523051, 581.25], [-121.3487138227, 48.2751691528, 587.5], [-121.3489273936, 48.2752513792, 589.43], [-121.3491155673, 48.2753854059, 593.27], [-121.3492989633, 48.2754739188, 599.52], [-121.3493678626, 48.2754731644, 601.92], [-121.3494947646, 48.2754532155, 599.52], [-121.3496127818, 48.2754171733, 596.15], [-121.3496334851, 48.2754532155, 590.87], [-121.3496240135, 48.2755266409, 593.27], [-121.3496784121, 48.2756133936, 595.67], [-121.3497147895, 48.2757798582, 605.77], [-121.3496852852, 48.2758723944, 607.21], [-121.3497054018, 48.2759767491, 610.09], [-121.3496777415, 48.2761473209, 610.09], [-121.3496758137, 48.2762426231, 612.5], [-121.3496556971, 48.2763162162, 617.3], [-121.3497224171, 48.2763403561, 620.19], [-121.3498602156, 48.2762701996, 625.96], [-121.3499209005, 48.276198199, 625.96], [-121.349952165, 48.276188476, 626.92], [-121.3499918953, 48.2760336623, 623.07], [-121.3501641434, 48.275952274, 622.11], [-121.3503376488, 48.2758854702, 620.19], [-121.3504843321, 48.2758999709, 617.78], [-121.3505030237, 48.2759868912, 620.19], [-121.3505877648, 48.2761148829, 622.11], [-121.3506196998, 48.276205156, 628.84], [-121.3505798858, 48.2763017993, 634.13], [-121.3506897725, 48.276330214, 641.34], [-121.35074744, 48.276327448, 639.89], [-121.3508968055, 48.2761915773, 637.97], [-121.3509773556, 48.2762487419, 637.49], [-121.3511414733, 48.2762720436, 639.41], [-121.351340292, 48.2763572875, 639.41], [-121.3515711296, 48.2764504943, 643.26], [-121.3516867161, 48.2764378376, 649.99], [-121.3517327327, 48.2764787413, 651.91], [-121.3517554477, 48.2764440402, 652.39], [-121.3517871313, 48.2765027974, 649.03], [-121.3519102614, 48.2765207347, 649.99], [-121.3520707749, 48.2765980996, 650.95], [-121.3522928953, 48.2766406797, 655.28], [-121.3524975814, 48.2766619697, 661.04], [-121.3526762836, 48.2767249178, 666.33], [-121.3528250623, 48.2767054718, 668.73], [-121.3530591689, 48.2768736128, 672.1], [-121.353090601, 48.2769399136, 677.39], [-121.3530214503, 48.2769306935, 685.56], [-121.3528970629, 48.2769532409, 690.84], [-121.3527236413, 48.2769524027, 694.69], [-121.3523843419, 48.2769937254, 697.09], [-121.3521732856, 48.2770293485, 699.02], [-121.3520125207, 48.2770715933, 697.57], [-121.3519462198, 48.2770478725, 706.71], [-121.3518958446, 48.2770748623, 709.59], [-121.3518074155, 48.2770792209, 711.03], [-121.3516772445, 48.2771172747, 706.23], [-121.3515674416, 48.2771923766, 705.26], [-121.3515199162, 48.2773281634, 698.53], [-121.3513926789, 48.2774151675, 701.9], [-121.3512933534, 48.2774239685, 708.15], [-121.3512778468, 48.2774579152, 711.51], [-121.3510788605, 48.2775134873, 708.63], [-121.3510426506, 48.2775340229, 697.57], [-121.351133259, 48.2775180973, 698.05], [-121.3514878973, 48.2775030937, 699.98], [-121.3517399412, 48.2775341067, 704.78], [-121.3519358262, 48.2775408961, 707.19], [-121.3520059828, 48.2774999924, 705.75], [-121.3520167116, 48.2774786185, 706.23], [-121.3521576952, 48.2773391437, 711.03], [-121.3523133472, 48.2774525508, 711.99], [-121.3523078989, 48.2775720768, 714.88], [-121.3522519916, 48.2777097076, 714.4], [-121.3523326255, 48.277691016, 716.8], [-121.3525428437, 48.2775859069, 721.13], [-121.3526863419, 48.2776186801, 719.2], [-121.3527773693, 48.2775902655, 720.16], [-121.3529693149, 48.2777026668, 716.8], [-121.3530185167, 48.2777813729, 709.11], [-121.3529751822, 48.2777955383, 694.69], [-121.3529529702, 48.2778647728, 691.33], [-121.3531641103, 48.2779122982, 718.72], [-121.3532680459, 48.2779233623, 730.74], [-121.353334263, 48.2779583987, 742.76], [-121.3534698822, 48.2779588178, 757.66], [-121.3534744922, 48.2779953629, 765.35], [-121.353591755, 48.2780147251, 774.96], [-121.3537293021, 48.2779960334, 782.17], [-121.3538401946, 48.2780159824, 786.98], [-121.3539037295, 48.2780568022, 794.19], [-121.3538962696, 48.2780950237, 798.03], [-121.3539306354, 48.2781364303, 806.2], [-121.354186954, 48.2782491669, 802.84], [-121.354348138, 48.2782985363, 801.4], [-121.3545135967, 48.2783598918, 797.55], [-121.3546273392, 48.2784130331, 788.9], [-121.3549212087, 48.2785314694, 773.52], [-121.3550290838, 48.2785930764, 765.83], [-121.3552056905, 48.2786654122, 765.83], [-121.3552909344, 48.2786780689, 777.84], [-121.3554542139, 48.2786710281, 802.36], [-121.3556817826, 48.2786799129, 807.16], [-121.3558510132, 48.2787230797, 803.8], [-121.3561317232, 48.2787577808, 785.53], [-121.3559642527, 48.278697012, 796.59], [-121.3558212575, 48.2786776498, 805.24], [-121.3557801023, 48.2786143664, 817.26], [-121.3555782661, 48.2785781566, 819.18], [-121.3551727496, 48.2786689326, 812.93], [-121.3549448457, 48.2786725368, 805.72], [-121.3548734318, 48.2786842715, 801.4], [-121.3547078893, 48.2787889615, 794.67], [-121.3545371499, 48.2787747122, 798.99], [-121.3544446137, 48.2787121832, 809.09], [-121.3542859443, 48.2786761411, 814.37], [-121.3540807553, 48.2786221616, 817.74], [-121.3539014664, 48.278606236, 821.58], [-121.3537234347, 48.2786333095, 826.39], [-121.3535150606, 48.2786115166, 833.6], [-121.3533433154, 48.2786957547, 832.16], [-121.3531413116, 48.2788262609, 823.99], [-121.3529465999, 48.2789376564, 815.82], [-121.3529212866, 48.2790069748, 816.78], [-121.3528410718, 48.279014267, 823.51], [-121.3527182769, 48.2789721061, 838.41], [-121.3526342064, 48.2789625507, 846.1], [-121.3524963241, 48.2789685857, 851.38], [-121.3524110802, 48.2790153567, 858.11], [-121.3522960804, 48.2789907977, 868.69], [-121.3520803303, 48.2789884508, 867.73], [-121.3518971857, 48.279080987, 866.77], [-121.3517387677, 48.2791299373, 865.8], [-121.3516143803, 48.2791879401, 865.32], [-121.3515026495, 48.2792664785, 866.77], [-121.3512066007, 48.2794402353, 857.63], [-121.3510918524, 48.2795217074, 843.69], [-121.3510543015, 48.2796157524, 836.0], [-121.3508726656, 48.2797021698, 832.64], [-121.3506644592, 48.2797821332, 838.89], [-121.3505097292, 48.2797885872, 840.81], [-121.3504721783, 48.2798408903, 837.45], [-121.3503775466, 48.2798793633, 843.69], [-121.3502033707, 48.2799076103, 850.42], [-121.3501068112, 48.2799900044, 854.27], [-121.3499537576, 48.2799740788, 862.92], [-121.3498308789, 48.279993441, 866.29], [-121.3498398475, 48.2800896652, 861.48], [-121.3497987762, 48.2801318262, 860.52], [-121.3498363271, 48.2801752444, 866.29], [-121.3499856927, 48.2802267093, 876.86], [-121.3500496466, 48.2802113704, 889.84], [-121.3502888661, 48.2801892422, 904.26], [-121.3503410015, 48.2802319061, 908.1], [-121.3503604475, 48.2801371068, 913.39], [-121.3502036221, 48.2801951934, 914.35], [-121.3499341439, 48.2803359255, 906.18], [-121.3498992752, 48.2803457323, 904.74], [-121.3497206569, 48.2803346682, 901.37], [-121.3495795056, 48.280342631, 899.93], [-121.3494195789, 48.2803793438, 900.89], [-121.3491722289, 48.2804267853, 905.22], [-121.3490916789, 48.2804207504, 915.79], [-121.3489522878, 48.2805343252, 911.47], [-121.3489682134, 48.2805810124, 913.87], [-121.3490343466, 48.2805608958, 922.04], [-121.3493225165, 48.2806244306, 921.08], [-121.3494935073, 48.2806526776, 921.08], [-121.3496293779, 48.2806830201, 919.16], [-121.3498659153, 48.2807228342, 918.68], [-121.3500755467, 48.280777568, 912.43], [-121.3502545841, 48.280818807, 909.06], [-121.350502437, 48.2809213176, 905.7], [-121.3506501261, 48.280967921, 908.1], [-121.3509411458, 48.2810288575, 912.91], [-121.3510044292, 48.2810766343, 919.64], [-121.3510400523, 48.2810715213, 926.85], [-121.3508853223, 48.2811416779, 926.85], [-121.3509345241, 48.2811004389, 930.69], [-121.3510343526, 48.2810436934, 937.9], [-121.3512014877, 48.2809898816, 940.79], [-121.3514057547, 48.2809644844, 942.71], [-121.3514453173, 48.2809251733, 949.44], [-121.3515791763, 48.2808907237, 957.13], [-121.3518704474, 48.2808327209, 970.11], [-121.3520665839, 48.2808267698, 970.59], [-121.3522047177, 48.2808582857, 971.07], [-121.3524161931, 48.2808444556, 965.78], [-121.3526628725, 48.2808939926, 960.98], [-121.3529545628, 48.2809476368, 971.55], [-121.3530693948, 48.280953085, 972.03], [-121.35332915, 48.2810223196, 971.07], [-121.3536432199, 48.2811660692, 963.38], [-121.3538314775, 48.2811933942, 961.46], [-121.3540387619, 48.2811886165, 962.42], [-121.3541727047, 48.2812426798, 967.22], [-121.3542779814, 48.2813172787, 967.22], [-121.3544406742, 48.2813776284, 966.26], [-121.3545938116, 48.2814568374, 966.26], [-121.3548031915, 48.2815309335, 969.15], [-121.3548901957, 48.2815415785, 978.28], [-121.3551147468, 48.2815933786, 985.49], [-121.3553515356, 48.2816755213, 986.45], [-121.3556554634, 48.2817601785, 997.51], [-121.3558378536, 48.281853972, 1000.87], [-121.3560094312, 48.2819599193, 999.91], [-121.3560459763, 48.2820978016, 993.18], [-121.3562427834, 48.282181453, 985.97], [-121.3563559391, 48.2822561357, 986.45], [-121.3564848527, 48.2822848018, 993.66], [-121.3567809016, 48.2823630888, 994.62], [-121.3569559157, 48.2824525237, 991.74], [-121.3571877591, 48.2825432159, 994.62], [-121.3573726639, 48.2825748995, 995.1], [-121.3574545551, 48.2827059925, 989.33], [-121.3575611729, 48.2827767357, 989.33], [-121.357799219, 48.2828585431, 984.05], [-121.3581032306, 48.2830431126, 992.22], [-121.3581960183, 48.2830848545, 996.54], [-121.3582922425, 48.2831985969, 998.47], [-121.3584632333, 48.2833545003, 998.95], [-121.3585182186, 48.2834276743, 1002.79], [-121.3586415164, 48.2835228089, 1008.08], [-121.3588182069, 48.283608472, 1011.93], [-121.3588741142, 48.283679802, 1019.13], [-121.3589924667, 48.2837512158, 1030.67], [-121.359088188, 48.2839481905, 1023.46], [-121.3591782935, 48.2840973884, 1025.38], [-121.359360097, 48.2841583248, 1026.83], [-121.3595009968, 48.2842357736, 1033.55], [-121.3595657051, 48.2843226101, 1033.55], [-121.3596731611, 48.2843866479, 1037.4], [-121.3597082812, 48.2844894938, 1043.65], [-121.3598307408, 48.2845469937, 1047.97], [-121.3599697128, 48.2846303098, 1051.34], [-121.3600323256, 48.2846451458, 1058.07], [-121.3600921724, 48.2847346645, 1059.51], [-121.360078007, 48.2848000433, 1060.95], [-121.3600320742, 48.2848647516, 1056.63], [-121.360246148, 48.2848714571, 1050.38], [-121.3602211699, 48.2849885523, 1035.48], [-121.3601960242, 48.2852014527, 1030.19], [-121.3603400253, 48.2853415143, 1025.38], [-121.3604571205, 48.2853340544, 1022.5], [-121.3605635706, 48.2853689231, 1018.65], [-121.3605607208, 48.2854933105, 1015.29], [-121.3606618904, 48.2856132556, 1014.33], [-121.3608308695, 48.2856903691, 1013.85], [-121.3609614596, 48.2857384812, 1015.77], [-121.3610620424, 48.285848368, 1016.25], [-121.360982582, 48.285840489, 1015.29], [-121.3609085698, 48.2857665606, 1018.65], [-121.3607897982, 48.2857212983, 1024.9], [-121.3606551848, 48.2856937218, 1025.38], [-121.3605174702, 48.2856388204, 1033.07], [-121.3603209984, 48.2856221404, 1036.92], [-121.3601297233, 48.2856248226, 1038.84], [-121.3600406237, 48.2856090646, 1039.32], [-121.3597887475, 48.2855956536, 1039.32], [-121.3596056867, 48.2856037002, 1040.76], [-121.3594844006, 48.2854394987, 1044.13], [-121.3592291716, 48.2854781393, 1044.61], [-121.3590576779, 48.2854180411, 1045.09], [-121.3588411734, 48.2853573561, 1049.42], [-121.3586658239, 48.2852524985, 1050.86], [-121.3584803324, 48.2852148637, 1054.22], [-121.3583054859, 48.2852347288, 1059.03], [-121.3581618201, 48.2851732895, 1059.51], [-121.3579438906, 48.2850887161, 1062.87], [-121.3577310741, 48.2850692701, 1064.8], [-121.3575993944, 48.2850446273, 1066.24], [-121.3573899306, 48.2850636542, 1070.57], [-121.3572171796, 48.2849448826, 1077.29], [-121.3569078874, 48.284946559, 1074.89], [-121.3567164447, 48.2849178091, 1077.78], [-121.3565219007, 48.2848668471, 1082.58], [-121.3563545141, 48.284854861, 1081.62], [-121.3561930787, 48.2847823575, 1088.83], [-121.3560088445, 48.2847101055, 1090.75], [-121.3557825331, 48.284673309, 1096.04], [-121.3556552958, 48.2846381888, 1100.85], [-121.3555216044, 48.2846220955, 1102.29], [-121.3553584088, 48.2845883165, 1103.25], [-121.3552498631, 48.2845900767, 1101.33], [-121.3548789639, 48.2846188266, 1097.48], [-121.3546487968, 48.2846205868, 1096.52], [-121.35444168, 48.2846695371, 1098.44], [-121.3543001097, 48.2846591435, 1097.48], [-121.3542141113, 48.284682529, 1106.61], [-121.3541443739, 48.2846756559, 1108.54], [-121.3539391011, 48.2846940961, 1114.31], [-121.3538907375, 48.2846199162, 1118.63], [-121.3538044039, 48.2847007178, 1118.15], [-121.353683956, 48.2847361732, 1116.23], [-121.3535742369, 48.2846844569, 1118.63], [-121.353387069, 48.2846414577, 1116.23], [-121.3532770146, 48.2846695371, 1115.27], [-121.3531006593, 48.2846362609, 1109.02], [-121.3528903574, 48.2846239395, 1104.21], [-121.352444021, 48.284637602, 1108.54], [-121.3522659894, 48.2846166473, 1109.98], [-121.3521606289, 48.2845847961, 1111.9], [-121.3518101815, 48.284664508, 1115.27], [-121.3516776636, 48.2847160567, 1120.07], [-121.351538524, 48.2848174777, 1120.55], [-121.3515080139, 48.2848318946, 1120.55], [-121.351325037, 48.2848765701, 1126.32], [-121.3510692213, 48.2848898973, 1145.07], [-121.3508600928, 48.2848504186, 1147.47], [-121.3506787922, 48.2848433778, 1153.72], [-121.3505815621, 48.2848490775, 1153.72], [-121.3504585158, 48.2848842815, 1157.08], [-121.3503350504, 48.2848676015, 1158.05], [-121.3502324559, 48.2848246023, 1154.2], [-121.3500438631, 48.2847606484, 1144.59], [-121.3499307912, 48.2847453933, 1144.59], [-121.3497470599, 48.2847761549, 1144.59], [-121.3496159669, 48.2847841177, 1146.99], [-121.3493117876, 48.2848369237, 1150.35], [-121.3491401263, 48.2848463114, 1150.35], [-121.3490267191, 48.2847814355, 1151.32], [-121.348981373, 48.2848288771, 1134.49], [-121.3490292337, 48.2848130353, 1134.97], [-121.3490084466, 48.2846822776, 1152.76], [-121.3489674591, 48.2847115304, 1152.76], [-121.3489505276, 48.2846813556, 1152.76], [-121.3490814529, 48.2847220078, 1152.76], [-121.3490344305, 48.2847396936, 1153.72], [-121.3488542195, 48.2847123686, 1159.97], [-121.3486844022, 48.2847499195, 1164.77], [-121.3485420775, 48.2847179007, 1167.66], [-121.3484248146, 48.2847549487, 1168.14], [-121.3482955657, 48.2847406156, 1169.1], [-121.3481557555, 48.2847075071, 1170.06], [-121.347945286, 48.2847215049, 1169.58], [-121.3478669152, 48.284715889, 1170.06], [-121.3478045538, 48.284740448, 1171.02], [-121.3478529174, 48.2847759873, 1170.06], [-121.3479008619, 48.2848987821, 1170.06], [-121.3480510656, 48.2850423642, 1168.62], [-121.3481872715, 48.2850511651, 1167.18], [-121.3483289257, 48.2850137819, 1170.54], [-121.3483482879, 48.2849695254, 1176.31], [-121.3483920414, 48.2850316353, 1177.75], [-121.3485272415, 48.2849794161, 1181.6], [-121.3485459331, 48.2849801704, 1181.12], [-121.3485757727, 48.2849111874, 1178.23], [-121.3486469351, 48.2849656697, 1175.83], [-121.3486618549, 48.2849994488, 1175.35], [-121.3486012537, 48.2850060705, 1175.35], [-121.3485721685, 48.2849227544, 1184.48], [-121.3485754374, 48.2848626561, 1184.96], [-121.3486669678, 48.2849267777, 1186.88], [-121.3487052731, 48.2849221677, 1184.0], [-121.3487165887, 48.2850218285, 1182.08], [-121.3489201851, 48.2851743791, 1180.64], [-121.3490724843, 48.2852430269, 1182.08], [-121.3491426408, 48.2852903847, 1185.92], [-121.3491387852, 48.2853151951, 1183.52], [-121.3492136355, 48.2852872834, 1188.33], [-121.3492955267, 48.2852782309, 1194.09], [-121.3492756616, 48.2853173744, 1197.46], [-121.3493545353, 48.2853561826, 1196.98], [-121.3494774979, 48.2853330486, 1196.02], [-121.3496417832, 48.285513008, 1192.17], [-121.3499317132, 48.2856294326, 1195.06], [-121.3500493113, 48.2857281715, 1196.02], [-121.3502527401, 48.2858417463, 1197.94], [-121.3503265847, 48.2857503835, 1196.98], [-121.3503879402, 48.28588726, 1198.42], [-121.3505047839, 48.2859689835, 1198.9], [-121.3506356254, 48.2860195264, 1204.67], [-121.3507972285, 48.2861636113, 1212.84], [-121.3508747611, 48.2862455864, 1219.57], [-121.3509839773, 48.2862999849, 1220.05], [-121.3511916809, 48.2863309979, 1222.93], [-121.3513186667, 48.2863000687, 1227.74], [-121.351388488, 48.286408782, 1228.22], [-121.3515321538, 48.2864796091, 1225.82], [-121.351692751, 48.286591759, 1230.62], [-121.3517744746, 48.2867055014, 1231.11], [-121.3517785817, 48.2867535297, 1231.11], [-121.3518125284, 48.2868415397, 1232.07], [-121.3519036397, 48.2869261969, 1233.51], [-121.3520040549, 48.2869260293, 1220.05], [-121.3520502392, 48.2869762369, 1221.01], [-121.3522162847, 48.2870717067, 1223.42], [-121.3523016125, 48.2871710323, 1228.22], [-121.3523753732, 48.2872797456, 1229.66], [-121.3522814121, 48.2872774825, 1232.07], [-121.3523803186, 48.2872974314, 1233.51], [-121.3523334637, 48.2873050589, 1238.8], [-121.3523181248, 48.2872546837, 1236.39], [-121.3525221404, 48.2872020453, 1235.91], [-121.3525087293, 48.2873020414, 1237.83], [-121.3524632156, 48.287345795, 1235.91], [-121.3522664085, 48.2873597927, 1243.12], [-121.3521826733, 48.2873436995, 1245.04], [-121.3521134388, 48.2873487286, 1244.56], [-121.3520908915, 48.2873903029, 1245.53], [-121.3518193178, 48.2873015385, 1246.97], [-121.3517236803, 48.2873333897, 1248.41], [-121.351709431, 48.2874370739, 1246.49], [-121.3516605645, 48.2874475513, 1247.45], [-121.3516154699, 48.2874975912, 1246.97], [-121.3515770808, 48.2874788158, 1248.41], [-121.3515212573, 48.2875369024, 1251.29], [-121.3514905795, 48.2875350583, 1255.62], [-121.3514279667, 48.2875667419, 1263.31], [-121.3513473328, 48.2877222262, 1267.16], [-121.3513188343, 48.2876789756, 1271.96], [-121.3512414694, 48.287645448, 1274.85], [-121.3511106279, 48.2876414247, 1276.29], [-121.3510678802, 48.2876528241, 1279.65], [-121.3510294911, 48.2876358926, 1286.86], [-121.3510296587, 48.2876909617, 1289.27], [-121.350887334, 48.2877031155, 1287.82], [-121.350840563, 48.2876985054, 1286.86], [-121.3507920317, 48.2877280097, 1287.34], [-121.3507396448, 48.287727423, 1285.42], [-121.3507533073, 48.2877729367, 1286.38], [-121.3505942188, 48.2877675723, 1285.42], [-121.3504398242, 48.2877417561, 1287.34], [-121.3503518142, 48.2877406664, 1289.27], [-121.3502215594, 48.2877550833, 1291.67], [-121.3503026124, 48.2877956517, 1292.63], [-121.3503983337, 48.2878783811, 1302.24], [-121.350342175, 48.2879051194, 1306.09], [-121.3503307756, 48.287967816, 1307.53], [-121.3502338808, 48.2880046126, 1311.38], [-121.3502073102, 48.2880003378, 1315.22], [-121.3501913846, 48.2880544011, 1315.22], [-121.3501038775, 48.2880610228, 1324.83], [-121.3501585275, 48.2881003339, 1329.16], [-121.3501487207, 48.2881688979, 1331.08], [-121.3501757942, 48.2881958876, 1325.8], [-121.3501987606, 48.2881574146, 1327.72], [-121.3502247445, 48.2882178482, 1328.2], [-121.350175878, 48.2882427424, 1325.31], [-121.3501781411, 48.2883382123, 1322.43], [-121.3502056338, 48.2883579936, 1327.72], [-121.3502853457, 48.2884825487, 1328.2], [-121.3503183704, 48.2885090355, 1331.56], [-121.350232875, 48.2885091193, 1341.18], [-121.3502865192, 48.2885566447, 1350.79], [-121.3502047118, 48.2885160763, 1355.6], [-121.3501233235, 48.2885700557, 1358.0], [-121.3497680146, 48.2885823771, 1363.29], [-121.3497249316, 48.2886049245, 1361.36], [-121.3496732153, 48.2885915972, 1364.25], [-121.3496220019, 48.2886308245, 1361.36], [-121.3496347424, 48.2885832991, 1363.29], [-121.3495577965, 48.2885366119, 1362.81], [-121.3495484088, 48.2885136455, 1379.63], [-121.3495246042, 48.2885662001, 1379.63], [-121.3494414557, 48.2886218559, 1383.96], [-121.3495406136, 48.2886630949, 1382.99], [-121.3494567107, 48.2886864804, 1384.92], [-121.3493947685, 48.2887673657, 1386.36], [-121.3493259531, 48.2887370232, 1386.36], [-121.3492621668, 48.2887578104, 1385.4], [-121.3493186608, 48.2888211776, 1383.96], [-121.3493291382, 48.2888618298, 1383.47], [-121.3492916711, 48.2888610754, 1385.88], [-121.3491648529, 48.288949253, 1403.66], [-121.3491004799, 48.2889326569, 1406.55], [-121.3490056805, 48.2890239358, 1413.76], [-121.3489597477, 48.2890446391, 1416.16], [-121.3489262201, 48.2890925836, 1418.08], [-121.3488615956, 48.289103061, 1417.12], [-121.3488323428, 48.2890783343, 1417.12], [-121.3487621024, 48.2891101018, 1420.97], [-121.3487361185, 48.2891518436, 1422.89], [-121.3487682212, 48.2892068289, 1426.25], [-121.3487610966, 48.2892574556, 1432.02], [-121.3487003278, 48.2893127762, 1439.71], [-121.3486077916, 48.2893238403, 1444.52], [-121.3485597633, 48.2893830165, 1447.88], [-121.3484236412, 48.289390225, 1445.96], [-121.3483421691, 48.2894157898, 1445.48], [-121.3482806459, 48.2894590404, 1447.4], [-121.3483238965, 48.2895046379, 1449.32], [-121.3483607769, 48.2896048855, 1451.25], [-121.3482850883, 48.2896600384, 1451.25], [-121.3482070528, 48.2897600345, 1453.65], [-121.3482980803, 48.2899378985, 1460.38], [-121.3482785504, 48.2899482083, 1465.67], [-121.3482999243, 48.2900532335, 1469.99], [-121.3482821546, 48.2901429199, 1470.95], [-121.3483039476, 48.2902232185, 1467.59], [-121.3482182845, 48.2902766112, 1466.15], [-121.3482607808, 48.2903041877, 1461.34], [-121.3483421691, 48.2903027628, 1462.78], [-121.3482931349, 48.2903181855, 1465.67], [-121.3482762035, 48.2904514577, 1466.63], [-121.3482942246, 48.2905732468, 1484.89], [-121.3482737727, 48.2905991469, 1486.82], [-121.3483283389, 48.2906089537, 1490.18], [-121.3484419137, 48.2907023281, 1496.91], [-121.3484093919, 48.2908335887, 1501.24], [-121.3483491261, 48.2908683736, 1504.6], [-121.3482622057, 48.2908611652, 1512.29], [-121.3482577633, 48.2909133006, 1513.73], [-121.3482084777, 48.2909428887, 1515.18], [-121.3482011016, 48.2910132967, 1515.18], [-121.3482138421, 48.2910637558, 1516.14], [-121.3481698371, 48.2910764124, 1519.5], [-121.3480585255, 48.2911350019, 1521.42], [-121.3479984272, 48.2911217585, 1525.75], [-121.3480244111, 48.2911560405, 1528.63], [-121.3479490578, 48.2912505046, 1545.94], [-121.347890133, 48.2912730519, 1550.74], [-121.3480126765, 48.2914282847, 1564.68], [-121.3479810767, 48.2914479822, 1566.61], [-121.3479629718, 48.291497184, 1571.41], [-121.3479646482, 48.2915962581, 1571.89], [-121.3479544222, 48.2916440349, 1571.89], [-121.3479011133, 48.2917451207, 1572.85], [-121.3478505705, 48.2918156963, 1575.26], [-121.3477943279, 48.2918430213, 1571.89], [-121.3478372432, 48.2918941509, 1559.4], [-121.3478214853, 48.2919192128, 1556.51], [-121.3478995208, 48.2919970807, 1558.43], [-121.3478263468, 48.2919655647, 1554.11], [-121.3477690984, 48.2919692528, 1555.07], [-121.3478325494, 48.2919463702, 1552.19], [-121.3478527498, 48.2919654809, 1555.07], [-121.3475910667, 48.2919910457, 1557.47], [-121.3474847842, 48.2920194604, 1560.36], [-121.3473111112, 48.2920481265, 1562.76], [-121.3470373582, 48.2920327038, 1564.68], [-121.3469843846, 48.2920416724, 1563.72], [-121.3468521181, 48.2920923829, 1565.16], [-121.3466949575, 48.2921416685, 1566.12], [-121.3466194365, 48.2921422552, 1567.09], [-121.3463525567, 48.2922153454, 1567.09], [-121.3461853378, 48.2922324445, 1568.53], [-121.3460843358, 48.2922710013, 1569.97], [-121.3459265884, 48.2922948059, 1571.89], [-121.3458229043, 48.2923390623, 1572.37], [-121.3456980139, 48.2923775353, 1572.37], [-121.3455740456, 48.2924585044, 1574.3], [-121.345471032, 48.2925143279, 1574.78], [-121.3453090098, 48.2925370429, 1575.74], [-121.3451885618, 48.2926001586, 1575.74], [-121.3450587261, 48.2926167548, 1576.22], [-121.3449615799, 48.2926514558, 1576.7], [-121.3447485957, 48.2927945349, 1579.58], [-121.3445120584, 48.2929241192, 1583.91], [-121.3444329333, 48.2930418849, 1585.83], [-121.3443377148, 48.293139115, 1584.87], [-121.3442533091, 48.2932070084, 1584.39], [-121.3442261517, 48.2932857983, 1588.24], [-121.344145434, 48.2934325654, 1590.64], [-121.3441429194, 48.2934501674, 1591.6], [-121.3440806419, 48.2934498321, 1594.96], [-121.344068069, 48.2934305537, 1589.2], [-121.3438600302, 48.2934212498, 1590.16], [-121.3436714374, 48.2933982834, 1588.24], [-121.3435336389, 48.2934257761, 1588.72], [-121.3431230094, 48.2934611477, 1587.75], [-121.3429882284, 48.2934209984, 1586.31], [-121.3426534552, 48.2933799271, 1584.87], [-121.3423542213, 48.2933700364, 1581.99], [-121.3422031794, 48.2933915779, 1581.99], [-121.3420203701, 48.2934412826, 1584.39], [-121.3418814819, 48.2934250217, 1584.87], [-121.3417248242, 48.2934251055, 1583.91], [-121.3415432721, 48.2934619859, 1582.95], [-121.3413996063, 48.2934974413, 1583.43], [-121.3413644023, 48.293491574, 1583.43], [-121.3412046432, 48.2935364172, 1582.47], [-121.3409033976, 48.2935761474, 1581.03], [-121.3407822791, 48.2936192304, 1581.51], [-121.3406010624, 48.2936746348, 1582.47], [-121.3404897507, 48.2937173825, 1582.95], [-121.3403648604, 48.2937253453, 1582.95], [-121.3402989786, 48.2937584538, 1583.43], [-121.3400932867, 48.2937622257, 1582.95], [-121.3399124052, 48.293836657, 1580.54], [-121.3396020234, 48.2938821707, 1578.62], [-121.3394350559, 48.2938858587, 1578.14], [-121.339313183, 48.2939510699, 1578.62], [-121.3391720317, 48.2939821668, 1578.62], [-121.3390697725, 48.2939563505, 1578.62], [-121.3389991131, 48.2939703483, 1583.43], [-121.3388768211, 48.2940286864, 1580.06], [-121.338893082, 48.2940938976, 1579.1], [-121.3388716243, 48.2940734457, 1578.14], [-121.3387899846, 48.29408627, 1577.18], [-121.3386075106, 48.2941332925, 1572.85], [-121.3384884037, 48.2941899542, 1569.49], [-121.3382916804, 48.2942418382, 1570.45], [-121.338137202, 48.2943157665, 1569.49], [-121.3379632775, 48.2944151759, 1565.16], [-121.3377558254, 48.29449757, 1564.2], [-121.3375808112, 48.2945733424, 1563.24], [-121.3373555895, 48.2947326824, 1565.16], [-121.3372296933, 48.2947763521, 1567.09], [-121.3371051382, 48.2948623504, 1573.33], [-121.3369680941, 48.2949874923, 1583.43], [-121.3369465526, 48.2950178348, 1585.35], [-121.3367636595, 48.2951347623, 1587.75], [-121.3366707042, 48.2952107862, 1590.16], [-121.3364225999, 48.2952068467, 1590.64], [-121.3362810295, 48.2952148095, 1592.08], [-121.336120097, 48.2952660229, 1594.96], [-121.3359860703, 48.2953390293, 1595.93], [-121.3359718211, 48.2953795139, 1598.81], [-121.3359824661, 48.2954588905, 1599.77], [-121.3358647842, 48.2955204137, 1587.27], [-121.3358015008, 48.2955153845, 1592.56], [-121.3358157501, 48.2955417037, 1595.93], [-121.3359128125, 48.2954717148, 1595.45], [-121.3359567337, 48.2954885624, 1592.56], [-121.3359490223, 48.2953822799, 1589.68], [-121.3359726593, 48.2953251153, 1589.2], [-121.3361883257, 48.2952472474, 1585.35], [-121.3363404572, 48.2952077687, 1582.95], [-121.3365813531, 48.2952131331, 1579.58], [-121.3366111089, 48.2951820362, 1575.74], [-121.3367335685, 48.29512286, 1575.74], [-121.3368291222, 48.2950673718, 1574.78], [-121.3368907291, 48.2950531226, 1572.37], [-121.3370071538, 48.2949362788, 1570.93], [-121.3371117599, 48.2948418986, 1567.57], [-121.3372938149, 48.2947382983, 1565.16], [-121.3375259936, 48.2945878431, 1559.88], [-121.3376757782, 48.2945540641, 1558.43], [-121.3377137482, 48.2944809739, 1560.84], [-121.3378229644, 48.2944596838, 1559.88], [-121.3379217032, 48.2944124937, 1561.32], [-121.3380398881, 48.2943413313, 1561.8], [-121.3382152375, 48.2942458615, 1561.8], [-121.3384851348, 48.2941523194, 1563.24], [-121.3385840412, 48.2941086497, 1567.09], [-121.3387385197, 48.2940863539, 1571.41], [-121.3388892263, 48.2940204721, 1573.82], [-121.33898478, 48.293954758, 1576.7], [-121.3390711136, 48.2939628884, 1576.22], [-121.3392265979, 48.2939398382, 1575.26], [-121.3393406756, 48.2938921452, 1576.22], [-121.3394931424, 48.2938793208, 1577.66], [-121.3397996686, 48.293819977, 1578.62], [-121.339942161, 48.2938030455, 1580.54], [-121.3401110563, 48.293773206, 1581.51], [-121.340277018, 48.2937260997, 1582.47], [-121.3404427283, 48.2937321346, 1583.43], [-121.3406121265, 48.293679161, 1583.43], [-121.3409375958, 48.2935688552, 1582.95], [-121.3411397673, 48.2935353275, 1581.03], [-121.3412710279, 48.2935335673, 1579.58], [-121.3415748719, 48.293449413, 1582.47], [-121.3417533226, 48.2934196573, 1582.47], [-121.3418471161, 48.2934355829, 1582.95], [-121.3420564961, 48.2934085093, 1582.95], [-121.3422391377, 48.2933769934, 1582.95], [-121.3424524572, 48.293361403, 1581.99], [-121.3425789401, 48.29340172, 1581.99], [-121.3427385315, 48.2934209984, 1583.91], [-121.3428457361, 48.2934188191, 1585.35], [-121.3430242706, 48.293444803, 1586.31], [-121.3431955129, 48.2934401929, 1587.27], [-121.3433972653, 48.2934481557, 1584.39], [-121.343462225, 48.2933997922, 1584.39], [-121.3436856866, 48.2933583017, 1582.95], [-121.3438586053, 48.2933918294, 1581.03], [-121.3440042827, 48.2933700364, 1581.03], [-121.3440641295, 48.2933775801, 1584.87], [-121.3441615272, 48.2934396062, 1587.27], [-121.34418617, 48.2933085132, 1581.51], [-121.3443461806, 48.2930891588, 1582.47], [-121.3444134872, 48.2930328324, 1580.54], [-121.3444929477, 48.2928988058, 1579.1], [-121.3446532935, 48.2928138971, 1578.62], [-121.3448143099, 48.2927126437, 1579.58], [-121.3448257092, 48.2926912699, 1579.58], [-121.3450461533, 48.2925695647, 1579.58], [-121.3453058247, 48.292525392, 1579.1], [-121.3455023803, 48.2924794592, 1577.66], [-121.3456794061, 48.2923800498, 1572.85], [-121.3458700944, 48.292288268, 1569.97], [-121.3460441865, 48.2922570035, 1568.53], [-121.3463648781, 48.2921872661, 1564.68], [-121.3465602603, 48.2921241503, 1562.28], [-121.3468334265, 48.2920532394, 1560.84], [-121.3470090274, 48.2920272555, 1561.32], [-121.3471786771, 48.2920334581, 1562.76], [-121.3474035636, 48.2920142636, 1562.76], [-121.3476432022, 48.2919564284, 1558.92], [-121.3477746304, 48.2918768842, 1555.07], [-121.3478941564, 48.2917171251, 1552.67], [-121.347910082, 48.2916093338, 1550.74], [-121.3479072321, 48.2914897241, 1549.78], [-121.3479333837, 48.2913836092, 1546.9], [-121.347934138, 48.2912942581, 1544.5], [-121.3479060587, 48.2912478223, 1541.61], [-121.3479299471, 48.2912203297, 1536.8], [-121.3479477167, 48.2910990436, 1532.0], [-121.3480637223, 48.2910155598, 1528.63], [-121.3480730262, 48.2909718063, 1534.88], [-121.3480480481, 48.2909755781, 1542.57], [-121.3481203839, 48.2908996381, 1535.84], [-121.3481818233, 48.290812131, 1528.63], [-121.3482587691, 48.2908134721, 1521.9], [-121.3483149279, 48.2907107938, 1517.1], [-121.3483189512, 48.2906206045, 1509.41], [-121.3482858427, 48.2905857358, 1500.27], [-121.3482618704, 48.2904846501, 1491.62], [-121.3483101502, 48.2905104663, 1486.82], [-121.3482451066, 48.2905692235, 1482.01], [-121.3482535724, 48.290464282, 1481.05], [-121.3482768741, 48.290371662, 1475.76], [-121.3482218888, 48.2902210392, 1467.59], [-121.3482547458, 48.2900434267, 1467.11], [-121.348198168, 48.2900642976, 1468.55], [-121.3481693342, 48.2899741083, 1464.23], [-121.348170843, 48.2898347173, 1464.23], [-121.3481455296, 48.2896868605, 1461.82], [-121.3481564261, 48.2895451225, 1458.46], [-121.3482415024, 48.2894973457, 1452.21], [-121.3483781274, 48.2893975172, 1446.44], [-121.3485801313, 48.289327696, 1439.23], [-121.3486828934, 48.2892701961, 1430.1], [-121.3487662096, 48.2891791686, 1422.41], [-121.3487477694, 48.2891258597, 1420.49], [-121.3487485237, 48.2890615705, 1417.6], [-121.348913312, 48.2889849599, 1414.72], [-121.349112466, 48.2889379375, 1413.28], [-121.3491818681, 48.2889105286, 1410.39], [-121.3492390327, 48.2888448145, 1407.03], [-121.3492411282, 48.2888050005, 1398.86], [-121.349207852, 48.2887692936, 1395.97], [-121.349241212, 48.288745489, 1395.01], [-121.3492552936, 48.2887824532, 1387.8], [-121.3494551182, 48.2887040824, 1383.47], [-121.3494480774, 48.2886260469, 1377.71], [-121.3499002811, 48.2884577382, 1377.71], [-121.3498566952, 48.2884818781, 1345.98], [-121.3499714434, 48.2883651182, 1345.98], [-121.3498207368, 48.2886063494, 1348.39], [-121.3498190604, 48.2884697244, 1349.35], [-121.3497634046, 48.2886278071, 1345.98], [-121.3498393446, 48.2886326686, 1346.94], [-121.3499374129, 48.2885827962, 1346.94], [-121.350051323, 48.28857366, 1346.46], [-121.3502415922, 48.2884475961, 1348.87], [-121.3503779657, 48.2884273957, 1345.5], [-121.3503363077, 48.2883805409, 1346.46], [-121.3503156882, 48.2883823011, 1343.1], [-121.3502982538, 48.2883297466, 1337.33], [-121.3502359763, 48.2883387152, 1330.12], [-121.3501607068, 48.2882947102, 1322.91], [-121.3501975872, 48.288227655, 1320.51], [-121.3501757104, 48.2881958876, 1316.66], [-121.3501181267, 48.2881992403, 1314.74], [-121.350072613, 48.2881569955, 1311.86], [-121.3500138558, 48.2880666386, 1305.13], [-121.3501325436, 48.2880833186, 1303.2], [-121.3501822483, 48.2880566642, 1299.84], [-121.3501816615, 48.2879994158, 1300.8], [-121.3502531592, 48.2879433408, 1306.09], [-121.3502473757, 48.2878286764, 1304.17], [-121.3502038736, 48.2878219709, 1296.48], [-121.350143943, 48.2877151016, 1290.71], [-121.3502733596, 48.2876534946, 1288.78], [-121.3505229726, 48.2876719348, 1283.5], [-121.3505956437, 48.2877353858, 1281.09], [-121.3506343681, 48.287714934, 1281.57], [-121.3506973162, 48.2877146825, 1282.06], [-121.3509268127, 48.287618123, 1279.17], [-121.3509118091, 48.2875958271, 1280.61], [-121.3510997314, 48.2875545882, 1284.46], [-121.3512037508, 48.287493987, 1282.54], [-121.3514303975, 48.2874146942, 1277.25], [-121.3515301421, 48.2873903029, 1270.52], [-121.3516689464, 48.2874172088, 1258.5], [-121.3517504185, 48.287309669, 1251.77], [-121.3519720361, 48.2872950844, 1235.43], [-121.352113355, 48.2872917317, 1230.62], [-121.3522043824, 48.2871282846, 1226.78], [-121.3520283625, 48.2869579643, 1220.53], [-121.3519326411, 48.2868755702, 1223.42], [-121.3518437091, 48.2868204173, 1224.86], [-121.3518401887, 48.2868748158, 1222.45], [-121.3518802542, 48.2869137079, 1223.42], [-121.3519170508, 48.286870122, 1219.09], [-121.3519520871, 48.2869500853, 1214.28], [-121.3518773206, 48.2869526837, 1220.53], [-121.3519189786, 48.286883533, 1221.97], [-121.3518981915, 48.2868875563, 1221.97], [-121.351724267, 48.286806168, 1217.65], [-121.3516231813, 48.2866837084, 1215.72], [-121.3514307328, 48.2864905894, 1214.76], [-121.3511579018, 48.2863678783, 1204.19], [-121.3509396371, 48.2862578239, 1200.82], [-121.3507451769, 48.2861530501, 1200.34], [-121.3505388983, 48.2859893516, 1196.98], [-121.3502841722, 48.2858865894, 1194.09], [-121.3499645703, 48.285733955, 1185.92], [-121.3497515861, 48.285574615, 1182.56], [-121.3494723849, 48.285406474, 1180.16], [-121.3493680302, 48.2853386644, 1176.31], [-121.3493599836, 48.2853130996, 1182.56], [-121.3492812775, 48.2852709386, 1183.04], [-121.3490117155, 48.2851630636, 1182.08], [-121.3488439098, 48.2850587927, 1188.81], [-121.3488108013, 48.284940524, 1197.46], [-121.3487634435, 48.2849523425, 1206.11], [-121.3487574924, 48.2849962637, 1202.75], [-121.3486026786, 48.2849442959, 1191.21], [-121.3485206198, 48.2849293761, 1189.77], [-121.348439483, 48.2849412784, 1185.44], [-121.3481752854, 48.2848417852, 1181.12], [-121.3479099143, 48.284691833, 1180.16], [-121.3478395902, 48.2846407872, 1179.19], [-121.3480512332, 48.2846649271, 1178.71], [-121.3483740203, 48.2846352551, 1183.04], [-121.3486524671, 48.2846725546, 1185.44], [-121.3489068579, 48.2846310642, 1181.12], [-121.3492073491, 48.2846490853, 1174.39], [-121.3495064992, 48.2846210897, 1170.06], [-121.3498640712, 48.2846186589, 1169.1], [-121.350136986, 48.2846537791, 1166.22], [-121.3503812347, 48.2846681122, 1165.74], [-121.3506367151, 48.2847249415, 1162.85], [-121.3508874178, 48.284747405, 1162.37], [-121.3511640206, 48.2846799307, 1156.12], [-121.3513893262, 48.2846110314, 1148.91], [-121.3518841099, 48.2845089398, 1138.34], [-121.3521736208, 48.2845035754, 1135.94], [-121.3525093999, 48.2845730614, 1127.76], [-121.3528134953, 48.2845055033, 1123.44], [-121.3530886732, 48.2844869792, 1123.44], [-121.3534359355, 48.2845149748, 1126.32], [-121.3536555413, 48.2845899928, 1120.07], [-121.3538983651, 48.2845703792, 1113.82], [-121.3540714514, 48.2845448144, 1109.98], [-121.3543467131, 48.2845514361, 1105.17], [-121.354614431, 48.2845086046, 1101.81], [-121.3551802933, 48.2845707145, 1096.04], [-121.3554492686, 48.2846090198, 1092.2], [-121.3556846324, 48.2846296392, 1087.87], [-121.3559362572, 48.2846798468, 1085.95], [-121.3561945874, 48.2847616542, 1083.54], [-121.356483344, 48.2847836148, 1079.7], [-121.3567792252, 48.2848209981, 1077.78], [-121.3573454227, 48.2849323936, 1073.45], [-121.357696373, 48.2849824335, 1072.01], [-121.3580189925, 48.2850533444, 1070.08], [-121.3582258578, 48.2851240039, 1065.76], [-121.3585153688, 48.2851551846, 1063.36], [-121.3587748725, 48.2852178812, 1061.43], [-121.3591422513, 48.2853586972, 1054.7], [-121.3592903595, 48.2854016125, 1050.86], [-121.3596469257, 48.2855128404, 1051.82], [-121.3598841336, 48.2854761276, 1051.34], [-121.3602147996, 48.285553325, 1046.05], [-121.3604703639, 48.2856257446, 1042.69], [-121.3607126009, 48.2856427599, 1041.25], [-121.3611279242, 48.2856786344, 1039.32], [-121.3610755373, 48.2855936419, 1031.15], [-121.3607883733, 48.285477804, 1022.02], [-121.3606654946, 48.2853304502, 1011.44], [-121.3603673503, 48.2851848565, 1010.48], [-121.3600615785, 48.284947481, 1005.68], [-121.3599764183, 48.2849517558, 1004.72], [-121.3597489335, 48.2846601494, 1004.23], [-121.3595712371, 48.2845021505, 998.47], [-121.3594028447, 48.2842938602, 997.51], [-121.3591468614, 48.2841498591, 987.89], [-121.3588720188, 48.2840911858, 978.28], [-121.3588505611, 48.2840290759, 975.39], [-121.3588032871, 48.2838355377, 970.11], [-121.3585722819, 48.2836874295, 968.67], [-121.3584589586, 48.2835067157, 968.18], [-121.3582041487, 48.2832372375, 964.34], [-121.3580589741, 48.2830706891, 966.26], [-121.3578247, 48.2829562761, 960.98], [-121.3576498535, 48.2827789988, 958.09], [-121.3573919423, 48.282678416, 955.69], [-121.3570687361, 48.2824655995, 952.8], [-121.3568183687, 48.2823492587, 948.0], [-121.3564664125, 48.2822996378, 941.27], [-121.3560501672, 48.2822130527, 937.9], [-121.3558792602, 48.2821894158, 936.46], [-121.3555337582, 48.281967463, 934.06], [-121.3553480152, 48.2817476895, 927.33], [-121.355101252, 48.2816588413, 918.2], [-121.3546743616, 48.2815399859, 913.39], [-121.3541373331, 48.2812522352, 912.43], [-121.3539124466, 48.2811792288, 912.91], [-121.3536218461, 48.2810376585, 914.35], [-121.3533567265, 48.2809866965, 914.83], [-121.3530305028, 48.2808980998, 913.39], [-121.3526487071, 48.2808851916, 910.03], [-121.3523340505, 48.2808836829, 907.14], [-121.3520333916, 48.2809224911, 905.7], [-121.3517065812, 48.2809885405, 898.01], [-121.3513407111, 48.2811108325, 896.57], [-121.3511082809, 48.2811532449, 893.68], [-121.351001747, 48.2811519876, 892.72], [-121.3510566484, 48.2810973376, 891.28], [-121.3508395571, 48.2809133548, 891.76], [-121.3508079574, 48.2809094992, 891.76], [-121.3504699152, 48.2807728741, 887.43], [-121.3501537498, 48.2807069086, 886.95], [-121.3497345708, 48.280646475, 885.03], [-121.349494094, 48.2805696968, 883.11], [-121.3491751626, 48.2804811001, 887.43], [-121.3489809539, 48.2805471495, 882.63], [-121.3491575606, 48.2804983668, 864.84], [-121.349434834, 48.280520495, 859.08], [-121.3499668334, 48.2804836985, 842.73], [-121.3502433524, 48.28042184, 842.25], [-121.3505557459, 48.2803131267, 837.93], [-121.3501548395, 48.2802547887, 836.96], [-121.3498700224, 48.2802453171, 830.24], [-121.3497374207, 48.2802103646, 824.47], [-121.3498203177, 48.2801640965, 811.49], [-121.3499559369, 48.2801025733, 808.61], [-121.3502669055, 48.2799981348, 807.16], [-121.3504592702, 48.2800216042, 794.19], [-121.3504466135, 48.279909119, 791.3], [-121.3507580012, 48.2797789481, 786.98], [-121.3511963747, 48.2796253078, 784.09], [-121.3516120333, 48.2794699073, 781.21], [-121.3518983591, 48.2794378884, 777.84], [-121.352015119, 48.2793309353, 776.4], [-121.3522794005, 48.2792937197, 775.92], [-121.3525455259, 48.2792207971, 770.15], [-121.352748787, 48.2791595254, 767.75], [-121.3529356197, 48.2790454477, 762.46], [-121.3531579077, 48.2789301965, 758.14], [-121.3534817845, 48.2788250875, 756.21], [-121.3539099321, 48.278862806, 755.73], [-121.3540741336, 48.2788984291, 755.25], [-121.3543605432, 48.2789127622, 757.18], [-121.354526924, 48.2789626345, 750.45], [-121.3546242379, 48.2789593656, 747.56], [-121.3547021057, 48.2789835054, 745.64], [-121.3550665509, 48.2789047156, 744.68], [-121.3553576544, 48.2789138518, 745.64], [-121.3556234445, 48.2789390814, 742.28], [-121.3559167273, 48.2789629698, 739.87], [-121.3559572119, 48.2789296936, 736.03], [-121.3557461556, 48.278917959, 731.22], [-121.3555818703, 48.2787737902, 733.14], [-121.3553978875, 48.2786947489, 733.62], [-121.3552242983, 48.2787545957, 733.62], [-121.3549888507, 48.278686367, 730.74], [-121.3547477871, 48.278519148, 728.34], [-121.3544975035, 48.2785157114, 732.66], [-121.3543820847, 48.2785069942, 726.41], [-121.3542551827, 48.2783821877, 719.2], [-121.3540656678, 48.2783191558, 719.68], [-121.3539370894, 48.2782902382, 717.28], [-121.3536716346, 48.2780712191, 716.8], [-121.3534501009, 48.2779904176, 711.03], [-121.3531647809, 48.2779426407, 699.02], [-121.3528563268, 48.2778411359, 690.84], [-121.3524305262, 48.2777747512, 691.81], [-121.3522841781, 48.2777341828, 689.4], [-121.3523827493, 48.2777161617, 677.87], [-121.352155013, 48.2776491065, 680.27], [-121.3515789248, 48.2775895111, 683.63], [-121.3513392024, 48.2775294129, 687.96], [-121.3512534555, 48.277487671, 692.29], [-121.3509820495, 48.2775108051, 685.56], [-121.3511294872, 48.2773970626, 681.71], [-121.351309279, 48.2773923688, 675.46], [-121.3515122887, 48.2774367929, 668.73], [-121.3515248615, 48.2774080429, 669.22], [-121.3516466506, 48.2773386408, 662.01], [-121.351812277, 48.277196316, 658.16], [-121.3520198129, 48.2771438453, 656.72], [-121.3524622936, 48.2770390715, 654.31], [-121.3528284989, 48.2770334557, 647.1], [-121.3530323468, 48.2770529855, 643.26], [-121.3528803829, 48.2769460324, 644.7], [-121.3527092244, 48.2769942284, 634.13], [-121.3524099905, 48.2768314518, 631.24], [-121.3520440366, 48.2766856067, 633.65], [-121.3518797513, 48.2765930705, 619.71], [-121.351751592, 48.2766181324, 617.78], [-121.3514654338, 48.2764988579, 614.42], [-121.3512095343, 48.2765319664, 613.46], [-121.3509221189, 48.2763799187, 611.54], [-121.3508103881, 48.2763279509, 616.34], [-121.3506355416, 48.2761663478, 618.26], [-121.3502928056, 48.276058808, 609.61], [-121.3500523288, 48.2760365959, 608.17], [-121.3499471359, 48.2760723028, 612.98], [-121.3498624787, 48.2760886475, 615.38], [-121.3498473912, 48.2760758232, 616.34], [-121.349684028, 48.2761744782, 612.98], [-121.3497694395, 48.2760896534, 611.06], [-121.3497890532, 48.2759030722, 609.13], [-121.349605741, 48.2755931932, 600.0], [-121.3493777532, 48.2755499426, 595.19], [-121.3491238654, 48.2754436601, 596.15], [-121.3489835523, 48.2753426582, 595.67], [-121.3488496095, 48.2752057817, 593.75], [-121.3486418221, 48.2751149219, 595.19], [-121.3484528102, 48.2750040293, 596.64], [-121.34813237, 48.2746315375, 603.85], [-121.3480716012, 48.2744705211, 603.36], [-121.3480757922, 48.2744425256, 593.27], [-121.3479386643, 48.2743732911, 585.1], [-121.3477598783, 48.2743333932, 581.25], [-121.3476413582, 48.2742545195, 577.89], [-121.3475336507, 48.274317719, 575.97], [-121.3474944234, 48.2742633205, 575.01], [-121.3475466426, 48.274148237, 569.24], [-121.3474272843, 48.2739651762, 564.91], [-121.3474641647, 48.2737111207, 561.55], [-121.347209774, 48.2736190874, 561.07], [-121.3471200038, 48.2735977974, 554.82], [-121.3471636735, 48.2735535409, 546.65], [-121.3473082613, 48.2736003119, 543.76], [-121.3474812638, 48.2734783553, 540.4], [-121.347616883, 48.2734590769, 523.58], [-121.3474106044, 48.273382131, 523.58], [-121.3471610751, 48.2731910236, 517.81], [-121.3468708098, 48.2732599229, 516.37], [-121.346665537, 48.2732758485, 513.48], [-121.3464440033, 48.2731001638, 510.12], [-121.3462828193, 48.2730279118, 509.16], [-121.3460467849, 48.2730433345, 511.08], [-121.345710922, 48.2730844058, 512.52], [-121.3455032185, 48.272993546, 513.96], [-121.3452279568, 48.2729774527, 514.92], [-121.3448371086, 48.2728729304, 513.48], [-121.3446118869, 48.2727992535, 511.56], [-121.3443752658, 48.2726612035, 505.79], [-121.344473334, 48.2725939807, 499.54], [-121.3447191752, 48.2725902926, 494.74], [-121.3451086823, 48.2726376504, 487.53], [-121.3454152923, 48.2725911308, 484.64], [-121.345414035, 48.2725070603, 479.84], [-121.3456986006, 48.2723820861, 474.55], [-121.3457797375, 48.272354845, 475.99], [-121.346008312, 48.2723654062, 477.91], [-121.3463573344, 48.2723416854, 476.95], [-121.3467719033, 48.2722712774, 471.18], [-121.3471178245, 48.2722284459, 466.86], [-121.3476289529, 48.2720210776, 466.38], [-121.3479194697, 48.2719854545, 465.42], [-121.3481683284, 48.2720279507, 465.42], [-121.3483827375, 48.2720492408, 464.93], [-121.3485005032, 48.2719079219, 463.97], [-121.3483530656, 48.2718179002, 453.88], [-121.3483370561, 48.2714361046, 455.8], [-121.3482649717, 48.2712936122, 453.4], [-121.3475194015, 48.2712776028, 451.48], [-121.3471163157, 48.2712347712, 450.03], [-121.3468086161, 48.2712095417, 449.55], [-121.3465638645, 48.2710405625, 449.07], [-121.3463498745, 48.2707933802, 448.11], [-121.3464249764, 48.2708210405, 447.63], [-121.3464340288, 48.2708074618, 447.15], [-121.3465485256, 48.2708086353, 447.15], [-121.3467399683, 48.2707867585, 446.19], [-121.3474147115, 48.2706382312, 443.79], [-121.347860964, 48.2705866825, 441.38], [-121.34795174, 48.2705663145, 439.94], [-121.3480350561, 48.2704769634, 439.46], [-121.3481952343, 48.2704506442, 438.98], [-121.3481832482, 48.2704722695, 438.5], [-121.3484665565, 48.2704260852, 436.1], [-121.3484827336, 48.2703204732, 434.65], [-121.3484614436, 48.2702606265, 433.69], [-121.348386677, 48.2702127658, 432.25], [-121.3483109046, 48.2702170406, 431.77], [-121.348223649, 48.2701816689, 431.29], [-121.3480634708, 48.2700601313, 430.81], [-121.347936485, 48.2700425293, 430.33], [-121.347935563, 48.2699631527, 430.33], [-121.3482130039, 48.2699447125, 429.37], [-121.3483687397, 48.2698343229, 426.0], [-121.3484272454, 48.269661488, 425.04], [-121.3485301752, 48.2696829457, 423.6], [-121.3483932987, 48.2695589773, 422.64], [-121.3482368924, 48.2695008907, 421.68], [-121.3483315241, 48.2696348336, 421.19], [-121.3484628685, 48.2697251067, 419.75], [-121.3483675662, 48.2696120348, 418.79], [-121.3483107369, 48.2696127053, 417.35], [-121.3484172709, 48.2695640065, 415.43], [-121.3484346215, 48.2693412155, 413.98], [-121.3486258965, 48.2692792732, 412.54], [-121.3487999886, 48.2693221886, 410.62], [-121.3487886731, 48.2693622541, 409.18], [-121.3488288224, 48.269406762, 408.7], [-121.3487787824, 48.2694388647, 406.77], [-121.3490449917, 48.2692936063, 397.64]]}}