{"type": "Feature", "properties": {}, "geometry": {"type": "LineString", "coordinates": [[-120.67478240467608, 48.51963716559112, 1672.35], [-120.67432944662869, 48.51931773126125, 1654.57], [-120.67426959984004, 48.51927984505892, 1646.88], [-120.67424302920699, 48.5192618239671, 1644.47], [-120.67427731119096, 48.51921631023288, 1641.59], [-120.67433363758028, 48.51906359195709, 1640.63], [-120.6742152851075, 48.51899888366461, 1641.11], [-120.67417220212519, 48.51900475099683, 1643.51], [-120.6741561088711, 48.51903475821018, 1637.26], [-120.6741701066494, 48.51905512623489, 1638.7], [-120.67419156432152, 48.518956219777465, 1632.94], [-120.67410992458463, 48.51898186840117, 1635.34], [-120.67405267618597, 48.51898522116244, 1635.82], [-120.67393097095191, 48.518976755440235, 1636.3], [-120.67384782247245, 48.5189560521394, 1636.3], [-120.67364942282438, 48.51893928833306, 1638.22], [-120.67351589910686, 48.51908437907696, 1640.63], [-120.67337575368583, 48.5192065872252, 1642.07], [-120.6731375399977, 48.5192805994302, 1643.51], [-120.67306880839169, 48.51931412704289, 1643.99], [-120.67303259856999, 48.51934312842786, 1644.47], [-120.67298431880772, 48.519406747072935, 1645.43], [-120.67288214340806, 48.51957178674638, 1650.24], [-120.67275121808052, 48.51964705623686, 1652.16], [-120.67270578816533, 48.519683852791786, 1652.64], [-120.67253856919706, 48.51978703401983, 1653.6], [-120.67237671464682, 48.51988401263952, 1654.09], [-120.67222801968455, 48.51997772231698, 1656.49], [-120.67202249541879, 48.52006137371063, 1658.89], [-120.67186835221946, 48.520102528855205, 1658.89], [-120.67162653431296, 48.520217444747686, 1656.49], [-120.67139502614737, 48.52030109614134, 1655.05], [-120.67137717269361, 48.52032070979476, 1655.05], [-120.67113208584487, 48.520454820245504, 1656.49], [-120.67104818299413, 48.52049220353365, 1657.45], [-120.67089571617544, 48.52064190432429, 1656.01], [-120.67081147804856, 48.520839465782046, 1655.05], [-120.67059488967061, 48.520931247621775, 1651.68], [-120.67031753249466, 48.52098472416401, 1651.2], [-120.67022348754108, 48.520995704457164, 1651.2], [-120.66998334601521, 48.521027974784374, 1655.53], [-120.66980154253542, 48.52112143300474, 1660.81], [-120.66967262886465, 48.52115822955966, 1664.66], [-120.66951354034245, 48.52127616293728, 1668.51], [-120.66934682428837, 48.52141002193093, 1668.02], [-120.66916041076183, 48.52155310101807, 1665.14], [-120.66889872774482, 48.52164505049586, 1665.62], [-120.66870351321995, 48.52179148234427, 1665.14], [-120.66857904195786, 48.52178083732724, 1665.62], [-120.66855154931545, 48.52158838883042, 1666.58], [-120.66859404556453, 48.521419912576675, 1667.06], [-120.66862103529274, 48.521237606182694, 1668.99], [-120.6686819717288, 48.52106845937669, 1669.47], [-120.668632267043, 48.52093719877303, 1672.35], [-120.668656071648, 48.520730417221785, 1674.75], [-120.66874047741294, 48.520540818572044, 1673.31], [-120.66887374967337, 48.52033982053399, 1669.47], [-120.66908690147102, 48.520231526345015, 1670.43], [-120.66917172633111, 48.520050728693604, 1671.87], [-120.66928152926266, 48.51984512060881, 1672.83], [-120.66947523504496, 48.519719475880265, 1673.79], [-120.6695921625942, 48.51956122554839, 1676.2], [-120.66971990279853, 48.51939031854272, 1676.2], [-120.66983984783292, 48.519242629408836, 1671.87], [-120.6699769757688, 48.51907717064023, 1676.2], [-120.67001419141889, 48.5190493427217, 1676.68], [-120.67012642510235, 48.518917579203844, 1679.56], [-120.67023706622422, 48.518860917538404, 1678.12], [-120.67031359300017, 48.51877139881253, 1680.04], [-120.67036807537079, 48.51874164305627, 1680.04], [-120.67052179947495, 48.518588757142425, 1677.64], [-120.6706870906055, 48.518512565642595, 1677.16], [-120.67089169286191, 48.51836361922324, 1678.12], [-120.67103862762451, 48.51824409328401, 1681.0], [-120.67109000869095, 48.518206123262644, 1680.52], [-120.67116368561983, 48.51816203445196, 1680.52], [-120.67134724929929, 48.5180149320513, 1680.04], [-120.67157171666622, 48.51793806999922, 1684.37], [-120.67179769277573, 48.51782667450607, 1685.33], [-120.67197698168457, 48.51769859902561, 1683.41], [-120.67201687954366, 48.51761209778488, 1683.89], [-120.67203012295067, 48.51746482774615, 1687.73], [-120.67203858867288, 48.51728453300893, 1693.5], [-120.67206046544015, 48.51710197515786, 1697.34], [-120.67206339910626, 48.51688773371279, 1701.67], [-120.67216440103948, 48.5167043376714, 1704.55], [-120.67223841324449, 48.51653787307441, 1708.88], [-120.67227680236101, 48.516367636621, 1714.17], [-120.67229775711894, 48.51622497662902, 1713.69], [-120.67222357727587, 48.51608885452151, 1717.53], [-120.67211301997304, 48.515943763777614, 1723.3], [-120.67211913876235, 48.51577319204807, 1724.26], [-120.67218359559774, 48.51560505107045, 1722.34], [-120.67226733081043, 48.51544923149049, 1718.97], [-120.672297924757, 48.51534303277731, 1721.38], [-120.6724017765373, 48.515242114663124, 1719.94], [-120.67241451703012, 48.51521160453558, 1718.97], [-120.67240462638438, 48.51502871140838, 1716.57], [-120.67227981984615, 48.51485931314528, 1718.49], [-120.67214738577604, 48.51481396704912, 1720.9], [-120.6720077432692, 48.5146941896528, 1720.9], [-120.6718269456178, 48.51459008641541, 1723.78], [-120.6716887280345, 48.51456510834396, 1726.18], [-120.67163734696805, 48.51462487131357, 1726.18], [-120.67158219404519, 48.51469025015831, 1726.67], [-120.67139846272767, 48.51473928429186, 1727.63], [-120.67136677913368, 48.51469662040472, 1727.63], [-120.6712346803397, 48.51459452882409, 1730.51], [-120.67110987380147, 48.5145871527493, 1729.55], [-120.67094047553837, 48.51461699232459, 1728.59], [-120.67076252773404, 48.514621602371335, 1728.11], [-120.67067191936076, 48.51466082967818, 1727.63], [-120.67055105231702, 48.51473559625447, 1728.59], [-120.6704278383404, 48.514873730018735, 1731.47], [-120.67037226632237, 48.5149896517396, 1736.76], [-120.67037142813206, 48.51516768336296, 1740.6], [-120.67030998878181, 48.51530246436596, 1746.85], [-120.67019155249, 48.515443531796336, 1749.26], [-120.67021016031504, 48.515586694702506, 1750.22], [-120.67019431851804, 48.51564536802471, 1750.22], [-120.67014142870903, 48.51579020731151, 1750.7], [-120.67017001099885, 48.515959521755576, 1750.7], [-120.67012818530202, 48.51616001687944, 1751.66], [-120.67011737264693, 48.516291780397296, 1751.66], [-120.67003740929067, 48.516469141468406, 1749.26], [-120.66995074041188, 48.51661699824035, 1749.74], [-120.6699151173234, 48.51674113422632, 1751.66], [-120.67015257664025, 48.51688714697957, 1752.14], [-120.67019943147898, 48.51690701209009, 1751.66], [-120.67029481753707, 48.51694975979626, 1752.14], [-120.67031870596111, 48.51698940619826, 1752.62], [-120.67030655220151, 48.5170270409435, 1753.1], [-120.6701754592359, 48.51718462072313, 1754.54], [-120.6700324639678, 48.51730590686202, 1755.02], [-120.6700187176466, 48.51731110364199, 1755.02], [-120.6698649097234, 48.51741336286068, 1755.99], [-120.66970154643059, 48.51749944500625, 1757.91], [-120.66950364969671, 48.517634980380535, 1760.79], [-120.66930902190506, 48.51771184243262, 1764.64], [-120.66913216374815, 48.51783715188503, 1769.44], [-120.66898791119456, 48.51796447299421, 1770.89], [-120.668775010854, 48.51808517239988, 1771.85], [-120.66867426037788, 48.51814401336014, 1770.89], [-120.6685905251652, 48.518157340586185, 1770.41], [-120.66842833533883, 48.51822707802057, 1772.81], [-120.66821476444602, 48.518323972821236, 1773.29], [-120.66814217716455, 48.518335707485676, 1775.69], [-120.66813656128943, 48.51826957426965, 1776.17], [-120.66816539503634, 48.518169494345784, 1778.1], [-120.6681705918163, 48.51815960370004, 1778.58], [-120.6683040317148, 48.51805633865297, 1782.9], [-120.66836806945503, 48.51794444024563, 1785.31], [-120.6684179417789, 48.51782617159188, 1788.67], [-120.66848482936621, 48.517685355618596, 1787.71], [-120.66850419156253, 48.51761503145099, 1788.67], [-120.66849069669843, 48.517466336488724, 1791.07], [-120.66849329508841, 48.51732744835317, 1793.96], [-120.66849798895419, 48.51716576144099, 1797.32], [-120.66847410053015, 48.517035422846675, 1798.76], [-120.66842691041529, 48.51685387082398, 1801.17], [-120.66837418824434, 48.51673124358058, 1804.53], [-120.66831928677857, 48.51662135683, 1809.82], [-120.66823940724134, 48.51643226109445, 1816.07], [-120.66812792792916, 48.51628960110247, 1821.35], [-120.6680484674871, 48.5161638725549, 1825.2], [-120.66791946999729, 48.51600109599531, 1830.97], [-120.66779977642, 48.51587327197194, 1832.89], [-120.66769056022167, 48.515772772952914, 1832.41], [-120.66755745559931, 48.51561133749783, 1832.89], [-120.66741588525474, 48.51547982543707, 1832.89], [-120.66732737235725, 48.51528964005411, 1833.85], [-120.66721430048347, 48.51511009968817, 1832.89], [-120.66715990193188, 48.514996860176325, 1833.37], [-120.6670796032995, 48.514906922355294, 1832.89], [-120.66688237711787, 48.514779936522245, 1831.93], [-120.66677710041404, 48.514671893790364, 1832.89], [-120.66675924696028, 48.514573154971, 1833.37], [-120.66673996858299, 48.514439295977354, 1831.45], [-120.66673661582172, 48.51435002870858, 1831.45], [-120.66669738851488, 48.51419102400541, 1832.41], [-120.66662136465311, 48.51403973065317, 1833.37], [-120.66661273129284, 48.51390587165952, 1836.26], [-120.66657023504376, 48.513767905533314, 1836.26], [-120.66653922200203, 48.51361275650561, 1839.62], [-120.66650443710387, 48.513522734865546, 1843.47], [-120.66630855202675, 48.51342584006488, 1845.39], [-120.66615457646549, 48.51339968852699, 1846.83], [-120.66605399362743, 48.51327161304653, 1850.68], [-120.66595181822777, 48.5131917335093, 1852.12], [-120.66583975218236, 48.5130831040442, 1852.6], [-120.66580119542778, 48.51294882595539, 1852.12], [-120.6657188013196, 48.51282234303653, 1853.08], [-120.66569910384715, 48.51271723397076, 1854.52], [-120.66568594425917, 48.51263861171901, 1857.4], [-120.66563908942044, 48.51258873939514, 1857.89], [-120.66561193205416, 48.51256627589464, 1859.33], [-120.66549399867654, 48.51252126507461, 1861.73], [-120.66533608362079, 48.51254758425057, 1862.21], [-120.6652695313096, 48.5125392023474, 1862.21], [-120.66514304839075, 48.5125199239701, 1865.58], [-120.66499527543783, 48.51251581683755, 1866.54], [-120.6648950278759, 48.51251238025725, 1868.46], [-120.66483836621046, 48.5125339217484, 1869.9], [-120.66477256827056, 48.51258287206292, 1871.82], [-120.66474666818976, 48.51262084208429, 1874.71], [-120.66473652608693, 48.51265210658312, 1874.23], [-120.66469453275204, 48.51267255842686, 1875.19], [-120.66465036012232, 48.512705164030194, 1878.07], [-120.66466896794736, 48.51274950429797, 1881.44], [-120.66466175951064, 48.51279686205089, 1881.44], [-120.66459277644753, 48.51279535330832, 1882.4], [-120.66448305733502, 48.51281303912401, 1886.24], [-120.66442438401282, 48.512825863435864, 1887.69], [-120.66435967572033, 48.512851763516665, 1888.17], [-120.66428708843887, 48.512853188440204, 1889.13], [-120.66424802877009, 48.51287104189396, 1889.61], [-120.66419807262719, 48.51289601996541, 1890.09], [-120.66414912231266, 48.51291127502918, 1890.57], [-120.66408609040082, 48.51293717510998, 1891.05], [-120.66401643678546, 48.512949077412486, 1892.49], [-120.66396488808095, 48.51299224421382, 1893.93], [-120.66393245011568, 48.512992495670915, 1894.42], [-120.66387486644089, 48.51301236078143, 1895.38], [-120.66380931995809, 48.51300590671599, 1896.34], [-120.663758860901, 48.512992579489946, 1897.3], [-120.66374176181853, 48.51301705464721, 1898.26], [-120.66370907239616, 48.51304069161415, 1899.7], [-120.66365785896778, 48.513021329417825, 1901.14], [-120.66359516233206, 48.513034991919994, 1902.59], [-120.66366037353873, 48.513023760169744, 1926.62], [-120.66360865719616, 48.513019317761064, 1929.02], [-120.66357722505927, 48.51300397887826, 1929.5], [-120.66355098970234, 48.51302493363619, 1929.98], [-120.66351310350001, 48.513069357723, 1930.46], [-120.66346272826195, 48.51310305297375, 1931.91], [-120.66343666054308, 48.513106405735016, 1933.35], [-120.6633944157511, 48.513114117085934, 1935.27], [-120.66333607770503, 48.51310481317341, 1936.71], [-120.66325812600553, 48.51309785619378, 1936.71], [-120.66323088482022, 48.51312224753201, 1939.12], [-120.66315595060587, 48.51312811486423, 1938.16], [-120.66309375688434, 48.51313188672066, 1937.67], [-120.66302184015512, 48.5131074115634, 1939.6], [-120.6629578024149, 48.51307430304587, 1942.0], [-120.66288219764829, 48.513064077124, 1943.44], [-120.66282109357417, 48.51305921562016, 1944.4], [-120.662786308676, 48.513008086010814, 1947.29], [-120.66278597339988, 48.513002805411816, 1947.77], [-120.66280382685363, 48.51296290755272, 1948.73], [-120.6627315748483, 48.512874813750386, 1950.17], [-120.66267751157284, 48.51282184012234, 1951.13], [-120.66261339001358, 48.51280222646892, 1953.06], [-120.66259671002626, 48.512708600610495, 1957.38], [-120.66256955265999, 48.512690998613834, 1961.71], [-120.66251439973712, 48.51266962476075, 1965.07], [-120.66245153546333, 48.51258630864322, 1967.96], [-120.66238691098988, 48.512599635869265, 1970.84], [-120.6623444147408, 48.512622099369764, 1972.76], [-120.6622614338994, 48.51264246739447, 1975.17], [-120.66221281886101, 48.51268094033003, 1976.13], [-120.66213654354215, 48.512698374688625, 1977.09], [-120.66204769536853, 48.512704158201814, 1979.49], [-120.6620528921485, 48.51271715015173, 1979.97], [-120.66201810725033, 48.51278303191066, 1982.86], [-120.66192666068673, 48.51277339272201, 1984.3], [-120.6618575938046, 48.51277079433203, 1985.26], [-120.66176899708807, 48.51275931112468, 1986.7], [-120.66170772537589, 48.512791162356734, 1990.55], [-120.66169330850244, 48.51279669441283, 1994.87], [-120.66164729185402, 48.512819074094296, 1996.8], [-120.6616591103375, 48.512868946418166, 2002.08], [-120.66160848364234, 48.512834748253226, 2004.97], [-120.6615518219769, 48.512859055772424, 2006.89], [-120.6615293584764, 48.51287833414972, 2006.41], [-120.66152298822999, 48.51292979903519, 2008.33], [-120.66152877174318, 48.51295419037342, 2010.25], [-120.6614550948143, 48.51297824643552, 2011.7], [-120.66147378645837, 48.5130294598639, 2014.58], [-120.66140111535788, 48.51304731331766, 2016.5], [-120.66131100989878, 48.513062903657556, 2016.98], [-120.6612740457058, 48.51306709460914, 2018.43], [-120.66121788695455, 48.51308964192867, 2018.91], [-120.66120808012784, 48.5131417773664, 2021.31], [-120.66120891831815, 48.513164995238185, 2025.15], [-120.6611871253699, 48.51318343542516, 2027.56], [-120.66114144399762, 48.51320816203952, 2029.0], [-120.66106374375522, 48.51322777569294, 2029.48], [-120.6610700301826, 48.51326197385788, 2032.84], [-120.66105687059462, 48.51330262608826, 2037.17], [-120.66106575541198, 48.51336129941046, 2044.86], [-120.66109852865338, 48.513407651335, 2049.19], [-120.6610306352377, 48.51343405432999, 2048.23], [-120.66103767603636, 48.513449393212795, 2051.59], [-120.66096819005907, 48.51344721391797, 2050.63], [-120.66096240654588, 48.51347261108458, 2053.03], [-120.6609753984958, 48.51350471377373, 2054.96], [-120.66097933799028, 48.51353312842548, 2050.63], [-120.66095008514822, 48.5135614592582, 2054.47], [-120.66098168492317, 48.51356254890561, 2059.76], [-120.66099618561566, 48.51356497965753, 2061.68], [-120.66098939627409, 48.51363513618708, 2061.68], [-120.66093876957893, 48.51364703848958, 2065.05], [-120.66097942180932, 48.51364402100444, 2070.34], [-120.66093767993152, 48.51366598159075, 2070.34], [-120.66094069741666, 48.513711746782064, 2068.41], [-120.66086408682168, 48.513724487274885, 2069.38], [-120.66081714816391, 48.51373706012964, 2071.78], [-120.6608020607382, 48.5137599427253, 2071.3], [-120.66081270575523, 48.51379212923348, 2072.26], [-120.66077649593353, 48.51380126550794, 2072.74], [-120.66076803021133, 48.51381953805685, 2073.22], [-120.66072209738195, 48.51382087916136, 2073.7], [-120.66067264415324, 48.51382817141712, 2075.14], [-120.6606540363282, 48.5138220526278, 2077.07], [-120.6606368534267, 48.51387636736035, 2078.99], [-120.66060558892787, 48.51388935931027, 2079.95], [-120.66058756783605, 48.51391039788723, 2080.43], [-120.66056166775525, 48.513904782012105, 2081.87], [-120.66051640547812, 48.51392012089491, 2084.28], [-120.66050969995558, 48.513941410928965, 2084.76], [-120.66048405133188, 48.513946859166026, 2086.2], [-120.66046368330717, 48.51396890357137, 2088.6], [-120.66045136190951, 48.51398902013898, 2089.56], [-120.66044054925442, 48.514014249667525, 2090.04], [-120.66040744073689, 48.51401785388589, 2090.52], [-120.66036955453455, 48.514032354578376, 2091.0], [-120.66035958006978, 48.514065546914935, 2092.45], [-120.66033778712153, 48.51406873203814, 2094.37], [-120.66035740077496, 48.51407619193196, 2099.18], [-120.66038003191352, 48.514048866927624, 2102.06], [-120.66036368720233, 48.514060685411096, 2103.02], [-120.66035438328981, 48.51407309062779, 2105.91], [-120.66033560782671, 48.51407518610358, 2105.91], [-120.66031406633556, 48.51405272260308, 2108.79], [-120.66030685789883, 48.51407225243747, 2110.71], [-120.66027500666678, 48.514104103669524, 2112.15], [-120.66027257591486, 48.51411852054298, 2113.6], [-120.66025220789015, 48.51412866264582, 2116.48], [-120.66028372384608, 48.514135451987386, 2118.4], [-120.66025581210852, 48.514166716486216, 2119.84], [-120.66026561893523, 48.5141796246171, 2123.69], [-120.66028313711286, 48.514175014570355, 2127.53], [-120.66028196364641, 48.514182809740305, 2129.46], [-120.66026679240167, 48.51421449333429, 2129.46], [-120.66024231724441, 48.5142367053777, 2129.46], [-120.66019739024341, 48.51425305008888, 2130.42], [-120.66022211685777, 48.51429403759539, 2130.42], [-120.66018481738865, 48.51432370953262, 2132.34], [-120.66007643938065, 48.51432270370424, 2134.26], [-120.66007669083774, 48.51431499235332, 2139.07], [-120.6600459292531, 48.51433167234063, 2140.03], [-120.66001877188683, 48.51431826129556, 2141.95], [-120.65999404527247, 48.51435178890824, 2142.44], [-120.6600046902895, 48.51441264152527, 2144.36], [-120.65995280630887, 48.51445036008954, 2146.28], [-120.65993503667414, 48.514448683708906, 2147.72], [-120.65982364118099, 48.51439353078604, 2148.68], [-120.65969355404377, 48.51433016359806, 2150.61], [-120.6595160253346, 48.514200411736965, 2152.53], [-120.65939608030021, 48.51412991993129, 2152.53], [-120.6593204755336, 48.51408809423447, 2153.97], [-120.65933464094996, 48.51413712836802, 2155.41], [-120.65945886075497, 48.51425766013563, 2160.7], [-120.65948794595897, 48.514304431155324, 2163.58], [-120.65953630954027, 48.51432136259973, 2164.55], [-120.65955298952758, 48.51442395709455, 2165.51], [-120.65959992818534, 48.51449972949922, 2166.47], [-120.65961669199169, 48.514557648450136, 2168.39], [-120.65959112718701, 48.514558067545295, 2171.27], [-120.65957805141807, 48.51458572782576, 2171.76], [-120.65960202366114, 48.51466468535364, 2174.64], [-120.6596053764224, 48.514728639274836, 2176.08], [-120.65957587212324, 48.51472780108452, 2176.56], [-120.65946246497333, 48.51467960514128, 2176.08], [-120.65946984104812, 48.51470491848886, 2177.04], [-120.65933397039771, 48.514612801373005, 2178.48], [-120.65925509668887, 48.51456552743912, 2179.93], [-120.6591856945306, 48.514527305960655, 2180.89], [-120.65913163125515, 48.51451724767685, 2182.33], [-120.65910221077502, 48.514516577124596, 2183.29], [-120.6590944994241, 48.51453082635999, 2182.81], [-120.65903968177736, 48.51452470757067, 2183.77], [-120.659025516361, 48.51452026516199, 2183.29], [-120.65904026851058, 48.514529233798385, 2189.06], [-120.65905912779272, 48.51452898234129, 2193.87], [-120.65904160961509, 48.514511128887534, 2197.71], [-120.6590234208852, 48.51452169008553, 2202.04], [-120.65899400040507, 48.51454507559538, 2206.84], [-120.65895200707018, 48.51453149691224, 2208.77], [-120.65891730599105, 48.514547338709235, 2211.65], [-120.65887900069356, 48.51456175558269, 2213.57], [-120.65885628573596, 48.51453526876867, 2215.01], [-120.65883843228221, 48.51454624906182, 2215.01], [-120.65879157744348, 48.514559995383024, 2218.38], [-120.65877825021744, 48.5145734064281, 2219.82], [-120.65875318832695, 48.514572232961655, 2222.71], [-120.65871731378138, 48.51459268480539, 2225.11], [-120.65869853831828, 48.51459260098636, 2227.99], [-120.65871194936335, 48.51461565122008, 2229.43], [-120.65868739038706, 48.51459050551057, 2233.76], [-120.65868956968188, 48.51457114331424, 2237.61], [-120.65865335986018, 48.51457206532359, 2239.53], [-120.65867230296135, 48.51457801647484, 2241.45], [-120.65865646116436, 48.51454985328019, 2245.3], [-120.65863240510225, 48.5145630966872, 2252.51], [-120.65860508009791, 48.51456955075264, 2254.43], [-120.65864975564182, 48.51458413526416, 2259.24], [-120.65862025134265, 48.51456670090556, 2253.47], [-120.65861941315234, 48.51454281248152, 2248.18], [-120.65860734321177, 48.51449335925281, 2244.82], [-120.65859845839441, 48.51449470035732, 2240.97], [-120.65860792994499, 48.51446486078203, 2242.41], [-120.65858102403581, 48.51452068425715, 2240.97], [-120.65855327993631, 48.51449436508119, 2235.68], [-120.65850986167789, 48.51445027627051, 2236.16], [-120.65856032073498, 48.51451582275331, 2233.28], [-120.65853827632964, 48.51449687965214, 2236.16], [-120.65855520777404, 48.51455454714596, 2245.78], [-120.65856300294399, 48.51454859599471, 2245.78], [-120.65857918001711, 48.51454901508987, 2244.33], [-120.65859477035701, 48.51456871256232, 2232.32], [-120.65862502902746, 48.514600060880184, 2232.32], [-120.65854858607054, 48.5144922696054, 2231.36], [-120.65863575786352, 48.514584889635444, 2230.88], [-120.65860658884048, 48.5145871527493, 2233.76], [-120.65858387388289, 48.51463342085481, 2235.2], [-120.65858395770192, 48.514663176611066, 2236.16], [-120.65864908508956, 48.51464825682342, 2238.57], [-120.65863156691194, 48.51468337699771, 2237.13], [-120.65859518945217, 48.51473509334028, 2251.06], [-120.65861052833498, 48.514646077528596, 2249.62], [-120.6585899926722, 48.514617662876844, 2235.2], [-120.65857951529324, 48.51462420076132, 2216.94], [-120.6585852149874, 48.51463316939771, 2229.92], [-120.65860784612596, 48.51463811472058, 2229.92], [-120.65860365517437, 48.5146442335099, 2229.92], [-120.65858940593898, 48.5146270506084, 2233.76], [-120.65864355303347, 48.51468522101641, 2231.36], [-120.6586473248899, 48.514672396704555, 2214.05], [-120.65866325050592, 48.51468589156866, 2222.71], [-120.65868906676769, 48.514729058369994, 2225.11], [-120.65867590717971, 48.51473852992058, 2222.71], [-120.6586869712919, 48.51474934257567, 2224.15], [-120.65870482474566, 48.5147531144321, 2230.88], [-120.65869099460542, 48.514766693115234, 2230.4], [-120.65863709896803, 48.514706678688526, 2233.76], [-120.6586578860879, 48.51470055989921, 2242.89], [-120.6586610712111, 48.51472453214228, 2244.82], [-120.65872033126652, 48.51472042500973, 2252.03], [-120.65869619138539, 48.51476392708719, 2242.89], [-120.65866626799107, 48.514654291793704, 2246.26], [-120.65865252166986, 48.51467767730355, 2242.41], [-120.65865302458405, 48.514653872698545, 2244.33], [-120.65865486860275, 48.51468580774963, 2242.89], [-120.65861572511494, 48.514640210196376, 2240.01], [-120.65860994160175, 48.5144972987473, 2236.16], [-120.6586129590869, 48.51458338089287, 2229.43], [-120.65860918723047, 48.51456963457167, 2229.92], [-120.65860759466887, 48.51458824239671, 2229.43], [-120.65859988331795, 48.51460291072726, 2233.28], [-120.65864070318639, 48.51463157683611, 2238.09], [-120.6586055830121, 48.514602072536945, 2239.05], [-120.658610612154, 48.51461397483945, 2240.01], [-120.65861321054399, 48.51466049440205, 2241.45], [-120.65861782059073, 48.51465345360339, 2242.41], [-120.65862477757037, 48.51469041779637, 2242.41], [-120.65861849114299, 48.51470089517534, 2243.37], [-120.65865889191628, 48.51471086964011, 2243.85], [-120.65867464989424, 48.51471992209554, 2244.33], [-120.65864036791027, 48.51466535590589, 2241.45], [-120.65860114060342, 48.51461053825915, 2235.2], [-120.65858068875968, 48.51454138755798, 2237.13], [-120.65861740149558, 48.514553122222424, 2229.43], [-120.65860273316503, 48.51452889852226, 2216.94], [-120.6585490051657, 48.51454515941441, 2215.98], [-120.65854615531862, 48.514534179121256, 2215.5], [-120.65852645784616, 48.514529736712575, 2216.94], [-120.65852042287588, 48.51457357406616, 2226.55], [-120.65857792273164, 48.51456703618169, 2224.63], [-120.65856543369591, 48.514586482197046, 2224.15], [-120.6585574708879, 48.514626463875175, 2224.15], [-120.6585849635303, 48.51463979110122, 2224.15], [-120.65858295187354, 48.514622105285525, 2226.07], [-120.65864246338606, 48.5146925970912, 2238.09], [-120.65865964628756, 48.5146529506892, 2240.97], [-120.658637015149, 48.51471036672592, 2240.01], [-120.65861388109624, 48.514695363119245, 2238.57], [-120.65852721221745, 48.51469754241407, 2240.49], [-120.65858219750226, 48.514707097783685, 2245.78], [-120.6586282979697, 48.51467901840806, 2245.78], [-120.65864900127053, 48.51467004977167, 2248.66], [-120.65870985388756, 48.51461690850556, 2251.54], [-120.65874354913831, 48.514681281521916, 2251.54], [-120.65869334153831, 48.51473358459771, 2251.54], [-120.65871404483914, 48.51474925875664, 2268.85], [-120.65870163962245, 48.514725705608726, 2281.35], [-120.65872242674232, 48.51473928429186, 2288.56], [-120.65865327604115, 48.51469703949988, 2289.52], [-120.65868621692061, 48.5147615801543, 2268.37], [-120.65864992327988, 48.51471522822976, 2267.41], [-120.65867833793163, 48.514688992872834, 2266.93], [-120.65869417972863, 48.51469569839537, 2244.82], [-120.65874547697604, 48.51476099342108, 2247.22], [-120.6586716324091, 48.5146579798311, 2249.62], [-120.65866023302078, 48.514655800536275, 2251.06], [-120.65864782780409, 48.51463568396866, 2252.51], [-120.6586251128465, 48.514617159962654, 2255.87], [-120.65861949697137, 48.514558989554644, 2253.95], [-120.6586021464318, 48.51452940143645, 2252.51], [-120.65859032794833, 48.51447810418904, 2249.14], [-120.65861362963915, 48.51452101953328, 2243.85], [-120.65857322886586, 48.514489168301225, 2241.45], [-120.65859728492796, 48.51452671922743, 2240.97], [-120.65856493078172, 48.514511128887534, 2240.01], [-120.65856476314366, 48.514516493305564, 2241.45], [-120.65860315226018, 48.514541471377015, 2243.85], [-120.65861555747688, 48.51458522491157, 2241.45], [-120.658547161147, 48.51451297290623, 2240.97], [-120.65851363353431, 48.51445212028921, 2242.41], [-120.65860457718372, 48.5145628452301, 2241.93], [-120.65862913616002, 48.51458815857768, 2243.37], [-120.65859259106219, 48.51454398594797, 2243.85], [-120.6585521902889, 48.51452353410423, 2241.93], [-120.65857364796102, 48.514553206041455, 2241.93], [-120.65860642120242, 48.51457986049354, 2241.93], [-120.65861354582012, 48.51459201425314, 2243.85], [-120.65858060494065, 48.51456267759204, 2239.53], [-120.65857716836035, 48.51455572061241, 2239.53], [-120.65860910341144, 48.51463937200606, 2244.82], [-120.6586676929146, 48.51469628512859, 2228.47], [-120.65871739760041, 48.51471422240138, 2234.72], [-120.65869770012796, 48.51468580774963, 2232.32], [-120.65872460603714, 48.514660159125924, 2233.76], [-120.65869635902345, 48.51466862484813, 2231.84], [-120.65870448946953, 48.514582961797714, 2233.76], [-120.65866895020008, 48.514552703127265, 2230.88], [-120.65869786776602, 48.51456024684012, 2234.72], [-120.65871018916368, 48.514595702290535, 2239.53], [-120.65874648280442, 48.51458807475865, 2241.45], [-120.65878202207386, 48.51462721824646, 2242.41], [-120.65873567014933, 48.5146114602685, 2240.49], [-120.65868739038706, 48.51457164622843, 2229.43], [-120.6586491689086, 48.51456460542977, 2229.92], [-120.65864028409123, 48.514565359801054, 2226.55], [-120.6586129590869, 48.514534682035446, 2228.47], [-120.65861664712429, 48.51455647498369, 2230.4], [-120.65864673815668, 48.514560582116246, 2226.07], [-120.65861505456269, 48.514503836631775, 2229.43], [-120.6586473248899, 48.51458170451224, 2239.05], [-120.658687222749, 48.51459268480539, 2238.57], [-120.65869401209056, 48.514597630128264, 2240.97], [-120.65868780948222, 48.51458220742643, 2242.41], [-120.65870381891727, 48.514647502452135, 2242.41], [-120.65870448946953, 48.51471556350589, 2241.93], [-120.6586647592485, 48.51466099731624, 2236.64], [-120.65864807926118, 48.514576088637114, 2236.16], [-120.65868345089257, 48.5146011505276, 2240.97], [-120.65867582336068, 48.5146302357316, 2239.05], [-120.65868160687387, 48.514694441109896, 2242.89], [-120.65869962796569, 48.51471631787717, 2251.54], [-120.65870398655534, 48.51474121212959, 2250.58], [-120.65871320664883, 48.514666613191366, 2249.14], [-120.65874505788088, 48.514751521870494, 2250.1], [-120.65876559354365, 48.514812206849456, 2251.06], [-120.65876374952495, 48.51481354795396, 2253.95], [-120.65873625688255, 48.514740876853466, 2252.51], [-120.65876391716301, 48.51487691514194, 2251.06], [-120.65878830850124, 48.51486911997199, 2249.62], [-120.65875813364983, 48.514866353943944, 2242.41], [-120.65873835235834, 48.51479074917734, 2247.7], [-120.65878260880709, 48.51482612080872, 2244.33], [-120.65878252498806, 48.51484824903309, 2243.85], [-120.65881772898138, 48.51492955349386, 2243.85], [-120.65876358188689, 48.5148376878351, 2246.74], [-120.65876567736268, 48.51481279358268, 2244.82], [-120.65872745588422, 48.514751605689526, 2241.93], [-120.65872452221811, 48.51480717770755, 2241.93], [-120.6587562058121, 48.514842968434095, 2248.18], [-120.6587958522141, 48.51483626291156, 2259.24], [-120.6587443035096, 48.514804327860475, 2258.75], [-120.65867699682713, 48.51476702839136, 2245.3], [-120.65864372067153, 48.51477415300906, 2246.74], [-120.65869426354766, 48.514796951785684, 2246.74], [-120.65868789330125, 48.5147737339139, 2252.99], [-120.65870264545083, 48.51476216688752, 2254.91], [-120.65871538594365, 48.51473878137767, 2251.06], [-120.65861807204783, 48.51467600092292, 2249.62], [-120.65862871706486, 48.514679772779346, 2247.7], [-120.65865294076502, 48.514673570171, 2258.75], [-120.65866098739207, 48.514683209359646, 2254.91], [-120.65867230296135, 48.51465948857367, 2254.43], [-120.65862058661878, 48.51467080414295, 2255.39], [-120.65863483585417, 48.51468840613961, 2248.18], [-120.65859996713698, 48.51467457599938, 2249.14], [-120.6586920004338, 48.51463300175965, 2247.22], [-120.65870675258338, 48.51469083689153, 2258.27], [-120.65867146477103, 48.51468161679804, 2256.83], [-120.65862234681845, 48.51473073475063, 2256.83], [-120.65865227021277, 48.51473324932158, 2257.31], [-120.65871781669557, 48.514750096946955, 2260.68], [-120.65872703678906, 48.514660242944956, 2260.68], [-120.65874472260475, 48.514654291793704, 2264.52], [-120.65876961685717, 48.5146096162498, 2266.45], [-120.6587385199964, 48.51463358849287, 2267.41], [-120.65866467542946, 48.51462386548519, 2266.45], [-120.65873835235834, 48.51460710167885, 2265.96], [-120.65872812643647, 48.51465051993728, 2265.96], [-120.65876710228622, 48.51462461985648, 2268.85], [-120.65874438732862, 48.514617159962654, 2257.31], [-120.65866584889591, 48.51465705782175, 2247.22], [-120.65874346531928, 48.51466636173427, 2245.78], [-120.65869510173798, 48.51469511166215, 2242.41], [-120.65870817750692, 48.51472293958068, 2240.49], [-120.65869241952896, 48.51472838781774, 2236.64], [-120.65868982113898, 48.51470156572759, 2234.72], [-120.65864246338606, 48.51471866481006, 2232.32], [-120.65866149030626, 48.51470089517534, 2235.2], [-120.65871513448656, 48.51469301618636, 2237.61], [-120.65876634791493, 48.514687065035105, 2237.61], [-120.65876542590559, 48.51468245498836, 2238.09], [-120.65879845060408, 48.51466594263911, 2238.09], [-120.65881655551493, 48.514668541029096, 2236.64], [-120.65881940536201, 48.514655297622085, 2234.72], [-120.65885209478438, 48.51464691571891, 2234.24], [-120.6589076668024, 48.514609364792705, 2227.99], [-120.65890599042177, 48.51461732760072, 2215.98], [-120.65893817692995, 48.5146148968488, 2209.73], [-120.65896064043045, 48.51462093181908, 2206.36], [-120.65898461267352, 48.51461204700172, 2204.44], [-120.65900204703212, 48.514611292630434, 2200.59], [-120.6590321380645, 48.514578100293875, 2195.79], [-120.65907144919038, 48.51457022130489, 2193.39], [-120.65911059267819, 48.51455789990723, 2192.42], [-120.65914068371058, 48.51455681025982, 2190.5], [-120.65919592045248, 48.51460416801274, 2190.02], [-120.65939247608185, 48.5148065071553, 2192.42], [-120.6594436056912, 48.51479812525213, 2196.75], [-120.65955919213593, 48.51474934257567, 2201.08], [-120.65964192152023, 48.51461397483945, 2208.77], [-120.65967335365713, 48.51459846831858, 2211.65], [-120.65977569669485, 48.51460626348853, 2212.61], [-120.65979271195829, 48.514429572969675, 2215.5], [-120.65969841554761, 48.51427601650357, 2200.11], [-120.65965281799436, 48.51427333429456, 2192.42], [-120.65954586490989, 48.51429403759539, 2184.25], [-120.65950739197433, 48.514329409226775, 2184.73], [-120.65951543860137, 48.51436763070524, 2184.25], [-120.65953077748418, 48.51438104175031, 2183.29], [-120.65957218408585, 48.51440132595599, 2179.93], [-120.65958576276898, 48.51439604535699, 2178.0], [-120.65962473861873, 48.51440945640206, 2174.64], [-120.65964695066214, 48.5144195985049, 2171.76], [-120.65969489514828, 48.514417419210076, 2169.83], [-120.65972875803709, 48.51440794765949, 2168.39], [-120.65979631617665, 48.51440199650824, 2165.51], [-120.65974786877632, 48.51437903009355, 2163.58], [-120.65984702669084, 48.514391938224435, 2161.66], [-120.6597440969199, 48.51430610753596, 2159.74], [-120.65963027067482, 48.51418783888221, 2159.26], [-120.65962825901806, 48.514181384816766, 2160.22], [-120.65963412635028, 48.51415179669857, 2157.34], [-120.6595712620765, 48.51410225965083, 2153.49], [-120.65949607640505, 48.51402380503714, 2148.68], [-120.65952926874161, 48.51400259882212, 2145.8], [-120.6596125010401, 48.51399639621377, 2145.8], [-120.65967251546681, 48.51401190273464, 2144.84], [-120.65971987321973, 48.51400285027921, 2141.95], [-120.65981802530587, 48.514037132263184, 2139.55], [-120.65992112271488, 48.51405389606953, 2135.71], [-120.65995364449918, 48.51402665488422, 2134.74], [-120.66008674912155, 48.514083148911595, 2136.19], [-120.660235946998, 48.51411399431527, 2138.11], [-120.66033921204507, 48.514142744243145, 2135.23], [-120.66034834831953, 48.51415565237403, 2135.71], [-120.66032194532454, 48.51415037177503, 2135.71], [-120.66033602692187, 48.5141346976161, 2135.23], [-120.66031741909683, 48.51416319608688, 2132.34], [-120.66029260866344, 48.51414785720408, 2130.42], [-120.66030534915626, 48.51411424577236, 2131.38], [-120.66029109992087, 48.51410812698305, 2131.86], [-120.66032119095325, 48.51406437344849, 2130.9], [-120.6603173352778, 48.51404861547053, 2129.46], [-120.66032429225743, 48.514034198597074, 2117.92], [-120.66034030169249, 48.51403051055968, 2115.04], [-120.66038221120834, 48.51400184445083, 2109.27], [-120.66039922647178, 48.514000503346324, 2106.87], [-120.66043049097061, 48.51400603540242, 2105.42], [-120.6604172475636, 48.51399388164282, 2104.94], [-120.66043593920767, 48.51397644728422, 2105.42], [-120.66044356673956, 48.51398038677871, 2103.02], [-120.66048790700734, 48.51397879421711, 2104.94], [-120.6605036649853, 48.513965383172035, 2104.46], [-120.66055404022336, 48.51394166238606, 2102.06], [-120.66058949567378, 48.5139325261116, 2099.66], [-120.66061011515558, 48.513952726498246, 2097.25], [-120.66061832942069, 48.5139224678278, 2096.77], [-120.66067448817194, 48.51390712894499, 2096.29], [-120.66068898886442, 48.51390788331628, 2095.33], [-120.66069921478629, 48.51389170624316, 2094.85], [-120.66071396693587, 48.51389732211828, 2094.37], [-120.6607404537499, 48.51388592272997, 2093.89], [-120.66074724309146, 48.513877876102924, 2092.45], [-120.66074875183403, 48.513861363753676, 2090.52], [-120.66077725030482, 48.51384099572897, 2090.52], [-120.66080876626074, 48.5138289257884, 2089.08], [-120.66079644486308, 48.51383110508323, 2088.6], [-120.6608009710908, 48.51381224580109, 2089.08], [-120.66082167439163, 48.51378642953932, 2087.64], [-120.6607869733125, 48.51377125829458, 2086.2], [-120.66078462637961, 48.513754745945334, 2083.79], [-120.66080331802368, 48.51376438513398, 2080.91], [-120.66081454977393, 48.51374049670994, 2081.87], [-120.66084363497794, 48.51374284364283, 2082.83], [-120.66084103658795, 48.51375692524016, 2079.47], [-120.66085604019463, 48.51374661549926, 2078.99], [-120.66085997968912, 48.513708813115954, 2079.95], [-120.66087489947677, 48.51369741372764, 2076.1], [-120.66086936742067, 48.51369590498507, 2075.62], [-120.66085738129914, 48.51366715505719, 2073.22], [-120.66090440377593, 48.51365667767823, 2071.78], [-120.66092879511416, 48.51366673596203, 2071.3], [-120.66096492111683, 48.5136737767607, 2071.78], [-120.66102334298193, 48.51362993940711, 2070.34], [-120.6610391009599, 48.51362801156938, 2069.38], [-120.66099953837693, 48.513606721535325, 2068.41], [-120.66102267242968, 48.51358802989125, 2068.89], [-120.6610491592437, 48.51357847452164, 2066.01], [-120.66105670295656, 48.51356774568558, 2064.09], [-120.66108109429479, 48.51355215534568, 2065.05], [-120.66110908985138, 48.51351946592331, 2063.61], [-120.66111034713686, 48.5135268419981, 2057.84], [-120.6611458864063, 48.51350773125887, 2053.51], [-120.66116407513618, 48.51349490694702, 2052.55], [-120.66119441762567, 48.513492392376065, 2051.59], [-120.66126977093518, 48.51347269490361, 2047.75], [-120.66133783198893, 48.51346381008625, 2044.86], [-120.66129215061665, 48.51345006376505, 2044.86], [-120.66129726357758, 48.51343975402415, 2044.86], [-120.66132542677224, 48.51341645233333, 2044.38], [-120.66128879785538, 48.513416619971395, 2041.02], [-120.66129843704402, 48.513400945812464, 2039.57], [-120.66132433712482, 48.51338082924485, 2036.21], [-120.66131981089711, 48.51334855891764, 2032.36], [-120.66136691719294, 48.513325257226825, 2032.36], [-120.66138485446572, 48.513297848403454, 2030.44], [-120.66139709204435, 48.51325803436339, 2026.12], [-120.6613897997886, 48.513221656903625, 2022.75], [-120.66138653084636, 48.51317681372166, 2018.43], [-120.6614122632891, 48.51314269937575, 2018.43], [-120.6614550948143, 48.513119984418154, 2015.54], [-120.66139843314886, 48.51309651508927, 2014.1], [-120.66138971596956, 48.51306080818176, 2012.66], [-120.66145945340395, 48.513032058253884, 2011.7], [-120.66151645034552, 48.5130017157644, 2010.25], [-120.66154696047306, 48.51293843239546, 2007.85], [-120.66157629713416, 48.51289442740381, 2007.85], [-120.66156632266939, 48.51285553537309, 2007.37], [-120.66160613670945, 48.512835670262575, 2004.97], [-120.66164201125503, 48.51281982846558, 2003.52], [-120.66170504316688, 48.51281144656241, 2001.12], [-120.6617259979248, 48.51277666166425, 1999.2], [-120.66178374923766, 48.512771129608154, 1997.28], [-120.66178559325635, 48.51276509463787, 1996.8], [-120.66185289993882, 48.51271966472268, 1994.87], [-120.6619522254914, 48.512732991948724, 1994.87], [-120.66203168593347, 48.512717401608825, 1992.95], [-120.6621181871742, 48.512736428529024, 1991.51], [-120.66216638311744, 48.51268303580582, 1988.14], [-120.66224986687303, 48.51268068887293, 1987.18], [-120.66231784410775, 48.512662667781115, 1986.7], [-120.66237224265933, 48.51261790841818, 1984.78], [-120.66253711469471, 48.51253283210099, 1982.38], [-120.66255446523428, 48.512528305873275, 1981.9], [-120.66263711079955, 48.512638779357076, 1977.57], [-120.66264708526433, 48.5126462392509, 1977.09], [-120.66273182630539, 48.51265076547861, 1974.69], [-120.66278580576181, 48.51270600222051, 1972.28], [-120.66285705193877, 48.51275780238211, 1969.4], [-120.66292435862124, 48.51281404495239, 1967.48], [-120.66295369528234, 48.51288227364421, 1966.99], [-120.66294003278017, 48.51293348707259, 1965.55], [-120.66296224482358, 48.51295159198344, 1965.07], [-120.66297196783125, 48.51298235356808, 1964.59], [-120.66295537166297, 48.51298880763352, 1964.59], [-120.66297322511673, 48.51299727335572, 1964.11], [-120.66294782795012, 48.51299274712801, 1966.51], [-120.66295394673944, 48.51301185786724, 1964.11], [-120.66300130449235, 48.51302535273135, 1961.71], [-120.66307129338384, 48.51304261945188, 1958.82], [-120.66312091425061, 48.51305829361081, 1954.5], [-120.66320406273007, 48.513087294995785, 1949.69], [-120.66325158812106, 48.513089306652546, 1945.36], [-120.66330556757748, 48.51309944875538, 1943.44], [-120.66335426643491, 48.513082936406136, 1943.44], [-120.66339617595077, 48.5130865406245, 1944.4], [-120.66345878876746, 48.51307732053101, 1943.92], [-120.66350195556879, 48.513102885335684, 1941.52], [-120.66352877765894, 48.51309349760413, 1939.6], [-120.66357479430735, 48.51308084093034, 1936.71], [-120.6636208947748, 48.51307195611298, 1935.75], [-120.66366934217513, 48.5130088403821, 1932.87], [-120.66368979401886, 48.513009594753385, 1931.91], [-120.6637295242399, 48.513022335246205, 1930.95], [-120.66378006711602, 48.5130088403821, 1928.54], [-120.66383371129632, 48.513013869524, 1924.22], [-120.66387813538313, 48.513033064082265, 1921.33], [-120.66394619643688, 48.51298889145255, 1921.33], [-120.66398818977177, 48.512977408245206, 1919.41], [-120.66399053670466, 48.51297313347459, 1918.45], [-120.66403311677277, 48.51298143155873, 1917.49], [-120.66407904960215, 48.512977324426174, 1915.56], [-120.66410008817911, 48.51296458393335, 1911.72], [-120.66418105736375, 48.51294497027993, 1908.83], [-120.66425322555006, 48.512954358011484, 1906.43], [-120.66429111175239, 48.51290280930698, 1902.11], [-120.66434333100915, 48.51288520731032, 1899.22], [-120.664377277717, 48.512853188440204, 1898.26], [-120.66442782059312, 48.51286140270531, 1896.82], [-120.66449018195271, 48.512868946418166, 1895.86], [-120.66453016363084, 48.51283919066191, 1891.53], [-120.6645842269063, 48.51281831972301, 1887.69], [-120.66464734263718, 48.51281060837209, 1885.76], [-120.66468992270529, 48.512798035517335, 1882.88], [-120.66471020691097, 48.51280029863119, 1882.4], [-120.6647277250886, 48.512758975848556, 1881.44], [-120.664771059528, 48.51271329447627, 1882.4], [-120.66483803093433, 48.51264012046158, 1879.03], [-120.66483886912465, 48.51261220872402, 1876.63], [-120.66485529765487, 48.512611370533705, 1875.67], [-120.66495177336037, 48.51252478547394, 1871.82], [-120.6650007236749, 48.512564515694976, 1870.86], [-120.66507046110928, 48.512536184862256, 1867.98], [-120.66509594209492, 48.51254557259381, 1867.98], [-120.66519116051495, 48.51254473440349, 1867.98], [-120.66533264704049, 48.51256317459047, 1865.58], [-120.66548964008689, 48.512522941455245, 1862.21], [-120.66558762453496, 48.5125529486686, 1859.33], [-120.66568678244948, 48.51258605718613, 1859.81], [-120.66567211411893, 48.51264883764088, 1857.89], [-120.66571301780641, 48.512747157365084, 1858.37], [-120.6657362356782, 48.51282628253102, 1857.4], [-120.66577512770891, 48.51295528002083, 1856.92], [-120.66584846936166, 48.51309039629996, 1858.37], [-120.66591502167284, 48.51319978013635, 1857.89], [-120.6659912969917, 48.51328544318676, 1854.04], [-120.66604904830456, 48.51335685700178, 1852.6], [-120.66622590646148, 48.51343061774969, 1850.19], [-120.6663023494184, 48.51347856223583, 1849.23], [-120.6664199475199, 48.51352985948324, 1846.83], [-120.66642103716731, 48.51354620419443, 1846.83], [-120.6664751842618, 48.51360160857439, 1845.87], [-120.6665235478431, 48.513705376535654, 1842.5], [-120.66653528250754, 48.51374393329024, 1841.54], [-120.66655120812356, 48.51383361965418, 1840.1], [-120.66653368994594, 48.51387519389391, 1839.62], [-120.66655992530286, 48.51394350640476, 1838.18], [-120.66659487783909, 48.513974603265524, 1837.7], [-120.66659932024777, 48.51400083862245, 1837.22], [-120.66666201688349, 48.51409060880542, 1837.22], [-120.6667048484087, 48.51425036787987, 1837.22], [-120.66668624058366, 48.514388082548976, 1836.26], [-120.66668062470853, 48.51443535648286, 1835.77], [-120.66663729026914, 48.51452755741775, 1833.85], [-120.66673334687948, 48.5146857239306, 1829.53], [-120.66678841598332, 48.51473676972091, 1829.05], [-120.66686594858766, 48.51479980163276, 1829.05], [-120.66696661524475, 48.51491781882942, 1829.05], [-120.66708899103105, 48.51502250880003, 1828.08], [-120.66712444648147, 48.51504564285278, 1827.6], [-120.6672035716474, 48.51519978605211, 1823.28], [-120.66728881560266, 48.51537773385644, 1819.91], [-120.6674282066524, 48.51556548848748, 1817.99], [-120.66753113642335, 48.51572507992387, 1813.66], [-120.66759777255356, 48.515894897282124, 1809.34], [-120.66762283444405, 48.5158961545676, 1806.94], [-120.66772635094821, 48.51594703271985, 1805.49], [-120.66784059628844, 48.5161017626524, 1804.05], [-120.66802684217691, 48.51628214120865, 1801.17], [-120.66819297149777, 48.51648481562734, 1798.76], [-120.66829020157456, 48.51663745008409, 1797.8], [-120.66839405335486, 48.51682310923934, 1794.44], [-120.66846035420895, 48.51702092215419, 1793.96], [-120.66852221265435, 48.51719845086336, 1793.0], [-120.66851533949375, 48.51736634038389, 1791.55], [-120.66854459233582, 48.51753909140825, 1791.55], [-120.66854316741228, 48.51766926236451, 1791.55], [-120.66845582798123, 48.51785743609071, 1789.63], [-120.66838961094618, 48.517994647845626, 1791.07], [-120.66830411553383, 48.518149461597204, 1791.55], [-120.66822909750044, 48.51821567863226, 1788.19], [-120.66821509972215, 48.51822632364929, 1788.19], [-120.66822163760662, 48.518330845981836, 1784.34], [-120.66837293095887, 48.51830067113042, 1782.42], [-120.6684002559632, 48.51829832419753, 1782.9], [-120.66856227815151, 48.51822858676314, 1782.42], [-120.66881926730275, 48.51811358705163, 1781.94], [-120.66893954761326, 48.51806614547968, 1781.46], [-120.66910291090608, 48.5179390758276, 1780.98], [-120.66930156201124, 48.51783606223762, 1780.98], [-120.66932830028236, 48.51782969199121, 1780.98], [-120.66955930553377, 48.517748806625605, 1779.54], [-120.66972493194044, 48.517638416960835, 1780.02], [-120.66975904628634, 48.51761410944164, 1779.54], [-120.66989516839385, 48.517487458884716, 1777.61], [-120.67008837126195, 48.51737396791577, 1773.29], [-120.67021703347564, 48.51722778752446, 1769.92], [-120.6703567598015, 48.51710323244333, 1767.52], [-120.67036824300885, 48.51698479615152, 1765.6], [-120.67035131156445, 48.51697658188641, 1765.6], [-120.6701046321541, 48.516877172514796, 1762.71], [-120.66999549977481, 48.51671791635454, 1758.39], [-120.67008912563324, 48.516527228057384, 1752.14], [-120.6701688375324, 48.51631147786975, 1750.7], [-120.67019507288933, 48.51619270630181, 1748.29], [-120.6702674087137, 48.51606136187911, 1746.37], [-120.67027889192104, 48.51591928862035, 1745.41], [-120.67030806094408, 48.515806552022696, 1744.93], [-120.67033597268164, 48.51567931473255, 1743.97], [-120.67032935097814, 48.515659365803, 1743.97], [-120.67031619139016, 48.5154783166945, 1743.49], [-120.6703361403197, 48.5154780652374, 1743.97], [-120.67049975506961, 48.51536449044943, 1743.49], [-120.67053579725325, 48.51531864143908, 1743.01], [-120.67053261213005, 48.51516047492623, 1740.12], [-120.67055792547762, 48.51504312828183, 1738.2], [-120.67061911337078, 48.51489066146314, 1737.72], [-120.67067250609398, 48.514743726700544, 1736.28], [-120.67069547250867, 48.514713468030095, 1735.32], [-120.67085405811667, 48.51465177722275, 1730.51], [-120.67092798650265, 48.51461565122008, 1725.22], [-120.67093159072101, 48.514620680361986, 1724.74], [-120.67102362401783, 48.51461799815297, 1721.86], [-120.67113275639713, 48.51461020298302, 1721.86], [-120.6712827924639, 48.51467004977167, 1721.86], [-120.671322690323, 48.51473190821707, 1722.34], [-120.67139569669962, 48.51475068368018, 1721.86], [-120.67153500393033, 48.51470701396465, 1721.38], [-120.67160105332732, 48.5146492626518, 1721.38], [-120.67160801030695, 48.51460165344179, 1721.38], [-120.6716456450522, 48.51457432843745, 1721.86], [-120.6717526819557, 48.51460366509855, 1721.38], [-120.6718491576612, 48.51462436839938, 1720.42], [-120.67200581543148, 48.51469452492893, 1717.05], [-120.67212886177003, 48.514791671186686, 1715.61], [-120.67233958281577, 48.51484263315797, 1712.73], [-120.67239976488054, 48.51503374055028, 1711.28], [-120.67242784425616, 48.515188470482826, 1712.25], [-120.67227001301944, 48.51533171720803, 1713.69], [-120.67225065082312, 48.51555333472788, 1713.69], [-120.67217077128589, 48.51566657423973, 1714.17], [-120.67202056758106, 48.515786938369274, 1712.25], [-120.67201956175268, 48.51581568829715, 1712.25], [-120.67207613959908, 48.51593689061701, 1713.21], [-120.67220102995634, 48.51603487506509, 1713.21], [-120.67223489284515, 48.516103103756905, 1711.76], [-120.67227722145617, 48.51633218117058, 1710.32], [-120.67227009683847, 48.516435362398624, 1710.32], [-120.67224126309156, 48.516536112874746, 1710.32], [-120.67217772826552, 48.51667650975287, 1706.96], [-120.67204588092864, 48.51681288331747, 1703.11], [-120.67204127088189, 48.516850182786584, 1702.63], [-120.67208703607321, 48.51703559048474, 1701.67], [-120.67207127809525, 48.5171721316874, 1700.71], [-120.6720946636051, 48.517351504415274, 1700.23], [-120.67209139466286, 48.51750263012946, 1698.79], [-120.67203666083515, 48.517662389203906, 1696.86], [-120.67190296947956, 48.517758110538125, 1694.46], [-120.67183021456003, 48.51782038807869, 1693.02], [-120.6716816034168, 48.51790211163461, 1689.17], [-120.67148563452065, 48.51798601448536, 1690.14], [-120.67136292345822, 48.518086513504386, 1689.17], [-120.6712479237467, 48.51812389679253, 1687.73], [-120.67110266536474, 48.51820168085396, 1685.33], [-120.6709854863584, 48.5182776208967, 1685.33], [-120.67086931318045, 48.518390860408545, 1684.85], [-120.67067602649331, 48.518558414652944, 1682.93], [-120.67047896794975, 48.51863971911371, 1681.48], [-120.67034846171737, 48.51876184344292, 1682.44], [-120.67030722275376, 48.518808195367455, 1683.89], [-120.67025357857347, 48.518872149288654, 1684.37], [-120.6701949890703, 48.51889042183757, 1683.89], [-120.67013941705227, 48.518999721854925, 1684.37], [-120.66999516449869, 48.51911731995642, 1684.85], [-120.66986893303692, 48.51923734880984, 1684.85], [-120.66976625472307, 48.51938461884856, 1684.85], [-120.66961194388568, 48.51959844119847, 1680.52], [-120.66948772408068, 48.51969826966524, 1677.64], [-120.66938672214746, 48.51985258050263, 1677.16], [-120.66925420425832, 48.51999130100012, 1677.64], [-120.66913207992911, 48.52014301344752, 1676.2], [-120.6690205167979, 48.520274609327316, 1674.27], [-120.66886947490275, 48.52038726210594, 1673.31], [-120.66872891038656, 48.52052606642246, 1672.35], [-120.66865414381027, 48.520649783313274, 1671.87], [-120.66864794120193, 48.52082219906151, 1670.91], [-120.66862690262496, 48.520844746381044, 1670.43], [-120.66867912188172, 48.52101758122444, 1671.39], [-120.668677194044, 48.521034345030785, 1670.91], [-120.66860217601061, 48.5211889911443, 1668.02], [-120.66861776635051, 48.52128764614463, 1666.58], [-120.6685960572213, 48.52141781710088, 1664.66], [-120.66851693205535, 48.521547485142946, 1662.74], [-120.668516010046, 48.52160766720772, 1662.74], [-120.66853067837656, 48.52176658809185, 1658.89], [-120.66862413659692, 48.521760888397694, 1657.45], [-120.66870225593448, 48.521718895062804, 1656.01], [-120.66889923065901, 48.52155678905547, 1650.24], [-120.66907030530274, 48.5215272847563, 1648.8], [-120.66921866498888, 48.52139334194362, 1649.76], [-120.66935386508703, 48.52130332030356, 1651.2], [-120.66951747983694, 48.52120164781809, 1652.16], [-120.66959383897483, 48.521157056093216, 1651.68], [-120.66968830302358, 48.52118865586817, 1651.2], [-120.66988527774811, 48.52111866697669, 1647.84], [-120.67011686973274, 48.521069549024105, 1647.36], [-120.6704019382596, 48.52100760675967, 1647.84], [-120.67060402594507, 48.52094943635166, 1647.36], [-120.67070628516376, 48.52093753404915, 1646.88], [-120.67086562514305, 48.520835442468524, 1646.4], [-120.67087694071233, 48.520815493538976, 1646.4], [-120.67086956463754, 48.52067140862346, 1646.88], [-120.67090376280248, 48.520588176324964, 1646.88], [-120.67105597816408, 48.520445097237825, 1646.88], [-120.67124390043318, 48.52037192322314, 1647.84], [-120.67136384546757, 48.52030226960778, 1646.4], [-120.67158102057874, 48.52017670869827, 1640.63], [-120.67178470082581, 48.5201027803123, 1637.26], [-120.67184479907155, 48.52009414695203, 1637.26], [-120.67199969664216, 48.52005332708359, 1637.26], [-120.67213313654065, 48.520030779764056, 1636.78], [-120.67229339852929, 48.51994679309428, 1638.22], [-120.67232977598906, 48.51991519331932, 1638.22], [-120.67253689281642, 48.51976750418544, 1638.22], [-120.67270738072693, 48.51967127993703, 1639.67], [-120.67271207459271, 48.51966457441449, 1639.67], [-120.67276043817401, 48.51960975676775, 1639.67], [-120.67289588972926, 48.519501965492964, 1640.63], [-120.67304525524378, 48.51933843456209, 1640.15], [-120.67320870235562, 48.519266014918685, 1639.67], [-120.67328070290387, 48.519264087080956, 1640.63], [-120.67347843199968, 48.519083708524704, 1637.26], [-120.67360013723373, 48.518956722691655, 1637.26], [-120.67362125962973, 48.51895638741553, 1637.26], [-120.6737506762147, 48.518920512869954, 1636.78], [-120.67394245415926, 48.518963092938066, 1635.34], [-120.67417865619063, 48.51900483481586, 1635.82], [-120.6742496509105, 48.519055461511016, 1636.3], [-120.67427773028612, 48.51904925890267, 1637.74], [-120.67428234033287, 48.519043726846576, 1639.19], [-120.67438275553286, 48.51920876652002, 1645.91], [-120.67432592622936, 48.51922729052603, 1647.84], [-120.6742980144918, 48.519232487306, 1644.95], [-120.67429164424539, 48.519224440678954, 1643.51], [-120.6742858607322, 48.5192790068686, 1638.7], [-120.6742739584297, 48.519259141758084, 1638.7], [-120.67431000061333, 48.51925293914974, 1641.11], [-120.6743234116584, 48.51924380287528, 1642.07], [-120.67434277385473, 48.519242126494646, 1640.63], [-120.67435911856592, 48.51922092027962, 1640.63], [-120.67437739111483, 48.51904624141753, 1640.15], [-120.67437940277159, 48.51898631080985, 1639.67], [-120.67434503696859, 48.51899150758982, 1640.63], [-120.6743186339736, 48.51895647123456, 1643.99], [-120.6742784846574, 48.5189631767571, 1644.47], [-120.67415619269013, 48.51896879263222, 1644.95], [-120.67400431260467, 48.51897055283189, 1644.47], [-120.67385234870017, 48.5189407132566, 1643.03], [-120.6736402027309, 48.51891489699483, 1643.99], [-120.67358555272222, 48.51897943764925, 1644.95], [-120.6734565552324, 48.51913475431502, 1643.99], [-120.6732649449259, 48.519269870594144, 1643.03], [-120.67308330908418, 48.51934053003788, 1645.43], [-120.67302807234228, 48.51936500519514, 1645.91], [-120.6729144975543, 48.519463911652565, 1646.88], [-120.67290988750756, 48.51948671042919, 1646.4], [-120.67273864522576, 48.51964169181883, 1646.88], [-120.67253219895065, 48.51975451223552, 1647.84], [-120.67236908711493, 48.519838247448206, 1648.32], [-120.67232256755233, 48.51986431516707, 1648.32], [-120.67226020619273, 48.51995165459812, 1647.36], [-120.67200925201178, 48.52006531320512, 1647.84], [-120.67181915044785, 48.52011241950095, 1647.36], [-120.6715795956552, 48.52020587772131, 1649.76], [-120.67152662202716, 48.52023119106889, 1649.76], [-120.6713723950088, 48.52029480971396, 1649.76], [-120.67125915549695, 48.52036211639643, 1649.28], [-120.67115211859345, 48.52041643112898, 1650.72], [-120.67091817967594, 48.52053897455335, 1653.12], [-120.6708906032145, 48.520589182153344, 1653.12], [-120.67088758572936, 48.52076159790158, 1650.24], [-120.67087392322719, 48.520770063623786, 1650.72], [-120.67083830013871, 48.52081029675901, 1650.24], [-120.670778285712, 48.52086494676769, 1649.28], [-120.67060008645058, 48.52094625122845, 1649.28], [-120.6705848313868, 48.52095639333129, 1649.28], [-120.67055331543088, 48.520967960357666, 1649.76], [-120.67049749195576, 48.520967457443476, 1650.24], [-120.67025860771537, 48.52102286182344, 1653.12], [-120.66997848451138, 48.52103308774531, 1654.09], [-120.66980548202991, 48.521130569279194, 1653.12], [-120.66953633911908, 48.521200055256486, 1655.53], [-120.66941865719855, 48.52128814905882, 1656.01], [-120.66926459781826, 48.52143323980272, 1656.01], [-120.66915546543896, 48.52151974104345, 1658.41], [-120.6691293977201, 48.52154321037233, 1658.89], [-120.66893485374749, 48.521618731319904, 1660.33], [-120.66891926340759, 48.52162736468017, 1660.33], [-120.66883091814816, 48.521686708554626, 1661.78], [-120.66875346936285, 48.52172006852925, 1661.78], [-120.6685971468687, 48.5218312125653, 1663.7], [-120.66858096979558, 48.52173088118434, 1666.1], [-120.66858080215752, 48.52171964943409, 1666.58], [-120.66858826205134, 48.52165762335062, 1666.58], [-120.6686045229435, 48.52156626060605, 1666.58], [-120.66865389235318, 48.52140516042709, 1667.06], [-120.66864618100226, 48.52122578769922, 1668.02], [-120.66867467947304, 48.521209275349975, 1668.51], [-120.66871952265501, 48.521044068038464, 1671.39], [-120.6686872523278, 48.5208713170141, 1674.75], [-120.6686714105308, 48.52070870809257, 1678.12], [-120.66871038638055, 48.520645843818784, 1681.0], [-120.66879906691611, 48.52055615745485, 1681.96], [-120.6689322553575, 48.52044627070427, 1685.33], [-120.66905580461025, 48.52037695236504, 1688.21], [-120.66919066943228, 48.52027385495603, 1689.65], [-120.66924775019288, 48.520232029259205, 1691.1], [-120.66932025365531, 48.52007118053734, 1697.34], [-120.66943257115781, 48.51994981057942, 1697.34], [-120.66959601826966, 48.51982902735472, 1698.31], [-120.66971445456147, 48.51967513561249, 1697.83], [-120.6697938311845, 48.51954739540815, 1698.31], [-120.669826855883, 48.51947648450732, 1698.31], [-120.66984537988901, 48.51942854002118, 1698.31], [-120.66996146924794, 48.51936450228095, 1697.34], [-120.6700237467885, 48.51923198439181, 1696.86], [-120.67005543038249, 48.51915352977812, 1696.38], [-120.67017076537013, 48.519040290266275, 1695.9], [-120.67034217528999, 48.5188905056566, 1695.42], [-120.670474357903, 48.5187850613147, 1695.42], [-120.67066680639982, 48.51866042241454, 1694.46], [-120.67082413472235, 48.51856947876513, 1694.46], [-120.67096687853336, 48.51845188066363, 1696.86], [-120.67103192210197, 48.51837485097349, 1697.34], [-120.67112538032234, 48.518287762999535, 1700.23], [-120.6712687946856, 48.518216935917735, 1702.63], [-120.67149653099477, 48.51809246465564, 1706.0], [-120.6715610716492, 48.51804368197918, 1707.44], [-120.6715811882168, 48.51800914853811, 1707.44], [-120.67163583822548, 48.517977967858315, 1706.96], [-120.671761399135, 48.5179337952286, 1705.04], [-120.67193222232163, 48.517848048359156, 1704.55], [-120.67196591757238, 48.5178249143064, 1704.55], [-120.67210388369858, 48.51770740002394, 1703.59], [-120.67213900387287, 48.517624251544476, 1703.59], [-120.67218937911093, 48.517568008974195, 1704.55], [-120.67216507159173, 48.51756281219423, 1704.55], [-120.67213238216937, 48.51740472950041, 1706.96], [-120.67213975824416, 48.51733951829374, 1708.88], [-120.67207957617939, 48.51715042255819, 1711.76], [-120.67199860699475, 48.516989070922136, 1712.25], [-120.6720254290849, 48.51692830212414, 1712.25], [-120.67208242602646, 48.51685085333884, 1712.25], [-120.67224486730993, 48.51664390414953, 1712.73], [-120.67226079292595, 48.51654122583568, 1713.69], [-120.67230412736535, 48.51638917811215, 1713.69], [-120.67227965220809, 48.51618591696024, 1714.65], [-120.6721771415323, 48.516034707427025, 1714.65], [-120.67210991866887, 48.515911074355245, 1718.01], [-120.67220346070826, 48.51577461697161, 1720.9], [-120.67223774269223, 48.51566841825843, 1722.34], [-120.67227831110358, 48.51560823619366, 1723.78], [-120.67226959392428, 48.515520142391324, 1725.22], [-120.67236145958304, 48.515369268134236, 1725.7], [-120.67240605130792, 48.515307661145926, 1726.67], [-120.67242935299873, 48.51511646993458, 1726.67], [-120.67241594195366, 48.51496584713459, 1726.67], [-120.6724070571363, 48.51495168171823, 1726.18], [-120.67228585481644, 48.51490532979369, 1723.3], [-120.6722223199904, 48.51486576721072, 1722.34], [-120.6720254290849, 48.514770129695535, 1718.49], [-120.67200304940343, 48.51472922600806, 1718.01], [-120.67194135859609, 48.51467306725681, 1717.05], [-120.67170700058341, 48.51458019576967, 1715.61], [-120.67161647602916, 48.514607856050134, 1716.09], [-120.6715193297714, 48.51473878137767, 1717.05], [-120.67147205583751, 48.514759903773665, 1717.53], [-120.67140709608793, 48.514769710600376, 1718.01], [-120.67137130536139, 48.51473324932158, 1718.01], [-120.67134213633835, 48.514643143862486, 1720.42], [-120.67124415189028, 48.51460022851825, 1720.9], [-120.67115052603185, 48.51459679193795, 1721.86], [-120.67097961902618, 48.514624536037445, 1723.78], [-120.67090451717377, 48.51461355574429, 1724.26], [-120.67067937925458, 48.51468245498836, 1725.7], [-120.67058198153973, 48.514756467193365, 1726.18], [-120.67048852331936, 48.51486652158201, 1726.67], [-120.67042683251202, 48.51501404307783, 1727.15], [-120.67041208036244, 48.515185033902526, 1726.67], [-120.67022583447397, 48.51536742411554, 1728.11], [-120.67019172012806, 48.51552056148648, 1728.59], [-120.67015768960118, 48.515692222863436, 1730.51], [-120.67014746367931, 48.515841672196984, 1731.95], [-120.67014838568866, 48.51585323922336, 1732.43], [-120.67013463936746, 48.51603688672185, 1735.32], [-120.67012273706496, 48.516066977754235, 1736.28], [-120.67013480700552, 48.51622506044805, 1740.12], [-120.67012458108366, 48.516379706561565, 1743.97], [-120.67005610093474, 48.51656352169812, 1744.93], [-120.67004897631705, 48.5165748372674, 1744.93], [-120.66994093358517, 48.51670869626105, 1746.37], [-120.66996498964727, 48.51676502265036, 1748.78], [-120.67011485807598, 48.516811626031995, 1749.26], [-120.67027822136879, 48.516856553032994, 1752.62], [-120.67032675258815, 48.51696535013616, 1752.14], [-120.67022256553173, 48.51713340729475, 1753.1], [-120.67013522610068, 48.517275899648666, 1754.06], [-120.66998560912907, 48.517364244908094, 1756.95], [-120.66983783617616, 48.51746901869774, 1759.35], [-120.66970892250538, 48.517539678141475, 1760.79], [-120.6695612333715, 48.51767345331609, 1762.23], [-120.66943072713912, 48.51771670393646, 1763.68], [-120.66931522451341, 48.5177887044847, 1767.04], [-120.66928463056684, 48.517803540453315, 1767.52], [-120.66905639134347, 48.5179390758276, 1767.52], [-120.66883645020425, 48.51807586848736, 1767.52], [-120.6687356159091, 48.51813102141023, 1768.96], [-120.66852933727205, 48.5182134155184, 1774.73], [-120.66847116686404, 48.51824845187366, 1775.21], [-120.66829975694418, 48.51833352819085, 1777.13], [-120.66817352548242, 48.518381556496024, 1778.58], [-120.66820579580963, 48.51828851737082, 1780.5], [-120.66823261789978, 48.518216013908386, 1780.98], [-120.66824988462031, 48.51820017211139, 1781.46], [-120.66827938891947, 48.518198411911726, 1781.46], [-120.66838458180428, 48.51808609440923, 1786.27], [-120.66843629814684, 48.51799280382693, 1788.67], [-120.66848759539425, 48.51789121516049, 1793.96], [-120.66858147270977, 48.51777780801058, 1799.73], [-120.6685815565288, 48.51772793568671, 1801.65], [-120.66863813437521, 48.517544623464346, 1803.57], [-120.66859848797321, 48.517392659559846, 1806.45], [-120.6685992423445, 48.517381846904755, 1806.45], [-120.66857661120594, 48.51728000678122, 1808.86], [-120.66854970529675, 48.5170981194824, 1815.59], [-120.6685437541455, 48.516936684027314, 1822.8], [-120.66851517185569, 48.516831239685416, 1827.12], [-120.66850561648607, 48.51680399850011, 1828.08], [-120.66846689209342, 48.51671137847006, 1830.97], [-120.66841383464634, 48.51656938903034, 1837.22], [-120.66830554045737, 48.51640778593719, 1839.14], [-120.66823999397457, 48.51630795747042, 1838.18], [-120.66808702424169, 48.51614593528211, 1837.7], [-120.66798074170947, 48.516012663021684, 1835.77], [-120.66786549054086, 48.51592113263905, 1835.29], [-120.66776189021766, 48.5158512275666, 1835.77], [-120.66763004288077, 48.51569431833923, 1837.22], [-120.6675370875746, 48.51557026617229, 1837.7], [-120.66738571040332, 48.51537907496095, 1841.06], [-120.66728889942169, 48.515239767730236, 1843.95], [-120.66723550669849, 48.51512040942907, 1843.95], [-120.6671797670424, 48.51502971723676, 1844.91], [-120.66712779924273, 48.514962159097195, 1844.91], [-120.6670568883419, 48.51484078913927, 1845.87], [-120.66697189584374, 48.514771638438106, 1845.87], [-120.6669136416167, 48.51471355184913, 1848.75], [-120.66683602519333, 48.51462713442743, 1853.08], [-120.66683946177363, 48.514590756967664, 1853.08], [-120.6668346002698, 48.51445170119405, 1851.16], [-120.66682864911854, 48.51433980278671, 1851.64], [-120.66678925417364, 48.51423335261643, 1851.64], [-120.66674097441137, 48.514089938253164, 1850.68], [-120.66673326306045, 48.514064541086555, 1850.68], [-120.66668724641204, 48.51392473094165, 1853.56], [-120.66667140461504, 48.513877876102924, 1852.6], [-120.6666353624314, 48.51368132047355, 1850.68], [-120.66661968827248, 48.513640919700265, 1851.16], [-120.66658465191722, 48.51351410150528, 1852.6], [-120.66646034829319, 48.51345207542181, 1852.6], [-120.66639848984778, 48.513434221968055, 1852.6], [-120.6661813147366, 48.51344176568091, 1853.08], [-120.66609900444746, 48.513326263055205, 1853.08], [-120.66603203304112, 48.51325258612633, 1853.56], [-120.6659344676882, 48.51315946318209, 1854.04], [-120.66585299558938, 48.51308251731098, 1854.52], [-120.66586322151124, 48.51302149705589, 1854.52], [-120.66579038277268, 48.5128983668983, 1855.0], [-120.66574537195265, 48.512831730768085, 1855.48], [-120.6657063961029, 48.512701224535704, 1856.44], [-120.66571586765349, 48.512616818770766, 1856.92], [-120.66567923873663, 48.51257834583521, 1857.4], [-120.66568292677402, 48.51254708133638, 1857.4], [-120.66567814908922, 48.51253450848162, 1858.85], [-120.6656461302191, 48.512533754110336, 1858.85], [-120.66558628343046, 48.51253626868129, 1858.85], [-120.66558200865984, 48.51253844797611, 1858.85], [-120.66546977497637, 48.512502405792475, 1859.33], [-120.66526927985251, 48.512531742453575, 1860.29], [-120.6651801802218, 48.51252947933972, 1860.77], [-120.66505269147456, 48.512531239539385, 1861.25], [-120.66498789936304, 48.512520426884294, 1861.73], [-120.66489150747657, 48.51252897642553, 1862.69], [-120.66481087356806, 48.51258077658713, 1863.65], [-120.66475924104452, 48.51260910741985, 1863.65], [-120.66471884027123, 48.512661745771766, 1864.13], [-120.66466653719544, 48.51270533166826, 1864.61], [-120.66462504677474, 48.512733997777104, 1865.09], [-120.66463502123952, 48.51281052455306, 1865.09], [-120.66456578671932, 48.512800047174096, 1866.06], [-120.66449361853302, 48.512829802930355, 1866.54], [-120.6644079554826, 48.51285067386925, 1867.5], [-120.66434676758945, 48.51285796612501, 1867.98], [-120.66432162187994, 48.512854781001806, 1868.46], [-120.66423830576241, 48.51285578683019, 1870.38], [-120.66420326940715, 48.51285218261182, 1872.3], [-120.66416035406291, 48.51286073215306, 1874.23], [-120.66412959247828, 48.51288864389062, 1875.67], [-120.66408148035407, 48.51291856728494, 1876.63], [-120.6640041153878, 48.51291244849563, 1878.55], [-120.66397067159414, 48.51293130777776, 1879.51], [-120.66394301131368, 48.512955447658896, 1880.48], [-120.66384905017912, 48.51294178515673, 1883.84], [-120.6638505589217, 48.5129448864609, 1884.8], [-120.66381552256644, 48.51297958754003, 1885.28], [-120.66377897746861, 48.51299408823252, 1886.24], [-120.66371091641486, 48.51300657726824, 1887.69], [-120.6637881975621, 48.51301177404821, 1934.79], [-120.66381334327161, 48.51304882206023, 1949.21], [-120.66377889364958, 48.513051588088274, 1952.57], [-120.66369683481753, 48.51304639130831, 1951.13], [-120.66364704631269, 48.5130727943033, 1949.21], [-120.66362516954541, 48.51309668272734, 1950.65], [-120.66359331831336, 48.51311679929495, 1954.02], [-120.66355073824525, 48.513129875063896, 1957.38], [-120.66348167136312, 48.513113195076585, 1958.34], [-120.66339885815978, 48.513114117085934, 1960.27], [-120.66337388008833, 48.51311193779111, 1960.75], [-120.6633391790092, 48.51313314400613, 1962.19], [-120.66330539993942, 48.51312526501715, 1966.03], [-120.66323976963758, 48.51313540711999, 1969.88], [-120.66323038190603, 48.513123001903296, 1971.32], [-120.66315435804427, 48.51308503188193, 1969.88], [-120.66308210603893, 48.51305871270597, 1973.24], [-120.66303558647633, 48.51304781623185, 1976.61], [-120.6629868876189, 48.513037925586104, 1979.01], [-120.66298588179052, 48.51293524727225, 1979.97], [-120.66297406330705, 48.51290222257376, 1979.49], [-120.66291639581323, 48.51284388452768, 1980.93], [-120.66284649074078, 48.51278931833804, 1985.74], [-120.66279645077884, 48.51274606771767, 1987.18], [-120.66274951212108, 48.51268001832068, 1987.18], [-120.662672650069, 48.51268479600549, 1988.62], [-120.66263032145798, 48.51265596225858, 1990.55], [-120.66257324069738, 48.51258572191, 1991.51], [-120.66252211108804, 48.51258362643421, 1993.43], [-120.66249344497919, 48.51259125396609, 1993.91], [-120.66241960041225, 48.51256770081818, 1995.83], [-120.66230200231075, 48.512574741616845, 1998.72], [-120.66224232316017, 48.51261497475207, 2000.16], [-120.66217828541994, 48.5126290563494, 2002.56], [-120.66206722520292, 48.512630648911, 2003.52], [-120.66198013722897, 48.51259368471801, 2006.41], [-120.66191584803164, 48.51255185902119, 2008.33], [-120.66183739341795, 48.512509781867266, 2010.25], [-120.66173915751278, 48.5125199239701, 2011.7], [-120.66166749224067, 48.512503830716014, 2014.1], [-120.66158878616989, 48.51254213601351, 2013.62], [-120.66151469014585, 48.51250768639147, 2014.58], [-120.66147898323834, 48.51252906024456, 2016.02], [-120.66143648698926, 48.512549763545394, 2018.43], [-120.66136130131781, 48.512544985860586, 2021.31], [-120.66134269349277, 48.512613382190466, 2022.27], [-120.66129265353084, 48.51263442076743, 2025.64], [-120.66125409677625, 48.512656800448895, 2027.56], [-120.66118855029345, 48.51264674216509, 2030.44], [-120.66113113425672, 48.512680269777775, 2031.88], [-120.66105485893786, 48.51268731057644, 2033.81], [-120.66100616008043, 48.51274464279413, 2033.81], [-120.6609857082367, 48.512771716341376, 2034.77], [-120.66091219894588, 48.51275235414505, 2036.69], [-120.66081522032619, 48.5127289686352, 2036.21], [-120.66073550842702, 48.51269954815507, 2038.13], [-120.6606712192297, 48.512630481272936, 2038.61], [-120.66056711599231, 48.51258438080549, 2040.05], [-120.66047575324774, 48.51256225258112, 2041.98], [-120.66042127087712, 48.51250760257244, 2043.42], [-120.66038916818798, 48.512463765218854, 2046.3], [-120.66037860698998, 48.512427639216185, 2047.75], [-120.66039151512086, 48.512397799640894, 2049.19], [-120.66036821343005, 48.51233761757612, 2052.07], [-120.66036620177329, 48.51231490261853, 2052.55], [-120.66034239716828, 48.51224164478481, 2057.36], [-120.66029872745275, 48.51221381686628, 2058.8], [-120.66027291119099, 48.512166291475296, 2061.68], [-120.66023888066411, 48.5121263936162, 2064.57], [-120.66024198196828, 48.51211063563824, 2065.53], [-120.6602618470788, 48.51204911246896, 2071.78], [-120.66020166501403, 48.5119950491935, 2072.74], [-120.66014173440635, 48.51199404336512, 2075.14], [-120.66006219014525, 48.51194115355611, 2077.07], [-120.66005791537464, 48.51193034090102, 2076.59], [-120.65997627563775, 48.5118777025491, 2078.51], [-120.6598907802254, 48.51186445914209, 2081.39], [-120.6598268263042, 48.51181089878082, 2084.28], [-120.65972607582808, 48.511786507442594, 2085.24], [-120.65971182659268, 48.511773850768805, 2085.72], [-120.65965726040304, 48.51173797622323, 2087.16], [-120.65960646606982, 48.51170713081956, 2089.08], [-120.65956774167717, 48.511715177446604, 2088.6], [-120.65946849994361, 48.511709393933415, 2091.49], [-120.65936842001975, 48.51170629262924, 2092.93], [-120.6592726148665, 48.51171660237014, 2093.41], [-120.65918049775064, 48.511718194931746, 2093.41], [-120.65912283025682, 48.511727415025234, 2095.81], [-120.65903792157769, 48.511708891019225, 2097.73], [-120.65896223299205, 48.51167938672006, 2099.66], [-120.6589393503964, 48.511687349528074, 2100.62], [-120.65888034179807, 48.51166622713208, 2100.14], [-120.65881001763046, 48.511684918776155, 2101.1], [-120.65872603096068, 48.5116979945451, 2103.02], [-120.65866283141077, 48.51169832982123, 2105.42], [-120.65858437679708, 48.51165893487632, 2106.39], [-120.65848144702613, 48.5116358846426, 2107.35], [-120.65841757692397, 48.51163437590003, 2108.31], [-120.6584023218602, 48.51161786355078, 2108.79], [-120.65830945037305, 48.51165181025863, 2108.79], [-120.65825396217406, 48.511630687862635, 2108.79], [-120.65820777788758, 48.51162347942591, 2108.79], [-120.65816771239042, 48.511599423363805, 2109.27], [-120.6580928619951, 48.511606296524405, 2109.75], [-120.65800208598375, 48.51162758655846, 2110.23], [-120.65793151035905, 48.51159690879285, 2110.71], [-120.65786210820079, 48.51160755380988, 2110.71], [-120.65777443349361, 48.51158735342324, 2111.19], [-120.65771039575338, 48.51157830096781, 2111.67], [-120.65766798332334, 48.51158156991005, 2112.63], [-120.65762221813202, 48.51155533455312, 2113.6], [-120.65759849734604, 48.511537397280335, 2125.61], [-120.65762196667492, 48.511541252955794, 2129.46], [-120.65765708684921, 48.51153270341456, 2137.63], [-120.65764551982284, 48.51151216775179, 2137.63], [-120.6575663946569, 48.511521304026246, 2137.15], [-120.65746421925724, 48.51154846139252, 2137.15], [-120.65742197446525, 48.51152214221656, 2137.63], [-120.65738844685256, 48.51148618385196, 2138.11], [-120.65735257230699, 48.51143689826131, 2138.59], [-120.65732893534005, 48.51141636259854, 2139.07], [-120.65730244852602, 48.51140378974378, 2139.55], [-120.65728828310966, 48.511377051472664, 2140.99], [-120.65723874606192, 48.51137839257717, 2141.47], [-120.65722399391234, 48.51134520024061, 2142.44], [-120.6571831740439, 48.511334639042616, 2143.4], [-120.6571329664439, 48.51130831986666, 2144.84], [-120.65709030255675, 48.51130798459053, 2145.32], [-120.65707764588296, 48.5113166179508, 2146.28], [-120.65709013491869, 48.5112923104316, 2147.24], [-120.657090973109, 48.51128594018519, 2147.24], [-120.65706457011402, 48.511257441714406, 2147.72], [-120.65706909634173, 48.511254424229264, 2148.2], [-120.65700723789632, 48.511239755898714, 2149.16], [-120.65696876496077, 48.51129859685898, 2153.49], [-120.65697949379683, 48.51130563765764, 2154.45], [-120.65698997117579, 48.51129717193544, 2156.86], [-120.65698670223355, 48.511307230219245, 2158.78], [-120.65706180408597, 48.51130748167634, 2157.82], [-120.6570793222636, 48.51129147224128, 2163.58], [-120.65708225592971, 48.51126263849437, 2167.91], [-120.65712986513972, 48.51126682944596, 2169.83], [-120.65711486153305, 48.51130169816315, 2167.91], [-120.65713154152036, 48.51129138842225, 2171.27], [-120.65711142495275, 48.511267583817244, 2167.43], [-120.65712324343622, 48.511284766718745, 2169.35], [-120.6571364030242, 48.51127470843494, 2168.87], [-120.65711092203856, 48.51130664348602, 2169.83], [-120.6571554299444, 48.5112888738513, 2171.27], [-120.65714394673705, 48.51130614057183, 2172.72], [-120.65716356039047, 48.51128493435681, 2175.12], [-120.6571398396045, 48.51129272952676, 2172.72], [-120.65714729949832, 48.511273451149464, 2173.68], [-120.65713707357645, 48.51128753274679, 2172.24], [-120.65711134113371, 48.511265153065324, 2178.0], [-120.65708493813872, 48.511194325983524, 2180.41], [-120.6571845151484, 48.51127663627267, 2182.33], [-120.65727705135942, 48.511284766718745, 2185.21], [-120.65719499252737, 48.51129147224128, 2182.33], [-120.65715065225959, 48.51128635928035, 2179.93], [-120.6571519933641, 48.511317456141114, 2182.33], [-120.65716875717044, 48.51135928183794, 2184.73], [-120.6571414321661, 48.51140655577183, 2188.58], [-120.65714922733605, 48.51141829043627, 2192.9], [-120.65693632699549, 48.511501690372825, 2215.5], [-120.65694102086127, 48.51150990463793, 2215.98], [-120.65693674609065, 48.51152407005429, 2215.5], [-120.65695015713573, 48.51151459850371, 2221.74], [-120.65698041580617, 48.51152624934912, 2217.9], [-120.65699500031769, 48.51150873117149, 2215.01], [-120.65701930783689, 48.51149548776448, 2214.53], [-120.65700380131602, 48.511497834697366, 2209.73], [-120.65701201558113, 48.511491464450955, 2208.77], [-120.6569876242429, 48.51150194182992, 2209.73], [-120.65699877217412, 48.511491380631924, 2212.13], [-120.65699349157512, 48.51150764152408, 2211.65], [-120.65706859342754, 48.5114857647568, 2210.21], [-120.65701821818948, 48.51149314083159, 2212.13], [-120.65703682601452, 48.51149506866932, 2210.69], [-120.65703741274774, 48.51149967871606, 2211.65], [-120.65702257677913, 48.51149741560221, 2213.09], [-120.65701486542821, 48.51150286383927, 2214.53], [-120.65691662952304, 48.51154401898384, 2215.01], [-120.65688352100551, 48.51157637313008, 2217.9], [-120.65686700865626, 48.5115856770426, 2221.74], [-120.6568943336606, 48.51158877834678, 2226.55], [-120.65694177523255, 48.51158659905195, 2226.07], [-120.6569355726242, 48.51160646416247, 2226.55], [-120.65688343718648, 48.51164703257382, 2227.99], [-120.65690313465893, 48.511672681197524, 2240.97], [-120.6568998657167, 48.51166136562824, 2240.01], [-120.65685393288732, 48.51169162429869, 2240.49], [-120.6567981094122, 48.51171995513141, 2240.97], [-120.6567531824112, 48.51172372698784, 2243.85], [-120.65676399506629, 48.51173395290971, 2245.78], [-120.65673750825226, 48.511749878525734, 2246.26], [-120.65688100643456, 48.51171836256981, 2253.47], [-120.65681437030435, 48.51175214163959, 2254.43], [-120.65686834976077, 48.51174434646964, 2257.31], [-120.65699298866093, 48.51172020658851, 2261.64], [-120.65691562369466, 48.51173663511872, 2258.27], [-120.65691101364791, 48.51172716356814, 2256.83], [-120.65688134171069, 48.51172766648233, 2254.43], [-120.65681713633239, 48.51173755712807, 2250.1], [-120.65679375082254, 48.511750381439924, 2251.06], [-120.65684303641319, 48.511738646775484, 2254.91], [-120.65686373971403, 48.511740155518055, 2256.35], [-120.65687572583556, 48.51173546165228, 2259.24], [-120.65688234753907, 48.51174082607031, 2257.79], [-120.65685225650668, 48.5117376409471, 2256.83], [-120.65683322958648, 48.51173252798617, 2256.35], [-120.65681395120919, 48.51173990406096, 2255.39], [-120.65682518295944, 48.511750381439924, 2256.35], [-120.65686751157045, 48.51173395290971, 2258.75], [-120.65684169530869, 48.51175423711538, 2260.68], [-120.65685342997313, 48.511762619018555, 2262.6], [-120.65693372860551, 48.511735210195184, 2266.93], [-120.65694571472704, 48.51175063289702, 2268.37], [-120.65694973804057, 48.51171936839819, 2265.96], [-120.65694856457412, 48.51170411333442, 2262.6], [-120.6569115165621, 48.511714255437255, 2262.6], [-120.65695778466761, 48.51168802008033, 2264.04], [-120.65695837140083, 48.51168181747198, 2263.08], [-120.65693297423422, 48.511689361184835, 2263.08], [-120.65693490207195, 48.51170419715345, 2262.6], [-120.65690397284925, 48.51169447414577, 2261.64], [-120.65687295980752, 48.51171065121889, 2260.68], [-120.65687354654074, 48.511689864099026, 2264.04], [-120.65687706694007, 48.51173344999552, 2264.52], [-120.65686692483723, 48.51174434646964, 2264.04], [-120.65689760260284, 48.51172288879752, 2264.04], [-120.65686223097146, 48.511738646775484, 2264.04], [-120.65685066394508, 48.511748453602195, 2265.0], [-120.65685711801052, 48.511758679524064, 2266.45], [-120.65683012828231, 48.51178550161421, 2268.37], [-120.65681118518114, 48.51178793236613, 2268.85], [-120.6567820161581, 48.511798242107034, 2268.85], [-120.65678218379617, 48.511790530756116, 2269.33], [-120.65675309859216, 48.51176546886563, 2268.85], [-120.6567703653127, 48.51175457239151, 2271.73], [-120.65674270503223, 48.511759266257286, 2271.73], [-120.65676022320986, 48.511760188266635, 2270.77], [-120.65672971308231, 48.51176580414176, 2270.29], [-120.65675619989634, 48.511758176609874, 2271.73], [-120.65674429759383, 48.511753901839256, 2273.66], [-120.65678159706295, 48.51174677722156, 2274.14], [-120.65673926845193, 48.51175717078149, 2273.66], [-120.65677975304425, 48.511756751686335, 2272.21], [-120.65675720572472, 48.51174887269735, 2273.17], [-120.65676818601787, 48.51173453964293, 2274.14], [-120.65674714744091, 48.511716770008206, 2274.14], [-120.6567116919905, 48.51173453964293, 2273.17], [-120.65669543109834, 48.511736299842596, 2273.17], [-120.65667808055878, 48.51174375973642, 2273.17], [-120.65666978247464, 48.5117550753057, 2273.66], [-120.65664371475577, 48.51176471449435, 2272.21], [-120.65664689987898, 48.511742670089006, 2274.62], [-120.65667137503624, 48.511711824685335, 2281.83], [-120.65666114911437, 48.51170235313475, 2283.27], [-120.65663491375744, 48.511704448610544, 2283.75], [-120.65662887878716, 48.511715177446604, 2283.27], [-120.65661337226629, 48.51172246970236, 2284.23], [-120.6565988715738, 48.511722637340426, 2284.71], [-120.65660272724926, 48.511706376448274, 2286.63], [-120.65655386075377, 48.5117463581264, 2287.11], [-120.65652544610202, 48.51176102645695, 2288.56], [-120.65655595622957, 48.511765552684665, 2290.0], [-120.65651932731271, 48.51177200675011, 2290.48], [-120.65650884993374, 48.51176982745528, 2290.0], [-120.65652905032039, 48.51176077499986, 2290.96], [-120.6565177347511, 48.51175105199218, 2291.92], [-120.65651991404593, 48.51174225099385, 2292.4], [-120.65650776028633, 48.51175474002957, 2291.44], [-120.65653022378683, 48.51176479831338, 2291.44], [-120.65650918520987, 48.51177552714944, 2290.96], [-120.65647716633976, 48.51178885437548, 2292.4], [-120.65646660514176, 48.51178298704326, 2292.88], [-120.65644380636513, 48.51180553436279, 2293.36], [-120.65647699870169, 48.51179958321154, 2292.88], [-120.65649225376546, 48.511793380603194, 2291.92], [-120.6565005518496, 48.51181274279952, 2292.4], [-120.65653265453875, 48.511820789426565, 2293.36], [-120.65654614940286, 48.511814419180155, 2293.36], [-120.65655210055411, 48.51182456128299, 2293.84], [-120.65653231926262, 48.51184090599418, 2295.77], [-120.65656593069434, 48.511825734749436, 2295.28], [-120.65655168145895, 48.51182397454977, 2296.73], [-120.65656526014209, 48.51183193735778, 2298.17], [-120.6565349176526, 48.511841744184494, 2300.09], [-120.6565454788506, 48.511850042268634, 2301.05], [-120.65650415606797, 48.511846186593175, 2305.86], [-120.65647456794977, 48.51184844970703, 2306.82], [-120.6564801838249, 48.511844677850604, 2307.3], [-120.65646182745695, 48.51183260791004, 2308.74], [-120.6564508471638, 48.51181282661855, 2309.22], [-120.65643575973809, 48.51180352270603, 2309.7], [-120.65643877722323, 48.51181525737047, 2307.3], [-120.65642293542624, 48.51182104088366, 2305.38], [-120.65643886104226, 48.511841828003526, 2305.38], [-120.6564439740032, 48.51181567646563, 2305.86], [-120.65643416717649, 48.511804696172476, 2302.98], [-120.65642276778817, 48.511801762506366, 2302.98], [-120.65642989240587, 48.5118190292269, 2303.94], [-120.65644858404994, 48.51182112470269, 2303.46], [-120.6564423814416, 48.511824226006866, 2309.7], [-120.65643332898617, 48.51181601174176, 2310.19], [-120.65641086548567, 48.511820286512375, 2310.67], [-120.65639594569802, 48.511830093339086, 2312.11], [-120.65637758933008, 48.51182799786329, 2312.11], [-120.65635495819151, 48.5118533950299, 2313.55], [-120.65633048303425, 48.51184534840286, 2314.03], [-120.65633844584227, 48.51188063621521, 2315.95], [-120.65633567981422, 48.511894633993506, 2317.88], [-120.65635554492474, 48.51190737448633, 2320.28], [-120.65636426210403, 48.51192170754075, 2320.76], [-120.65636015497148, 48.51194081827998, 2321.24], [-120.65635160543025, 48.51195045746863, 2321.72], [-120.65630961209536, 48.51195406168699, 2324.12], [-120.65629687160254, 48.51194651797414, 2325.57], [-120.65629016608, 48.51197049021721, 2325.09], [-120.6562798563391, 48.51195749826729, 2326.05], [-120.65627097152174, 48.51195498369634, 2331.33], [-120.65625144168735, 48.5119709931314, 2332.3], [-120.65624381415546, 48.5119865834713, 2333.26], [-120.65622629597783, 48.51199890486896, 2333.26], [-120.65619410946965, 48.512013321742415, 2330.37], [-120.65618455410004, 48.5120090469718, 2328.45], [-120.65619176253676, 48.511997144669294, 2328.45], [-120.65620768815279, 48.51199354045093, 2329.89], [-120.65621925517917, 48.51198616437614, 2329.41], [-120.65622327849269, 48.51199018768966, 2331.81], [-120.65620835870504, 48.51199840195477, 2330.85], [-120.65620198845863, 48.51200980134308, 2332.3], [-120.65618296153843, 48.51200418546796, 2332.78], [-120.65615974366665, 48.51200426928699, 2333.74], [-120.6561725679785, 48.51201415993273, 2334.7], [-120.65616175532341, 48.51202664896846, 2334.22], [-120.6561397947371, 48.51203603670001, 2336.14], [-120.65616426989436, 48.51204467006028, 2339.02], [-120.65615479834378, 48.512062607333064, 2339.99], [-120.65616879612207, 48.512066546827555, 2342.87], [-120.65615848638117, 48.51209412328899, 2344.31], [-120.6561308261007, 48.51209856569767, 2346.23], [-120.65612034872174, 48.512110048905015, 2346.72], [-120.65610291436315, 48.512135446071625, 2347.68], [-120.6560951191932, 48.51216017268598, 2349.6], [-120.65607919357717, 48.51216838695109, 2350.56], [-120.65604390576482, 48.51217919960618, 2354.89], [-120.65602689050138, 48.51219831034541, 2355.85], [-120.6560084503144, 48.51219629868865, 2355.85], [-120.65597475506365, 48.51222261786461, 2358.25], [-120.6559325940907, 48.51222613826394, 2361.62], [-120.6559014134109, 48.5122490208596, 2360.65], [-120.6558876670897, 48.51224793121219, 2361.14], [-120.65586847253144, 48.512254133820534, 2364.02], [-120.65587509423494, 48.51225991733372, 2363.54], [-120.65586076118052, 48.51227207109332, 2363.06], [-120.65582253970206, 48.512261509895325, 2363.06], [-120.65582195296884, 48.51225287653506, 2360.65], [-120.6557803787291, 48.512246925383806, 2363.06], [-120.65576420165598, 48.51223938167095, 2363.54], [-120.65576654858887, 48.5122284013778, 2365.46], [-120.65577886998653, 48.51223384961486, 2365.94], [-120.65578356385231, 48.51222664117813, 2364.98], [-120.65579362213612, 48.512262515723705, 2366.9], [-120.65574006177485, 48.51229000836611, 2367.86], [-120.65574031323195, 48.51231951266527, 2369.31], [-120.65571952611208, 48.512328984215856, 2369.79], [-120.65569060854614, 48.51233460009098, 2367.86], [-120.65570930019021, 48.51233568973839, 2366.9], [-120.65570871345699, 48.512346586212516, 2366.9], [-120.65570058301091, 48.51233979687095, 2365.94], [-120.6557320151478, 48.51234968751669, 2365.94], [-120.65572187304497, 48.512342646718025, 2364.98], [-120.65573830157518, 48.51234625093639, 2365.46], [-120.65573394298553, 48.51234004832804, 2365.94], [-120.65571181476116, 48.512337282299995, 2366.9], [-120.65571491606534, 48.51234298199415, 2365.94], [-120.65570150502026, 48.51234591566026, 2366.9], [-120.65569320693612, 48.5123351868242, 2367.38], [-120.65571055747569, 48.512327978387475, 2367.38], [-120.65568096935749, 48.51232437416911, 2367.86], [-120.6556680612266, 48.5123285651207, 2369.31], [-120.65561290830374, 48.51229260675609, 2373.63], [-120.65561324357986, 48.51228481158614, 2374.59], [-120.65558298490942, 48.51229805499315, 2372.19], [-120.65559245646, 48.512225300073624, 2365.94], [-120.65559044480324, 48.51224868558347, 2364.5], [-120.65557259134948, 48.512276513502, 2366.9], [-120.65558197908103, 48.51229160092771, 2371.23], [-120.6555927079171, 48.512294283136725, 2374.11], [-120.65558357164264, 48.512283051386476, 2375.55], [-120.6555493734777, 48.51227357983589, 2377.48], [-120.65554509870708, 48.51226997561753, 2377.0], [-120.65557250753045, 48.51226628758013, 2373.63], [-120.65554920583963, 48.51225983351469, 2375.55], [-120.65555205568671, 48.512266874313354, 2375.55], [-120.65554350614548, 48.51227483712137, 2375.55], [-120.65553369931877, 48.512269305065274, 2378.92], [-120.65554182976484, 48.51226553320885, 2378.44], [-120.65554551780224, 48.5122730769217, 2376.52], [-120.6555575877428, 48.51227483712137, 2374.59], [-120.6555562466383, 48.512263940647244, 2375.07], [-120.65556546673179, 48.51227316074073, 2376.04], [-120.65554224886, 48.512260084971786, 2375.55], [-120.65554099157453, 48.51224617101252, 2376.04], [-120.65555708482862, 48.51225438527763, 2375.07], [-120.6555734295398, 48.51225187070668, 2374.59], [-120.65557057969272, 48.51225974969566, 2374.11], [-120.65555549226701, 48.51226519793272, 2374.59], [-120.65553093329072, 48.5122783575207, 2375.07], [-120.65552313812077, 48.51228808052838, 2374.59], [-120.65550511702895, 48.5123024135828, 2374.11], [-120.65544744953513, 48.51228757761419, 2375.55], [-120.65543051809072, 48.5122714843601, 2375.55], [-120.65543118864298, 48.51228212937713, 2373.63], [-120.6554111558944, 48.51229403167963, 2373.63], [-120.65539112314582, 48.51229000836611, 2373.15], [-120.6553958170116, 48.51226754486561, 2372.67], [-120.65536698326468, 48.512266371399164, 2371.71], [-120.65535147674382, 48.51227207109332, 2371.23], [-120.65532775595784, 48.51226218044758, 2369.31], [-120.65532079897821, 48.51225656457245, 2369.31], [-120.65532079897821, 48.512244913727045, 2368.35], [-120.65530420280993, 48.51225052960217, 2367.38], [-120.65528911538422, 48.512244913727045, 2367.86], [-120.65528442151845, 48.512235190719366, 2365.46], [-120.65525156445801, 48.512235106900334, 2364.98], [-120.65524603240192, 48.51222739554942, 2364.5], [-120.65521208569407, 48.51222404278815, 2364.5], [-120.65516162663698, 48.512209709733725, 2365.94], [-120.65515760332346, 48.51220157928765, 2364.5], [-120.65516397356987, 48.51217098534107, 2363.54], [-120.655209235847, 48.51214936003089, 2364.98], [-120.65521175041795, 48.5121367033571, 2364.98], [-120.65522029995918, 48.51213284768164, 2364.02], [-120.65522423945367, 48.51211918517947, 2364.02], [-120.65524402074516, 48.51211918517947, 2362.58], [-120.65524351783097, 48.51210677996278, 2362.1], [-120.65523823723197, 48.51210384629667, 2360.17], [-120.65524670295417, 48.512089513242245, 2360.17], [-120.65527176484466, 48.51207911968231, 2358.25], [-120.65527444705367, 48.51209118962288, 2358.25], [-120.65529749728739, 48.512080712243915, 2357.29], [-120.65532909706235, 48.51206252351403, 2356.33], [-120.65533261746168, 48.5120539739728, 2355.85], [-120.65535424277186, 48.51203394122422, 2354.41], [-120.65535399131477, 48.512028995901346, 2352.96], [-120.65538005903363, 48.51201273500919, 2351.04], [-120.65542205236852, 48.511980129405856, 2348.16], [-120.655423309654, 48.51196286268532, 2346.72], [-120.65543630160391, 48.51195917464793, 2346.23], [-120.65542431548238, 48.51193863898516, 2347.2], [-120.65541417337954, 48.51192799396813, 2346.72], [-120.65542892552912, 48.51191223599017, 2346.23], [-120.65546697936952, 48.51189522072673, 2346.23], [-120.65550427883863, 48.51187434978783, 2345.75], [-120.6555150076747, 48.51185775361955, 2346.72], [-120.65549899823964, 48.511845683678985, 2345.27], [-120.65551668405533, 48.511807546019554, 2345.27], [-120.65551341511309, 48.51180628873408, 2345.75], [-120.65552908927202, 48.51178927347064, 2346.23], [-120.6555234733969, 48.511783154681325, 2347.68], [-120.65553319640458, 48.51178089156747, 2348.64], [-120.65553730353713, 48.51178885437548, 2348.16], [-120.65555239096284, 48.51177544333041, 2346.72], [-120.65558466129005, 48.51176630705595, 2347.2], [-120.65561592578888, 48.51175985299051, 2345.75], [-120.65566294826567, 48.51174099370837, 2342.87], [-120.65567208454013, 48.511716183274984, 2341.43], [-120.6556492857635, 48.51170193403959, 2341.91], [-120.65562942065299, 48.51168307475746, 2341.43], [-120.65568147227168, 48.5116670653224, 2340.47], [-120.65567870624363, 48.51164451800287, 2338.54], [-120.65565917640924, 48.51164661347866, 2339.51], [-120.65564417280257, 48.51162993349135, 2339.99], [-120.65565917640924, 48.511580396443605, 2336.14], [-120.65567635931075, 48.51157519966364, 2335.18], [-120.65569329075515, 48.51156212389469, 2333.26], [-120.65571977756917, 48.51156044751406, 2332.78], [-120.65574718639255, 48.511562291532755, 2330.37], [-120.65576981753111, 48.51155969314277, 2328.93], [-120.65577241592109, 48.51155458018184, 2327.97], [-120.65579236485064, 48.51154879666865, 2326.53], [-120.65579890273511, 48.51153622381389, 2326.53], [-120.6558152474463, 48.511540330946445, 2327.49], [-120.65581407397985, 48.51152348332107, 2327.01], [-120.65582882612944, 48.51151401177049, 2325.57], [-120.65588121302426, 48.511498337611556, 2323.16], [-120.65589403733611, 48.511480232700706, 2321.72], [-120.65590283833444, 48.5114736109972, 2321.24], [-120.65593343228102, 48.51147453300655, 2320.76], [-120.65593267790973, 48.51149330846965, 2318.84], [-120.65594298765063, 48.51150378584862, 2317.88], [-120.65590342506766, 48.51154217496514, 2316.43], [-120.65593745559454, 48.51153463125229, 2316.91], [-120.65599160268903, 48.51149163208902, 2318.36], [-120.65596821717918, 48.511495320126414, 2316.43], [-120.65598187968135, 48.51148911751807, 2316.43], [-120.65597483888268, 48.5114823281765, 2316.43], [-120.65600199624896, 48.51148190908134, 2316.43], [-120.65599503926933, 48.511491967365146, 2318.84], [-120.65598741173744, 48.51148107089102, 2317.4], [-120.65599562600255, 48.511484675109386, 2316.91], [-120.65600920468569, 48.511482579633594, 2314.51], [-120.65601959824562, 48.51147461682558, 2314.03], [-120.6559965480119, 48.51148501038551, 2316.43], [-120.65604315139353, 48.51147050969303, 2315.47], [-120.65605388022959, 48.511450393125415, 2314.51], [-120.65608154051006, 48.5114389937371, 2313.55], [-120.65608212724328, 48.51142608560622, 2312.59], [-120.65611909143627, 48.511412255465984, 2311.63], [-120.65611498430371, 48.51139917969704, 2311.63], [-120.65609042532742, 48.511398090049624, 2310.67], [-120.65611104480922, 48.511404041200876, 2307.3], [-120.65610593184829, 48.51139155216515, 2305.38], [-120.65612797625363, 48.511396162211895, 2303.94], [-120.65611037425697, 48.51138970814645, 2301.05], [-120.6561175826937, 48.511377051472664, 2300.09], [-120.65614339895546, 48.51136548444629, 2298.65], [-120.65616603009403, 48.511350732296705, 2297.21], [-120.65616653300822, 48.511359533295035, 2297.21], [-120.65618061460555, 48.51134419441223, 2298.65], [-120.6561915948987, 48.51132759824395, 2298.17], [-120.656200312078, 48.511336985975504, 2298.65], [-120.6562034972012, 48.511318964883685, 2294.32], [-120.65623375587165, 48.51131712086499, 2292.4], [-120.65624305978417, 48.51131075061858, 2293.36], [-120.65624456852674, 48.51129633374512, 2290.96], [-120.65626552328467, 48.51129775866866, 2287.59], [-120.65629259683192, 48.51129147224128, 2283.75], [-120.65628396347165, 48.511285772547126, 2282.31], [-120.65628698095679, 48.51127898320556, 2279.42], [-120.65628890879452, 48.51129717193544, 2277.98], [-120.65629670396447, 48.51129281334579, 2278.46], [-120.65628128126264, 48.51129222661257, 2276.54], [-120.65628178417683, 48.51128049194813, 2281.35], [-120.65629435703158, 48.51129608228803, 2279.9], [-120.65630785189569, 48.51128451526165, 2277.02], [-120.65630986355245, 48.511276971548796, 2277.02], [-120.65632419660687, 48.51127319969237, 2276.06], [-120.6563105341047, 48.51125232875347, 2273.17], [-120.65632285550237, 48.51123355329037, 2270.77], [-120.65633500926197, 48.51122961379588, 2266.93], [-120.65635588020086, 48.511203629896045, 2266.45], [-120.65638412721455, 48.511182591319084, 2263.56], [-120.65640281885862, 48.5111921466887, 2259.24], [-120.65642511472106, 48.5111556854099, 2255.39], [-120.6564297247678, 48.511156775057316, 2256.83], [-120.65642913803458, 48.511176221072674, 2256.35], [-120.65643425099552, 48.511159708723426, 2256.35], [-120.65642050467432, 48.51114587858319, 2252.03], [-120.65643399953842, 48.51116423495114, 2253.47], [-120.65643123351038, 48.51114663295448, 2256.35], [-120.65637205727398, 48.511117212474346, 2257.79], [-120.65640139393508, 48.51111637428403, 2257.79], [-120.65641212277114, 48.51112609729171, 2260.2], [-120.65639896318316, 48.51110514253378, 2260.68], [-120.65641723573208, 48.5111178830266, 2262.6], [-120.65643592737615, 48.51111922413111, 2262.12], [-120.65639829263091, 48.51110966876149, 2261.16], [-120.65641296096146, 48.511107321828604, 2258.75], [-120.65641388297081, 48.51111310534179, 2258.27], [-120.65642905421555, 48.511098520830274, 2260.68], [-120.65641161985695, 48.51111989468336, 2260.2], [-120.65644598565996, 48.51113154552877, 2261.64], [-120.656443471089, 48.51111344061792, 2257.79], [-120.65642863512039, 48.5110954195261, 2252.03], [-120.6564297247678, 48.51108938455582, 2247.7], [-120.65640424378216, 48.511076141148806, 2246.74], [-120.65640508197248, 48.51107010617852, 2245.3], [-120.65638278611004, 48.511064909398556, 2240.97], [-120.65639971755445, 48.511049738153815, 2236.64], [-120.65638555213809, 48.51103154942393, 2234.72], [-120.65639862790704, 48.51103632710874, 2233.76], [-120.65635948441923, 48.511071698740125, 2232.8], [-120.65637364983559, 48.511054096743464, 2233.76], [-120.6563538685441, 48.51104370318353, 2236.16], [-120.65636510029435, 48.51104412227869, 2238.57], [-120.65636845305562, 48.511016461998224, 2239.53], [-120.65634163096547, 48.51101973094046, 2236.64], [-120.65635462291539, 48.51103347726166, 2238.57], [-120.65636711195111, 48.5110367462039, 2237.61], [-120.65635864622891, 48.51102450862527, 2236.64], [-120.65638261847198, 48.51103154942393, 2237.61], [-120.65638756379485, 48.51102853193879, 2238.09], [-120.65638831816614, 48.51104227825999, 2236.16], [-120.65639569424093, 48.51104646921158, 2237.61], [-120.65639787353575, 48.51106013171375, 2237.13], [-120.65641111694276, 48.511029705405235, 2237.61], [-120.65642796456814, 48.511007744818926, 2235.2], [-120.6564682815224, 48.510984191671014, 2233.76], [-120.65645436756313, 48.51096332073212, 2232.32], [-120.65652745775878, 48.51097765378654, 2230.4], [-120.6565716303885, 48.51099383085966, 2228.95], [-120.65659535117447, 48.510990645736456, 2228.95], [-120.65660146996379, 48.510943204164505, 2227.99], [-120.65662770532072, 48.5109347384423, 2226.55], [-120.65666617825627, 48.51094312034547, 2224.63], [-120.65668763592839, 48.51092568598688, 2222.71], [-120.6567114405334, 48.51091470569372, 2220.78], [-120.65674907527864, 48.51091135293245, 2220.3], [-120.65678620710969, 48.51093716919422, 2217.42], [-120.65680573694408, 48.51095996797085, 2215.98], [-120.65680112689734, 48.51097907871008, 2216.46], [-120.656813448295, 48.51101134903729, 2216.46], [-120.65688167698681, 48.511018892750144, 2213.57], [-120.65687639638782, 48.51104839704931, 2213.09], [-120.65687304362655, 48.511055102571845, 2213.09], [-120.65689307637513, 48.51104755885899, 2211.17], [-120.65691369585693, 48.51103465072811, 2209.25], [-120.65692341886461, 48.51100749336183, 2206.84], [-120.65696323290467, 48.5109865386039, 2204.44], [-120.65698368474841, 48.510962733998895, 2203.48], [-120.65702785737813, 48.51093809120357, 2202.52], [-120.6571017857641, 48.51095460355282, 2199.63], [-120.65715283155441, 48.51097388193011, 2198.19], [-120.65715308301151, 48.51103439927101, 2197.23], [-120.65717361867428, 48.51110262796283, 2193.39], [-120.65721158869565, 48.51111846975982, 2192.9], [-120.65723405219615, 48.51113975979388, 2190.98], [-120.65725291147828, 48.51118535734713, 2190.98], [-120.65723715350032, 48.51121368817985, 2189.54], [-120.65723204053938, 48.51126657798886, 2183.29], [-120.6571950763464, 48.511271104216576, 2177.04], [-120.6571969203651, 48.51127730682492, 2176.56], [-120.65717655234039, 48.51127194240689, 2179.45], [-120.65721125341952, 48.511286191642284, 2177.52], [-120.65721980296075, 48.51128392852843, 2179.45], [-120.65720211714506, 48.511276971548796, 2179.45], [-120.65720630809665, 48.51127521134913, 2179.45]]}}