{"type": "Feature", "properties": {}, "geometry": {"type": "LineString", "coordinates": [[-120.198785942, 48.5566024482, 954.73], [-120.1989624649, 48.5566537455, 954.25], [-120.1991839986, 48.5568069667, 948.48], [-120.1991938893, 48.5568894446, 944.63], [-120.2002421301, 48.5582090914, 927.81], [-120.2000760846, 48.5578634217, 873.5], [-120.2000209317, 48.5578353424, 846.1], [-120.2000391204, 48.5576698836, 821.1], [-120.2000210155, 48.5575853102, 781.69], [-120.2000111248, 48.5575542133, 779.29], [-120.1999698021, 48.5576209333, 778.81], [-120.1999804471, 48.5576438159, 778.81], [-120.2000247035, 48.5577267967, 778.81], [-120.2000505198, 48.5577452369, 771.11], [-120.2000693791, 48.5576857254, 762.94], [-120.2001657709, 48.5576211009, 762.94], [-120.2000614163, 48.5575703066, 759.1], [-120.2000589017, 48.5575147346, 751.41], [-120.2001234423, 48.5574743338, 744.68], [-120.2001231909, 48.5575056821, 742.28], [-120.2000955306, 48.5575285647, 741.31], [-120.2001272142, 48.5575411376, 737.47], [-120.2002334967, 48.5574882478, 735.55], [-120.2002121229, 48.5575042572, 729.78], [-120.2001750749, 48.5575475916, 730.26], [-120.2001876477, 48.5575493518, 730.26], [-120.2002135478, 48.5575390421, 731.7], [-120.200339444, 48.5575402156, 725.93], [-120.2004810981, 48.5575086158, 724.97], [-120.2005626541, 48.557498809, 721.61], [-120.2005940862, 48.5575074423, 723.05], [-120.2005815972, 48.5575217754, 720.16], [-120.2006805036, 48.5574633535, 723.05], [-120.2008052263, 48.5573493596, 722.09], [-120.2009252552, 48.5572950449, 719.2], [-120.2010594495, 48.5573433246, 716.32], [-120.2013331186, 48.5573413968, 715.84], [-120.2014708333, 48.5573229566, 716.8], [-120.2017169259, 48.5573102161, 715.84], [-120.2018754277, 48.557367716, 714.88], [-120.2020552196, 48.5574451648, 715.36], [-120.2022324968, 48.5575026646, 717.28], [-120.2023656853, 48.5575692169, 717.76], [-120.2024928387, 48.5576225258, 717.76], [-120.202604318, 48.5576732364, 717.76], [-120.2027871273, 48.5577679519, 717.28], [-120.2029307093, 48.5579009727, 716.8], [-120.203067502, 48.5580145475, 721.13], [-120.2031858545, 48.5581442155, 723.53], [-120.2032990102, 48.5583088361, 725.93], [-120.2034751978, 48.5585351475, 728.82], [-120.2036406565, 48.5586885363, 732.18], [-120.2037808858, 48.5588000994, 735.07], [-120.2039276529, 48.5589095671, 736.51], [-120.2040391322, 48.5589572601, 732.66], [-120.2041552216, 48.5590227228, 731.22], [-120.2042562235, 48.559038816, 729.78], [-120.204418581, 48.5590074677, 728.82], [-120.2045438904, 48.5590645485, 729.3], [-120.2047305554, 48.5591151752, 729.78], [-120.2049028873, 48.5592414066, 729.78], [-120.2049661707, 48.5593106411, 730.26], [-120.2049385943, 48.559274096, 730.26], [-120.2050147019, 48.5593383852, 730.26], [-120.2051564399, 48.5594543908, 729.78], [-120.2052171249, 48.5594466794, 730.74], [-120.2053297777, 48.5595212784, 728.82], [-120.2054849267, 48.5596008226, 728.34], [-120.2056661434, 48.5596413072, 725.93], [-120.2058448456, 48.5596679617, 725.45], [-120.205893293, 48.5596832167, 724.97], [-120.2060090471, 48.5597154032, 725.93], [-120.2061512042, 48.55979193, 724.97], [-120.2063284814, 48.5598670319, 724.49], [-120.2064828761, 48.5599967837, 724.49], [-120.2066115383, 48.5601362586, 724.01], [-120.206762664, 48.5602725483, 719.68], [-120.2068340778, 48.5602892283, 717.28], [-120.2069127001, 48.5603007115, 719.2], [-120.2070406079, 48.5603581276, 719.68], [-120.2072429471, 48.560448233, 719.2], [-120.2074100822, 48.560489472, 717.76], [-120.2076151036, 48.560520988, 716.8], [-120.2077881061, 48.5605537612, 715.36], [-120.2078698296, 48.5605825111, 713.92], [-120.2080565784, 48.5606621392, 714.88], [-120.2081976458, 48.5607302841, 715.36], [-120.2083475981, 48.5607978422, 715.84], [-120.208500484, 48.5609498061, 715.84], [-120.20851993, 48.5609819088, 716.32], [-120.2086402103, 48.5611048713, 717.28], [-120.2087625861, 48.5611787997, 715.84], [-120.2087562997, 48.5612135846, 713.92], [-120.2088766638, 48.5612901952, 713.92], [-120.2090315614, 48.5613813065, 713.44], [-120.2091593854, 48.5614413209, 711.99], [-120.2093375009, 48.5614835657, 708.63], [-120.2094706055, 48.5614527203, 712.95], [-120.2094688453, 48.5613994114, 713.44], [-120.209366167, 48.5613142513, 713.44], [-120.209311014, 48.5612015147, 715.36], [-120.2093478106, 48.5610977467, 717.28], [-120.2092756424, 48.5610897839, 712.47], [-120.2093593776, 48.5610301048, 712.47], [-120.2094965056, 48.5609355569, 716.8], [-120.2096426859, 48.5608471278, 720.16], [-120.2097864356, 48.5607844312, 720.65], [-120.2099146787, 48.5607125983, 724.49], [-120.210057674, 48.5606184695, 728.34], [-120.2102011722, 48.5605457146, 731.22], [-120.210310556, 48.5605046432, 734.1], [-120.210414324, 48.5604573693, 735.55], [-120.2105968818, 48.5604061559, 736.51], [-120.2106822096, 48.5603728797, 736.99], [-120.2107117977, 48.560346812, 736.99], [-120.2108517755, 48.5603111889, 738.91], [-120.2108749095, 48.5603154637, 738.43], [-120.2110076789, 48.5602904018, 736.03], [-120.2111391909, 48.5602283757, 735.55], [-120.2112858742, 48.5601430479, 736.51], [-120.2114081662, 48.5600648448, 736.99], [-120.211499026, 48.5600091051, 739.39], [-120.2115845215, 48.5599472467, 741.31], [-120.2117089089, 48.5598438978, 741.79], [-120.211863555, 48.5597253777, 744.2], [-120.2119974978, 48.5596685484, 742.76], [-120.2121912874, 48.5596079472, 744.2], [-120.2122673951, 48.5595696419, 745.64], [-120.2124676388, 48.559519602, 746.12], [-120.2125380468, 48.5595156625, 746.6], [-120.2127360273, 48.559492277, 747.08], [-120.21289411, 48.5594842304, 748.52], [-120.2130452357, 48.5594493616, 749.97], [-120.213174317, 48.5594069492, 750.45], [-120.2132253628, 48.5593928676, 751.41], [-120.2133515105, 48.5593295842, 754.29], [-120.2134212479, 48.5592917819, 753.81], [-120.213398952, 48.5592673067, 753.33], [-120.213463828, 48.5592802148, 754.29], [-120.2135582082, 48.5592427477, 754.29], [-120.2137140278, 48.5591880977, 756.69], [-120.2138581965, 48.5591467749, 759.1], [-120.2140431013, 48.5590850003, 760.54], [-120.2140784729, 48.5590765346, 761.02], [-120.2143088914, 48.5590335354, 760.54], [-120.2144277468, 48.5590154305, 762.46], [-120.2147692256, 48.5589946434, 763.9], [-120.2148107998, 48.5589943081, 764.39], [-120.2147048526, 48.5589904524, 765.35], [-120.2146925312, 48.5589992534, 765.35], [-120.2148049325, 48.5590066295, 765.83], [-120.2150309086, 48.5590410791, 764.87], [-120.2152082697, 48.5590979923, 762.94], [-120.2154159732, 48.5591461044, 761.98], [-120.2155466471, 48.5591783747, 761.98], [-120.2157533448, 48.5592196137, 764.39], [-120.2158360742, 48.5592538118, 764.39], [-120.2159354836, 48.5592692345, 763.42], [-120.2159021236, 48.5592979006, 759.1], [-120.2159780636, 48.559341738, 760.54], [-120.2160573564, 48.5594160017, 762.94], [-120.2161063906, 48.5594685562, 762.94], [-120.2161768824, 48.5595179256, 763.42], [-120.216286853, 48.559590932, 763.42], [-120.2163911238, 48.5596444085, 764.87], [-120.216515176, 48.5597190075, 765.35], [-120.2165481169, 48.5598072689, 765.83], [-120.2166213747, 48.5598224401, 766.79], [-120.2165541518, 48.5598473344, 767.27], [-120.2165514696, 48.5598148126, 767.27], [-120.2166549861, 48.559835935, 767.27], [-120.2166804671, 48.5598655231, 768.23], [-120.2167714946, 48.5599226877, 770.15], [-120.2168215346, 48.5599673633, 768.71], [-120.2168930322, 48.5599298123, 768.71], [-120.2168952953, 48.5598627571, 767.75], [-120.216891272, 48.5598061793, 767.27], [-120.216900995, 48.5597251263, 767.27], [-120.2169219498, 48.5596905928, 765.83], [-120.2170157433, 48.5596855637, 769.67], [-120.2170550544, 48.5596591607, 772.56], [-120.2170114685, 48.5596247111, 773.52], [-120.2170748357, 48.5596195143, 771.11], [-120.2171008196, 48.5596126411, 771.11], [-120.2171226125, 48.5595431551, 774.0], [-120.2171022445, 48.559483476, 776.88], [-120.2170462534, 48.55948532, 779.77], [-120.2170345187, 48.5594095476, 780.25], [-120.2170071099, 48.5593051929, 779.29], [-120.2170176711, 48.5591927916, 778.81], [-120.2170202695, 48.5590859223, 779.29], [-120.2170325909, 48.5589940567, 778.81], [-120.2170366142, 48.5589269176, 779.77], [-120.2170371171, 48.558823904, 781.21], [-120.2170289867, 48.5587038752, 782.65], [-120.2170202695, 48.5585965868, 782.17], [-120.2170152403, 48.5584801622, 783.13], [-120.2170024998, 48.5583590437, 785.05], [-120.216976013, 48.5582429543, 786.5], [-120.21698297, 48.5581220035, 787.46], [-120.2169212792, 48.5580436327, 789.86], [-120.2169338521, 48.5579431336, 791.3], [-120.2169725765, 48.5578457359, 792.74], [-120.2169848979, 48.5577226896, 792.74], [-120.2169933636, 48.5576244537, 792.74], [-120.2170114685, 48.5575097892, 792.26], [-120.2170187607, 48.5574757587, 792.26], [-120.2170210239, 48.5573703144, 792.26], [-120.2170127258, 48.5572556499, 795.15], [-120.2170051821, 48.557137968, 797.07], [-120.2169946209, 48.5570367984, 798.03], [-120.2169781923, 48.556933701, 799.95], [-120.2169773541, 48.5568377282, 800.92], [-120.2169927768, 48.5567376483, 802.84], [-120.2170240413, 48.5566123389, 803.32], [-120.2170519531, 48.5565236583, 804.28], [-120.2171262167, 48.5563263483, 804.28], [-120.2171743289, 48.5562371649, 806.68], [-120.2172331698, 48.5561401863, 809.09], [-120.2172941901, 48.5560580436, 811.49], [-120.2173811942, 48.555954108, 811.97], [-120.2174688689, 48.5558469873, 812.45], [-120.2175427135, 48.5557686165, 811.97], [-120.2176075056, 48.555677589, 811.49], [-120.2176577132, 48.5555878188, 811.49], [-120.2177261095, 48.5554715618, 814.37], [-120.2178066596, 48.555399226, 815.34], [-120.2178857848, 48.5553215258, 815.34], [-120.2178451326, 48.5553245433, 816.3], [-120.2178577054, 48.5553501081, 820.62], [-120.2178297099, 48.5553622618, 823.51], [-120.2178239264, 48.5553556401, 823.51], [-120.2178007923, 48.5553474259, 822.55], [-120.2177957632, 48.5553583223, 821.1], [-120.2177743055, 48.555334853, 821.58], [-120.2178059891, 48.5553407203, 821.58], [-120.2178059891, 48.5553071927, 818.22], [-120.2177883871, 48.5553355236, 819.18], [-120.2178289555, 48.55532052, 819.18], [-120.2179384232, 48.5553158261, 822.55], [-120.2179873735, 48.5553440731, 823.51], [-120.2180510759, 48.5553726554, 824.95], [-120.2181044687, 48.5553734098, 825.91], [-120.2181820851, 48.5553653631, 826.39], [-120.218223827, 48.5553547181, 825.91], [-120.2182600368, 48.5553477611, 825.91], [-120.2182852663, 48.5553511977, 826.39], [-120.2183100767, 48.5553228669, 826.39], [-120.2183693368, 48.5553100426, 826.39], [-120.2184237354, 48.5552932788, 826.87], [-120.218473943, 48.5552822985, 829.76], [-120.2184975799, 48.5552661214, 830.24], [-120.218548961, 48.5552702285, 831.2], [-120.2185862605, 48.5552442446, 833.12], [-120.2186219674, 48.5552743357, 836.48], [-120.2186488733, 48.5552833881, 838.41], [-120.2186529804, 48.5552923568, 838.89], [-120.2186304331, 48.5552961286, 839.37], [-120.2186500467, 48.5552876629, 839.37], [-120.2186673973, 48.5552922729, 839.85], [-120.2186684031, 48.5553090367, 839.37], [-120.2186922077, 48.5553768463, 840.81], [-120.2186943032, 48.5553937778, 840.33], [-120.2186784614, 48.5553782713, 839.37], [-120.218730513, 48.555404339, 840.33], [-120.2187598497, 48.5554250423, 841.77], [-120.2188324369, 48.5554308258, 843.69], [-120.2189358696, 48.5554988869, 851.38], [-120.2189499512, 48.555471478, 849.94], [-120.2188729215, 48.5554842185, 847.54], [-120.2188042738, 48.5554874036, 844.18], [-120.2187681478, 48.5554758366, 843.21], [-120.2186832391, 48.5554286465, 840.33], [-120.2186016832, 48.55542982, 837.93], [-120.2184931375, 48.5554763395, 834.56], [-120.2184016909, 48.5554576479, 831.2], [-120.2183537465, 48.5554448236, 831.2], [-120.2183555905, 48.555443231, 830.72], [-120.2182818297, 48.5554557201, 828.31], [-120.2182402555, 48.5554702207, 827.35], [-120.2181714401, 48.5554718971, 825.43], [-120.2181274351, 48.5554807819, 824.95], [-120.2180680912, 48.5554990545, 823.51], [-120.2179380041, 48.5555071849, 821.1], [-120.2178455517, 48.5554798599, 818.22], [-120.2178198192, 48.5554710589, 817.26], [-120.2177443821, 48.555436274, 817.74], [-120.2177591342, 48.5554072727, 817.26], [-120.2177442145, 48.555421941, 816.78], [-120.2177068312, 48.5554743279, 816.3], [-120.2176310588, 48.5556082707, 816.78], [-120.2175578848, 48.5557208396, 813.41], [-120.2174495067, 48.5558224283, 812.45], [-120.2174075134, 48.5559143778, 811.01], [-120.2173459064, 48.5559799243, 810.05], [-120.217233086, 48.5561552737, 808.13], [-120.2171239536, 48.5563240014, 805.24], [-120.2170588262, 48.5565153603, 801.88], [-120.2170175035, 48.5566547513, 800.44], [-120.2169833891, 48.5568156, 798.51], [-120.2169735823, 48.5569040291, 799.47], [-120.2170017455, 48.5571198631, 798.51], [-120.2169962134, 48.5573163349, 794.67], [-120.2169895079, 48.5575028323, 791.78], [-120.2169740014, 48.5577182472, 792.26], [-120.2169786952, 48.5578903276, 791.78], [-120.2169707324, 48.5580839496, 792.74], [-120.2169739176, 48.5582685191, 790.34], [-120.2169960458, 48.5584661644, 787.46], [-120.2169910166, 48.5586580262, 783.13], [-120.2170207724, 48.5588295199, 781.21], [-120.2170206048, 48.5589672346, 778.32], [-120.2170232031, 48.559114337, 777.84], [-120.2170175873, 48.5592608526, 777.36], [-120.2170460857, 48.5594036803, 776.88], [-120.2171095368, 48.559583053, 776.4], [-120.2170589101, 48.5596226156, 776.4], [-120.2170174196, 48.55968724, 774.96], [-120.2170116361, 48.5596843064, 775.92], [-120.2169573214, 48.5597130563, 775.44], [-120.21685238, 48.5597801954, 771.6], [-120.2168729994, 48.5598857235, 772.08], [-120.2168273181, 48.5599587299, 771.11], [-120.2167442534, 48.5599101149, 768.71], [-120.2166427486, 48.5598426405, 768.23], [-120.2165378071, 48.5598300677, 766.79], [-120.2165052854, 48.559778519, 765.35], [-120.2163759526, 48.559670141, 764.39], [-120.216359105, 48.5596591607, 763.9], [-120.2162015252, 48.5595744196, 763.9], [-120.216071941, 48.5595027544, 762.94], [-120.2159940731, 48.5594135709, 763.9], [-120.2159680892, 48.5593305901, 764.87], [-120.215889886, 48.5592897702, 764.87], [-120.2158702724, 48.5592896864, 766.31], [-120.2158786543, 48.5592794605, 766.79], [-120.2157987747, 48.5592371318, 766.31], [-120.2156767342, 48.5592264868, 766.79], [-120.2155548614, 48.5591590963, 766.31], [-120.2153607365, 48.5591280833, 764.39], [-120.2151293959, 48.5590702482, 763.9], [-120.2149417251, 48.5590288416, 764.87], [-120.2147226222, 48.5589930508, 764.39], [-120.214601839, 48.5589854233, 764.39], [-120.214341497, 48.5590187833, 764.39], [-120.2141407505, 48.5590698291, 763.9], [-120.213914942, 48.5591185279, 764.87], [-120.2136753034, 48.5591886844, 764.39], [-120.2134560328, 48.5592793766, 761.98], [-120.213300297, 48.5593415704, 759.1], [-120.213049762, 48.5594310053, 755.73], [-120.2128123865, 48.559481632, 753.81], [-120.2125193551, 48.5595159139, 748.52], [-120.2122736815, 48.5595789459, 746.6], [-120.2120682411, 48.5596453305, 744.2], [-120.2120000962, 48.5596579872, 743.72], [-120.2118239924, 48.5597278923, 744.2], [-120.2116524149, 48.5598550458, 743.24], [-120.2114511654, 48.5599627532, 741.79], [-120.2113094274, 48.5601067543, 738.91], [-120.2111287974, 48.56023659, 735.07], [-120.2108868957, 48.5602999572, 732.66], [-120.2107115462, 48.5603976902, 731.7], [-120.2104656212, 48.56042183, 730.74], [-120.2103460114, 48.5604787432, 729.3], [-120.2102238033, 48.560528364, 727.86], [-120.2100774553, 48.5605974309, 725.93], [-120.2100107353, 48.5606684256, 724.49], [-120.2099046204, 48.5607144423, 723.05], [-120.2097539976, 48.5607985128, 721.13], [-120.2096016146, 48.5608721897, 717.76], [-120.2095061447, 48.5609400831, 714.88], [-120.2093792427, 48.5610037856, 712.47], [-120.2093290351, 48.5611026082, 709.59], [-120.209319815, 48.5612476151, 707.19], [-120.2094172128, 48.5614122357, 706.71], [-120.2093196474, 48.5614759382, 709.59], [-120.2091997862, 48.56145381, 711.03], [-120.2090345789, 48.5613746848, 713.92], [-120.2088946011, 48.5612795502, 714.4], [-120.2088633366, 48.5612681508, 711.99], [-120.2087967843, 48.5612357128, 712.47], [-120.2086955309, 48.5611756146, 711.99], [-120.2085608337, 48.5610493831, 714.88], [-120.208535688, 48.5610107426, 715.36], [-120.2084519528, 48.5609161947, 715.36], [-120.2084307466, 48.5608964972, 715.36], [-120.2082574088, 48.5607773904, 715.84], [-120.2080871724, 48.5606921464, 717.76], [-120.2078749426, 48.5605952516, 717.28], [-120.2076739445, 48.5605349019, 717.28], [-120.207468085, 48.5604997817, 717.76], [-120.2074423525, 48.5604975186, 717.76], [-120.207233727, 48.5604522564, 718.72], [-120.2070182282, 48.5603650846, 721.61], [-120.2068763226, 48.5603089258, 723.53], [-120.2066769172, 48.5602320638, 724.01], [-120.2065550443, 48.5600812733, 724.49], [-120.2064582333, 48.5599521082, 724.01], [-120.2063205186, 48.5598503519, 724.97], [-120.2061293274, 48.5597575642, 724.97], [-120.2059346158, 48.5596864857, 725.45], [-120.2057680674, 48.5596410558, 725.45], [-120.2055964898, 48.5596195143, 725.93], [-120.2053740341, 48.5595584102, 727.37], [-120.2052089944, 48.5594643652, 726.89], [-120.2050639875, 48.5593617707, 725.93], [-120.204944713, 48.5592679773, 724.49], [-120.2048007958, 48.559153229, 723.53], [-120.2046424616, 48.5590821505, 724.49], [-120.204584375, 48.5590541549, 724.97], [-120.2045687009, 48.5590519756, 724.97], [-120.2043529507, 48.5590038635, 724.97], [-120.2042074408, 48.5590044502, 725.45], [-120.2040526271, 48.5589566734, 725.45], [-120.2040404733, 48.5589466989, 725.93], [-120.2038640343, 48.5588410869, 725.93], [-120.2037290856, 48.5587194655, 725.93], [-120.2035322785, 48.5585762188, 727.37], [-120.2033736929, 48.5583926551, 728.34], [-120.2031957451, 48.5581784975, 729.78], [-120.2030146122, 48.5579575505, 727.37], [-120.2028266899, 48.5578247812, 722.09], [-120.2026882209, 48.5577011481, 718.24], [-120.2024666034, 48.557581706, 716.32], [-120.2022558823, 48.5574921034, 715.36], [-120.2020620927, 48.5574283171, 713.44], [-120.2019409742, 48.5573733319, 712.47], [-120.2017814666, 48.5573455878, 711.99], [-120.2015656326, 48.5573496949, 711.99], [-120.2012967411, 48.5573427379, 711.99], [-120.2010447811, 48.557312144, 712.47], [-120.2008607145, 48.5573142394, 713.44], [-120.2007539291, 48.5573814623, 716.32], [-120.200725263, 48.5574273951, 716.8], [-120.2006440423, 48.5575169977, 718.72], [-120.2006255183, 48.5575294867, 718.72], [-120.2004417032, 48.5575397126, 718.72], [-120.2002519369, 48.5575984698, 718.24], [-120.2002193313, 48.5576029122, 718.24], [-120.2001415472, 48.5575990565, 719.2], [-120.200114809, 48.5575941112, 719.68], [-120.2001244482, 48.5575516149, 721.13], [-120.2001666091, 48.5575195123, 723.05]]}}