{"type": "Feature", "properties": {}, "geometry": {"type": "LineString", "coordinates": [[-121.42435949295759, 47.445614794269204, 951.36], [-121.42439268529415, 47.44561395607889, 952.32], [-121.42440626397729, 47.44561906903982, 952.32], [-121.42440626397729, 47.445594845339656, 953.28], [-121.4244094491005, 47.44555352255702, 958.09], [-121.42439452931285, 47.44556383229792, 958.57], [-121.42436142079532, 47.44562627747655, 957.13], [-121.42437977716327, 47.44569174014032, 958.09], [-121.42441129311919, 47.44577178731561, 957.13], [-121.42444113269448, 47.44578410871327, 953.77], [-121.42443308606744, 47.44578461162746, 954.73], [-121.42445982433856, 47.445812774822116, 954.73], [-121.42445689067245, 47.445833226665854, 954.25], [-121.42444339580834, 47.445865496993065, 956.17], [-121.42448731698096, 47.445874297991395, 952.8], [-121.42450081184506, 47.44588812813163, 952.32], [-121.42451313324273, 47.44589315727353, 948.48], [-121.42449519596994, 47.445896845310926, 951.36], [-121.42452939413488, 47.44587974622846, 953.28], [-121.42451187595725, 47.44588150642812, 954.25], [-121.42446661368012, 47.44591612368822, 954.73], [-121.42444926314056, 47.44592098519206, 955.21], [-121.42450072802603, 47.44593707844615, 957.13], [-121.42456451430917, 47.44602492079139, 960.98], [-121.42460047267377, 47.44607697241008, 962.9], [-121.42465017735958, 47.44611938484013, 966.74], [-121.42466803081334, 47.44614813476801, 972.03], [-121.42461631447077, 47.44618048891425, 972.99], [-121.42457691952586, 47.446258859708905, 974.43], [-121.42458463087678, 47.446341924369335, 975.39], [-121.42455252818763, 47.446421133354306, 977.32], [-121.42454775050282, 47.44651601649821, 978.76], [-121.4245286397636, 47.44657418690622, 982.6], [-121.42454045824707, 47.446650713682175, 982.6], [-121.42453794367611, 47.44673511944711, 983.09], [-121.42456149682403, 47.44682405143976, 985.01], [-121.42461547628045, 47.44689730927348, 986.93], [-121.42469904385507, 47.446978110820055, 988.37], [-121.42476048320532, 47.447039633989334, 992.7], [-121.42483063973486, 47.44711456820369, 995.1], [-121.4248923305422, 47.44717768393457, 995.58], [-121.42493801191449, 47.44726192206144, 997.02], [-121.42501789145172, 47.447332413867116, 1000.87], [-121.42510414123535, 47.447372898459435, 1004.23], [-121.42519089393318, 47.44741656817496, 1009.04], [-121.42522408626974, 47.44748454540968, 1009.52], [-121.42523330636322, 47.44752125814557, 1009.04], [-121.42537588253617, 47.44758973829448, 1010.48], [-121.4254576060921, 47.4476526863873, 1012.89], [-121.4255284331739, 47.447703732177615, 1016.25], [-121.42558836378157, 47.44777933694422, 1018.17], [-121.4256732724607, 47.44784262031317, 1021.54], [-121.4257195405662, 47.44789542630315, 1022.02], [-121.42578424885869, 47.447987627238035, 1023.46], [-121.42585541121662, 47.44809441268444, 1026.34], [-121.42592523247004, 47.448178734630346, 1028.27], [-121.4260205347091, 47.44825861416757, 1031.63], [-121.42610192298889, 47.44827864691615, 1037.4], [-121.4261896815151, 47.44831963442266, 1039.32], [-121.42626109533012, 47.4483659863472, 1041.25], [-121.42635321244597, 47.44839155115187, 1047.49], [-121.42637140117586, 47.4484418425709, 1048.94], [-121.42641674727201, 47.44850428774953, 1052.3], [-121.4264344330877, 47.44855307042599, 1057.11], [-121.42639948055148, 47.448531948029995, 1056.15], [-121.42635664902627, 47.44859271682799, 1056.63], [-121.42636838369071, 47.448637057095766, 1049.42], [-121.42640685662627, 47.448637057095766, 1046.05], [-121.42644859850407, 47.448641834780574, 1047.49], [-121.42645429819822, 47.448623813688755, 1051.82], [-121.42645974643528, 47.448666309937835, 1052.3], [-121.42642135731876, 47.44863521307707, 1054.22], [-121.42640677280724, 47.4487045314163, 1053.74], [-121.42632697708905, 47.44870260357857, 1056.15], [-121.42626989632845, 47.44875071570277, 1055.67], [-121.42631851136684, 47.44875549338758, 1059.03], [-121.42629286274314, 47.44873805902898, 1060.47], [-121.42618775367737, 47.44873881340027, 1062.87], [-121.42603310756385, 47.44878927245736, 1063.84], [-121.42598063685, 47.44881399907172, 1065.76], [-121.42595666460693, 47.44885222055018, 1068.64], [-121.42595540732145, 47.44889052584767, 1072.97], [-121.42597761936486, 47.44891391135752, 1072.97], [-121.42607149668038, 47.44892715476453, 1073.45], [-121.42610871233046, 47.44890418834984, 1074.89], [-121.42605816945434, 47.448890106752515, 1071.53], [-121.4260062854737, 47.4488927051425, 1072.97], [-121.42599857412279, 47.44891240261495, 1072.49], [-121.42592682503164, 47.44892422109842, 1071.53], [-121.4258754439652, 47.44903461076319, 1072.49], [-121.42601382918656, 47.44898381642997, 1076.81], [-121.42611810006201, 47.44901147671044, 1080.18], [-121.42618582583964, 47.449008794501424, 1084.99], [-121.42620124854147, 47.44908875785768, 1088.83], [-121.42621725797653, 47.44915287941694, 1094.6], [-121.42621709033847, 47.449232088401914, 1095.08], [-121.42616084776819, 47.44925153441727, 1100.85], [-121.42618934623897, 47.44930928573012, 1106.61], [-121.42621197737753, 47.449329905211926, 1113.82], [-121.42628909088671, 47.44937349110842, 1120.55], [-121.42634742893279, 47.44938086718321, 1122.0], [-121.42619730904698, 47.44947264902294, 1122.96], [-121.42620334401727, 47.44949804618955, 1124.4], [-121.42619672231376, 47.44952453300357, 1124.88], [-121.42626847140491, 47.44961514137685, 1129.21], [-121.42630853690207, 47.449637185782194, 1130.17], [-121.4262811280787, 47.449660152196884, 1132.57], [-121.4262517914176, 47.44970767758787, 1138.82], [-121.42634625546634, 47.44973910972476, 1139.3], [-121.42646921798587, 47.44972586631775, 1138.34], [-121.42652370035648, 47.449720753356814, 1138.82], [-121.42647282220423, 47.44967984966934, 1143.63], [-121.42659368924797, 47.44969451799989, 1147.47], [-121.42672109417617, 47.44969275780022, 1147.47], [-121.42676803283393, 47.449706085026264, 1146.99], [-121.42679862678051, 47.449735924601555, 1144.59], [-121.42681413330138, 47.44977808557451, 1132.09], [-121.4267890714109, 47.4498166423291, 1129.21], [-121.42674850299954, 47.449843464419246, 1134.01], [-121.42672897316515, 47.4498681910336, 1137.86], [-121.426741797477, 47.44989736005664, 1138.34], [-121.42669259570539, 47.44989501312375, 1136.42], [-121.42671539448202, 47.449959218502045, 1135.94], [-121.42682519741356, 47.44998537003994, 1138.34], [-121.42680332064629, 47.44997212663293, 1140.26], [-121.42680038698018, 47.4499218352139, 1146.51], [-121.426818408072, 47.44993407279253, 1147.95], [-121.4267562981695, 47.449923511594534, 1151.32], [-121.42681363038719, 47.449948992580175, 1153.24], [-121.42687775194645, 47.450005654245615, 1152.28], [-121.42691412940621, 47.45007631368935, 1153.24], [-121.42699291929603, 47.45011478662491, 1155.64], [-121.42690792679787, 47.450161054730415, 1155.64], [-121.42683022655547, 47.45018368586898, 1157.56], [-121.42684078775346, 47.45025476440787, 1161.89], [-121.42699467949569, 47.45029265061021, 1163.33], [-121.42704857513309, 47.450336487963796, 1162.37], [-121.42705896869302, 47.45036909356713, 1169.58], [-121.42712283879519, 47.45039792731404, 1171.5], [-121.42715636640787, 47.45042600668967, 1166.7], [-121.42717606388032, 47.45042206719518, 1168.14], [-121.4272534288466, 47.45040086098015, 1168.62], [-121.42715846188366, 47.45040161535144, 1168.14], [-121.42709559760988, 47.45041988790035, 1166.7], [-121.42708419822156, 47.45047638192773, 1167.18], [-121.42711454071105, 47.450527008622885, 1166.7], [-121.42711378633976, 47.45058056898415, 1167.66], [-121.4271757286042, 47.450528014451265, 1168.62], [-121.42705159261823, 47.450510915368795, 1170.06], [-121.4269825257361, 47.450504964217544, 1171.02], [-121.4269495010376, 47.450521141290665, 1171.5], [-121.42695872113109, 47.450538324192166, 1172.95], [-121.42694874666631, 47.450571516528726, 1178.23], [-121.42698612995446, 47.45052918791771, 1178.71], [-121.42698721960187, 47.45051502250135, 1176.79], [-121.42695176415145, 47.450527930632234, 1177.27], [-121.42692770808935, 47.450528433546424, 1179.19], [-121.42688638530672, 47.450520219281316, 1170.06], [-121.42699778079987, 47.45050102472305, 1171.98], [-121.42693676054478, 47.45049272663891, 1172.47], [-121.42693458124995, 47.45052860118449, 1167.66], [-121.42695922404528, 47.45052566751838, 1170.06], [-121.42695587128401, 47.45054838247597, 1170.54], [-121.42695905640721, 47.45058543048799, 1172.95], [-121.42696743831038, 47.45063521899283, 1175.83], [-121.42698478884995, 47.45064997114241, 1178.71], [-121.4268543664366, 47.45068307965994, 1181.6], [-121.42678454518318, 47.450734712183475, 1184.96], [-121.42670759931207, 47.45076580904424, 1190.73], [-121.42670189961791, 47.45079020038247, 1193.61], [-121.42672008834779, 47.450837725773454, 1195.54], [-121.42675571143627, 47.45085365138948, 1196.98], [-121.4267975371331, 47.450867565348744, 1198.9], [-121.42678437754512, 47.45090042240918, 1196.98], [-121.42678638920188, 47.4509250652045, 1199.86], [-121.42686090432107, 47.45098298415542, 1203.71], [-121.42689879052341, 47.451043501496315, 1208.51], [-121.42700985074043, 47.45109957642853, 1213.32], [-121.42703633755445, 47.45115573517978, 1214.28], [-121.42700239084661, 47.4511703196913, 1214.28], [-121.42699384130538, 47.45118993334472, 1215.24], [-121.42689962871373, 47.45121558196843, 1219.09], [-121.42689392901957, 47.45125598274171, 1223.42], [-121.42690993845463, 47.451268723234534, 1221.97], [-121.42684816382825, 47.451280541718006, 1223.42], [-121.42674012109637, 47.45131281204522, 1224.86], [-121.42671698704362, 47.45133879594505, 1229.18], [-121.42678848467767, 47.45140777900815, 1231.59], [-121.42683626152575, 47.45148598216474, 1235.91], [-121.42686065286398, 47.451535016298294, 1237.35], [-121.42681010998785, 47.451532082632184, 1235.91], [-121.42669226042926, 47.45153325609863, 1237.83], [-121.42664775252342, 47.451567789539695, 1241.68], [-121.42658195458353, 47.45162042789161, 1245.53], [-121.42656384967268, 47.45167247951031, 1245.04], [-121.4265490975231, 47.451754454523325, 1245.53], [-121.42651313915849, 47.45182905346155, 1247.45], [-121.42646527849138, 47.45184766128659, 1247.93], [-121.4264159090817, 47.451902562752366, 1246.49], [-121.42638087272644, 47.45191555470228, 1247.93], [-121.42632555216551, 47.45187012478709, 1251.77], [-121.42632538452744, 47.45179728604853, 1258.98], [-121.42630568705499, 47.45177951641381, 1258.98], [-121.42629085108638, 47.45179225690663, 1256.58], [-121.42619085498154, 47.45176736265421, 1254.18], [-121.42608574591577, 47.45174850337207, 1250.33], [-121.42592229880393, 47.451753532513976, 1247.45], [-121.42584635876119, 47.45172930881381, 1247.45], [-121.42580922693014, 47.45165638625622, 1249.85], [-121.42571174539626, 47.451633252203465, 1250.33], [-121.42565902322531, 47.451606933027506, 1253.22], [-121.42558777704835, 47.45161296799779, 1255.14], [-121.42560236155987, 47.451646914705634, 1259.46], [-121.42562474124134, 47.45166384615004, 1262.35], [-121.42565650865436, 47.451704163104296, 1264.75], [-121.42566866241395, 47.45174598880112, 1264.27], [-121.42568618059158, 47.451818492263556, 1266.19], [-121.4256711769849, 47.451817486435175, 1266.67], [-121.42566732130945, 47.45177490636706, 1271.48], [-121.42558283172548, 47.451739283278584, 1273.88], [-121.42547654919326, 47.45172930881381, 1274.36], [-121.4254073984921, 47.451753448694944, 1274.36], [-121.42540563829243, 47.4517919216305, 1276.29], [-121.42538661137223, 47.45179913006723, 1278.69], [-121.42534654587507, 47.451843805611134, 1282.54], [-121.425322573632, 47.45189007371664, 1283.02], [-121.42534906044602, 47.45192879810929, 1285.42], [-121.42530815675855, 47.451961571350694, 1288.78], [-121.42529097385705, 47.45201370678842, 1291.67], [-121.42531318590045, 47.45208797045052, 1295.03], [-121.42532525584102, 47.45211982168257, 1293.59], [-121.4253159519285, 47.45212996378541, 1295.99], [-121.42532265745103, 47.452148320153356, 1300.32], [-121.42526809126139, 47.452175226062536, 1301.28], [-121.4251880440861, 47.452196180820465, 1305.13], [-121.42517555505037, 47.452231384813786, 1308.97], [-121.42521972768009, 47.45225259102881, 1312.82], [-121.42522324807942, 47.452312521636486, 1314.26], [-121.42532492056489, 47.45225225575268, 1309.45], [-121.42528309486806, 47.45225787162781, 1310.41], [-121.42523246817291, 47.45226273313165, 1308.01], [-121.42524269409478, 47.45228092186153, 1306.57], [-121.42525929026306, 47.452271450310946, 1309.45], [-121.42527890391648, 47.45227497071028, 1307.05], [-121.42527982592583, 47.452298020944, 1307.53], [-121.4252726174891, 47.45232199318707, 1313.78], [-121.42527513206005, 47.452354431152344, 1320.51], [-121.42533078789711, 47.4524224922061, 1326.76], [-121.42533606849611, 47.452424922958016, 1329.64], [-121.42528753727674, 47.45243238285184, 1330.12], [-121.42517882399261, 47.45241578668356, 1333.01], [-121.42507430166006, 47.4524309579283, 1334.93], [-121.42504923976958, 47.45250849053264, 1341.66], [-121.42508771270514, 47.45254444889724, 1344.54], [-121.42516675405204, 47.452599266543984, 1347.91], [-121.42520757392049, 47.45265668258071, 1350.79], [-121.4252866152674, 47.45271518826485, 1350.79], [-121.42522861249745, 47.45272918604314, 1354.63], [-121.42509684897959, 47.45274804532528, 1355.12], [-121.42507589422166, 47.452805964276195, 1357.52], [-121.42505913041532, 47.45284586213529, 1360.4], [-121.42510707490146, 47.45292582549155, 1363.77], [-121.42509684897959, 47.4529732670635, 1366.17], [-121.42514990642667, 47.45303085073829, 1364.73], [-121.42522836104035, 47.453080052509904, 1366.65], [-121.42526172101498, 47.453116765245795, 1370.02], [-121.42525761388242, 47.4531733430922, 1371.94], [-121.42528058029711, 47.45324199087918, 1371.46], [-121.42530656419694, 47.4533358681947, 1368.09], [-121.42532961443067, 47.45340183377266, 1369.54], [-121.4252950809896, 47.45348531752825, 1368.57], [-121.42523624002934, 47.45355689898133, 1369.05], [-121.42522660084069, 47.453593108803034, 1370.02], [-121.42529424279928, 47.45362697169185, 1371.94], [-121.42540086060762, 47.45366116985679, 1376.26], [-121.42550119198859, 47.453699223697186, 1377.71], [-121.42561694607139, 47.45374431833625, 1378.19], [-121.42566547729075, 47.45377843268216, 1379.15], [-121.42569682560861, 47.45381028391421, 1382.51], [-121.42568961717188, 47.453878009691834, 1387.32], [-121.42566539347172, 47.45386317372322, 1390.2], [-121.42562373541296, 47.45381866581738, 1389.72], [-121.42553312703967, 47.45381196029484, 1387.8], [-121.42548903822899, 47.45385537855327, 1387.8], [-121.42543707042933, 47.45387909933925, 1387.32], [-121.42535953782499, 47.453892678022385, 1387.8], [-121.42526926472783, 47.453902987763286, 1390.2], [-121.4251658320427, 47.453920589759946, 1391.65], [-121.42517865635455, 47.45393785648048, 1393.57], [-121.42517798580229, 47.45396903716028, 1394.05], [-121.42509810626507, 47.453975742682815, 1395.49], [-121.4250218309462, 47.453999212011695, 1397.41], [-121.42501747235656, 47.454023184254766, 1400.3], [-121.42496391199529, 47.45403869077563, 1399.82], [-121.42495444044471, 47.4540489166975, 1397.89], [-121.42494639381766, 47.45406785979867, 1398.86], [-121.42492937855422, 47.4540869705379, 1401.26], [-121.42490993253887, 47.45404455810785, 1401.26], [-121.42490372993052, 47.45405185036361, 1401.26], [-121.42489920370281, 47.45403952896595, 1403.66], [-121.42492895945907, 47.454022681340575, 1401.74], [-121.42490892671049, 47.454038355499506, 1397.89], [-121.42488495446742, 47.454049084335566, 1397.41], [-121.42482804134488, 47.45408068411052, 1403.18], [-121.4247564598918, 47.45412854477763, 1410.87], [-121.42467498779297, 47.454158049076796, 1412.79], [-121.42456384375691, 47.454140447080135, 1418.56], [-121.42447952181101, 47.45412938296795, 1420.49], [-121.42435614019632, 47.45415427722037, 1420.97], [-121.42423275858164, 47.4541577976197, 1422.41], [-121.42412966117263, 47.454121336340904, 1426.73], [-121.42402639612556, 47.45404263027012, 1434.42], [-121.42397518269718, 47.454091580584645, 1438.75], [-121.42393595539033, 47.45416525751352, 1441.63], [-121.42397333867848, 47.45423876680434, 1441.63], [-121.42392539419234, 47.454275311902165, 1438.27], [-121.42388683743775, 47.45429903268814, 1440.19], [-121.42382422462106, 47.45430741459131, 1442.6], [-121.4237807225436, 47.454342199489474, 1445.96], [-121.423747446388, 47.454392993822694, 1450.29], [-121.42374275252223, 47.45448553003371, 1451.73], [-121.42378441058099, 47.45456775650382, 1455.09], [-121.42380050383508, 47.45462475344539, 1459.9], [-121.42383797094226, 47.4547207262367, 1463.26], [-121.42388256266713, 47.454811837524176, 1461.34], [-121.42386940307915, 47.45485215447843, 1461.34], [-121.42377611249685, 47.454890962690115, 1460.86], [-121.42377083189785, 47.45491426438093, 1461.34], [-121.42376362346113, 47.45491309091449, 1465.19], [-121.42373009584844, 47.45492968708277, 1466.63], [-121.42373403534293, 47.45497486554086, 1469.99], [-121.42370285466313, 47.454998502507806, 1472.4], [-121.42366848886013, 47.45504720136523, 1475.76], [-121.4235907047987, 47.45507284998894, 1478.65], [-121.42354720272124, 47.45510830543935, 1477.2], [-121.42345215193927, 47.455151472240686, 1471.92], [-121.4233539160341, 47.45517955161631, 1470.95], [-121.42323757521808, 47.45514661073685, 1475.76], [-121.42315836623311, 47.45515105314553, 1478.16], [-121.42321611754596, 47.45519799180329, 1482.01], [-121.42321888357401, 47.45524367317557, 1484.41], [-121.42318376339972, 47.45528055354953, 1484.41], [-121.42311813309789, 47.455297987908125, 1485.85], [-121.42304780893028, 47.455308800563216, 1486.34], [-121.42300489358604, 47.45532363653183, 1487.78], [-121.42295443452895, 47.45536034926772, 1490.66], [-121.42292643897235, 47.455354146659374, 1494.03], [-121.42295015975833, 47.455356074497104, 1494.03], [-121.42293096520007, 47.4553838185966, 1493.55], [-121.42290439456701, 47.455338053405285, 1496.43], [-121.42286642454565, 47.45532665401697, 1497.39], [-121.42286583781242, 47.45531030930579, 1495.95], [-121.42278051003814, 47.455320032313466, 1497.87], [-121.42274036072195, 47.45532916858792, 1501.72], [-121.42272326163948, 47.455340987071395, 1505.56], [-121.4226873870939, 47.45535012334585, 1509.41], [-121.42269870266318, 47.455375185236335, 1509.41], [-121.42270448617637, 47.455412819981575, 1508.45], [-121.4226704556495, 47.45543109253049, 1509.89], [-121.42265914008021, 47.455443665385246, 1508.93], [-121.42261639237404, 47.45544140227139, 1506.52], [-121.42255478538573, 47.45543293654919, 1506.04], [-121.42247683368623, 47.45543955825269, 1507.0], [-121.42240709625185, 47.45544190518558, 1507.48], [-121.42233744263649, 47.455428494140506, 1507.0], [-121.4222814515233, 47.45543293654919, 1508.45], [-121.42219377681613, 47.45542480610311, 1509.89], [-121.42211448401213, 47.455419190227985, 1511.33], [-121.42208313569427, 47.455443665385246, 1514.21], [-121.42204927280545, 47.45541751384735, 1514.69], [-121.42199303023517, 47.45543444529176, 1517.1], [-121.42195757478476, 47.45544919744134, 1522.87], [-121.4219273161143, 47.455458752810955, 1525.75], [-121.4218934532255, 47.4554459284991, 1526.23], [-121.42187124118209, 47.455433355644345, 1526.23], [-121.4218377135694, 47.45543939061463, 1525.75], [-121.42181147821248, 47.45543100871146, 1525.75], [-121.42184006050229, 47.45544400066137, 1521.9], [-121.42185992561281, 47.45543017052114, 1523.83], [-121.42182882875204, 47.45542782358825, 1528.15], [-121.42183251678944, 47.45538608171046, 1530.08], [-121.42184047959745, 47.455386919900775, 1531.04], [-121.42182011157274, 47.45545959100127, 1523.35], [-121.42177551984787, 47.455463698133826, 1523.35], [-121.42170771025121, 47.4554512090981, 1524.79], [-121.4216233883053, 47.45543804951012, 1528.63], [-121.42159413546324, 47.45540234260261, 1530.56], [-121.42149657011032, 47.45536713860929, 1532.96], [-121.42138810828328, 47.45532950386405, 1532.96], [-121.4212990924716, 47.45530511252582, 1534.4], [-121.42121208831668, 47.455287175253034, 1534.4], [-121.42115777358413, 47.45529388077557, 1534.88], [-121.42113195732236, 47.45530938729644, 1537.77], [-121.42114385962486, 47.45533327572048, 1539.69], [-121.42109440639615, 47.45535800233483, 1540.17], [-121.42106565646827, 47.45536655187607, 1539.21], [-121.42101536504924, 47.45537292212248, 1539.21], [-121.42093682661653, 47.45539203286171, 1541.13], [-121.42095174640417, 47.45543394237757, 1545.46], [-121.42098041251302, 47.45546973310411, 1547.86], [-121.42098016105592, 47.455487586557865, 1547.38], [-121.42107797786593, 47.45555045083165, 1550.26], [-121.42114754766226, 47.45560493320227, 1553.15], [-121.42121778801084, 47.45565329678357, 1553.15], [-121.42127813771367, 47.45566796511412, 1553.15], [-121.42130663618445, 47.455654218792915, 1550.74], [-121.4213057141751, 47.4556499440223, 1553.15], [-121.42138643190265, 47.45568565092981, 1555.55], [-121.42146396450698, 47.45570199564099, 1557.95], [-121.42152934335172, 47.45571683160961, 1558.43], [-121.4215596858412, 47.45572202838957, 1559.88], [-121.42154702916741, 47.45573493652046, 1557.47], [-121.42159321345389, 47.455757232382894, 1556.99], [-121.42170913517475, 47.455855552107096, 1557.95], [-121.42187316901982, 47.45595102198422, 1559.4], [-121.42194458283484, 47.45601958595216, 1560.84], [-121.42203259281814, 47.45607507415116, 1564.2], [-121.42209528945386, 47.456073900684714, 1565.64], [-121.42209788784385, 47.456099884584546, 1561.8], [-121.42207835800946, 47.45614145882428, 1558.43], [-121.4220795314759, 47.456154031679034, 1556.51], [-121.42206410877407, 47.456158893182874, 1557.47], [-121.42206821590662, 47.45609192177653, 1556.51], [-121.42206083983183, 47.45609477162361, 1554.59], [-121.42202655784786, 47.456174064427614, 1554.11], [-121.42205128446221, 47.45622712187469, 1557.95], [-121.42207358032465, 47.45623977854848, 1559.4], [-121.42211984843016, 47.45632250793278, 1561.8], [-121.42215237021446, 47.45636500418186, 1564.68], [-121.42219251953065, 47.45639383792877, 1567.09], [-121.42221892252564, 47.45644890703261, 1573.82], [-121.42223325558007, 47.45649643242359, 1573.33], [-121.42223375849426, 47.456541610881686, 1572.85], [-121.42221875488758, 47.45658134110272, 1574.3], [-121.42223778180778, 47.45662593282759, 1573.82], [-121.42231456004083, 47.45668443851173, 1576.22], [-121.42238195054233, 47.456713020801544, 1580.06], [-121.42238304018974, 47.45672651566565, 1578.14], [-121.42239100299776, 47.456756103783846, 1579.1], [-121.42238656058908, 47.45675937272608, 1579.58], [-121.42238329164684, 47.45679281651974, 1581.99], [-121.42236736603081, 47.4567948281765, 1584.39], [-121.4223210979253, 47.45683690533042, 1584.39], [-121.4222920127213, 47.456873869523406, 1584.87], [-121.4222333393991, 47.45693271048367, 1588.72], [-121.4221471734345, 47.45693271048367, 1590.16], [-121.42208766192198, 47.456928100436926, 1594.0], [-121.42199613153934, 47.45692290365696, 1594.96], [-121.42194173298776, 47.45689708739519, 1596.41], [-121.42187333665788, 47.456872863695025, 1596.89], [-121.42185313627124, 47.45685802772641, 1597.37], [-121.42174584791064, 47.45684285648167, 1600.73], [-121.42169161699712, 47.45683799497783, 1597.37], [-121.42164509743452, 47.45683237910271, 1595.93], [-121.42160058952868, 47.45682123117149, 1596.41], [-121.4215290080756, 47.45681251399219, 1598.33], [-121.4214732684195, 47.45680748485029, 1600.73], [-121.42144778743386, 47.45679164305329, 1604.58], [-121.42141895368695, 47.45675434358418, 1607.46], [-121.42133052460849, 47.45675099082291, 1607.46], [-121.42124318517745, 47.45674177072942, 1609.38], [-121.42117252573371, 47.45673171244562, 1611.79], [-121.4211265090853, 47.45672098360956, 1615.63], [-121.4210955798626, 47.456737998872995, 1612.75], [-121.42110848799348, 47.45677202939987, 1611.79], [-121.4211349748075, 47.456772699952126, 1614.19], [-121.4210969209671, 47.456777561455965, 1608.9], [-121.42104746773839, 47.45677722617984, 1605.54], [-121.42102014273405, 47.45682123117149, 1606.5], [-121.42099088989198, 47.45682374574244, 1610.35], [-121.42098736949265, 47.45684168301523, 1611.79], [-121.42097722738981, 47.456866996362805, 1614.67], [-121.42098058015108, 47.4568706844002, 1617.56], [-121.42100170254707, 47.45685936883092, 1619.48], [-121.4209885429591, 47.45685702189803, 1619.0], [-121.42093665897846, 47.45687562972307, 1620.92], [-121.42094210721552, 47.45686079375446, 1623.32], [-121.42084655351937, 47.45684025809169, 1625.25], [-121.42074597068131, 47.45682634413242, 1627.65], [-121.42070263624191, 47.45682718232274, 1629.57], [-121.42071068286896, 47.45680664665997, 1633.42], [-121.42065008170903, 47.45681108906865, 1632.46], [-121.42061621882021, 47.45681192725897, 1633.9], [-121.42063826322556, 47.456840593367815, 1632.94], [-121.42064563930035, 47.45685760863125, 1632.94], [-121.42066516913474, 47.45685978792608, 1634.86], [-121.42063767649233, 47.456892896443605, 1634.86], [-121.42057422548532, 47.45693262666464, 1638.22], [-121.42056073062122, 47.456972524523735, 1641.11], [-121.42055662348866, 47.45700756087899, 1643.51], [-121.42051773145795, 47.456981325522065, 1646.88], [-121.42050339840353, 47.45696489699185, 1649.28], [-121.42043609172106, 47.45694142766297, 1650.24], [-121.42040214501321, 47.456922736018896, 1651.68], [-121.42029049806297, 47.45691108517349, 1652.64], [-121.42027800902724, 47.456913935020566, 1651.68], [-121.42023626714945, 47.456915862858295, 1652.64], [-121.42023526132107, 47.45698417536914, 1654.57], [-121.42012981697917, 47.45695224031806, 1656.49], [-121.42006024718285, 47.45692726224661, 1660.33], [-121.42005312256515, 47.4569190479815, 1661.78], [-121.42003258690238, 47.456927094608545, 1662.74], [-121.41998531296849, 47.456969590857625, 1663.22], [-121.41997651197016, 47.45699482038617, 1665.62], [-121.41996435821056, 47.45701175183058, 1668.02], [-121.41993979923427, 47.45700856670737, 1671.39], [-121.41993334516883, 47.45705148205161, 1671.87], [-121.41989210620522, 47.45705533772707, 1674.75], [-121.41983016394079, 47.45702742598951, 1679.56], [-121.41979009844363, 47.45708090253174, 1681.48], [-121.41982454806566, 47.45713689364493, 1684.85], [-121.41986628994346, 47.45716296136379, 1686.29], [-121.41986285336316, 47.457179222255945, 1687.73], [-121.41987131908536, 47.45716681703925, 1689.65], [-121.41991800628603, 47.457181653007865, 1689.65], [-121.41990593634546, 47.45721459388733, 1689.65], [-121.41988950781524, 47.457208056002855, 1690.62], [-121.41985656693578, 47.45722498744726, 1692.54], [-121.4198502805084, 47.45721233077347, 1694.46], [-121.41988757997751, 47.45724845677614, 1695.42], [-121.4198933634907, 47.45724183507264, 1695.9], [-121.41989034600556, 47.45723261497915, 1694.94], [-121.41989906318486, 47.457227082923055, 1693.5], [-121.41983913257718, 47.45728441514075, 1693.5], [-121.41979244537652, 47.45731148868799, 1694.46], [-121.41976738348603, 47.457355661317706, 1695.9], [-121.41974491998553, 47.45734132826328, 1699.27], [-121.419698568061, 47.45734820142388, 1699.27], [-121.41966436989605, 47.45736815035343, 1704.07], [-121.41968532465398, 47.4573992472142, 1708.88], [-121.41971725970507, 47.45741969905794, 1711.28], [-121.41968348063529, 47.457465967163444, 1709.36], [-121.41966504044831, 47.4574785400182, 1710.8], [-121.4196724165231, 47.45750427246094, 1713.69], [-121.41962279565632, 47.45748641900718, 1716.09], [-121.41955314204097, 47.45748004876077, 1718.49], [-121.41946328803897, 47.45746144093573, 1720.42], [-121.41944920644164, 47.45746588334441, 1722.34], [-121.41933026723564, 47.45747015811503, 1723.3], [-121.41924871131778, 47.45745750144124, 1725.22], [-121.41924468800426, 47.45748298242688, 1727.15], [-121.4193132519722, 47.45760359801352, 1729.55], [-121.41934250481427, 47.45765254832804, 1734.36], [-121.41939514316618, 47.45769479312003, 1735.8], [-121.41932842321694, 47.45768607594073, 1738.2], [-121.41936563886702, 47.45768322609365, 1740.6], [-121.41935775987804, 47.45768138207495, 1740.12], [-121.41938114538789, 47.457671239972115, 1738.68], [-121.41929011791945, 47.45769537985325, 1740.6], [-121.41919515095651, 47.45768515393138, 1743.49], [-121.41911535523832, 47.45769462548196, 1747.33], [-121.41910756006837, 47.45775799266994, 1750.22], [-121.41913287341595, 47.457804176956415, 1754.06], [-121.41919297166169, 47.457851031795144, 1757.43], [-121.41924812458456, 47.457911130040884, 1759.35], [-121.4192820712924, 47.45792688801885, 1762.71], [-121.41933630220592, 47.45799737982452, 1760.79], [-121.419418444857, 47.458040714263916, 1764.16], [-121.41939288005233, 47.45805940590799, 1766.56], [-121.41931811347604, 47.458063680678606, 1768.48], [-121.41926723532379, 47.4580676201731, 1771.37], [-121.41924711875618, 47.4581141397357, 1774.25], [-121.41921509988606, 47.45810768567026, 1778.1], [-121.41912541352212, 47.45809762738645, 1779.54], [-121.4191182050854, 47.45807885192335, 1786.27], [-121.41910982318223, 47.45807231403887, 1787.71], [-121.41914368607104, 47.458110535517335, 1786.75], [-121.41912197694182, 47.4581003934145, 1777.61], [-121.4191454462707, 47.45811430737376, 1781.94], [-121.41912608407438, 47.458124198019505, 1786.75], [-121.41913144849241, 47.4581054225564, 1783.86], [-121.41915248706937, 47.458097878843546, 1783.38], [-121.41913589090109, 47.458109026774764, 1783.86], [-121.41913647763431, 47.45809813030064, 1781.46], [-121.41911963000894, 47.45811858214438, 1779.06], [-121.4191388245672, 47.458086647093296, 1776.65], [-121.41916505992413, 47.458074409514666, 1778.1], [-121.41917763277888, 47.458101315423846, 1779.06], [-121.41913957893848, 47.45808036066592, 1780.98], [-121.41906782984734, 47.45802579447627, 1779.06], [-121.41899767331779, 47.45800852775574, 1779.06], [-121.41896850429475, 47.457991847768426, 1780.02], [-121.41887320205569, 47.45796754024923, 1780.98], [-121.41881385818124, 47.457982040941715, 1784.34], [-121.41878049820662, 47.45797650888562, 1787.23], [-121.41869961284101, 47.45797986164689, 1787.23], [-121.41863867640495, 47.45797583833337, 1788.67], [-121.41859366558492, 47.45796603150666, 1790.11], [-121.41853306442499, 47.45797282084823, 1791.55], [-121.41851018182933, 47.45799067430198, 1791.55], [-121.41843759454787, 47.457990339025855, 1790.11], [-121.41838755458593, 47.457997715100646, 1791.55], [-121.41836190596223, 47.45803493075073, 1791.55], [-121.41831681132317, 47.45801640674472, 1794.44], [-121.41826635226607, 47.45797608979046, 1796.84], [-121.41820650547743, 47.457994781434536, 1799.73], [-121.41814548522234, 47.45802755467594, 1801.65], [-121.41806409694254, 47.45801934041083, 1803.09], [-121.4179905038327, 47.45802202261984, 1805.97], [-121.41792831011117, 47.45804817415774, 1806.45], [-121.41788103617728, 47.45808346197009, 1805.97], [-121.41781523823738, 47.45806158520281, 1807.9], [-121.41777575947344, 47.458081282675266, 1807.9], [-121.41777031123638, 47.458098800852895, 1807.42], [-121.41778724268079, 47.45816149748862, 1807.42], [-121.4178073592484, 47.45821128599346, 1806.45], [-121.41780727542937, 47.45823349803686, 1806.45], [-121.41782160848379, 47.458242047578096, 1807.42], [-121.41779478639364, 47.458218494430184, 1809.82], [-121.41771130263805, 47.458200389519334, 1815.11], [-121.41767936758697, 47.4581952765584, 1817.99], [-121.41761784441769, 47.45818848721683, 1819.43], [-121.41756009310484, 47.45818806812167, 1820.87], [-121.41751893796027, 47.45817977003753, 1823.76], [-121.41748515889049, 47.45818052440882, 1826.16], [-121.4174101408571, 47.45817482471466, 1832.41], [-121.41739128157496, 47.45825964957476, 1828.08], [-121.4174032676965, 47.45831362903118, 1828.08], [-121.41741760075092, 47.45833609253168, 1828.56], [-121.41742841340601, 47.458411026746035, 1827.6], [-121.4174656290561, 47.4583974480629, 1834.81], [-121.41748205758631, 47.458409518003464, 1838.18], [-121.4174378849566, 47.458404153585434, 1841.54], [-121.41738809645176, 47.45839451439679, 1846.35], [-121.41735884360969, 47.45839568786323, 1847.79], [-121.41731064766645, 47.458409518003464, 1848.75], [-121.4172650501132, 47.45841681025922, 1849.71], [-121.41723420470953, 47.458418402820826, 1851.16], [-121.4172153454274, 47.45841706171632, 1854.04], [-121.41715197823942, 47.4584180675447, 1856.44], [-121.41713253222406, 47.45842443779111, 1857.4], [-121.41713043674827, 47.458494594320655, 1855.48], [-121.41714602708817, 47.458568438887596, 1855.0], [-121.4171683229506, 47.45862627401948, 1856.92], [-121.41722305677831, 47.4586580414325, 1856.92], [-121.41729564405978, 47.45868821628392, 1857.89], [-121.41731718555093, 47.45873716659844, 1858.37], [-121.41739103011787, 47.458772202953696, 1858.85], [-121.41741500236094, 47.45874797925353, 1860.29], [-121.41736211255193, 47.45872903615236, 1863.65], [-121.41730201430619, 47.45873096399009, 1865.58], [-121.41728902235627, 47.45874940417707, 1867.5], [-121.41730176284909, 47.4587856978178, 1870.38], [-121.41730586998165, 47.4588271882385, 1871.82], [-121.41728969290853, 47.45883783325553, 1874.71], [-121.41724493354559, 47.458812184631824, 1877.11], [-121.41710839234293, 47.45878150686622, 1878.55], [-121.41701057553291, 47.45873708277941, 1880.48], [-121.41689800657332, 47.45870380662382, 1881.92], [-121.4168181270361, 47.458707159385085, 1878.07], [-121.41675869934261, 47.45866524986923, 1881.92], [-121.4167658239603, 47.45872006751597, 1885.28], [-121.4166920632124, 47.458682768046856, 1889.13], [-121.41668938100338, 47.45865225791931, 1891.05], [-121.41663732938468, 47.45863758958876, 1892.01], [-121.41650405712426, 47.45867723599076, 1893.93], [-121.416439935565, 47.45874060317874, 1899.22], [-121.41645192168653, 47.458754600957036, 1899.7], [-121.4164727088064, 47.45878502726555, 1901.63], [-121.41648327000439, 47.45880447328091, 1902.59], [-121.41649165190756, 47.45882760733366, 1904.03], [-121.41648352146149, 47.458848813548684, 1905.47], [-121.41650900244713, 47.45888032950461, 1906.43], [-121.41648880206048, 47.45888225734234, 1908.83], [-121.4164862036705, 47.458896255120635, 1907.39], [-121.41649793833494, 47.4588842689991, 1906.43], [-121.41649668104947, 47.458893740549684, 1909.8], [-121.41650632023811, 47.45889977551997, 1908.83], [-121.41649441793561, 47.45888317935169, 1906.91], [-121.41650791279972, 47.45889457874, 1905.47], [-121.41657060943544, 47.458931878209114, 1907.39], [-121.41655686311424, 47.45891930535436, 1907.87], [-121.41656348481774, 47.45891310274601, 1907.87], [-121.41654579900205, 47.45891125872731, 1907.39], [-121.41652962192893, 47.45888820849359, 1907.39], [-121.41652962192893, 47.45888192206621, 1908.83], [-121.41651101410389, 47.45886901393533, 1905.95], [-121.41651067882776, 47.45886214077473, 1907.39], [-121.41649668104947, 47.45885786600411, 1904.99], [-121.4164827670902, 47.45888393372297, 1904.03], [-121.41649751923978, 47.458879156038165, 1904.03], [-121.41651252284646, 47.45886566117406, 1904.03], [-121.41648452728987, 47.45882232673466, 1901.63], [-121.41648503020406, 47.45877639390528, 1899.22], [-121.41650129109621, 47.45869123376906, 1894.42], [-121.41663263551891, 47.45866089127958, 1889.61], [-121.41665836796165, 47.458659298717976, 1887.69], [-121.4166709408164, 47.45868536643684, 1887.21], [-121.41666239127517, 47.458713445812464, 1885.28], [-121.41671050339937, 47.458698777481914, 1887.21], [-121.41674830578268, 47.4587167147547, 1886.72], [-121.41680723056197, 47.45872895233333, 1882.88], [-121.41688258387148, 47.45876993983984, 1878.55], [-121.41693396493793, 47.45878645218909, 1873.75], [-121.41705483198166, 47.45880606584251, 1869.9], [-121.41715533100069, 47.45884562842548, 1865.58], [-121.41712163574994, 47.45881017297506, 1863.65], [-121.41709649004042, 47.458800449967384, 1862.21], [-121.41715222969651, 47.458847388625145, 1863.17], [-121.41725398600101, 47.4588789884001, 1862.69], [-121.4172634575516, 47.45883557014167, 1862.21], [-121.4172756113112, 47.45879936031997, 1861.73], [-121.41733143478632, 47.4587426148355, 1859.81], [-121.41737334430218, 47.45871042832732, 1856.44], [-121.41735901124775, 47.458665668964386, 1853.08], [-121.41729262657464, 47.45861177332699, 1850.68], [-121.4173155091703, 47.458541532978415, 1849.23], [-121.41728885471821, 47.45852091349661, 1846.35], [-121.4172941353172, 47.45851211249828, 1844.43], [-121.41729187220335, 47.458478417247534, 1844.91], [-121.41730754636228, 47.458445308730006, 1844.91], [-121.41736194491386, 47.458456037566066, 1843.95], [-121.41745833680034, 47.45844514109194, 1841.54], [-121.41749823465943, 47.458417899906635, 1837.7], [-121.4174674730748, 47.45835956186056, 1833.85], [-121.4174532238394, 47.45834765955806, 1832.89], [-121.41740662045777, 47.45830130763352, 1830.01], [-121.41738901846111, 47.45824137702584, 1827.6], [-121.41746864654124, 47.458243975415826, 1824.72], [-121.41754986718297, 47.458227379247546, 1822.32], [-121.41754886135459, 47.458247411996126, 1818.47], [-121.41751072369516, 47.45829594321549, 1818.47], [-121.41754576005042, 47.45823190547526, 1821.35], [-121.4176049362868, 47.45823140256107, 1820.87], [-121.41756202094257, 47.45822511613369, 1822.8], [-121.4175642002374, 47.458235593512654, 1818.95], [-121.41758691519499, 47.45825478807092, 1818.95], [-121.4176294952631, 47.45825654827058, 1819.43], [-121.41776192933321, 47.458263924345374, 1814.15], [-121.41785580664873, 47.45826727710664, 1808.86], [-121.41791774891317, 47.458217069506645, 1806.45], [-121.41796636395156, 47.45816074311733, 1803.57], [-121.41797348856926, 47.458154456689954, 1803.09], [-121.41803735867143, 47.45812939479947, 1799.73], [-121.41817029565573, 47.4581294786185, 1797.8], [-121.41829300671816, 47.458101231604815, 1794.92], [-121.41829828731716, 47.45810139924288, 1794.44], [-121.41837087459862, 47.458088574931026, 1792.03], [-121.41838453710079, 47.45807172730565, 1791.07], [-121.4184101857245, 47.45805840007961, 1789.63], [-121.41851847991347, 47.458087569102645, 1787.23], [-121.41856818459928, 47.45809796266258, 1786.75], [-121.41853163950145, 47.45808446779847, 1785.79], [-121.4185571204871, 47.458042642101645, 1786.27], [-121.41856466419995, 47.45804524049163, 1785.79], [-121.41857690177858, 47.45803367346525, 1784.34], [-121.41859601251781, 47.45802923105657, 1784.82], [-121.41869542188942, 47.45804683305323, 1783.86], [-121.41880363225937, 47.45804004371166, 1781.94], [-121.41880732029676, 47.45801012031734, 1779.54], [-121.41888057813048, 47.458008360117674, 1778.58], [-121.41898258589208, 47.45803224854171, 1779.54], [-121.41908006742597, 47.458060747012496, 1779.54], [-121.41916221007705, 47.458087150007486, 1777.13], [-121.41917813569307, 47.45808815583587, 1778.58], [-121.41915240325034, 47.45810240507126, 1780.98], [-121.4191731903702, 47.45811380445957, 1779.06]]}}