{"type": "Feature", "properties": {}, "geometry": {"type": "LineString", "coordinates": [[-121.612436, 46.279479, 1207.9], [-121.612342, 46.279432, 1215.7], [-121.612244, 46.279417, 1213.5], [-121.612202, 46.279401, 1215.0], [-121.612202, 46.279395, 1215.1], [-121.61199, 46.279297, 1216.9], [-121.611978, 46.279294, 1216.3], [-121.611879, 46.279278, 1218.4], [-121.611841, 46.279248, 1221.0], [-121.611778, 46.279218, 1219.8], [-121.611767, 46.279214, 1219.0], [-121.611695, 46.279149, 1218.5], [-121.611597, 46.279114, 1219.9], [-121.611583, 46.279106, 1220.7], [-121.611481, 46.27906, 1220.5], [-121.611432, 46.279024, 1222.6], [-121.611352, 46.278998, 1219.6], [-121.611258, 46.278975, 1218.1], [-121.611229, 46.278933, 1217.3], [-121.611187, 46.278913, 1216.8], [-121.611127, 46.278897, 1216.8], [-121.611003, 46.278813, 1217.4], [-121.610976, 46.278776, 1217.3], [-121.610955, 46.278726, 1219.6], [-121.610879, 46.278628, 1220.5], [-121.610869, 46.278618, 1221.5], [-121.610827, 46.278552, 1222.6], [-121.61082, 46.27849, 1227.6], [-121.610802, 46.278453, 1227.1], [-121.610807, 46.278443, 1224.7], [-121.610785, 46.278396, 1225.6], [-121.610789, 46.278376, 1224.3], [-121.610756, 46.278323, 1230.1], [-121.610752, 46.278293, 1231.2], [-121.610716, 46.278234, 1233.7], [-121.610721, 46.278213, 1234.6], [-121.610731, 46.278187, 1232.5], [-121.610803, 46.278142, 1233.5], [-121.610817, 46.278135, 1233.5], [-121.610829, 46.278104, 1233.7], [-121.610811, 46.278085, 1235.2], [-121.610706, 46.278065, 1236.6], [-121.610653, 46.278043, 1236.4], [-121.61064, 46.278036, 1236.2], [-121.610507, 46.277915, 1240.8], [-121.610522, 46.277885, 1240.2], [-121.610532, 46.277872, 1237.8], [-121.610496, 46.277782, 1236.3], [-121.610401, 46.277736, 1235.1], [-121.610336, 46.277696, 1231.0], [-121.610252, 46.277592, 1240.1], [-121.610247, 46.277585, 1240.7], [-121.610248, 46.277561, 1239.6], [-121.610223, 46.277519, 1240.6], [-121.61015, 46.277493, 1242.9], [-121.610109, 46.277395, 1240.2], [-121.610082, 46.277376, 1240.6], [-121.610066, 46.277392, 1237.8], [-121.610034, 46.277384, 1236.4], [-121.610003, 46.277346, 1236.8], [-121.60994, 46.277242, 1239.7], [-121.609929, 46.277184, 1242.0], [-121.609931, 46.277161, 1243.2], [-121.609896, 46.277122, 1244.2], [-121.609903, 46.277096, 1248.2], [-121.60992, 46.277077, 1251.0], [-121.609914, 46.276992, 1249.2], [-121.609916, 46.276986, 1248.9], [-121.609959, 46.276898, 1255.5], [-121.60993, 46.276887, 1255.6], [-121.609967, 46.276832, 1254.2], [-121.60997, 46.276824, 1253.9], [-121.609961, 46.276791, 1254.4], [-121.609968, 46.276725, 1255.2], [-121.609921, 46.276663, 1255.4], [-121.609916, 46.276653, 1253.2], [-121.609921, 46.276622, 1253.0], [-121.609907, 46.276573, 1251.2], [-121.609924, 46.276471, 1255.1], [-121.609939, 46.276437, 1256.7], [-121.609933, 46.276412, 1252.3], [-121.60996, 46.276397, 1251.2], [-121.60994, 46.276339, 1252.0], [-121.609944, 46.276308, 1253.1], [-121.609938, 46.276299, 1253.9], [-121.609911, 46.276277, 1251.3], [-121.609904, 46.27623, 1250.7], [-121.609946, 46.276188, 1252.4], [-121.609956, 46.276165, 1251.8], [-121.609943, 46.276133, 1250.4], [-121.609935, 46.276126, 1250.4], [-121.609868, 46.275969, 1255.8], [-121.609867, 46.275958, 1255.6], [-121.609841, 46.275869, 1256.7], [-121.609858, 46.275823, 1256.5], [-121.609814, 46.275788, 1255.4], [-121.609746, 46.275701, 1252.4], [-121.60971, 46.275693, 1252.8], [-121.609667, 46.275659, 1251.4], [-121.609542, 46.275645, 1249.4], [-121.609498, 46.275614, 1248.7], [-121.609392, 46.275601, 1249.4], [-121.609377, 46.275602, 1249.0], [-121.609316, 46.275613, 1252.1], [-121.609256, 46.275608, 1252.0], [-121.609163, 46.275568, 1252.3], [-121.609152, 46.275558, 1253.0], [-121.60911, 46.275552, 1252.9], [-121.608985, 46.275574, 1252.6], [-121.608907, 46.275572, 1251.5], [-121.608861, 46.275548, 1252.2], [-121.608762, 46.275615, 1250.2], [-121.608718, 46.275611, 1251.1], [-121.608708, 46.275606, 1250.9], [-121.608599, 46.275608, 1252.5], [-121.608471, 46.275669, 1252.7], [-121.608454, 46.27568, 1252.8], [-121.608292, 46.275713, 1251.5], [-121.608254, 46.275728, 1251.4], [-121.608211, 46.275722, 1252.9], [-121.608111, 46.275742, 1250.2], [-121.608017, 46.275811, 1250.6], [-121.607927, 46.275857, 1251.2], [-121.607873, 46.27586, 1253.4], [-121.607798, 46.275882, 1251.8], [-121.607593, 46.275925, 1257.4], [-121.607547, 46.275943, 1254.6], [-121.607534, 46.275944, 1255.2], [-121.607451, 46.275896, 1256.6], [-121.607432, 46.275862, 1257.7], [-121.607359, 46.27585, 1256.4], [-121.607326, 46.275833, 1255.6], [-121.607281, 46.275785, 1256.4], [-121.607187, 46.275744, 1254.8], [-121.607177, 46.275738, 1254.1], [-121.607139, 46.275692, 1254.8], [-121.607139, 46.275653, 1253.9], [-121.607106, 46.275622, 1255.1], [-121.607065, 46.275604, 1256.1], [-121.607053, 46.275595, 1255.8], [-121.607055, 46.275567, 1256.5], [-121.607044, 46.275542, 1257.5], [-121.606931, 46.275459, 1258.5], [-121.606908, 46.275451, 1258.8], [-121.60693, 46.275432, 1260.0], [-121.606826, 46.275375, 1265.1], [-121.606817, 46.275359, 1265.3], [-121.606835, 46.275335, 1264.4], [-121.606846, 46.275329, 1266.1], [-121.606852, 46.27532, 1265.7], [-121.606842, 46.275297, 1264.4], [-121.606752, 46.27524, 1264.2], [-121.606689, 46.275219, 1263.8], [-121.606679, 46.275211, 1263.8], [-121.606644, 46.275163, 1263.5], [-121.606617, 46.275145, 1264.6], [-121.606561, 46.27513, 1264.5], [-121.606523, 46.275095, 1265.2], [-121.60652, 46.275086, 1264.8], [-121.606492, 46.27506, 1265.6], [-121.606405, 46.275021, 1266.6], [-121.60638, 46.27498, 1265.7], [-121.606342, 46.274974, 1265.5], [-121.606327, 46.274968, 1266.0], [-121.606174, 46.274914, 1266.9], [-121.606089, 46.274905, 1265.4], [-121.605969, 46.274883, 1267.4], [-121.605922, 46.274864, 1266.7], [-121.605856, 46.274857, 1266.5], [-121.605608, 46.274795, 1266.4], [-121.605593, 46.274792, 1267.2], [-121.605571, 46.27477, 1267.3], [-121.605373, 46.274756, 1268.4], [-121.605362, 46.274754, 1269.1], [-121.605244, 46.274706, 1271.2], [-121.605151, 46.274683, 1271.4], [-121.605141, 46.274676, 1271.0], [-121.604942, 46.274605, 1271.0], [-121.604901, 46.274605, 1270.3], [-121.604887, 46.274607, 1270.9], [-121.604881, 46.274613, 1270.3], [-121.60485, 46.274611, 1272.0], [-121.604797, 46.27458, 1271.1], [-121.60467, 46.274547, 1271.2], [-121.60466, 46.274543, 1271.4], [-121.604558, 46.274521, 1270.9], [-121.604507, 46.274501, 1272.8], [-121.604485, 46.27448, 1272.9], [-121.60444, 46.274486, 1270.8], [-121.604392, 46.274506, 1270.9], [-121.604319, 46.274498, 1268.7], [-121.604252, 46.274504, 1268.4], [-121.604186, 46.274542, 1266.2], [-121.604174, 46.274542, 1265.3], [-121.604133, 46.274535, 1265.7], [-121.604068, 46.274543, 1267.0], [-121.603931, 46.274581, 1269.5], [-121.60386, 46.274578, 1271.9], [-121.603799, 46.274557, 1271.7], [-121.603715, 46.274588, 1271.0], [-121.603708, 46.274576, 1269.4], [-121.603733, 46.27456, 1275.1], [-121.603717, 46.274541, 1277.3], [-121.60368, 46.274541, 1282.8], [-121.60357, 46.274605, 1285.8], [-121.603562, 46.274607, 1285.3], [-121.60335, 46.27468, 1279.4], [-121.603343, 46.27468, 1279.2], [-121.603265, 46.274722, 1281.3], [-121.603142, 46.274763, 1278.8], [-121.603126, 46.274764, 1278.4], [-121.603127, 46.274753, 1278.2], [-121.603109, 46.274753, 1277.1], [-121.603008, 46.274765, 1280.0], [-121.602977, 46.274779, 1281.0], [-121.602959, 46.274802, 1278.6], [-121.60291, 46.274815, 1278.3], [-121.6029, 46.274815, 1277.8], [-121.602871, 46.274768, 1279.1], [-121.602813, 46.274765, 1281.7], [-121.602728, 46.274744, 1283.6], [-121.602721, 46.274741, 1284.0], [-121.602476, 46.274697, 1278.7], [-121.602373, 46.274678, 1279.8], [-121.602263, 46.27477, 1290.5], [-121.602189, 46.274846, 1289.1], [-121.602149, 46.274911, 1292.4], [-121.602146, 46.274913, 1292.7], [-121.60214, 46.274944, 1291.9], [-121.602168, 46.275059, 1292.8], [-121.602202, 46.275078, 1291.1], [-121.602178, 46.275098, 1287.5], [-121.602174, 46.275071, 1283.9], [-121.60219, 46.275115, 1291.3], [-121.602212, 46.275135, 1292.2], [-121.602213, 46.275185, 1292.9], [-121.602273, 46.275274, 1295.5], [-121.602344, 46.275324, 1295.9], [-121.602511, 46.275479, 1301.1], [-121.602523, 46.275496, 1299.6], [-121.602487, 46.275499, 1299.7], [-121.602488, 46.275569, 1303.4], [-121.602443, 46.275611, 1302.0], [-121.602442, 46.275641, 1302.1], [-121.602417, 46.275689, 1304.3], [-121.602411, 46.275735, 1306.3], [-121.602335, 46.27579, 1307.6], [-121.602293, 46.275833, 1309.9], [-121.602282, 46.275878, 1312.9], [-121.602291, 46.275899, 1310.3], [-121.602284, 46.27593, 1307.8], [-121.602276, 46.27594, 1309.4], [-121.602256, 46.275982, 1308.7], [-121.602268, 46.276005, 1312.0], [-121.602259, 46.276024, 1315.2], [-121.602199, 46.276046, 1315.2], [-121.602173, 46.276097, 1315.3], [-121.602146, 46.276133, 1315.6], [-121.60208, 46.276159, 1310.1], [-121.602051, 46.276156, 1311.0], [-121.601953, 46.27618, 1306.3], [-121.601946, 46.276181, 1305.9], [-121.601874, 46.276207, 1309.5], [-121.601877, 46.27623, 1309.0], [-121.601863, 46.276263, 1310.3], [-121.601896, 46.276311, 1316.8], [-121.601879, 46.276339, 1316.9], [-121.601862, 46.2764, 1322.1], [-121.601868, 46.276426, 1324.8], [-121.601856, 46.276475, 1330.5], [-121.601863, 46.276514, 1333.1], [-121.601847, 46.276533, 1332.7], [-121.601723, 46.276608, 1330.2], [-121.601722, 46.27661, 1330.3], [-121.601663, 46.276631, 1325.2], [-121.601555, 46.276712, 1327.1], [-121.601511, 46.276721, 1328.1], [-121.601516, 46.276713, 1328.2], [-121.601476, 46.276742, 1334.1], [-121.60147, 46.27676, 1334.6], [-121.601433, 46.276763, 1332.0], [-121.601337, 46.276794, 1327.5], [-121.601329, 46.276805, 1328.5], [-121.601288, 46.27685, 1329.5], [-121.601281, 46.276919, 1332.0], [-121.601207, 46.27694, 1331.0], [-121.601196, 46.276948, 1329.8], [-121.601134, 46.276984, 1327.5], [-121.601109, 46.277028, 1327.5], [-121.601093, 46.277043, 1328.4], [-121.60106, 46.277048, 1325.2], [-121.601038, 46.277069, 1324.1], [-121.601044, 46.277082, 1324.8], [-121.601033, 46.27711, 1326.0], [-121.601003, 46.277117, 1325.9], [-121.600983, 46.277135, 1325.6], [-121.601016, 46.27716, 1325.3], [-121.601028, 46.277183, 1323.9], [-121.601018, 46.277201, 1323.8], [-121.600981, 46.277209, 1323.0], [-121.600952, 46.277193, 1324.6], [-121.600944, 46.277167, 1323.5], [-121.600942, 46.277193, 1329.1], [-121.600916, 46.277211, 1334.5], [-121.600827, 46.277244, 1334.9], [-121.600833, 46.277253, 1334.5], [-121.600792, 46.277294, 1339.5], [-121.600771, 46.27734, 1341.7], [-121.600717, 46.277363, 1341.4], [-121.600678, 46.277403, 1344.6], [-121.600638, 46.277487, 1338.3], [-121.600579, 46.277513, 1337.6], [-121.600549, 46.277539, 1339.7], [-121.600508, 46.277579, 1339.9], [-121.600418, 46.277702, 1337.3], [-121.600408, 46.27772, 1338.8], [-121.600349, 46.277792, 1335.4], [-121.600226, 46.277847, 1334.6], [-121.600209, 46.277873, 1334.9], [-121.600194, 46.277927, 1332.8], [-121.600112, 46.278021, 1333.0], [-121.600104, 46.278027, 1332.6], [-121.600032, 46.27801, 1329.4], [-121.599998, 46.27801, 1329.0], [-121.599964, 46.278039, 1327.1], [-121.599941, 46.278094, 1328.9], [-121.599937, 46.278107, 1327.7], [-121.599917, 46.278138, 1326.6], [-121.599836, 46.278123, 1325.9], [-121.599801, 46.278127, 1325.7], [-121.599744, 46.278159, 1328.7], [-121.599739, 46.278193, 1326.4], [-121.599723, 46.278209, 1324.4], [-121.599669, 46.278235, 1324.8], [-121.599634, 46.278269, 1323.9], [-121.599591, 46.278274, 1323.8], [-121.599585, 46.278292, 1324.0], [-121.599554, 46.278301, 1324.3], [-121.599455, 46.27831, 1324.2], [-121.5994, 46.278277, 1323.3], [-121.599377, 46.278256, 1323.1], [-121.599427, 46.278257, 1321.5], [-121.599438, 46.278276, 1322.5], [-121.59947, 46.278267, 1319.8], [-121.599402, 46.278281, 1326.0], [-121.599364, 46.278275, 1325.5], [-121.599394, 46.278275, 1321.6], [-121.599486, 46.278243, 1324.8], [-121.599513, 46.278283, 1329.5], [-121.599554, 46.278291, 1330.0], [-121.599579, 46.278271, 1324.7], [-121.599617, 46.278268, 1322.0], [-121.599646, 46.278279, 1323.1], [-121.599712, 46.278269, 1319.7], [-121.599787, 46.278278, 1319.6], [-121.599793, 46.278277, 1320.1], [-121.599812, 46.278256, 1321.2], [-121.599848, 46.27825, 1320.6], [-121.599947, 46.278266, 1321.1], [-121.600024, 46.278257, 1325.2], [-121.600061, 46.278237, 1329.8], [-121.600093, 46.278237, 1331.3], [-121.600187, 46.278342, 1329.9], [-121.600197, 46.278348, 1331.1], [-121.600234, 46.278362, 1333.1], [-121.600243, 46.278383, 1330.4], [-121.600258, 46.278441, 1326.6], [-121.600247, 46.278491, 1329.0], [-121.600259, 46.278531, 1328.7], [-121.600324, 46.27863, 1324.8], [-121.600319, 46.278656, 1327.8], [-121.600344, 46.278689, 1327.8], [-121.600345, 46.278722, 1331.8], [-121.60031, 46.278754, 1329.7], [-121.600273, 46.278753, 1329.7], [-121.600253, 46.278776, 1330.8], [-121.600252, 46.278783, 1329.4], [-121.600215, 46.278829, 1328.1], [-121.600236, 46.278847, 1328.4], [-121.600247, 46.278885, 1328.6], [-121.600247, 46.278908, 1329.6], [-121.600233, 46.278941, 1329.1], [-121.600232, 46.278949, 1329.5], [-121.600238, 46.278975, 1327.7], [-121.6002, 46.27908, 1320.4], [-121.600202, 46.279122, 1317.1], [-121.60018, 46.279195, 1320.3], [-121.60013, 46.279278, 1324.2], [-121.600124, 46.279307, 1325.9], [-121.6001, 46.279361, 1327.0], [-121.600083, 46.279377, 1325.6], [-121.600078, 46.279404, 1325.5], [-121.600086, 46.279437, 1324.3], [-121.60008, 46.279459, 1321.2], [-121.600061, 46.279473, 1320.8], [-121.600056, 46.279459, 1319.9], [-121.600061, 46.279437, 1319.8], [-121.600084, 46.279457, 1315.0], [-121.600092, 46.279531, 1324.3], [-121.600087, 46.279552, 1319.5], [-121.600043, 46.279584, 1318.7], [-121.600033, 46.279597, 1320.9], [-121.600017, 46.279641, 1321.6], [-121.599997, 46.279656, 1321.8], [-121.599937, 46.27968, 1319.2], [-121.599862, 46.279733, 1321.4], [-121.599857, 46.279735, 1323.3], [-121.59968, 46.279745, 1322.1], [-121.599604, 46.279766, 1319.5], [-121.599515, 46.279804, 1315.8], [-121.599456, 46.279808, 1316.1], [-121.599402, 46.279854, 1317.6], [-121.599374, 46.279881, 1317.0], [-121.599356, 46.279928, 1317.1], [-121.599297, 46.280005, 1318.7], [-121.599285, 46.280013, 1319.2], [-121.59921, 46.280049, 1314.9], [-121.599188, 46.280092, 1315.7], [-121.599147, 46.280133, 1315.7], [-121.599144, 46.280104, 1314.9], [-121.599148, 46.280095, 1314.0], [-121.599152, 46.280063, 1313.1], [-121.599179, 46.280081, 1320.4], [-121.599151, 46.280079, 1323.5], [-121.599124, 46.280093, 1322.4], [-121.599092, 46.280131, 1321.6], [-121.599081, 46.28018, 1320.9], [-121.599057, 46.280202, 1320.4], [-121.599008, 46.280326, 1321.6], [-121.598987, 46.280344, 1322.4], [-121.598995, 46.280369, 1323.2], [-121.599014, 46.280384, 1323.3], [-121.598978, 46.280449, 1317.8], [-121.598929, 46.280472, 1316.9], [-121.59886, 46.280612, 1323.4], [-121.598801, 46.280635, 1321.2], [-121.598777, 46.280665, 1320.7], [-121.59863, 46.280773, 1326.0], [-121.598609, 46.28081, 1331.7], [-121.598628, 46.280861, 1332.3], [-121.5987, 46.280928, 1334.4], [-121.598709, 46.280957, 1331.4], [-121.598714, 46.280958, 1330.7], [-121.598817, 46.281056, 1335.2], [-121.598824, 46.281112, 1335.4], [-121.598871, 46.281183, 1339.9], [-121.598884, 46.281223, 1337.3], [-121.598905, 46.281241, 1338.4], [-121.598915, 46.281271, 1338.9], [-121.59892, 46.281278, 1338.0], [-121.598928, 46.281305, 1337.9], [-121.59896, 46.281338, 1333.3], [-121.599006, 46.281365, 1333.9], [-121.599028, 46.281415, 1336.1], [-121.599035, 46.281427, 1336.2], [-121.599058, 46.281451, 1334.7], [-121.599061, 46.2815, 1339.3], [-121.599121, 46.281529, 1342.0], [-121.599113, 46.281552, 1340.1], [-121.599127, 46.28157, 1339.1], [-121.599221, 46.28165, 1337.0], [-121.599328, 46.281699, 1330.1], [-121.59939, 46.281728, 1332.2], [-121.599558, 46.281759, 1330.8], [-121.599578, 46.281758, 1330.5], [-121.599763, 46.281827, 1327.6], [-121.599807, 46.281832, 1327.2], [-121.599821, 46.281836, 1326.4], [-121.599962, 46.281882, 1327.9], [-121.599969, 46.281902, 1330.6], [-121.600001, 46.281935, 1330.6], [-121.600011, 46.281973, 1331.6], [-121.600092, 46.282013, 1327.9], [-121.600184, 46.282014, 1327.2], [-121.600243, 46.282031, 1326.2], [-121.600365, 46.282079, 1328.2], [-121.600403, 46.282074, 1327.7], [-121.600472, 46.282092, 1327.6], [-121.60048, 46.282097, 1326.8], [-121.600601, 46.282147, 1328.8], [-121.600686, 46.282167, 1329.6], [-121.600698, 46.282173, 1330.7], [-121.60081, 46.282242, 1332.6], [-121.600825, 46.2823, 1335.7], [-121.600829, 46.282307, 1336.4], [-121.600846, 46.282365, 1334.3], [-121.600842, 46.28241, 1332.0], [-121.600864, 46.282457, 1327.3], [-121.60086, 46.282495, 1326.9], [-121.600861, 46.282524, 1328.0], [-121.600885, 46.282565, 1329.1], [-121.600896, 46.282632, 1331.8], [-121.600939, 46.282655, 1331.5], [-121.600996, 46.282715, 1332.5], [-121.600988, 46.282753, 1334.2], [-121.601022, 46.282827, 1328.7], [-121.601086, 46.282867, 1329.2], [-121.601065, 46.282952, 1328.7], [-121.601089, 46.282983, 1330.4], [-121.601099, 46.28299, 1329.1], [-121.601117, 46.283012, 1329.5], [-121.601121, 46.283035, 1330.7], [-121.601109, 46.2831, 1330.9], [-121.60115, 46.283157, 1328.8], [-121.601154, 46.283191, 1328.9], [-121.601175, 46.283212, 1328.3], [-121.601187, 46.283251, 1328.0], [-121.60118, 46.283292, 1325.9], [-121.601211, 46.283321, 1328.8], [-121.601211, 46.283426, 1330.1], [-121.601243, 46.283499, 1329.0], [-121.601296, 46.283559, 1328.2], [-121.601304, 46.283585, 1329.9], [-121.6013, 46.283632, 1332.7], [-121.601323, 46.283666, 1333.4], [-121.601404, 46.283752, 1333.8], [-121.601417, 46.283832, 1328.9], [-121.601446, 46.283869, 1327.6], [-121.601467, 46.28395, 1330.0], [-121.601482, 46.283963, 1331.1], [-121.601518, 46.283968, 1330.0], [-121.601536, 46.283993, 1330.5], [-121.601544, 46.284013, 1336.2], [-121.601622, 46.284077, 1333.1], [-121.601645, 46.284112, 1329.3], [-121.601668, 46.284139, 1331.1], [-121.60179, 46.284187, 1328.6], [-121.601815, 46.284216, 1327.4], [-121.60182, 46.284225, 1327.5], [-121.601891, 46.284275, 1325.7], [-121.601907, 46.2843, 1326.1], [-121.601941, 46.28431, 1325.5], [-121.601977, 46.284337, 1328.6], [-121.60209, 46.28437, 1328.2], [-121.602112, 46.284417, 1328.6], [-121.602201, 46.284468, 1333.7], [-121.602278, 46.284562, 1331.6], [-121.602365, 46.284584, 1334.2], [-121.602383, 46.28459, 1334.9], [-121.602402, 46.284616, 1335.3], [-121.602455, 46.284647, 1334.5], [-121.602492, 46.284689, 1336.5], [-121.602578, 46.284706, 1332.3], [-121.602726, 46.284744, 1324.1], [-121.602762, 46.284771, 1326.2], [-121.602788, 46.284807, 1325.6], [-121.602802, 46.284829, 1326.0], [-121.60287, 46.284851, 1326.3], [-121.602894, 46.284866, 1326.9], [-121.602926, 46.284905, 1327.0], [-121.602977, 46.284926, 1325.3], [-121.602994, 46.28493, 1324.2], [-121.603046, 46.284947, 1326.7], [-121.6031, 46.284993, 1326.9], [-121.60317, 46.285008, 1327.0], [-121.603231, 46.285018, 1327.4], [-121.603277, 46.285047, 1324.9], [-121.603419, 46.285098, 1329.5], [-121.603501, 46.285121, 1328.0], [-121.603632, 46.285137, 1328.6], [-121.603682, 46.285151, 1329.1], [-121.603695, 46.285159, 1329.1], [-121.603892, 46.285192, 1326.6], [-121.603941, 46.285222, 1327.6], [-121.604036, 46.28524, 1327.2], [-121.604176, 46.285245, 1328.9], [-121.604198, 46.28524, 1328.9], [-121.604344, 46.285158, 1332.8], [-121.604398, 46.285146, 1332.4], [-121.604522, 46.285094, 1330.4], [-121.604662, 46.285073, 1331.7], [-121.604733, 46.285068, 1329.0], [-121.604887, 46.285013, 1323.5], [-121.605103, 46.284978, 1313.7], [-121.605107, 46.284979, 1313.2], [-121.605159, 46.284971, 1314.9], [-121.605205, 46.284951, 1313.6], [-121.605307, 46.284939, 1312.6], [-121.605333, 46.284935, 1318.4], [-121.605416, 46.284933, 1320.6], [-121.605463, 46.28489, 1320.8], [-121.605535, 46.284875, 1320.6], [-121.605541, 46.284868, 1321.6], [-121.605581, 46.284849, 1321.4], [-121.605662, 46.284842, 1323.4], [-121.605738, 46.284854, 1320.5], [-121.605867, 46.28483, 1315.5], [-121.605912, 46.284807, 1313.5], [-121.605963, 46.284798, 1312.1], [-121.605975, 46.284798, 1313.0], [-121.606066, 46.284779, 1311.4], [-121.606204, 46.284777, 1310.5], [-121.606316, 46.284752, 1309.5], [-121.606327, 46.284727, 1307.5], [-121.606406, 46.284732, 1311.4], [-121.606466, 46.284727, 1309.6], [-121.606497, 46.284736, 1308.7], [-121.606662, 46.284703, 1303.4], [-121.606717, 46.284684, 1304.7], [-121.606865, 46.284663, 1310.5], [-121.6069, 46.284649, 1307.4], [-121.606955, 46.28463, 1307.9], [-121.607002, 46.284594, 1310.7], [-121.607145, 46.284578, 1309.7], [-121.607163, 46.284577, 1309.8], [-121.60724, 46.284562, 1306.1], [-121.607391, 46.284489, 1304.2], [-121.607403, 46.284482, 1304.2], [-121.607463, 46.284454, 1300.2], [-121.607536, 46.284357, 1301.1], [-121.607621, 46.284342, 1301.7], [-121.607708, 46.284309, 1299.0], [-121.607795, 46.28431, 1299.9], [-121.607813, 46.284305, 1301.1], [-121.607851, 46.28428, 1302.7], [-121.607949, 46.284271, 1300.2], [-121.608041, 46.284226, 1300.8], [-121.608056, 46.284221, 1300.0], [-121.608194, 46.284144, 1292.6], [-121.608264, 46.284116, 1290.7], [-121.608281, 46.284112, 1290.0], [-121.608346, 46.284085, 1289.7], [-121.608523, 46.284089, 1291.4], [-121.60854, 46.284089, 1292.7], [-121.608586, 46.284094, 1296.3], [-121.60861, 46.284106, 1299.5], [-121.608673, 46.284173, 1300.8], [-121.608716, 46.284196, 1302.0], [-121.608728, 46.284208, 1303.4], [-121.608744, 46.284239, 1308.4], [-121.608837, 46.284281, 1308.5], [-121.608868, 46.284331, 1305.7], [-121.608873, 46.284342, 1306.2], [-121.608926, 46.284373, 1300.3], [-121.609062, 46.284391, 1300.9], [-121.609084, 46.284393, 1301.0], [-121.609173, 46.284395, 1298.4], [-121.609325, 46.284367, 1301.1], [-121.609359, 46.284337, 1302.7], [-121.609498, 46.284278, 1302.2], [-121.609544, 46.284238, 1301.7], [-121.609698, 46.284108, 1292.8], [-121.609734, 46.284081, 1292.4], [-121.609789, 46.28407, 1291.9], [-121.609865, 46.283975, 1290.5], [-121.6099, 46.283941, 1290.4], [-121.609971, 46.283893, 1290.1], [-121.609996, 46.283885, 1289.8], [-121.610021, 46.283859, 1291.2], [-121.610065, 46.28383, 1295.4], [-121.61016, 46.283797, 1293.8], [-121.610193, 46.283761, 1290.0], [-121.610225, 46.283745, 1289.5], [-121.610239, 46.28374, 1288.6], [-121.610307, 46.283721, 1287.2], [-121.61036, 46.283669, 1282.6], [-121.610435, 46.283644, 1281.6], [-121.610451, 46.283635, 1283.7], [-121.610551, 46.283596, 1281.7], [-121.61058, 46.283566, 1283.4], [-121.61064, 46.28353, 1281.5], [-121.610644, 46.283525, 1282.3], [-121.61071, 46.283492, 1281.0], [-121.610749, 46.283491, 1284.0], [-121.610748, 46.28342, 1286.1], [-121.610719, 46.283397, 1286.9], [-121.610708, 46.2834, 1287.4], [-121.610671, 46.28336, 1288.8], [-121.610658, 46.283321, 1289.1], [-121.610581, 46.283278, 1287.9], [-121.610567, 46.283275, 1288.9], [-121.610513, 46.283248, 1289.4], [-121.610457, 46.283167, 1289.9], [-121.610422, 46.283145, 1291.0], [-121.610417, 46.283087, 1291.3], [-121.610392, 46.283054, 1291.2], [-121.610386, 46.282967, 1293.6], [-121.610381, 46.282956, 1293.2], [-121.610385, 46.282901, 1293.5], [-121.610375, 46.282876, 1295.2], [-121.610396, 46.282828, 1293.6], [-121.61039, 46.282806, 1294.6], [-121.61042, 46.282773, 1295.0], [-121.61047, 46.282705, 1295.4], [-121.610479, 46.282663, 1294.3], [-121.610475, 46.282637, 1295.7], [-121.610495, 46.282611, 1297.2], [-121.610515, 46.282599, 1297.7], [-121.610514, 46.282554, 1297.2], [-121.610534, 46.282537, 1298.5], [-121.61055, 46.28249, 1298.0], [-121.610558, 46.282415, 1294.6], [-121.610589, 46.282364, 1294.9], [-121.610546, 46.282288, 1294.8], [-121.610543, 46.28225, 1292.0], [-121.610514, 46.282204, 1293.7], [-121.610428, 46.282137, 1296.6], [-121.610405, 46.282101, 1297.2], [-121.610358, 46.282058, 1297.6], [-121.610357, 46.28201, 1297.7], [-121.610297, 46.281937, 1297.6], [-121.610271, 46.281888, 1298.1], [-121.610268, 46.281864, 1299.1], [-121.610285, 46.28185, 1298.3], [-121.610286, 46.281837, 1298.0], [-121.610245, 46.281783, 1297.8], [-121.61018, 46.28168, 1300.0], [-121.610134, 46.281626, 1297.5], [-121.610124, 46.281618, 1296.8], [-121.610081, 46.28157, 1295.9], [-121.610028, 46.281548, 1294.9], [-121.610012, 46.281527, 1293.9], [-121.609994, 46.281465, 1295.7], [-121.609886, 46.281299, 1302.6], [-121.60986, 46.281269, 1301.7], [-121.609837, 46.28122, 1299.7], [-121.609843, 46.281196, 1294.4], [-121.609806, 46.281117, 1295.6], [-121.609766, 46.281113, 1297.2], [-121.609764, 46.281089, 1297.2], [-121.609731, 46.281101, 1297.6], [-121.609753, 46.281051, 1294.1], [-121.609708, 46.281005, 1295.7], [-121.609702, 46.280997, 1296.7], [-121.609672, 46.280972, 1296.4], [-121.609663, 46.280948, 1298.6], [-121.609626, 46.280954, 1296.0], [-121.60956, 46.280875, 1300.4], [-121.609509, 46.28086, 1297.7], [-121.609492, 46.280859, 1297.6], [-121.609477, 46.280854, 1297.8], [-121.609462, 46.280832, 1296.1], [-121.609468, 46.280812, 1295.7], [-121.60943, 46.280749, 1296.3], [-121.609383, 46.280708, 1294.2], [-121.609376, 46.280695, 1294.2], [-121.609336, 46.280652, 1294.9], [-121.609275, 46.280631, 1297.1], [-121.609227, 46.280602, 1296.4], [-121.609223, 46.280567, 1296.8], [-121.609205, 46.280513, 1297.0], [-121.609101, 46.280421, 1297.6], [-121.609093, 46.280412, 1297.8], [-121.608993, 46.280325, 1296.1], [-121.608896, 46.280285, 1295.8], [-121.608886, 46.280279, 1295.8], [-121.608845, 46.28023, 1296.1], [-121.608815, 46.280219, 1294.7], [-121.608749, 46.280214, 1296.1], [-121.608701, 46.280171, 1298.3], [-121.608634, 46.280163, 1298.8], [-121.608597, 46.280129, 1295.0], [-121.608515, 46.280084, 1303.0], [-121.608503, 46.280081, 1304.5], [-121.608469, 46.280063, 1301.8], [-121.608444, 46.28002, 1300.0], [-121.608341, 46.279961, 1301.7], [-121.608332, 46.279952, 1302.6], [-121.608208, 46.279889, 1297.4], [-121.60815, 46.27984, 1296.0], [-121.608137, 46.279833, 1298.0], [-121.608071, 46.279803, 1298.6], [-121.608036, 46.279771, 1298.9], [-121.607952, 46.279739, 1296.5], [-121.607935, 46.279729, 1296.1], [-121.607905, 46.279697, 1297.6], [-121.60789, 46.279659, 1299.5], [-121.607791, 46.279575, 1300.5], [-121.607677, 46.27948, 1303.0], [-121.607623, 46.279452, 1302.7], [-121.607607, 46.279442, 1303.6], [-121.607506, 46.279368, 1303.1], [-121.60746, 46.279312, 1305.4], [-121.607388, 46.279266, 1304.6], [-121.607297, 46.279181, 1299.9], [-121.60726, 46.27916, 1299.5], [-121.607204, 46.279109, 1296.7], [-121.607143, 46.279111, 1300.8], [-121.607101, 46.279081, 1297.5], [-121.607006, 46.279038, 1298.6], [-121.606957, 46.278958, 1298.6], [-121.606948, 46.278949, 1297.5], [-121.606872, 46.278924, 1301.9], [-121.606792, 46.278844, 1300.9], [-121.606781, 46.278831, 1301.0], [-121.606722, 46.278768, 1302.7], [-121.606661, 46.278751, 1302.0], [-121.606574, 46.278701, 1299.8], [-121.606499, 46.278671, 1302.5], [-121.606382, 46.278597, 1300.4], [-121.60633, 46.278575, 1301.8], [-121.606315, 46.278556, 1301.2], [-121.606161, 46.278524, 1300.4], [-121.606145, 46.278511, 1300.5], [-121.606047, 46.278461, 1302.1], [-121.605978, 46.278403, 1297.2], [-121.605972, 46.278397, 1298.9], [-121.605892, 46.278346, 1301.6], [-121.605836, 46.278279, 1300.4], [-121.605827, 46.278272, 1300.8], [-121.605708, 46.278195, 1302.6], [-121.60564, 46.278132, 1304.0], [-121.605634, 46.278123, 1301.0], [-121.605605, 46.278096, 1299.8], [-121.605552, 46.278067, 1300.8], [-121.605497, 46.277967, 1304.7], [-121.6054, 46.277904, 1299.7], [-121.605384, 46.27788, 1299.3], [-121.605306, 46.277819, 1301.5], [-121.605261, 46.277791, 1301.1], [-121.605242, 46.277754, 1299.1], [-121.60511, 46.277697, 1298.3], [-121.605095, 46.277693, 1298.7], [-121.605055, 46.277657, 1298.5], [-121.605026, 46.277656, 1305.0], [-121.604977, 46.277618, 1313.0], [-121.604951, 46.277619, 1314.1], [-121.604926, 46.277593, 1312.6], [-121.604915, 46.277586, 1313.2], [-121.60474, 46.27749, 1308.2], [-121.604732, 46.277483, 1311.3], [-121.604667, 46.277457, 1311.1], [-121.60466, 46.277411, 1311.7], [-121.604611, 46.277355, 1304.6], [-121.604596, 46.277305, 1303.6], [-121.604421, 46.277131, 1304.8], [-121.604374, 46.277048, 1304.1], [-121.604334, 46.277012, 1304.0], [-121.604302, 46.276962, 1305.7], [-121.604264, 46.276918, 1305.5], [-121.60424, 46.27683, 1304.7], [-121.604221, 46.276806, 1305.1], [-121.604216, 46.276805, 1303.8], [-121.604191, 46.276781, 1305.1], [-121.604178, 46.276739, 1304.1], [-121.604141, 46.276679, 1307.3], [-121.604133, 46.276672, 1307.3], [-121.604059, 46.276578, 1310.7], [-121.604046, 46.276529, 1308.7], [-121.60401, 46.276487, 1310.8], [-121.603891, 46.276374, 1308.3], [-121.603888, 46.276365, 1308.3], [-121.603905, 46.276332, 1308.6], [-121.603895, 46.276306, 1308.0], [-121.603845, 46.276281, 1310.0], [-121.603825, 46.276261, 1308.2], [-121.603812, 46.276231, 1308.6], [-121.603805, 46.276224, 1308.6], [-121.603765, 46.276223, 1310.1], [-121.603701, 46.27616, 1312.3], [-121.60364, 46.276133, 1314.6], [-121.603587, 46.276107, 1315.5], [-121.603559, 46.276067, 1315.4], [-121.603492, 46.276012, 1317.3], [-121.603477, 46.276008, 1318.0], [-121.603389, 46.275945, 1317.0], [-121.603287, 46.275892, 1317.8], [-121.603197, 46.275846, 1320.6], [-121.603121, 46.275823, 1320.7], [-121.603123, 46.275782, 1317.6], [-121.603104, 46.275763, 1319.1], [-121.603011, 46.275756, 1316.0], [-121.603016, 46.275733, 1316.5], [-121.602908, 46.275712, 1319.1], [-121.602856, 46.275664, 1318.1], [-121.602825, 46.275582, 1320.8], [-121.602782, 46.275574, 1321.4], [-121.602766, 46.275573, 1322.2], [-121.602732, 46.275564, 1323.0], [-121.602692, 46.275524, 1322.7], [-121.602559, 46.275485, 1318.6], [-121.602544, 46.275475, 1318.5], [-121.602512, 46.275458, 1315.8], [-121.602501, 46.275432, 1313.2], [-121.602475, 46.275413, 1315.7], [-121.602333, 46.275389, 1320.1], [-121.602285, 46.275374, 1320.9], [-121.602265, 46.275276, 1306.4], [-121.60223, 46.275208, 1303.9], [-121.602218, 46.275195, 1303.8], [-121.602163, 46.27515, 1302.2], [-121.602071, 46.275101, 1301.7], [-121.602056, 46.275076, 1302.1], [-121.602062, 46.275067, 1300.6], [-121.602086, 46.275013, 1299.4], [-121.602064, 46.274979, 1297.3], [-121.602073, 46.274901, 1298.3], [-121.602102, 46.274864, 1299.0], [-121.602112, 46.274824, 1300.5], [-121.602145, 46.274786, 1298.0], [-121.602196, 46.274748, 1297.1], [-121.602206, 46.274739, 1300.5], [-121.602319, 46.274669, 1300.2], [-121.602382, 46.274651, 1300.2], [-121.602475, 46.274631, 1298.1], [-121.602651, 46.27462, 1296.2], [-121.602668, 46.274618, 1295.5], [-121.602896, 46.27462, 1289.9], [-121.603163, 46.274639, 1294.0], [-121.603192, 46.274644, 1294.2], [-121.603303, 46.274631, 1290.9], [-121.603438, 46.274586, 1293.5], [-121.603458, 46.274578, 1293.7], [-121.603659, 46.274518, 1290.0], [-121.603666, 46.274514, 1289.4], [-121.603766, 46.274477, 1287.7], [-121.6039, 46.274449, 1285.4], [-121.603913, 46.274447, 1285.2], [-121.604071, 46.274447, 1288.0], [-121.604161, 46.274422, 1287.5], [-121.604177, 46.274419, 1287.6], [-121.604342, 46.274393, 1285.4], [-121.60441, 46.274411, 1283.9], [-121.604423, 46.274412, 1285.0], [-121.604643, 46.274466, 1284.8], [-121.604815, 46.274514, 1287.6], [-121.605042, 46.274565, 1289.6], [-121.60506, 46.274568, 1290.2], [-121.605186, 46.274597, 1289.3], [-121.605258, 46.274626, 1290.2], [-121.605282, 46.274629, 1290.9], [-121.605376, 46.274632, 1290.0], [-121.605521, 46.274704, 1284.3], [-121.60554, 46.27471, 1285.1], [-121.60574, 46.274749, 1281.7], [-121.605809, 46.274744, 1284.7], [-121.605841, 46.274753, 1285.0], [-121.605918, 46.274803, 1281.2], [-121.606051, 46.274828, 1283.4], [-121.606167, 46.274864, 1281.8], [-121.606308, 46.274886, 1283.5], [-121.606331, 46.274893, 1284.0], [-121.60641, 46.274936, 1281.3], [-121.606526, 46.274978, 1283.4], [-121.606567, 46.275028, 1279.6], [-121.606647, 46.275054, 1283.3], [-121.606684, 46.275086, 1282.2], [-121.60677, 46.275211, 1277.6], [-121.606796, 46.275299, 1274.9], [-121.606823, 46.27533, 1273.9], [-121.606851, 46.275394, 1274.6], [-121.606865, 46.275405, 1274.3], [-121.606905, 46.275427, 1274.2], [-121.606944, 46.275462, 1273.8], [-121.607039, 46.275485, 1277.6], [-121.607059, 46.275495, 1278.3], [-121.607157, 46.275538, 1279.9], [-121.607209, 46.275547, 1281.1], [-121.607268, 46.275586, 1281.5], [-121.607284, 46.275594, 1282.8], [-121.607373, 46.275644, 1280.4], [-121.607366, 46.27569, 1275.8], [-121.607403, 46.275713, 1275.5], [-121.607493, 46.27578, 1275.8], [-121.607503, 46.275804, 1273.5], [-121.607568, 46.275835, 1271.5], [-121.607582, 46.27584, 1271.6], [-121.607597, 46.275861, 1273.4], [-121.607594, 46.275885, 1273.7], [-121.607633, 46.275914, 1274.2], [-121.607738, 46.275926, 1271.3], [-121.607766, 46.275924, 1270.7], [-121.607673, 46.275911, 1264.0], [-121.607887, 46.275868, 1263.0], [-121.607904, 46.275865, 1263.0], [-121.608023, 46.275831, 1266.8], [-121.608053, 46.275814, 1260.9], [-121.60803, 46.275755, 1259.0], [-121.608032, 46.275747, 1257.8], [-121.608153, 46.275665, 1255.1], [-121.608191, 46.275649, 1254.8], [-121.608202, 46.275642, 1253.8], [-121.608316, 46.275612, 1254.5], [-121.608436, 46.275593, 1257.9], [-121.608507, 46.275589, 1257.0], [-121.608696, 46.275541, 1259.4], [-121.608731, 46.275512, 1259.8], [-121.608806, 46.275483, 1258.3], [-121.608895, 46.27548, 1263.0], [-121.608904, 46.275477, 1261.8], [-121.608985, 46.275458, 1258.7], [-121.609155, 46.275467, 1257.0], [-121.609175, 46.275471, 1256.4], [-121.609305, 46.275477, 1259.3], [-121.609398, 46.27551, 1258.7], [-121.609425, 46.275513, 1261.3], [-121.609481, 46.275525, 1261.2], [-121.609528, 46.275555, 1259.9], [-121.609618, 46.275587, 1260.1], [-121.609631, 46.275593, 1259.2], [-121.609754, 46.275627, 1261.5], [-121.609782, 46.275671, 1261.5], [-121.609817, 46.275701, 1261.8], [-121.609842, 46.275725, 1262.3], [-121.6099, 46.275743, 1264.3], [-121.609917, 46.275765, 1260.2], [-121.609872, 46.275831, 1260.8], [-121.60992, 46.275872, 1262.3], [-121.60992, 46.27589, 1262.4], [-121.609952, 46.275927, 1261.5], [-121.609957, 46.275945, 1260.0], [-121.609948, 46.275978, 1257.8], [-121.609952, 46.276024, 1257.3], [-121.609974, 46.276058, 1254.4], [-121.609971, 46.276107, 1252.1], [-121.609992, 46.276133, 1248.8], [-121.61, 46.276135, 1249.7], [-121.610017, 46.276181, 1251.0], [-121.610005, 46.276264, 1253.2], [-121.610038, 46.276286, 1255.2], [-121.610044, 46.276298, 1252.0], [-121.610099, 46.276327, 1257.4], [-121.610112, 46.276346, 1256.3], [-121.610114, 46.276382, 1255.1], [-121.610105, 46.276405, 1255.6], [-121.610114, 46.276427, 1254.4], [-121.61013, 46.276437, 1255.1], [-121.610134, 46.276457, 1255.6], [-121.610115, 46.276489, 1257.5], [-121.610079, 46.276497, 1252.3], [-121.610056, 46.276538, 1251.0], [-121.610058, 46.276554, 1253.2], [-121.610096, 46.276601, 1249.1], [-121.610099, 46.276618, 1249.5], [-121.610118, 46.276673, 1248.2], [-121.610108, 46.276703, 1247.5], [-121.610045, 46.27681, 1248.2], [-121.610054, 46.276858, 1248.1], [-121.610063, 46.276879, 1247.6], [-121.610068, 46.276909, 1247.5], [-121.610057, 46.276957, 1252.1], [-121.610121, 46.276987, 1256.2], [-121.610153, 46.277017, 1255.9], [-121.610156, 46.27704, 1254.0], [-121.610148, 46.277078, 1255.7], [-121.610153, 46.277182, 1258.6], [-121.610173, 46.277222, 1257.4], [-121.61018, 46.277229, 1257.3], [-121.610215, 46.277273, 1257.6], [-121.61027, 46.277295, 1254.4], [-121.610307, 46.277322, 1251.4], [-121.610324, 46.277353, 1252.0], [-121.610329, 46.277369, 1251.1], [-121.610335, 46.277406, 1251.6], [-121.610378, 46.277428, 1250.1], [-121.610412, 46.277518, 1249.3], [-121.610423, 46.277551, 1249.0], [-121.610464, 46.277544, 1247.2], [-121.610557, 46.27764, 1252.7], [-121.610581, 46.277682, 1251.5], [-121.610704, 46.277794, 1254.5], [-121.610724, 46.277804, 1255.2], [-121.610784, 46.277852, 1253.0], [-121.610812, 46.277849, 1253.2], [-121.610832, 46.277858, 1253.3], [-121.610846, 46.277881, 1252.2], [-121.610838, 46.277902, 1251.5], [-121.61086, 46.277936, 1246.8], [-121.610886, 46.277987, 1243.0], [-121.610887, 46.278013, 1242.6], [-121.610835, 46.278084, 1238.0], [-121.610832, 46.278098, 1238.6], [-121.610837, 46.278179, 1238.3], [-121.610856, 46.278202, 1244.3], [-121.610871, 46.278276, 1245.3], [-121.610866, 46.278289, 1243.0], [-121.610889, 46.278324, 1241.7], [-121.610922, 46.278423, 1244.7], [-121.610925, 46.278441, 1244.9], [-121.610991, 46.278604, 1243.4], [-121.610994, 46.278613, 1242.8], [-121.6111, 46.278767, 1230.8], [-121.611104, 46.278776, 1231.3], [-121.611105, 46.278811, 1232.8], [-121.611116, 46.278836, 1232.0], [-121.611137, 46.278853, 1229.5], [-121.61118, 46.278867, 1230.1], [-121.611243, 46.278913, 1229.6], [-121.611263, 46.278923, 1228.8], [-121.611429, 46.278991, 1230.8], [-121.61151, 46.279063, 1226.9], [-121.611617, 46.279092, 1227.7], [-121.611634, 46.279093, 1230.4], [-121.61172, 46.27909, 1234.0], [-121.61184, 46.279131, 1238.4], [-121.611924, 46.279163, 1233.5], [-121.611972, 46.279199, 1232.7], [-121.61205, 46.279228, 1234.3], [-121.612143, 46.279272, 1231.0], [-121.612175, 46.279309, 1229.3], [-121.612254, 46.279339, 1231.2], [-121.612265, 46.279373, 1228.9], [-121.612394, 46.279399, 1228.3], [-121.612425, 46.279414, 1229.5], [-121.612449, 46.27944, 1228.6], [-121.612484, 46.279481, 1230.3], [-121.612613, 46.279519, 1234.2], [-121.612664, 46.279549, 1232.1], [-121.612697, 46.27958, 1229.5], [-121.61277, 46.279609, 1231.8], [-121.612842, 46.279674, 1230.6], [-121.612854, 46.279681, 1229.9], [-121.612865, 46.279712, 1229.3], [-121.612927, 46.279783, 1226.7], [-121.612958, 46.279853, 1225.7], [-121.612929, 46.279874, 1220.5], [-121.612891, 46.279952, 1225.7], [-121.61284, 46.279967, 1222.2], [-121.612835, 46.27995, 1214.3], [-121.612862, 46.279932, 1214.2], [-121.61286, 46.279914, 1214.7], [-121.612832, 46.27991, 1215.1], [-121.612818, 46.279936, 1215.1], [-121.612787, 46.279963, 1215.2], [-121.612782, 46.279971, 1214.4], [-121.612832, 46.279904, 1216.7], [-121.61283, 46.279881, 1215.2], [-121.612932, 46.279852, 1226.1], [-121.612943, 46.279851, 1226.6], [-121.612936, 46.279875, 1225.6], [-121.61299, 46.27991, 1223.9], [-121.61293, 46.279955, 1217.2], [-121.612908, 46.279958, 1215.0]]}}