{"type": "Feature", "properties": {}, "geometry": {"type": "LineString", "coordinates": [[-119.990342, 38.692073, 2584.7], [-119.990379, 38.692068, 2593.9], [-119.990362, 38.692028, 2598.0], [-119.990323, 38.692115, 2601.9], [-119.990358, 38.692123, 2600.1], [-119.990309, 38.692131, 2604.6], [-119.990341, 38.692129, 2600.4], [-119.990369, 38.692114, 2603.5], [-119.990349, 38.692093, 2607.0], [-119.990378, 38.692009, 2605.7], [-119.990382, 38.692002, 2605.1], [-119.990426, 38.691867, 2605.0], [-119.990448, 38.691857, 2603.2], [-119.990476, 38.691822, 2603.6], [-119.990493, 38.691733, 2602.5], [-119.990468, 38.691657, 2603.5], [-119.990486, 38.691591, 2599.0], [-119.990486, 38.691561, 2596.9], [-119.990439, 38.691496, 2595.5], [-119.990431, 38.691481, 2595.1], [-119.990417, 38.691403, 2595.8], [-119.990436, 38.691353, 2595.1], [-119.990429, 38.691316, 2596.0], [-119.990438, 38.691239, 2595.6], [-119.99048, 38.691176, 2594.1], [-119.990447, 38.691084, 2595.9], [-119.990461, 38.691044, 2595.7], [-119.990467, 38.690979, 2594.4], [-119.990427, 38.69091, 2596.4], [-119.990432, 38.690902, 2594.2], [-119.990451, 38.690807, 2592.2], [-119.990521, 38.69075, 2590.7], [-119.990571, 38.690743, 2588.5], [-119.990664, 38.690787, 2585.5], [-119.990715, 38.690783, 2586.2], [-119.990735, 38.69079, 2585.8], [-119.990766, 38.690809, 2584.8], [-119.990853, 38.69078, 2587.2], [-119.990922, 38.690772, 2588.0], [-119.991005, 38.690731, 2586.1], [-119.991121, 38.690712, 2588.2], [-119.991138, 38.690711, 2588.7], [-119.991268, 38.690695, 2590.0], [-119.991333, 38.690677, 2588.4], [-119.99139, 38.690658, 2588.6], [-119.991415, 38.690665, 2590.0], [-119.991541, 38.690647, 2593.3], [-119.991559, 38.690646, 2593.1], [-119.991672, 38.690647, 2592.0], [-119.991779, 38.690595, 2596.3], [-119.991817, 38.690565, 2595.9], [-119.991851, 38.690506, 2598.5], [-119.991877, 38.69049, 2597.8], [-119.991864, 38.690469, 2596.3], [-119.991867, 38.690439, 2594.7], [-119.991895, 38.690413, 2594.5], [-119.991897, 38.690388, 2596.0], [-119.99192, 38.690353, 2598.5], [-119.991958, 38.690325, 2598.0], [-119.991965, 38.690296, 2601.4], [-119.991959, 38.690257, 2602.1], [-119.991991, 38.690188, 2603.3], [-119.992071, 38.690141, 2606.2], [-119.99211, 38.690128, 2607.9], [-119.992128, 38.690089, 2607.4], [-119.992182, 38.690066, 2607.1], [-119.992207, 38.690009, 2606.7], [-119.992277, 38.68995, 2611.0], [-119.992288, 38.68987, 2613.0], [-119.992296, 38.689858, 2613.5], [-119.992306, 38.689825, 2614.8], [-119.992333, 38.689789, 2615.0], [-119.992334, 38.689744, 2614.1], [-119.992374, 38.689702, 2614.2], [-119.99241, 38.689646, 2611.9], [-119.992417, 38.6896, 2613.0], [-119.992412, 38.689564, 2611.9], [-119.992424, 38.689526, 2611.0], [-119.992486, 38.689473, 2614.6], [-119.992507, 38.689434, 2614.8], [-119.992516, 38.689383, 2619.9], [-119.992538, 38.689316, 2621.5], [-119.992536, 38.689212, 2621.2], [-119.992555, 38.689158, 2621.5], [-119.99261, 38.689081, 2624.4], [-119.992604, 38.689049, 2626.1], [-119.992593, 38.689014, 2625.6], [-119.99261, 38.688916, 2625.2], [-119.992635, 38.688895, 2623.1], [-119.992633, 38.688888, 2622.8], [-119.992671, 38.688818, 2625.5], [-119.992675, 38.688723, 2626.8], [-119.992692, 38.6887, 2625.5], [-119.992692, 38.688687, 2626.8], [-119.992668, 38.688575, 2630.8], [-119.992683, 38.688543, 2629.0], [-119.992684, 38.688486, 2628.3], [-119.992664, 38.688403, 2630.7], [-119.992667, 38.688292, 2631.1], [-119.992656, 38.688229, 2631.6], [-119.992651, 38.688218, 2631.9], [-119.99263, 38.688115, 2630.1], [-119.992585, 38.688082, 2633.1], [-119.992601, 38.688051, 2632.0], [-119.992601, 38.688041, 2632.4], [-119.992546, 38.688006, 2632.8], [-119.992455, 38.687914, 2632.8], [-119.992461, 38.687908, 2633.3], [-119.992378, 38.687833, 2636.7], [-119.992381, 38.687786, 2638.2], [-119.992349, 38.687754, 2638.2], [-119.992303, 38.687621, 2641.0], [-119.992274, 38.68764, 2638.5], [-119.992297, 38.687655, 2639.1], [-119.992267, 38.687586, 2638.3], [-119.992258, 38.687533, 2639.2], [-119.992252, 38.687522, 2639.0], [-119.992128, 38.687421, 2638.0], [-119.992093, 38.687417, 2637.0], [-119.992078, 38.687407, 2636.7], [-119.992013, 38.687327, 2638.1], [-119.991969, 38.687298, 2640.4], [-119.991972, 38.687283, 2638.4], [-119.991958, 38.687244, 2636.7], [-119.991876, 38.687157, 2641.2], [-119.991858, 38.687134, 2641.5], [-119.991819, 38.687043, 2645.7], [-119.991851, 38.686969, 2639.2], [-119.991853, 38.686955, 2637.7], [-119.991799, 38.686886, 2637.4], [-119.991703, 38.686825, 2637.4], [-119.99171, 38.686789, 2636.0], [-119.991744, 38.686785, 2636.7], [-119.991618, 38.686701, 2634.0], [-119.991533, 38.686654, 2633.7], [-119.991498, 38.686584, 2634.8], [-119.99142, 38.68653, 2634.9], [-119.991358, 38.686449, 2635.5], [-119.991277, 38.686285, 2631.2], [-119.991232, 38.686239, 2636.5], [-119.991223, 38.686218, 2639.3], [-119.991195, 38.686213, 2639.5], [-119.991197, 38.686193, 2639.3], [-119.99125, 38.686108, 2637.4], [-119.99125, 38.686101, 2637.1], [-119.991226, 38.686079, 2636.1], [-119.991064, 38.686026, 2638.8], [-119.991034, 38.686032, 2641.4], [-119.991008, 38.686014, 2640.6], [-119.990904, 38.68591, 2637.1], [-119.990881, 38.685863, 2637.4], [-119.990767, 38.685786, 2637.2], [-119.990744, 38.685775, 2636.2], [-119.990706, 38.685745, 2637.1], [-119.990673, 38.685689, 2636.4], [-119.990603, 38.685639, 2639.5], [-119.990554, 38.685554, 2641.7], [-119.990514, 38.685527, 2640.8], [-119.990486, 38.685484, 2640.1], [-119.990468, 38.685451, 2637.9], [-119.990462, 38.685384, 2636.7], [-119.990441, 38.685302, 2637.5], [-119.990424, 38.685257, 2637.9], [-119.990408, 38.685114, 2640.7], [-119.990406, 38.685104, 2640.6], [-119.990351, 38.684965, 2637.6], [-119.990338, 38.684926, 2635.1], [-119.990368, 38.684818, 2637.7], [-119.990406, 38.684809, 2636.6], [-119.990425, 38.684794, 2638.3], [-119.990438, 38.684752, 2638.7], [-119.990447, 38.684647, 2641.5], [-119.990457, 38.684463, 2647.4], [-119.990468, 38.68436, 2647.6], [-119.990479, 38.684337, 2646.1], [-119.990466, 38.684276, 2647.1], [-119.990459, 38.684215, 2648.0], [-119.990468, 38.684089, 2649.6], [-119.990491, 38.684, 2646.2], [-119.990479, 38.683908, 2647.0], [-119.990457, 38.683861, 2652.8], [-119.99046, 38.683817, 2652.8], [-119.990489, 38.683738, 2646.3], [-119.990478, 38.683657, 2651.6], [-119.990457, 38.683616, 2655.9], [-119.990459, 38.683562, 2650.8], [-119.990463, 38.683559, 2647.9], [-119.990475, 38.683491, 2649.5], [-119.99046, 38.683445, 2650.6], [-119.990465, 38.683424, 2649.4], [-119.990488, 38.683403, 2652.0], [-119.990488, 38.683394, 2652.2], [-119.990462, 38.683337, 2650.8], [-119.990467, 38.683313, 2649.5], [-119.99042, 38.683226, 2656.9], [-119.990387, 38.683204, 2659.1], [-119.990386, 38.683178, 2660.9], [-119.990356, 38.683119, 2662.7], [-119.990283, 38.683048, 2662.9], [-119.990274, 38.683006, 2666.5], [-119.990274, 38.682984, 2666.1], [-119.990287, 38.683003, 2664.6], [-119.990305, 38.682951, 2665.1], [-119.990338, 38.682891, 2663.7], [-119.990359, 38.682871, 2665.4], [-119.990409, 38.68277, 2666.2], [-119.990415, 38.682762, 2667.3], [-119.990428, 38.682707, 2667.2], [-119.990474, 38.682626, 2665.0], [-119.99048, 38.682597, 2664.2], [-119.990495, 38.682493, 2665.2], [-119.990474, 38.682465, 2666.5], [-119.990497, 38.682413, 2666.6], [-119.990522, 38.682375, 2665.1], [-119.990541, 38.682306, 2667.7], [-119.99053, 38.682259, 2667.7], [-119.990544, 38.682215, 2668.4], [-119.990572, 38.682139, 2669.5], [-119.990611, 38.682075, 2667.6], [-119.990607, 38.682047, 2667.3], [-119.990624, 38.682004, 2667.6], [-119.990592, 38.681948, 2670.4], [-119.990645, 38.68189, 2669.3], [-119.990663, 38.681864, 2668.9], [-119.990669, 38.681814, 2669.3], [-119.990727, 38.681749, 2667.4], [-119.99074, 38.681714, 2668.3], [-119.990754, 38.68156, 2675.0], [-119.990772, 38.681533, 2674.5], [-119.990768, 38.681445, 2677.1], [-119.990731, 38.681398, 2677.7], [-119.99072, 38.681241, 2676.5], [-119.990707, 38.68122, 2673.3], [-119.990728, 38.681197, 2673.8], [-119.99074, 38.681192, 2674.9], [-119.990751, 38.68117, 2672.6], [-119.990716, 38.681111, 2670.6], [-119.990702, 38.681041, 2676.7], [-119.990686, 38.681015, 2679.1], [-119.990681, 38.680916, 2677.2], [-119.990651, 38.680853, 2679.8], [-119.990617, 38.680749, 2684.5], [-119.990646, 38.68074, 2679.5], [-119.990662, 38.680681, 2682.1], [-119.990657, 38.680673, 2680.8], [-119.990682, 38.680656, 2678.4], [-119.990714, 38.68065, 2675.1], [-119.99073, 38.680627, 2676.0], [-119.990765, 38.680528, 2673.7], [-119.990763, 38.680512, 2673.1], [-119.990731, 38.680427, 2677.8], [-119.990751, 38.680448, 2679.6], [-119.990746, 38.680422, 2679.3], [-119.990757, 38.680398, 2678.6], [-119.990755, 38.680361, 2679.1], [-119.990733, 38.680243, 2678.9], [-119.99072, 38.680227, 2680.3], [-119.990715, 38.680196, 2681.2], [-119.990708, 38.680184, 2681.8], [-119.990693, 38.680119, 2682.3], [-119.990644, 38.680007, 2682.3], [-119.990578, 38.67985, 2681.8], [-119.990578, 38.679839, 2681.7], [-119.990552, 38.679723, 2685.4], [-119.990553, 38.679659, 2684.5], [-119.990529, 38.679473, 2682.6], [-119.990529, 38.679463, 2683.1], [-119.990505, 38.679294, 2684.6], [-119.990488, 38.679087, 2685.3], [-119.990512, 38.678911, 2685.8], [-119.990514, 38.678907, 2685.5], [-119.990528, 38.678728, 2687.6], [-119.990515, 38.67864, 2689.0], [-119.990524, 38.678543, 2688.4], [-119.990529, 38.67846, 2690.5], [-119.990553, 38.678366, 2690.7], [-119.990553, 38.678357, 2691.5], [-119.990572, 38.67826, 2690.5], [-119.99061, 38.678182, 2689.8], [-119.990636, 38.678098, 2691.5], [-119.990684, 38.678038, 2693.3], [-119.990721, 38.677824, 2697.6], [-119.990756, 38.677664, 2698.6], [-119.990759, 38.677655, 2697.6], [-119.99089, 38.677533, 2695.5], [-119.990898, 38.677529, 2695.4], [-119.990916, 38.677503, 2695.1], [-119.990954, 38.677477, 2697.6], [-119.990962, 38.677452, 2697.1], [-119.990994, 38.677414, 2696.4], [-119.991038, 38.677391, 2696.0], [-119.991089, 38.677329, 2695.6], [-119.991229, 38.677232, 2700.7], [-119.991292, 38.677226, 2702.0], [-119.991291, 38.677199, 2697.1], [-119.991392, 38.677135, 2699.5], [-119.991406, 38.677129, 2700.7], [-119.991528, 38.677063, 2701.6], [-119.991538, 38.677045, 2700.9], [-119.991581, 38.677019, 2699.7], [-119.991675, 38.676981, 2704.1], [-119.991784, 38.676908, 2701.6], [-119.991929, 38.676856, 2703.0], [-119.991984, 38.67682, 2702.3], [-119.992034, 38.676804, 2704.9], [-119.99215, 38.67673, 2705.6], [-119.992181, 38.676694, 2704.7], [-119.992247, 38.676661, 2700.0], [-119.992356, 38.676626, 2708.4], [-119.992406, 38.676597, 2706.5], [-119.992416, 38.676574, 2705.8], [-119.992438, 38.676559, 2706.4], [-119.992552, 38.676528, 2708.0], [-119.992559, 38.676524, 2708.8], [-119.99277, 38.676433, 2709.4], [-119.992784, 38.676428, 2709.2], [-119.992997, 38.676336, 2713.4], [-119.993153, 38.676255, 2714.6], [-119.993213, 38.676234, 2715.4], [-119.993262, 38.676239, 2713.0], [-119.993361, 38.676193, 2713.6], [-119.993482, 38.67613, 2708.1], [-119.993569, 38.676099, 2712.4], [-119.99359, 38.676094, 2712.7], [-119.99367, 38.676063, 2716.8], [-119.993742, 38.676048, 2717.5], [-119.993787, 38.676016, 2718.0], [-119.99383, 38.675978, 2715.6], [-119.993876, 38.675912, 2712.4], [-119.993929, 38.67588, 2712.3], [-119.994001, 38.675867, 2716.5], [-119.99408, 38.675758, 2721.4], [-119.994089, 38.67575, 2720.8], [-119.994186, 38.675679, 2720.0], [-119.994234, 38.675606, 2719.5], [-119.994235, 38.675596, 2719.0], [-119.994301, 38.675534, 2718.7], [-119.994346, 38.675469, 2717.1], [-119.994359, 38.675453, 2716.8], [-119.994418, 38.675366, 2715.1], [-119.994422, 38.675314, 2720.1], [-119.994433, 38.675299, 2720.0], [-119.994454, 38.675211, 2717.3], [-119.994448, 38.675131, 2718.8], [-119.99445, 38.675119, 2718.7], [-119.994456, 38.674995, 2721.3], [-119.994484, 38.67494, 2721.4], [-119.994557, 38.674694, 2724.5], [-119.994515, 38.674656, 2728.3], [-119.994446, 38.674632, 2729.2], [-119.994358, 38.674586, 2729.1], [-119.994295, 38.674572, 2727.1], [-119.994323, 38.674586, 2726.4], [-119.994334, 38.674573, 2726.5], [-119.994302, 38.674577, 2728.0], [-119.994282, 38.674599, 2726.9], [-119.99434, 38.674574, 2724.2], [-119.994309, 38.67458, 2729.3], [-119.994312, 38.674553, 2728.7], [-119.994298, 38.674577, 2730.2], [-119.994327, 38.674591, 2728.0], [-119.994306, 38.674574, 2725.9], [-119.994281, 38.674579, 2727.2], [-119.994259, 38.674563, 2727.7], [-119.994264, 38.674445, 2724.0], [-119.994304, 38.674377, 2727.0], [-119.994322, 38.674363, 2727.5], [-119.994341, 38.674289, 2725.2], [-119.9944, 38.674207, 2727.2], [-119.994398, 38.674202, 2727.1], [-119.994388, 38.674112, 2725.5], [-119.994351, 38.674044, 2728.0], [-119.994347, 38.674033, 2728.6], [-119.994307, 38.673985, 2729.3], [-119.994294, 38.673941, 2730.6], [-119.994273, 38.67392, 2734.2], [-119.994316, 38.673876, 2731.0], [-119.994355, 38.67383, 2730.1], [-119.994352, 38.673805, 2732.4], [-119.994386, 38.673747, 2732.3], [-119.994387, 38.673714, 2734.3], [-119.994376, 38.673585, 2738.1], [-119.994402, 38.673542, 2734.9], [-119.994438, 38.673527, 2734.6], [-119.994464, 38.673512, 2735.2], [-119.994451, 38.673493, 2735.5], [-119.994451, 38.673469, 2734.7], [-119.994503, 38.673355, 2733.1], [-119.994509, 38.673345, 2733.7], [-119.994513, 38.67331, 2736.1], [-119.994545, 38.673263, 2736.7], [-119.994549, 38.673244, 2735.6], [-119.994536, 38.673224, 2738.3], [-119.994537, 38.673176, 2735.5], [-119.994562, 38.673148, 2735.8], [-119.99456, 38.673097, 2734.9], [-119.994575, 38.673037, 2735.6], [-119.994611, 38.672991, 2736.3], [-119.994652, 38.672888, 2731.0], [-119.994645, 38.67284, 2732.3], [-119.994727, 38.672728, 2732.1], [-119.994737, 38.672718, 2732.2], [-119.994766, 38.672654, 2733.1], [-119.994792, 38.67264, 2733.3], [-119.99482, 38.67264, 2733.2], [-119.994878, 38.672602, 2731.3], [-119.994958, 38.672538, 2731.1], [-119.994986, 38.672527, 2732.4], [-119.995006, 38.672479, 2728.9], [-119.995041, 38.67243, 2730.1], [-119.995063, 38.672411, 2729.6], [-119.995091, 38.67241, 2729.2], [-119.995158, 38.672339, 2726.8], [-119.995202, 38.672304, 2727.8], [-119.995226, 38.672261, 2727.2], [-119.995278, 38.672235, 2728.9], [-119.995324, 38.672178, 2730.9], [-119.995386, 38.672084, 2730.4], [-119.99545, 38.672037, 2729.0], [-119.995457, 38.672027, 2729.4], [-119.99554, 38.671945, 2722.7], [-119.995493, 38.671931, 2721.1], [-119.995515, 38.67189, 2729.3], [-119.995611, 38.671724, 2732.2], [-119.99562, 38.671711, 2733.4], [-119.995696, 38.671634, 2732.4], [-119.995719, 38.671559, 2732.7], [-119.995763, 38.671461, 2732.9], [-119.99581, 38.67141, 2730.1], [-119.995961, 38.671269, 2728.9], [-119.995978, 38.671238, 2728.5], [-119.995989, 38.671187, 2728.2], [-119.996054, 38.671158, 2726.7], [-119.996206, 38.671018, 2723.9], [-119.996256, 38.670988, 2724.3], [-119.996273, 38.670962, 2723.4], [-119.996299, 38.670936, 2722.0], [-119.996374, 38.670907, 2724.1], [-119.996435, 38.670856, 2726.6], [-119.996454, 38.670849, 2725.0], [-119.996453, 38.670869, 2730.3], [-119.996445, 38.670864, 2730.3], [-119.99642, 38.670878, 2730.6], [-119.996456, 38.670836, 2726.0], [-119.996468, 38.67086, 2725.5], [-119.996435, 38.670889, 2727.2], [-119.996492, 38.67085, 2729.5], [-119.99651, 38.670832, 2729.3], [-119.996495, 38.67081, 2725.9], [-119.996496, 38.670783, 2721.1], [-119.996512, 38.67076, 2716.6], [-119.996642, 38.670752, 2715.1], [-119.996695, 38.670757, 2714.1], [-119.996851, 38.670745, 2714.6], [-119.996874, 38.670741, 2714.5], [-119.997119, 38.670684, 2711.2], [-119.997173, 38.670664, 2710.2], [-119.997253, 38.67063, 2709.1], [-119.997368, 38.670557, 2707.3], [-119.997475, 38.670512, 2705.0], [-119.997572, 38.670491, 2707.0], [-119.997575, 38.670487, 2707.1], [-119.997611, 38.670481, 2705.3], [-119.997636, 38.670487, 2704.2], [-119.997732, 38.670544, 2701.8], [-119.997793, 38.67055, 2700.9], [-119.99788, 38.670541, 2699.6], [-119.997923, 38.670551, 2699.4], [-119.998035, 38.67061, 2698.3], [-119.998053, 38.670618, 2697.9], [-119.998098, 38.670624, 2697.4], [-119.998113, 38.670608, 2696.5], [-119.998101, 38.670587, 2696.0], [-119.998124, 38.670543, 2694.3], [-119.998121, 38.670517, 2692.2], [-119.998103, 38.670483, 2693.6], [-119.998124, 38.670459, 2694.4], [-119.998154, 38.670466, 2697.1], [-119.998317, 38.670436, 2698.4], [-119.998335, 38.670431, 2698.2], [-119.998427, 38.670398, 2695.4], [-119.998555, 38.670389, 2697.5], [-119.998619, 38.670383, 2698.8], [-119.998668, 38.670402, 2699.0], [-119.998728, 38.670403, 2698.8], [-119.998821, 38.670426, 2698.9], [-119.998883, 38.67041, 2700.3], [-119.998927, 38.670422, 2701.1], [-119.998937, 38.670429, 2699.8], [-119.998865, 38.670458, 2697.2], [-119.998915, 38.670491, 2698.2], [-119.998958, 38.670525, 2697.6], [-119.998991, 38.670591, 2699.7], [-119.999029, 38.670635, 2700.4], [-119.999051, 38.670667, 2701.0], [-119.999134, 38.670734, 2702.4], [-119.999172, 38.670793, 2703.0], [-119.999222, 38.670828, 2705.3], [-119.999277, 38.670836, 2705.5], [-119.999282, 38.670855, 2705.4], [-119.999304, 38.670874, 2706.2], [-119.999354, 38.670879, 2707.3], [-119.999415, 38.670908, 2708.1], [-119.999506, 38.670925, 2709.3], [-119.999557, 38.670964, 2709.8], [-119.999624, 38.670951, 2713.1], [-119.999722, 38.670901, 2717.4], [-119.999757, 38.670903, 2717.8], [-119.999768, 38.670933, 2720.0], [-119.99979, 38.670956, 2718.7], [-119.999806, 38.670989, 2716.0], [-119.999803, 38.671008, 2717.4], [-119.999771, 38.671013, 2715.8], [-119.999754, 38.670991, 2716.7], [-119.999769, 38.670963, 2715.1], [-119.999803, 38.670966, 2717.6], [-119.999822, 38.670988, 2719.0], [-119.999814, 38.671023, 2722.7], [-119.999797, 38.671001, 2721.1], [-119.999821, 38.670957, 2719.8], [-119.999868, 38.670923, 2721.3], [-119.999918, 38.670871, 2719.7], [-119.999979, 38.670846, 2721.4], [-120.000035, 38.670848, 2721.5], [-120.000081, 38.67087, 2721.4], [-120.000149, 38.67089, 2722.8], [-120.000313, 38.670872, 2724.0], [-120.000413, 38.67086, 2724.7], [-120.000497, 38.670862, 2725.7], [-120.000559, 38.67084, 2728.5], [-120.000695, 38.670835, 2730.0], [-120.000791, 38.670807, 2729.2], [-120.000821, 38.670783, 2727.9], [-120.000957, 38.670779, 2725.7], [-120.000998, 38.670765, 2727.1], [-120.001036, 38.670762, 2729.4], [-120.001145, 38.670808, 2734.4], [-120.001213, 38.670814, 2736.6], [-120.001275, 38.670832, 2737.1], [-120.001336, 38.670813, 2736.9], [-120.001376, 38.67078, 2736.9], [-120.001423, 38.67077, 2738.2], [-120.001516, 38.670738, 2741.2], [-120.001634, 38.670726, 2740.4], [-120.001642, 38.670724, 2740.8], [-120.001834, 38.670712, 2745.0], [-120.001907, 38.670701, 2745.6], [-120.001989, 38.670668, 2749.9], [-120.002022, 38.670664, 2747.6], [-120.002048, 38.670672, 2748.2], [-120.002065, 38.670665, 2748.2], [-120.002094, 38.670644, 2748.8], [-120.002155, 38.670645, 2753.3], [-120.002182, 38.670634, 2754.4], [-120.002288, 38.670633, 2758.2], [-120.002358, 38.670624, 2753.3], [-120.002395, 38.670592, 2753.1], [-120.002406, 38.670571, 2746.3], [-120.002477, 38.670545, 2750.2], [-120.002506, 38.670525, 2752.9], [-120.002687, 38.670485, 2759.7], [-120.002788, 38.670475, 2763.0], [-120.002876, 38.670484, 2765.5], [-120.002911, 38.670498, 2763.9], [-120.003013, 38.670488, 2765.4], [-120.003126, 38.670437, 2768.1], [-120.003174, 38.670429, 2767.8], [-120.003283, 38.670441, 2772.1], [-120.003351, 38.670418, 2774.5], [-120.003438, 38.670375, 2776.1], [-120.003469, 38.67034, 2777.8], [-120.003532, 38.670311, 2776.8], [-120.003631, 38.670263, 2775.6], [-120.003738, 38.670292, 2777.1], [-120.003968, 38.670323, 2779.8], [-120.004057, 38.670341, 2782.1], [-120.00408, 38.670331, 2782.2], [-120.004173, 38.670323, 2783.7], [-120.004248, 38.670331, 2785.8], [-120.004307, 38.670326, 2786.8], [-120.00442, 38.670341, 2790.8], [-120.004552, 38.670326, 2792.1], [-120.004649, 38.670302, 2792.6], [-120.004739, 38.670278, 2791.3], [-120.004879, 38.670256, 2796.0], [-120.004872, 38.670244, 2793.3], [-120.00483, 38.670245, 2792.2], [-120.004913, 38.670233, 2793.9], [-120.004989, 38.670247, 2794.8], [-120.005001, 38.670243, 2795.2], [-120.005061, 38.670238, 2796.7], [-120.005145, 38.670254, 2798.4], [-120.005208, 38.670251, 2794.7], [-120.005215, 38.670253, 2795.5], [-120.005343, 38.670262, 2799.0], [-120.005432, 38.670279, 2802.3], [-120.00544, 38.670282, 2802.0], [-120.005476, 38.67028, 2802.3], [-120.005529, 38.670296, 2804.0], [-120.005594, 38.6703, 2805.1], [-120.005655, 38.670322, 2806.3], [-120.005706, 38.670335, 2807.9], [-120.005731, 38.670327, 2807.0], [-120.005762, 38.670334, 2808.2], [-120.00578, 38.67035, 2804.8], [-120.005914, 38.670396, 2804.6], [-120.00601, 38.670387, 2810.3], [-120.006096, 38.670431, 2810.2], [-120.00614, 38.670448, 2810.5], [-120.006203, 38.670447, 2811.9], [-120.006254, 38.67043, 2813.2], [-120.006282, 38.670432, 2809.5], [-120.006316, 38.670411, 2811.1], [-120.006521, 38.670353, 2810.6], [-120.006546, 38.670361, 2815.4], [-120.006745, 38.670272, 2820.3], [-120.006776, 38.67028, 2820.8], [-120.006924, 38.670253, 2819.1], [-120.006968, 38.670253, 2823.7], [-120.007091, 38.670205, 2827.8], [-120.007133, 38.670198, 2828.5], [-120.007173, 38.670176, 2828.7], [-120.00726, 38.670186, 2830.4], [-120.007424, 38.670163, 2831.9], [-120.007545, 38.670205, 2831.5], [-120.007572, 38.670226, 2833.1], [-120.007661, 38.670246, 2836.8], [-120.00775, 38.670233, 2835.9], [-120.007792, 38.670212, 2838.5], [-120.007828, 38.670203, 2839.3], [-120.007886, 38.670212, 2839.5], [-120.00801, 38.670209, 2841.9], [-120.008124, 38.670183, 2842.4], [-120.008255, 38.670113, 2841.5], [-120.008243, 38.670089, 2837.6], [-120.008213, 38.669994, 2837.2], [-120.008185, 38.669945, 2836.4], [-120.008191, 38.669946, 2836.4], [-120.008099, 38.669805, 2839.9], [-120.008095, 38.66975, 2840.4], [-120.008127, 38.669611, 2842.9], [-120.008118, 38.669552, 2846.5], [-120.008131, 38.669533, 2844.5], [-120.008163, 38.669535, 2847.8], [-120.008211, 38.669518, 2850.0], [-120.008248, 38.669489, 2850.2], [-120.008397, 38.669429, 2849.4], [-120.008385, 38.669453, 2845.9], [-120.008351, 38.669438, 2848.4], [-120.008367, 38.669439, 2848.8], [-120.008228, 38.669494, 2845.9], [-120.008222, 38.669499, 2846.4], [-120.008165, 38.669598, 2847.2], [-120.008155, 38.669668, 2845.2], [-120.008129, 38.669707, 2844.8], [-120.008083, 38.66973, 2843.8], [-120.007968, 38.669727, 2843.3], [-120.007955, 38.669724, 2842.9], [-120.007883, 38.669723, 2843.7], [-120.007763, 38.669703, 2842.7], [-120.007726, 38.669725, 2840.9], [-120.00772, 38.669747, 2839.9], [-120.007745, 38.669737, 2843.1], [-120.007775, 38.669779, 2843.5], [-120.007779, 38.669811, 2843.9], [-120.007773, 38.669828, 2842.5], [-120.007733, 38.669916, 2841.5], [-120.007663, 38.669971, 2839.7], [-120.007658, 38.669988, 2838.9], [-120.007672, 38.670046, 2838.0], [-120.00764, 38.670142, 2834.6], [-120.00759, 38.670159, 2832.7], [-120.007547, 38.670141, 2831.7], [-120.00753, 38.670125, 2832.9], [-120.007494, 38.670105, 2832.1], [-120.007429, 38.670105, 2831.0], [-120.007333, 38.67015, 2828.4], [-120.007308, 38.67015, 2828.3], [-120.007145, 38.670097, 2828.8], [-120.007093, 38.670092, 2829.5], [-120.007039, 38.670103, 2828.4], [-120.007, 38.670145, 2827.5], [-120.006973, 38.670264, 2826.0], [-120.006963, 38.670283, 2825.9], [-120.006923, 38.670313, 2824.3], [-120.006857, 38.670317, 2822.7], [-120.006822, 38.670304, 2822.4], [-120.006754, 38.67025, 2821.7], [-120.006709, 38.670242, 2822.5], [-120.006664, 38.670238, 2822.2], [-120.006612, 38.670257, 2820.9], [-120.006589, 38.670288, 2820.5], [-120.006591, 38.670334, 2819.3], [-120.006567, 38.670365, 2819.6], [-120.00649, 38.670425, 2817.0], [-120.00637, 38.670476, 2816.5], [-120.006213, 38.670526, 2813.4], [-120.00616, 38.670514, 2812.4], [-120.00608, 38.670467, 2811.6], [-120.006049, 38.670464, 2811.0], [-120.006014, 38.670473, 2809.5], [-120.005971, 38.670509, 2809.1], [-120.005962, 38.670524, 2810.1], [-120.005898, 38.670608, 2810.5], [-120.005833, 38.670651, 2808.6], [-120.00582, 38.670657, 2808.4], [-120.005755, 38.670662, 2807.2], [-120.005671, 38.670617, 2803.4], [-120.005639, 38.670618, 2803.2], [-120.00558, 38.670648, 2802.7], [-120.005555, 38.670687, 2802.7], [-120.005527, 38.670708, 2802.6], [-120.005421, 38.670746, 2800.5], [-120.005395, 38.670745, 2799.7], [-120.005373, 38.670725, 2799.2], [-120.00536, 38.670688, 2798.5], [-120.00536, 38.670677, 2798.4], [-120.005301, 38.670653, 2797.1], [-120.005244, 38.670654, 2796.3], [-120.005213, 38.670674, 2795.7], [-120.00515, 38.670744, 2794.7], [-120.005103, 38.67078, 2794.0], [-120.004915, 38.670885, 2794.2], [-120.004857, 38.670907, 2792.9], [-120.004785, 38.670884, 2790.7], [-120.004732, 38.670831, 2789.1], [-120.004724, 38.670789, 2787.8], [-120.004673, 38.67072, 2784.1], [-120.004613, 38.670652, 2782.9], [-120.00453, 38.670603, 2781.3], [-120.004464, 38.670548, 2780.1], [-120.004407, 38.670539, 2780.3], [-120.004404, 38.670522, 2780.0], [-120.004365, 38.670516, 2781.3], [-120.00432, 38.670501, 2782.5], [-120.004288, 38.670505, 2782.8], [-120.00423, 38.670492, 2782.2], [-120.004175, 38.670492, 2782.3], [-120.004144, 38.670474, 2780.8], [-120.004077, 38.670408, 2776.5], [-120.003993, 38.670364, 2776.5], [-120.003982, 38.670352, 2776.5], [-120.003934, 38.670287, 2775.7], [-120.003871, 38.670229, 2777.2], [-120.003847, 38.670215, 2776.7], [-120.00377, 38.670188, 2776.3], [-120.003628, 38.670214, 2776.3], [-120.003575, 38.670208, 2775.7], [-120.003529, 38.670181, 2775.7], [-120.003494, 38.670164, 2774.8], [-120.003425, 38.670161, 2773.3], [-120.003394, 38.670177, 2772.7], [-120.00331, 38.670253, 2771.6], [-120.003258, 38.670319, 2772.0], [-120.003245, 38.670333, 2772.6], [-120.003142, 38.670427, 2770.4], [-120.003075, 38.670439, 2768.5], [-120.003048, 38.67044, 2769.1], [-120.002966, 38.670436, 2767.8], [-120.00294, 38.670423, 2767.6], [-120.002944, 38.670397, 2768.4], [-120.002857, 38.670359, 2765.5], [-120.002833, 38.670344, 2765.7], [-120.002773, 38.670291, 2763.6], [-120.002756, 38.670305, 2763.2], [-120.002671, 38.67033, 2762.2], [-120.002636, 38.670349, 2761.3], [-120.002625, 38.670364, 2760.6], [-120.002585, 38.670402, 2759.1], [-120.002553, 38.670409, 2759.4], [-120.002489, 38.670402, 2758.1], [-120.002369, 38.670443, 2755.8], [-120.002333, 38.670435, 2755.3], [-120.002258, 38.670395, 2755.0], [-120.002225, 38.670401, 2755.1], [-120.002165, 38.670441, 2753.8], [-120.002131, 38.67045, 2753.6], [-120.002038, 38.670433, 2752.2], [-120.001989, 38.670428, 2752.0], [-120.001944, 38.670439, 2751.0], [-120.001849, 38.670486, 2748.7], [-120.001714, 38.670505, 2746.0], [-120.001693, 38.670505, 2745.2], [-120.001541, 38.670519, 2741.8], [-120.001459, 38.67051, 2739.7], [-120.001411, 38.670492, 2739.0], [-120.001213, 38.670484, 2738.3], [-120.001189, 38.670482, 2738.0], [-120.001081, 38.670465, 2735.4], [-120.000999, 38.670519, 2734.8], [-120.000964, 38.670557, 2732.4], [-120.000921, 38.670581, 2732.1], [-120.00084, 38.670579, 2732.1], [-120.000785, 38.670605, 2729.1], [-120.000759, 38.670626, 2728.3], [-120.000729, 38.670643, 2727.5], [-120.000551, 38.670695, 2724.6], [-120.00043, 38.670746, 2723.1], [-120.000422, 38.670752, 2723.9], [-120.000234, 38.67087, 2722.0], [-120.000193, 38.670888, 2721.5], [-120.000061, 38.670909, 2720.2], [-120.000054, 38.670881, 2720.8], [-120.000005, 38.67086, 2723.6], [-119.999849, 38.670873, 2722.2], [-119.999781, 38.670948, 2719.2], [-119.999745, 38.670945, 2719.7], [-119.999667, 38.670897, 2717.4], [-119.999628, 38.670877, 2717.3], [-119.999557, 38.670831, 2716.5], [-119.999413, 38.670699, 2714.7], [-119.999383, 38.670678, 2712.6], [-119.999313, 38.670623, 2711.6], [-119.99927, 38.670573, 2709.6], [-119.999237, 38.670557, 2708.3], [-119.999057, 38.670551, 2705.4], [-119.999022, 38.670541, 2704.8], [-119.998964, 38.670519, 2709.0], [-119.99893, 38.670477, 2703.3], [-119.99888, 38.670444, 2702.1], [-119.998846, 38.670403, 2702.7], [-119.998821, 38.67038, 2702.8], [-119.998804, 38.670334, 2702.6], [-119.998731, 38.67029, 2704.8], [-119.998769, 38.670294, 2699.4], [-119.998593, 38.670191, 2710.3], [-119.998588, 38.670186, 2709.4], [-119.998426, 38.670072, 2705.2], [-119.998418, 38.670063, 2705.4], [-119.998365, 38.670043, 2706.0], [-119.998284, 38.669968, 2707.3], [-119.998239, 38.66994, 2709.1], [-119.998128, 38.669879, 2711.3], [-119.998063, 38.669861, 2710.4], [-119.998057, 38.669857, 2710.3], [-119.997914, 38.669798, 2711.2], [-119.997846, 38.669794, 2714.6], [-119.997837, 38.669797, 2714.4], [-119.997658, 38.669917, 2712.4], [-119.99758, 38.670018, 2713.6], [-119.997568, 38.670059, 2714.9], [-119.997561, 38.670071, 2714.7], [-119.997495, 38.670111, 2715.8], [-119.997433, 38.670107, 2716.1], [-119.997379, 38.670126, 2716.3], [-119.997342, 38.670123, 2717.1], [-119.99725, 38.670136, 2717.7], [-119.997221, 38.670125, 2715.5], [-119.997124, 38.670124, 2715.5], [-119.997116, 38.670126, 2714.0], [-119.997013, 38.670214, 2715.1], [-119.996953, 38.670241, 2716.3], [-119.996944, 38.670248, 2716.2], [-119.996916, 38.670309, 2714.3], [-119.996798, 38.670446, 2717.9], [-119.996761, 38.670529, 2717.9], [-119.996724, 38.670559, 2718.2], [-119.99666, 38.670622, 2720.0], [-119.996646, 38.670667, 2720.1], [-119.996595, 38.670703, 2722.7], [-119.996591, 38.67071, 2722.6], [-119.996512, 38.670801, 2722.0], [-119.9965, 38.670779, 2719.3], [-119.99647, 38.670811, 2721.1], [-119.996383, 38.670883, 2722.0], [-119.996294, 38.670935, 2719.9], [-119.996229, 38.670963, 2719.6], [-119.996149, 38.671028, 2721.9], [-119.996099, 38.671055, 2721.1], [-119.995966, 38.671163, 2719.4], [-119.995914, 38.671203, 2719.3], [-119.995885, 38.67121, 2719.1], [-119.995865, 38.671315, 2719.9], [-119.99584, 38.671359, 2721.3], [-119.99583, 38.671399, 2722.2], [-119.995772, 38.671461, 2721.3], [-119.995738, 38.671514, 2720.9], [-119.995718, 38.671583, 2720.7], [-119.995683, 38.67162, 2719.2], [-119.995675, 38.671641, 2720.5], [-119.995586, 38.671813, 2722.4], [-119.995584, 38.671823, 2723.3], [-119.995529, 38.671906, 2723.2], [-119.995441, 38.671944, 2722.9], [-119.995392, 38.671945, 2723.3], [-119.995309, 38.671983, 2726.2], [-119.995267, 38.67204, 2725.2], [-119.995218, 38.672087, 2726.1], [-119.995124, 38.672117, 2727.6], [-119.995105, 38.67214, 2726.3], [-119.995103, 38.672149, 2726.5], [-119.995034, 38.672189, 2726.6], [-119.994988, 38.67225, 2729.8], [-119.99488, 38.67233, 2730.9], [-119.99487, 38.672372, 2729.9], [-119.994836, 38.672416, 2728.7], [-119.994825, 38.672456, 2728.0], [-119.994808, 38.672473, 2727.9], [-119.994818, 38.672497, 2728.6], [-119.99472, 38.672563, 2731.1], [-119.9946, 38.672616, 2731.4], [-119.994566, 38.672607, 2731.0], [-119.994602, 38.672642, 2731.3], [-119.994606, 38.672641, 2731.5], [-119.994578, 38.672595, 2733.2], [-119.994607, 38.672593, 2733.4], [-119.994611, 38.672615, 2730.4], [-119.994629, 38.672634, 2731.0], [-119.99466, 38.672643, 2734.0], [-119.994648, 38.672679, 2736.1], [-119.994654, 38.672841, 2736.2], [-119.994651, 38.672853, 2736.5], [-119.994663, 38.672903, 2734.2], [-119.994658, 38.672924, 2734.6], [-119.994638, 38.672946, 2732.9], [-119.994589, 38.672955, 2734.6], [-119.994585, 38.673, 2735.1], [-119.994577, 38.673141, 2734.1], [-119.994574, 38.67316, 2734.0], [-119.994571, 38.673222, 2733.2], [-119.994549, 38.673236, 2733.4], [-119.994503, 38.673339, 2732.7], [-119.994495, 38.673348, 2733.5], [-119.994466, 38.673404, 2734.0], [-119.994433, 38.6735, 2735.0], [-119.994411, 38.673538, 2734.4], [-119.99441, 38.673569, 2733.8], [-119.994455, 38.673639, 2730.6], [-119.994415, 38.673667, 2730.5], [-119.994334, 38.673845, 2727.4], [-119.994312, 38.67391, 2729.2], [-119.994313, 38.673945, 2729.3], [-119.994263, 38.673995, 2730.8], [-119.99425, 38.674023, 2730.8], [-119.994232, 38.674101, 2730.1], [-119.994171, 38.674185, 2730.8], [-119.994132, 38.67427, 2729.0], [-119.99413, 38.674354, 2729.9], [-119.994131, 38.674378, 2729.6], [-119.994128, 38.67454, 2729.5], [-119.994098, 38.674606, 2728.9], [-119.994073, 38.674616, 2728.7], [-119.994044, 38.674658, 2729.5], [-119.994017, 38.674732, 2728.2], [-119.993956, 38.67484, 2730.0], [-119.993947, 38.674894, 2729.6], [-119.993948, 38.674908, 2728.6], [-119.993919, 38.675012, 2727.9], [-119.993869, 38.675033, 2723.6], [-119.993867, 38.675065, 2724.9], [-119.993841, 38.67513, 2727.2], [-119.993809, 38.67516, 2727.5], [-119.993796, 38.675206, 2728.4], [-119.993779, 38.675226, 2728.6], [-119.993782, 38.675249, 2727.9], [-119.993776, 38.675279, 2728.0], [-119.993701, 38.675427, 2728.0], [-119.993699, 38.675464, 2728.0], [-119.993721, 38.675476, 2727.6], [-119.993724, 38.675507, 2727.4], [-119.993701, 38.675543, 2727.4], [-119.993659, 38.675577, 2727.1], [-119.993628, 38.675596, 2727.1], [-119.993526, 38.675717, 2726.6], [-119.993494, 38.675724, 2725.9], [-119.993449, 38.675756, 2726.6], [-119.993397, 38.675805, 2724.7], [-119.99339, 38.675849, 2724.6], [-119.993211, 38.675937, 2723.8], [-119.993126, 38.675998, 2723.6], [-119.993007, 38.676045, 2722.0], [-119.9928, 38.676099, 2721.8], [-119.992755, 38.676125, 2722.3], [-119.992728, 38.676165, 2721.2], [-119.99261, 38.676241, 2722.1], [-119.99246, 38.676376, 2718.3], [-119.992442, 38.676391, 2718.6], [-119.992299, 38.676494, 2716.6], [-119.992284, 38.676502, 2717.0], [-119.992111, 38.676613, 2712.6], [-119.991937, 38.676735, 2712.4], [-119.991876, 38.676771, 2710.9], [-119.991764, 38.676875, 2708.1], [-119.991612, 38.677001, 2705.7], [-119.991598, 38.677008, 2706.0], [-119.991474, 38.677079, 2703.6], [-119.991433, 38.677118, 2703.3], [-119.991416, 38.677127, 2703.5], [-119.991298, 38.677208, 2702.2], [-119.991268, 38.677261, 2703.5], [-119.991236, 38.677286, 2702.7], [-119.991204, 38.677296, 2700.9], [-119.99119, 38.677329, 2701.4], [-119.991108, 38.677388, 2702.3], [-119.990944, 38.677502, 2699.8], [-119.990897, 38.677521, 2698.6], [-119.99088, 38.677545, 2698.2], [-119.990793, 38.677602, 2700.2], [-119.990793, 38.677633, 2699.0], [-119.990783, 38.677686, 2697.1], [-119.990753, 38.677726, 2698.2], [-119.99073, 38.677828, 2698.5], [-119.990708, 38.677882, 2699.9], [-119.990734, 38.677993, 2697.0], [-119.990716, 38.678065, 2694.5], [-119.990714, 38.678122, 2691.9], [-119.990692, 38.678137, 2691.1], [-119.99065, 38.678234, 2693.4], [-119.990647, 38.678248, 2693.7], [-119.990585, 38.678336, 2695.5], [-119.990574, 38.678407, 2693.1], [-119.990572, 38.678505, 2690.0], [-119.990556, 38.678546, 2691.6], [-119.990554, 38.678593, 2691.7], [-119.99053, 38.678774, 2689.2], [-119.99053, 38.678834, 2690.1], [-119.990515, 38.678895, 2689.9], [-119.990522, 38.678956, 2689.2], [-119.990508, 38.679072, 2686.6], [-119.99051, 38.679158, 2688.2], [-119.990517, 38.679187, 2688.0], [-119.990538, 38.679231, 2685.6], [-119.990563, 38.679364, 2684.4], [-119.990579, 38.679478, 2685.6], [-119.990571, 38.679527, 2686.0], [-119.99057, 38.679582, 2684.7], [-119.990605, 38.679689, 2686.2], [-119.990633, 38.679713, 2689.7], [-119.990623, 38.679747, 2688.0], [-119.990642, 38.679817, 2686.9], [-119.990631, 38.679867, 2685.6], [-119.990633, 38.679886, 2685.4], [-119.990627, 38.679915, 2688.1], [-119.990662, 38.679986, 2687.1], [-119.99068, 38.680053, 2688.0], [-119.990739, 38.680147, 2683.7], [-119.990758, 38.680195, 2683.9], [-119.990759, 38.680232, 2683.9], [-119.990773, 38.680272, 2683.0], [-119.99077, 38.680312, 2681.9], [-119.990789, 38.68036, 2681.0], [-119.990799, 38.680424, 2681.0], [-119.990827, 38.680499, 2679.9], [-119.990811, 38.680551, 2680.1], [-119.990769, 38.680576, 2678.1], [-119.990753, 38.680571, 2678.3], [-119.990741, 38.680593, 2676.1], [-119.990747, 38.680639, 2675.2], [-119.990699, 38.680681, 2676.2], [-119.990689, 38.680694, 2675.6], [-119.990634, 38.680731, 2677.0], [-119.990664, 38.680838, 2675.1], [-119.990676, 38.680874, 2677.8], [-119.990672, 38.680895, 2678.3], [-119.990727, 38.681036, 2679.4], [-119.990763, 38.681109, 2679.0], [-119.990787, 38.681196, 2677.0], [-119.990759, 38.681254, 2677.1], [-119.990751, 38.68132, 2675.7], [-119.99076, 38.681366, 2676.9], [-119.990747, 38.681392, 2678.6], [-119.990759, 38.681481, 2677.1], [-119.990786, 38.681523, 2678.3], [-119.990785, 38.681655, 2678.6], [-119.990787, 38.681672, 2678.5], [-119.990815, 38.681748, 2675.8], [-119.990809, 38.681774, 2675.6], [-119.990765, 38.681842, 2671.3], [-119.990712, 38.681827, 2668.4], [-119.99067, 38.681942, 2670.2], [-119.990666, 38.681957, 2671.8], [-119.990638, 38.68212, 2671.5], [-119.990632, 38.682135, 2672.7], [-119.990625, 38.682179, 2674.5], [-119.990632, 38.682195, 2674.2], [-119.990612, 38.682256, 2672.5], [-119.990609, 38.682303, 2670.0], [-119.990604, 38.682316, 2670.0], [-119.990594, 38.682381, 2669.8], [-119.99054, 38.682457, 2671.1], [-119.990506, 38.682488, 2672.1], [-119.990453, 38.682589, 2670.2], [-119.990429, 38.682608, 2670.6], [-119.990423, 38.682633, 2669.8], [-119.990428, 38.682664, 2669.2], [-119.990424, 38.682729, 2672.8], [-119.990403, 38.682774, 2670.2], [-119.990397, 38.682819, 2669.2], [-119.990305, 38.682983, 2666.5], [-119.990299, 38.683018, 2664.9], [-119.990316, 38.682993, 2664.2], [-119.990297, 38.683064, 2664.2], [-119.990302, 38.683108, 2665.1], [-119.990342, 38.683178, 2666.0], [-119.990349, 38.683198, 2663.7], [-119.99038, 38.683256, 2662.5], [-119.990423, 38.683304, 2662.2], [-119.990487, 38.683331, 2661.4], [-119.990514, 38.683315, 2660.3], [-119.990518, 38.683347, 2660.5], [-119.990501, 38.683356, 2659.0], [-119.990542, 38.683415, 2659.1], [-119.990536, 38.683435, 2659.8], [-119.990503, 38.683463, 2658.3], [-119.990508, 38.683482, 2657.4], [-119.9905, 38.68352, 2656.8], [-119.990515, 38.68355, 2656.2], [-119.990517, 38.683671, 2655.3], [-119.990507, 38.68387, 2654.8], [-119.990509, 38.68404, 2651.6], [-119.990507, 38.684058, 2652.6], [-119.990506, 38.684148, 2652.0], [-119.990492, 38.684205, 2650.7], [-119.990482, 38.68426, 2651.5], [-119.990488, 38.684348, 2651.7], [-119.990524, 38.684427, 2650.5], [-119.990521, 38.684441, 2650.5], [-119.990524, 38.6845, 2649.6], [-119.990495, 38.684511, 2649.7], [-119.990503, 38.684559, 2644.7], [-119.99049, 38.684656, 2642.3], [-119.990478, 38.684703, 2643.8], [-119.990419, 38.68483, 2642.9], [-119.990409, 38.68489, 2643.9], [-119.990379, 38.684934, 2639.7], [-119.990372, 38.684962, 2642.2], [-119.990399, 38.685017, 2643.0], [-119.990425, 38.685085, 2640.6], [-119.990418, 38.685126, 2640.3], [-119.990434, 38.685147, 2638.6], [-119.990451, 38.685277, 2639.7], [-119.990492, 38.68538, 2641.4], [-119.990493, 38.685391, 2642.7], [-119.990545, 38.685537, 2641.1], [-119.990525, 38.685552, 2637.7], [-119.990539, 38.685574, 2637.0], [-119.990537, 38.685604, 2637.3], [-119.99055, 38.685622, 2637.4], [-119.990639, 38.685699, 2636.4], [-119.990655, 38.68571, 2637.0], [-119.990788, 38.685811, 2639.5], [-119.990796, 38.68582, 2639.2], [-119.990943, 38.685945, 2639.8], [-119.990956, 38.685954, 2640.1], [-119.991003, 38.686001, 2638.9], [-119.991028, 38.686008, 2637.9], [-119.991041, 38.686051, 2637.3], [-119.991086, 38.686097, 2637.3], [-119.991227, 38.686206, 2634.6], [-119.991282, 38.686295, 2632.1], [-119.991296, 38.686339, 2631.8], [-119.991293, 38.68639, 2631.2], [-119.991345, 38.68648, 2634.1], [-119.991418, 38.686551, 2637.1], [-119.991446, 38.686597, 2633.1], [-119.991491, 38.686624, 2633.6], [-119.991519, 38.686625, 2634.7], [-119.991563, 38.686664, 2635.5], [-119.991563, 38.686671, 2635.8], [-119.991591, 38.686676, 2637.0], [-119.991637, 38.686749, 2641.8], [-119.991649, 38.686792, 2639.5], [-119.991683, 38.686863, 2639.1], [-119.991724, 38.686882, 2638.4], [-119.99178, 38.686893, 2637.0], [-119.991806, 38.686926, 2639.2], [-119.991843, 38.686959, 2638.5], [-119.991856, 38.686983, 2635.7], [-119.991863, 38.687093, 2639.5], [-119.99188, 38.687124, 2638.2], [-119.991941, 38.687128, 2640.0], [-119.99196, 38.687166, 2640.5], [-119.991952, 38.687191, 2640.8], [-119.99192, 38.68723, 2639.7], [-119.991935, 38.687243, 2641.8], [-119.992007, 38.687288, 2641.0], [-119.992028, 38.687326, 2638.0], [-119.992069, 38.68736, 2640.9], [-119.992079, 38.687399, 2639.9], [-119.992208, 38.687543, 2638.7], [-119.992218, 38.687549, 2639.0], [-119.992293, 38.687616, 2639.2], [-119.992325, 38.687691, 2639.0], [-119.992336, 38.687703, 2637.6], [-119.992362, 38.687756, 2637.1], [-119.992373, 38.687827, 2636.6], [-119.992399, 38.687858, 2634.3], [-119.992437, 38.687885, 2633.4], [-119.992435, 38.687916, 2634.2], [-119.992503, 38.687989, 2634.7], [-119.992626, 38.68815, 2634.6], [-119.992659, 38.68821, 2632.4], [-119.992687, 38.688325, 2632.6], [-119.992755, 38.688486, 2633.0], [-119.992763, 38.688502, 2631.1], [-119.992732, 38.688531, 2628.3], [-119.992713, 38.688568, 2629.6], [-119.992724, 38.688658, 2629.6], [-119.992708, 38.688751, 2630.8], [-119.992723, 38.688826, 2629.5], [-119.992722, 38.688847, 2628.2], [-119.992686, 38.688888, 2626.7], [-119.992638, 38.689011, 2628.6], [-119.992639, 38.689016, 2628.9], [-119.992575, 38.689029, 2631.2], [-119.992557, 38.689048, 2636.3], [-119.992562, 38.689069, 2635.1], [-119.992592, 38.689079, 2631.7], [-119.992616, 38.689138, 2631.2], [-119.992617, 38.689156, 2631.1], [-119.992601, 38.689241, 2628.6], [-119.99257, 38.689337, 2626.7], [-119.992563, 38.689349, 2626.2], [-119.992494, 38.689516, 2625.3], [-119.992474, 38.689616, 2625.5], [-119.99249, 38.68964, 2628.7], [-119.99248, 38.689724, 2634.3], [-119.99246, 38.689737, 2629.3], [-119.99245, 38.68979, 2624.0], [-119.992388, 38.689781, 2619.4], [-119.992383, 38.689831, 2620.2], [-119.992374, 38.689846, 2621.2], [-119.992328, 38.689885, 2617.6], [-119.992259, 38.689994, 2617.7], [-119.992252, 38.690027, 2621.6], [-119.992194, 38.690109, 2616.1], [-119.992205, 38.690127, 2614.7], [-119.992156, 38.690171, 2614.2], [-119.992127, 38.690225, 2609.9], [-119.992105, 38.690245, 2607.6], [-119.992019, 38.690256, 2602.8], [-119.991942, 38.690275, 2605.0], [-119.991893, 38.69031, 2605.1], [-119.991911, 38.690293, 2602.2], [-119.991901, 38.690325, 2600.8], [-119.991904, 38.690356, 2600.7], [-119.991942, 38.690432, 2597.7], [-119.99198, 38.690469, 2601.7], [-119.991967, 38.690501, 2604.3], [-119.991933, 38.69051, 2604.1], [-119.991861, 38.690502, 2605.3], [-119.991823, 38.690533, 2606.2], [-119.991803, 38.690563, 2602.9], [-119.991779, 38.690642, 2602.6], [-119.991756, 38.69066, 2600.1], [-119.991703, 38.690668, 2597.4], [-119.991651, 38.690662, 2598.9], [-119.991599, 38.69071, 2599.0], [-119.991589, 38.690714, 2599.0], [-119.991647, 38.690653, 2601.2], [-119.991619, 38.690642, 2596.2], [-119.991566, 38.690651, 2594.9], [-119.991551, 38.690677, 2597.8], [-119.991559, 38.690697, 2602.5], [-119.991508, 38.690705, 2604.0], [-119.991468, 38.690725, 2603.4], [-119.99144, 38.690753, 2603.2], [-119.991377, 38.690755, 2599.1], [-119.991154, 38.69077, 2601.9], [-119.991037, 38.690845, 2601.6], [-119.990975, 38.690856, 2600.6], [-119.990927, 38.690838, 2597.2], [-119.990867, 38.690845, 2595.2], [-119.990788, 38.690874, 2595.6], [-119.990756, 38.690868, 2596.6], [-119.9907, 38.690877, 2597.8], [-119.990612, 38.690876, 2598.1], [-119.990568, 38.690864, 2600.4], [-119.990512, 38.6909, 2600.5], [-119.990491, 38.690953, 2601.9], [-119.990472, 38.690972, 2596.1], [-119.990532, 38.691033, 2594.2], [-119.990494, 38.691049, 2596.6], [-119.990486, 38.691049, 2596.6], [-119.990466, 38.691067, 2595.5], [-119.990452, 38.69111, 2600.1], [-119.99043, 38.691131, 2603.8], [-119.990422, 38.691152, 2606.1], [-119.99038, 38.691189, 2606.7], [-119.990414, 38.691183, 2600.0], [-119.990425, 38.691204, 2599.8], [-119.990401, 38.691222, 2598.0], [-119.990346, 38.691228, 2595.3], [-119.990259, 38.691265, 2596.0], [-119.990224, 38.691298, 2593.8], [-119.990233, 38.691321, 2590.7], [-119.990193, 38.691358, 2595.1], [-119.990135, 38.691369, 2598.3], [-119.990112, 38.691385, 2601.0], [-119.990102, 38.691441, 2601.5], [-119.990106, 38.691452, 2601.4], [-119.990089, 38.69152, 2600.8], [-119.990028, 38.691606, 2602.5], [-119.989978, 38.691664, 2605.1], [-119.989988, 38.691685, 2603.7], [-119.98996, 38.691748, 2603.6], [-119.98997, 38.69181, 2601.8], [-119.989963, 38.691844, 2600.6], [-119.99, 38.691884, 2602.9], [-119.990072, 38.691933, 2605.1], [-119.990107, 38.691938, 2603.5], [-119.990172, 38.692017, 2607.6], [-119.990263, 38.692091, 2607.4], [-119.990293, 38.692106, 2603.8], [-119.990307, 38.692154, 2603.4], [-119.990341, 38.692157, 2603.8], [-119.990353, 38.692136, 2607.6], [-119.990379, 38.692152, 2607.4], [-119.990401, 38.692183, 2607.8], [-119.990435, 38.692264, 2607.4], [-119.990423, 38.692289, 2606.7], [-119.990442, 38.692379, 2610.2], [-119.990448, 38.692398, 2609.5], [-119.990419, 38.692468, 2605.5], [-119.990393, 38.692504, 2601.5], [-119.990343, 38.692542, 2602.9], [-119.990327, 38.692568, 2603.4], [-119.990326, 38.692594, 2603.4], [-119.990364, 38.692626, 2603.3], [-119.990366, 38.692701, 2604.8], [-119.990338, 38.692727, 2603.0], [-119.99032, 38.692753, 2603.4], [-119.99032, 38.692778, 2605.8], [-119.99028, 38.692813, 2607.2], [-119.99025, 38.692868, 2606.6], [-119.990209, 38.69293, 2606.2], [-119.990193, 38.693042, 2606.8], [-119.990201, 38.693061, 2608.0], [-119.990226, 38.693097, 2607.9], [-119.990226, 38.693123, 2608.3], [-119.990206, 38.693179, 2605.5], [-119.990171, 38.69323, 2603.7], [-119.990157, 38.693254, 2603.7], [-119.990111, 38.693311, 2601.0], [-119.990127, 38.693391, 2600.5], [-119.990146, 38.693419, 2603.2], [-119.990146, 38.693436, 2603.9], [-119.990133, 38.693502, 2603.1], [-119.990136, 38.693528, 2605.7], [-119.990152, 38.69354, 2605.4], [-119.990168, 38.693623, 2603.1], [-119.990167, 38.69364, 2602.4], [-119.990156, 38.693667, 2602.9], [-119.990172, 38.69368, 2602.2], [-119.990164, 38.693847, 2600.9], [-119.990189, 38.69392, 2599.7], [-119.990197, 38.694009, 2602.0], [-119.990192, 38.694015, 2601.2], [-119.990089, 38.694055, 2597.0], [-119.990005, 38.69407, 2596.9], [-119.98997, 38.694088, 2597.0], [-119.989917, 38.694143, 2596.5], [-119.989857, 38.69418, 2594.7], [-119.989847, 38.694193, 2595.1], [-119.989845, 38.694216, 2597.6], [-119.989801, 38.694255, 2599.1], [-119.989771, 38.694345, 2597.2], [-119.98969, 38.694437, 2595.3], [-119.98959, 38.694498, 2595.3], [-119.989562, 38.694537, 2594.7], [-119.989578, 38.694602, 2594.7], [-119.989554, 38.694603, 2594.3], [-119.989517, 38.694652, 2593.4], [-119.989453, 38.694678, 2593.4], [-119.989432, 38.694697, 2593.7], [-119.989425, 38.694732, 2593.4], [-119.98941, 38.694747, 2593.2], [-119.989376, 38.694759, 2596.5], [-119.989367, 38.694769, 2597.7], [-119.989382, 38.694795, 2597.6], [-119.989386, 38.694843, 2596.7], [-119.989443, 38.694916, 2596.5], [-119.989449, 38.694967, 2596.7], [-119.989427, 38.694987, 2594.6], [-119.989449, 38.695007, 2592.7], [-119.989448, 38.695032, 2592.7], [-119.989437, 38.695055, 2594.1], [-119.989405, 38.695079, 2594.6], [-119.989414, 38.695125, 2594.5], [-119.989489, 38.695215, 2595.4], [-119.989536, 38.695316, 2594.5], [-119.989567, 38.695311, 2596.5], [-119.989559, 38.695336, 2598.7], [-119.989586, 38.695342, 2598.9], [-119.989546, 38.695317, 2594.5], [-119.989547, 38.695294, 2592.7], [-119.989562, 38.695273, 2591.9], [-119.989593, 38.695264, 2587.2], [-119.98962, 38.69528, 2588.6], [-119.989585, 38.695283, 2589.6], [-119.989556, 38.695268, 2588.1], [-119.989557, 38.695293, 2589.1], [-119.989591, 38.695291, 2591.0], [-119.989571, 38.695311, 2592.1], [-119.989544, 38.695305, 2595.0], [-119.989535, 38.695284, 2592.9], [-119.98956, 38.695265, 2591.1], [-119.989564, 38.695274, 2590.7]]}}