{"type": "Feature", "properties": {}, "geometry": {"type": "LineString", "coordinates": [[-119.451235, 37.837681, 2515.1], [-119.451266, 37.837682, 2496.2], [-119.451206, 37.837697, 2508.9], [-119.451217, 37.837681, 2493.4], [-119.451179, 37.837663, 2490.7], [-119.451166, 37.837642, 2485.6], [-119.451115, 37.837635, 2484.3], [-119.451104, 37.837604, 2483.5], [-119.451107, 37.837589, 2483.5], [-119.451078, 37.83748, 2482.2], [-119.451103, 37.837437, 2480.3], [-119.451102, 37.837427, 2481.1], [-119.451086, 37.83742, 2482.6], [-119.451036, 37.837415, 2479.6], [-119.45089, 37.83743, 2477.5], [-119.450693, 37.837442, 2479.9], [-119.450681, 37.837441, 2480.1], [-119.450503, 37.837277, 2477.7], [-119.450439, 37.837183, 2474.9], [-119.450358, 37.837132, 2474.1], [-119.450339, 37.837118, 2473.9], [-119.450255, 37.837073, 2472.9], [-119.450208, 37.837018, 2467.5], [-119.450204, 37.837007, 2465.0], [-119.450159, 37.836937, 2466.2], [-119.450088, 37.836906, 2469.4], [-119.450015, 37.836844, 2467.8], [-119.449906, 37.836815, 2468.0], [-119.44994, 37.836816, 2463.5], [-119.450017, 37.836825, 2459.1], [-119.44993, 37.836789, 2458.6], [-119.44986, 37.836743, 2458.5], [-119.449829, 37.836696, 2458.2], [-119.449801, 37.836681, 2459.4], [-119.44967, 37.836646, 2458.3], [-119.449649, 37.836638, 2459.4], [-119.449573, 37.836615, 2458.5], [-119.449465, 37.83661, 2460.4], [-119.449447, 37.836611, 2460.4], [-119.44936, 37.836643, 2460.5], [-119.449272, 37.836653, 2461.4], [-119.4491, 37.836619, 2462.0], [-119.449034, 37.836623, 2461.1], [-119.449016, 37.836626, 2460.6], [-119.448921, 37.836612, 2458.0], [-119.448864, 37.836564, 2461.0], [-119.448833, 37.836559, 2463.0], [-119.448819, 37.836532, 2463.2], [-119.44877, 37.836397, 2459.6], [-119.448762, 37.836387, 2459.3], [-119.448742, 37.836346, 2460.2], [-119.448633, 37.836288, 2457.0], [-119.448576, 37.836272, 2455.8], [-119.448522, 37.83622, 2452.4], [-119.448484, 37.836207, 2451.6], [-119.448449, 37.836175, 2450.0], [-119.448408, 37.836164, 2450.9], [-119.448312, 37.836171, 2452.4], [-119.448245, 37.836147, 2451.9], [-119.448244, 37.836138, 2453.6], [-119.448218, 37.836115, 2452.5], [-119.448168, 37.836099, 2454.4], [-119.448059, 37.836124, 2459.2], [-119.448043, 37.836131, 2460.5], [-119.447948, 37.836214, 2464.0], [-119.447841, 37.836244, 2466.8], [-119.44778, 37.836284, 2466.9], [-119.447733, 37.836337, 2467.9], [-119.447705, 37.83638, 2469.6], [-119.447605, 37.836443, 2470.7], [-119.447577, 37.83649, 2469.5], [-119.447542, 37.836515, 2469.2], [-119.447511, 37.836595, 2468.9], [-119.447456, 37.836653, 2469.2], [-119.447442, 37.836691, 2470.1], [-119.44748, 37.836736, 2469.9], [-119.447482, 37.836748, 2470.1], [-119.447423, 37.836891, 2472.9], [-119.447382, 37.836932, 2472.3], [-119.447376, 37.836955, 2469.3], [-119.447385, 37.836983, 2469.2], [-119.447424, 37.837032, 2468.7], [-119.44747, 37.837126, 2468.6], [-119.447435, 37.837101, 2466.3], [-119.447424, 37.83707, 2467.1], [-119.447425, 37.837061, 2466.8], [-119.447463, 37.836926, 2467.0], [-119.447454, 37.836904, 2466.8], [-119.447428, 37.836901, 2469.7], [-119.447394, 37.83692, 2470.0], [-119.447363, 37.836919, 2471.1], [-119.447301, 37.83691, 2472.6], [-119.447258, 37.836873, 2471.9], [-119.44722, 37.836878, 2472.9], [-119.447196, 37.836885, 2472.1], [-119.447177, 37.836864, 2470.3], [-119.447117, 37.836893, 2470.8], [-119.4471, 37.836884, 2468.8], [-119.447067, 37.836828, 2471.5], [-119.44702, 37.83679, 2474.5], [-119.447009, 37.836767, 2475.3], [-119.446901, 37.836745, 2475.6], [-119.446891, 37.836749, 2475.3], [-119.446827, 37.836718, 2474.8], [-119.44678, 37.836655, 2481.0], [-119.44675, 37.836643, 2482.5], [-119.446707, 37.836644, 2482.1], [-119.446611, 37.836696, 2486.3], [-119.446569, 37.836655, 2483.2], [-119.446554, 37.836626, 2484.4], [-119.446524, 37.83654, 2485.9], [-119.44644, 37.836527, 2485.5], [-119.446407, 37.836509, 2491.2], [-119.44637, 37.836529, 2493.4], [-119.446322, 37.836498, 2499.5], [-119.446235, 37.836513, 2503.6], [-119.446192, 37.836502, 2504.2], [-119.446182, 37.836458, 2504.5], [-119.446234, 37.836398, 2503.3], [-119.446216, 37.836335, 2502.6], [-119.446152, 37.836276, 2512.1], [-119.446145, 37.836253, 2515.9], [-119.446153, 37.836208, 2519.1], [-119.446117, 37.836207, 2519.9], [-119.446097, 37.836228, 2518.7], [-119.446038, 37.836222, 2521.0], [-119.446024, 37.836198, 2525.0], [-119.446028, 37.836174, 2527.8], [-119.445976, 37.836125, 2527.6], [-119.445962, 37.836093, 2529.9], [-119.445935, 37.83608, 2529.2], [-119.44593, 37.836056, 2529.6], [-119.445901, 37.836014, 2535.6], [-119.445899, 37.835957, 2532.1], [-119.445904, 37.835949, 2528.3], [-119.44589, 37.835922, 2529.7], [-119.445859, 37.835918, 2538.1], [-119.445826, 37.835919, 2538.9], [-119.4458, 37.835933, 2540.0], [-119.445781, 37.835912, 2546.6], [-119.445749, 37.835913, 2549.1], [-119.445714, 37.83593, 2546.7], [-119.445678, 37.835931, 2549.8], [-119.44566, 37.835909, 2550.7], [-119.445575, 37.835893, 2550.6], [-119.445551, 37.835876, 2552.5], [-119.445549, 37.835844, 2559.1], [-119.445481, 37.835846, 2556.7], [-119.445466, 37.835821, 2557.1], [-119.445438, 37.835808, 2559.8], [-119.445434, 37.835728, 2565.8], [-119.445432, 37.835725, 2566.2], [-119.445364, 37.835726, 2565.3], [-119.445313, 37.835707, 2569.9], [-119.445252, 37.835705, 2573.0], [-119.44522, 37.835688, 2575.8], [-119.445204, 37.835661, 2578.0], [-119.445175, 37.835652, 2576.7], [-119.44516, 37.835632, 2576.5], [-119.445132, 37.83562, 2578.1], [-119.445113, 37.835598, 2580.2], [-119.4451, 37.835542, 2583.6], [-119.445098, 37.835511, 2588.5], [-119.445115, 37.835492, 2590.5], [-119.444992, 37.835462, 2591.0], [-119.444961, 37.835446, 2592.5], [-119.444957, 37.835407, 2592.1], [-119.444939, 37.835385, 2592.9], [-119.444943, 37.835293, 2600.3], [-119.444909, 37.835288, 2600.6], [-119.444855, 37.835321, 2602.2], [-119.444818, 37.835281, 2604.5], [-119.444771, 37.835252, 2603.8], [-119.444786, 37.835223, 2603.0], [-119.444829, 37.835097, 2609.0], [-119.44485, 37.835073, 2612.1], [-119.444858, 37.83507, 2612.1], [-119.444871, 37.835044, 2613.0], [-119.444937, 37.835044, 2616.2], [-119.444962, 37.83506, 2613.7], [-119.44498, 37.835037, 2612.1], [-119.444982, 37.835014, 2612.2], [-119.444967, 37.834991, 2611.9], [-119.444978, 37.83497, 2612.0], [-119.444986, 37.834937, 2615.9], [-119.444956, 37.834892, 2615.1], [-119.44498, 37.834848, 2613.1], [-119.444949, 37.834839, 2611.7], [-119.444895, 37.834896, 2611.6], [-119.444891, 37.834922, 2611.6], [-119.444861, 37.834912, 2615.3], [-119.444858, 37.834873, 2615.9], [-119.444882, 37.834825, 2615.2], [-119.444867, 37.834787, 2614.2], [-119.444883, 37.83474, 2618.5], [-119.444906, 37.834721, 2619.2], [-119.444914, 37.834697, 2620.8], [-119.444902, 37.834677, 2619.8], [-119.44491, 37.834647, 2625.3], [-119.444879, 37.834652, 2622.7], [-119.444832, 37.834586, 2625.0], [-119.444829, 37.83455, 2626.2], [-119.444842, 37.834516, 2627.3], [-119.444842, 37.834445, 2626.5], [-119.444862, 37.834356, 2630.0], [-119.444858, 37.834327, 2630.6], [-119.444885, 37.834298, 2632.5], [-119.444932, 37.834216, 2632.7], [-119.444944, 37.834161, 2634.7], [-119.444913, 37.83416, 2632.8], [-119.444876, 37.834125, 2632.7], [-119.444873, 37.834099, 2635.8], [-119.444849, 37.834081, 2637.2], [-119.444826, 37.834096, 2638.3], [-119.444796, 37.834102, 2639.8], [-119.444786, 37.834088, 2640.4], [-119.44479, 37.834007, 2643.6], [-119.444765, 37.833961, 2643.4], [-119.444738, 37.83395, 2652.2], [-119.444747, 37.833911, 2652.6], [-119.444659, 37.833943, 2658.7], [-119.444615, 37.833908, 2661.0], [-119.444591, 37.833845, 2660.9], [-119.444604, 37.83379, 2666.1], [-119.444589, 37.83377, 2669.2], [-119.444587, 37.833721, 2670.9], [-119.444564, 37.833705, 2671.9], [-119.44452, 37.833713, 2672.8], [-119.444491, 37.83373, 2673.0], [-119.444464, 37.833716, 2673.7], [-119.444459, 37.833694, 2680.8], [-119.444382, 37.833651, 2685.5], [-119.444361, 37.833626, 2687.1], [-119.444329, 37.833624, 2684.2], [-119.444275, 37.833647, 2686.7], [-119.444246, 37.833643, 2690.7], [-119.444191, 37.833666, 2696.8], [-119.444151, 37.833651, 2700.1], [-119.444158, 37.833601, 2705.6], [-119.444136, 37.833556, 2705.5], [-119.444091, 37.833526, 2705.8], [-119.444052, 37.833532, 2708.1], [-119.444045, 37.833537, 2708.4], [-119.444014, 37.833525, 2710.9], [-119.443991, 37.833536, 2713.2], [-119.443975, 37.833468, 2714.7], [-119.44395, 37.833458, 2716.2], [-119.443944, 37.833419, 2713.3], [-119.443888, 37.833385, 2713.4], [-119.4438, 37.833395, 2718.3], [-119.44375, 37.833376, 2719.0], [-119.443754, 37.833404, 2723.3], [-119.443724, 37.833469, 2726.8], [-119.443662, 37.833532, 2732.8], [-119.443581, 37.833571, 2741.0], [-119.443556, 37.833561, 2738.1], [-119.443522, 37.833565, 2742.8], [-119.443481, 37.833607, 2744.7], [-119.443442, 37.833618, 2745.4], [-119.443417, 37.833605, 2746.4], [-119.443419, 37.83351, 2747.6], [-119.443405, 37.833469, 2746.4], [-119.443417, 37.833419, 2753.8], [-119.443407, 37.833394, 2754.1], [-119.443393, 37.833373, 2752.4], [-119.443362, 37.833366, 2752.1], [-119.443341, 37.833347, 2753.0], [-119.443336, 37.833317, 2753.7], [-119.443321, 37.833317, 2754.6], [-119.44331, 37.833269, 2757.1], [-119.44329, 37.833248, 2766.4], [-119.443276, 37.833198, 2764.1], [-119.443219, 37.833164, 2772.3], [-119.443202, 37.833137, 2776.1], [-119.443205, 37.83311, 2779.1], [-119.443192, 37.833087, 2781.4], [-119.443201, 37.833062, 2783.8], [-119.44316, 37.832983, 2784.6], [-119.443136, 37.832948, 2784.6], [-119.44311, 37.832931, 2787.6], [-119.443086, 37.832885, 2787.8], [-119.443071, 37.832837, 2790.2], [-119.443073, 37.832808, 2790.6], [-119.443026, 37.832768, 2791.0], [-119.443023, 37.832742, 2794.5], [-119.443003, 37.83272, 2790.6], [-119.44303, 37.832674, 2800.9], [-119.443011, 37.832646, 2801.0], [-119.443003, 37.832613, 2803.0], [-119.443048, 37.832708, 2804.0], [-119.443025, 37.832755, 2799.6], [-119.443003, 37.832779, 2800.4], [-119.442989, 37.832827, 2801.2], [-119.44296, 37.832839, 2800.5], [-119.442931, 37.832885, 2801.9], [-119.442899, 37.832895, 2808.3], [-119.442859, 37.832862, 2808.1], [-119.442832, 37.83287, 2808.6], [-119.442775, 37.832853, 2810.8], [-119.442748, 37.832864, 2814.5], [-119.442716, 37.832847, 2813.8], [-119.442654, 37.832837, 2820.1], [-119.442608, 37.832807, 2823.6], [-119.442589, 37.832828, 2824.9], [-119.442561, 37.832817, 2828.4], [-119.442568, 37.832784, 2831.8], [-119.442587, 37.832747, 2833.3], [-119.442572, 37.832724, 2837.5], [-119.442508, 37.832737, 2843.3], [-119.442476, 37.832731, 2843.6], [-119.442449, 37.832721, 2844.5], [-119.442434, 37.832694, 2847.2], [-119.442425, 37.832696, 2847.9], [-119.442423, 37.832676, 2847.3], [-119.442405, 37.832654, 2851.4], [-119.44239, 37.83258, 2850.4], [-119.442346, 37.832538, 2856.8], [-119.442297, 37.832519, 2855.1], [-119.442269, 37.832533, 2856.8], [-119.442278, 37.83251, 2859.5], [-119.442244, 37.832509, 2860.7], [-119.442221, 37.832491, 2860.9], [-119.442219, 37.832468, 2860.7], [-119.442201, 37.832441, 2866.2], [-119.442196, 37.832402, 2865.9], [-119.442215, 37.832383, 2865.8], [-119.442125, 37.832272, 2869.3], [-119.4421, 37.832231, 2868.5], [-119.442091, 37.832183, 2867.7], [-119.442114, 37.832128, 2867.6], [-119.442147, 37.832101, 2871.5], [-119.442148, 37.832072, 2874.6], [-119.442131, 37.832049, 2875.0], [-119.442135, 37.83198, 2878.8], [-119.442089, 37.831945, 2880.7], [-119.442085, 37.83191, 2879.3], [-119.442155, 37.831831, 2875.4], [-119.442212, 37.831796, 2876.5], [-119.442221, 37.831788, 2876.9], [-119.442241, 37.831667, 2881.8], [-119.442287, 37.831625, 2877.7], [-119.442295, 37.831615, 2877.5], [-119.442328, 37.831597, 2876.4], [-119.442343, 37.83155, 2877.6], [-119.442363, 37.83153, 2880.9], [-119.442413, 37.831516, 2877.3], [-119.442433, 37.831484, 2877.4], [-119.442435, 37.831474, 2877.8], [-119.442484, 37.831417, 2877.8], [-119.442558, 37.831374, 2876.3], [-119.442578, 37.831352, 2878.0], [-119.442687, 37.831258, 2878.5], [-119.44271, 37.831208, 2879.7], [-119.442774, 37.831123, 2881.5], [-119.442802, 37.831112, 2882.7], [-119.442813, 37.83109, 2881.9], [-119.442853, 37.831073, 2884.2], [-119.442872, 37.831022, 2886.0], [-119.442919, 37.83099, 2886.7], [-119.442973, 37.830973, 2892.4], [-119.443019, 37.830987, 2897.1], [-119.443023, 37.830994, 2896.4], [-119.443041, 37.830975, 2895.4], [-119.443078, 37.83092, 2893.2], [-119.443049, 37.830908, 2890.7], [-119.443101, 37.830869, 2889.3], [-119.443126, 37.830833, 2889.4], [-119.443148, 37.830828, 2891.6], [-119.443238, 37.830847, 2895.5], [-119.44325, 37.830868, 2901.3], [-119.443218, 37.830881, 2900.1], [-119.443225, 37.830866, 2898.2], [-119.443256, 37.830859, 2897.0], [-119.443265, 37.830839, 2895.0], [-119.443247, 37.830819, 2894.5], [-119.44319, 37.830791, 2895.2], [-119.443221, 37.830777, 2884.8], [-119.443195, 37.830726, 2886.6], [-119.44322, 37.830744, 2899.5], [-119.443215, 37.83072, 2899.0], [-119.443182, 37.830721, 2906.7], [-119.443162, 37.830706, 2910.0], [-119.443173, 37.830675, 2917.8], [-119.443122, 37.830646, 2920.1], [-119.443154, 37.830667, 2920.2], [-119.443178, 37.830666, 2920.5], [-119.443216, 37.830709, 2923.4], [-119.44322, 37.830636, 2918.0], [-119.443161, 37.830611, 2930.9], [-119.443194, 37.830621, 2932.9], [-119.443212, 37.830604, 2925.7], [-119.443201, 37.83053, 2926.9], [-119.443106, 37.830415, 2935.0], [-119.443068, 37.830385, 2934.1], [-119.443095, 37.830453, 2925.9], [-119.443122, 37.830482, 2920.9], [-119.443151, 37.830489, 2921.8], [-119.443173, 37.830478, 2922.3], [-119.443215, 37.830475, 2923.5], [-119.443228, 37.83043, 2933.3], [-119.443246, 37.830408, 2932.0], [-119.443219, 37.830406, 2938.5], [-119.443214, 37.830379, 2939.4], [-119.443184, 37.830368, 2946.9], [-119.443164, 37.83034, 2949.1], [-119.443168, 37.830337, 2949.0], [-119.4432, 37.830348, 2954.6], [-119.443179, 37.830321, 2956.3], [-119.443201, 37.830306, 2948.0], [-119.443208, 37.830255, 2955.7], [-119.443174, 37.830207, 2959.4], [-119.443167, 37.830202, 2959.9], [-119.443103, 37.830202, 2963.3], [-119.443127, 37.830189, 2961.7], [-119.443186, 37.830193, 2958.6], [-119.44316, 37.830179, 2967.4], [-119.443154, 37.830149, 2971.6], [-119.443095, 37.830103, 2982.9], [-119.443067, 37.830103, 2983.6], [-119.443096, 37.830116, 2979.4], [-119.443115, 37.830097, 2980.3], [-119.443081, 37.830096, 2982.0], [-119.443052, 37.830027, 2983.6], [-119.443027, 37.83001, 2989.7], [-119.443052, 37.829992, 2987.3], [-119.443028, 37.829942, 2992.4], [-119.442996, 37.82991, 2997.4], [-119.443009, 37.829868, 2999.8], [-119.443008, 37.829825, 2997.6], [-119.442978, 37.829816, 3000.2], [-119.442967, 37.829791, 3001.3], [-119.442894, 37.829742, 3007.1], [-119.442911, 37.829723, 3008.5], [-119.442881, 37.829716, 3010.7], [-119.442848, 37.829722, 3013.4], [-119.442871, 37.829735, 3019.6], [-119.442871, 37.829751, 3019.8], [-119.442844, 37.829743, 3018.9], [-119.442835, 37.829719, 3017.6], [-119.442858, 37.829701, 3016.9], [-119.442796, 37.829696, 3023.9], [-119.442786, 37.829663, 3022.6], [-119.442818, 37.829619, 3020.3], [-119.442822, 37.8296, 3021.5], [-119.442846, 37.829589, 3028.5], [-119.442836, 37.829616, 3030.7], [-119.442844, 37.829637, 3034.1], [-119.4428, 37.8296, 3036.8], [-119.442797, 37.829573, 3032.7], [-119.442825, 37.829583, 3033.4], [-119.442802, 37.829561, 3031.2], [-119.442762, 37.829554, 3040.3], [-119.442746, 37.829506, 3041.0], [-119.442728, 37.829483, 3044.7], [-119.442741, 37.829464, 3047.0], [-119.442713, 37.829455, 3050.2], [-119.442695, 37.82943, 3055.8], [-119.442691, 37.829404, 3058.8], [-119.442668, 37.829385, 3058.5], [-119.442697, 37.829372, 3056.0], [-119.442696, 37.829396, 3058.5], [-119.442689, 37.82937, 3060.6], [-119.442665, 37.829351, 3061.1], [-119.442699, 37.82936, 3064.8], [-119.442704, 37.829384, 3067.3], [-119.44273, 37.829368, 3062.0], [-119.442705, 37.829324, 3067.0], [-119.442689, 37.829346, 3071.4], [-119.442673, 37.829323, 3074.1], [-119.442639, 37.829306, 3072.2], [-119.442666, 37.829307, 3073.3], [-119.442667, 37.829324, 3077.0], [-119.442654, 37.829346, 3077.9], [-119.442669, 37.829298, 3077.4], [-119.442655, 37.829274, 3081.8], [-119.442669, 37.829243, 3081.2], [-119.442714, 37.829204, 3078.7], [-119.442737, 37.829138, 3082.9], [-119.442762, 37.829147, 3090.2], [-119.442753, 37.829185, 3089.5], [-119.442763, 37.829174, 3089.3], [-119.442747, 37.829151, 3089.9], [-119.44275, 37.829168, 3091.2], [-119.442754, 37.829144, 3096.1], [-119.442773, 37.829122, 3091.6], [-119.442748, 37.829106, 3092.3], [-119.442754, 37.829091, 3096.5], [-119.442728, 37.829106, 3100.7], [-119.442715, 37.829086, 3099.2], [-119.442708, 37.829088, 3097.6], [-119.442716, 37.829067, 3101.0], [-119.442801, 37.829036, 3101.5], [-119.442809, 37.829035, 3102.1], [-119.442846, 37.82905, 3104.1], [-119.442897, 37.829024, 3104.9], [-119.442956, 37.829022, 3103.8], [-119.442988, 37.828983, 3105.8], [-119.443009, 37.828936, 3106.5], [-119.442994, 37.82891, 3106.8], [-119.443013, 37.828897, 3107.7], [-119.443069, 37.828895, 3107.6], [-119.443093, 37.828866, 3108.7], [-119.443151, 37.828841, 3109.2], [-119.443245, 37.828856, 3113.3], [-119.443284, 37.82882, 3113.2], [-119.443283, 37.828811, 3113.8], [-119.443314, 37.828818, 3116.8], [-119.443346, 37.828813, 3119.8], [-119.443364, 37.82879, 3119.4], [-119.443336, 37.828835, 3118.5], [-119.44334, 37.828859, 3119.4], [-119.443346, 37.828838, 3115.0], [-119.443369, 37.828832, 3114.8], [-119.443412, 37.828751, 3115.4], [-119.443434, 37.828735, 3117.2], [-119.443462, 37.828744, 3122.3], [-119.443469, 37.828737, 3121.3], [-119.443433, 37.828725, 3118.8], [-119.443398, 37.828732, 3117.4], [-119.443378, 37.828754, 3117.4], [-119.443385, 37.828728, 3118.0], [-119.443355, 37.828715, 3118.6], [-119.443328, 37.828724, 3118.6], [-119.443307, 37.828742, 3119.7], [-119.4433, 37.828791, 3120.9], [-119.44329, 37.82882, 3119.7], [-119.44326, 37.828851, 3114.3], [-119.443165, 37.82891, 3112.7], [-119.443066, 37.828919, 3113.0], [-119.443054, 37.828941, 3112.2], [-119.443023, 37.828951, 3110.9], [-119.442992, 37.828947, 3110.2], [-119.442963, 37.828964, 3109.2], [-119.442943, 37.828988, 3110.5], [-119.44288, 37.82899, 3108.2], [-119.442851, 37.829001, 3108.0], [-119.442819, 37.829033, 3106.6], [-119.442751, 37.829041, 3104.8], [-119.442731, 37.829053, 3104.2], [-119.442751, 37.829088, 3100.6], [-119.442726, 37.829069, 3101.7], [-119.442669, 37.829091, 3103.7], [-119.442657, 37.829088, 3103.0], [-119.442576, 37.82904, 3099.2], [-119.44254, 37.828971, 3096.5], [-119.442477, 37.828956, 3094.2], [-119.44241, 37.828916, 3096.1], [-119.442398, 37.828905, 3095.6], [-119.442414, 37.828873, 3094.0], [-119.442428, 37.828861, 3092.3], [-119.442406, 37.828847, 3089.3], [-119.442396, 37.828823, 3088.9], [-119.442401, 37.828781, 3087.6], [-119.442323, 37.828744, 3085.8], [-119.442286, 37.828694, 3084.8], [-119.442155, 37.82865, 3081.6], [-119.44209, 37.828608, 3076.2], [-119.44203, 37.828623, 3076.5], [-119.441964, 37.828606, 3075.7], [-119.441932, 37.828573, 3072.5], [-119.441831, 37.828546, 3071.3], [-119.441814, 37.828551, 3071.1], [-119.441778, 37.82859, 3071.8], [-119.441766, 37.828596, 3070.7], [-119.441654, 37.828638, 3070.7], [-119.441603, 37.828639, 3069.7], [-119.441586, 37.828636, 3070.6], [-119.441492, 37.828645, 3069.5], [-119.441463, 37.828622, 3068.9], [-119.441457, 37.828566, 3065.1], [-119.441443, 37.828542, 3061.7], [-119.44137, 37.828501, 3061.7], [-119.441322, 37.828448, 3060.9], [-119.441211, 37.828443, 3063.7], [-119.441156, 37.828414, 3064.8], [-119.440939, 37.828366, 3066.8], [-119.440748, 37.828308, 3062.5], [-119.440736, 37.828305, 3063.2], [-119.440559, 37.828286, 3064.8], [-119.440429, 37.828234, 3063.5], [-119.440375, 37.828223, 3062.7], [-119.44033, 37.828229, 3061.1], [-119.440242, 37.828245, 3062.6], [-119.4401, 37.828226, 3063.4], [-119.439966, 37.828193, 3060.3], [-119.439908, 37.828197, 3061.5], [-119.439867, 37.82817, 3059.0], [-119.439798, 37.828157, 3058.9], [-119.439643, 37.828163, 3061.6], [-119.439589, 37.828151, 3059.7], [-119.43945, 37.828178, 3063.5], [-119.439404, 37.828177, 3063.7], [-119.439256, 37.828153, 3063.7], [-119.439199, 37.828129, 3060.6], [-119.439112, 37.828112, 3057.3], [-119.439019, 37.828052, 3058.1], [-119.438986, 37.828025, 3056.8], [-119.438938, 37.828013, 3055.3], [-119.438821, 37.827961, 3056.2], [-119.438727, 37.827899, 3055.6], [-119.438673, 37.827887, 3053.3], [-119.438625, 37.827859, 3050.1], [-119.438619, 37.827859, 3049.5], [-119.438483, 37.827885, 3051.5], [-119.438466, 37.82787, 3049.2], [-119.438433, 37.82786, 3048.3], [-119.438416, 37.827861, 3048.3], [-119.43832, 37.827857, 3046.3], [-119.438227, 37.827894, 3048.2], [-119.438158, 37.827919, 3050.8], [-119.438112, 37.827951, 3050.1], [-119.438035, 37.827975, 3049.0], [-119.438029, 37.827985, 3049.5], [-119.437878, 37.828112, 3050.0], [-119.437844, 37.82813, 3050.1], [-119.437796, 37.828122, 3048.0], [-119.437721, 37.828051, 3048.1], [-119.43771, 37.828044, 3048.4], [-119.437674, 37.828043, 3048.9], [-119.43758, 37.828088, 3047.4], [-119.43749, 37.828095, 3048.2], [-119.437458, 37.828105, 3048.5], [-119.437419, 37.82814, 3048.3], [-119.437391, 37.828145, 3048.0], [-119.437327, 37.828138, 3050.2], [-119.437302, 37.828115, 3049.6], [-119.43729, 37.82811, 3050.0], [-119.437214, 37.828107, 3050.9], [-119.437165, 37.82813, 3053.4], [-119.437141, 37.828163, 3053.5], [-119.437133, 37.828195, 3054.2], [-119.437128, 37.828269, 3051.4], [-119.4371, 37.828309, 3050.1], [-119.437053, 37.828283, 3048.8], [-119.437015, 37.828279, 3047.8], [-119.436942, 37.828306, 3048.1], [-119.436913, 37.828348, 3048.9], [-119.436856, 37.828321, 3051.1], [-119.436822, 37.828317, 3052.6], [-119.436785, 37.828332, 3053.4], [-119.436683, 37.828359, 3053.5], [-119.436621, 37.828393, 3050.1], [-119.436561, 37.828396, 3048.8], [-119.436522, 37.828413, 3047.9], [-119.436406, 37.828417, 3049.0], [-119.436347, 37.828429, 3048.4], [-119.43631, 37.828464, 3050.0], [-119.436214, 37.828514, 3047.3], [-119.43617, 37.828529, 3047.4], [-119.436119, 37.828562, 3047.7], [-119.436073, 37.828546, 3046.4], [-119.436046, 37.828556, 3046.2], [-119.436022, 37.828589, 3045.6], [-119.435986, 37.828597, 3045.0], [-119.435967, 37.828589, 3044.3], [-119.435937, 37.828542, 3044.1], [-119.435852, 37.82857, 3045.9], [-119.435834, 37.828573, 3045.4], [-119.435645, 37.828536, 3043.7], [-119.435629, 37.828535, 3043.3], [-119.435497, 37.828507, 3043.0], [-119.435472, 37.828463, 3040.0], [-119.435433, 37.828441, 3038.5], [-119.435392, 37.82841, 3035.5], [-119.435331, 37.828397, 3034.5], [-119.435337, 37.828354, 3031.2], [-119.43529, 37.828324, 3029.4], [-119.435276, 37.82832, 3028.6], [-119.43522, 37.828331, 3028.4], [-119.435182, 37.828307, 3030.7], [-119.435127, 37.828252, 3030.7], [-119.435114, 37.828246, 3029.5], [-119.434991, 37.828233, 3029.6], [-119.434934, 37.82825, 3031.1], [-119.434914, 37.82824, 3032.2], [-119.434902, 37.828227, 3031.9], [-119.43485, 37.828198, 3029.2], [-119.434794, 37.828185, 3028.7], [-119.434693, 37.828195, 3028.7], [-119.434679, 37.828191, 3028.0], [-119.434632, 37.828187, 3027.2], [-119.434581, 37.828169, 3025.9], [-119.43454, 37.828145, 3025.8], [-119.434523, 37.828103, 3026.0], [-119.434494, 37.82809, 3024.5], [-119.43441, 37.828083, 3022.7], [-119.434365, 37.828108, 3021.5], [-119.434263, 37.828117, 3020.0], [-119.434198, 37.828087, 3019.2], [-119.434141, 37.828109, 3017.8], [-119.434084, 37.828104, 3017.4], [-119.434073, 37.8281, 3015.6], [-119.434005, 37.828098, 3014.0], [-119.433928, 37.828076, 3014.4], [-119.433847, 37.828088, 3014.9], [-119.433729, 37.828095, 3015.2], [-119.433664, 37.828136, 3015.2], [-119.43365, 37.828141, 3016.1], [-119.433591, 37.828176, 3011.5], [-119.433519, 37.828293, 3013.4], [-119.433494, 37.82836, 3012.5], [-119.433407, 37.828449, 3014.8], [-119.433406, 37.828455, 3014.3], [-119.433416, 37.828534, 3011.5], [-119.43341, 37.828553, 3009.5], [-119.43339, 37.828574, 3009.4], [-119.433338, 37.828583, 3010.5], [-119.433247, 37.828588, 3006.1], [-119.433201, 37.828561, 3002.3], [-119.433171, 37.828557, 3002.4], [-119.433133, 37.828571, 3003.1], [-119.433112, 37.828573, 3002.5], [-119.433023, 37.828575, 3006.1], [-119.432897, 37.828598, 3004.6], [-119.432883, 37.828608, 3005.4], [-119.432794, 37.828658, 3008.3], [-119.432732, 37.828712, 3007.2], [-119.432729, 37.82872, 3007.3], [-119.432686, 37.828756, 3006.1], [-119.432654, 37.828756, 3005.1], [-119.4326, 37.828749, 3004.5], [-119.432533, 37.82872, 3003.1], [-119.432468, 37.828712, 3001.4], [-119.43245, 37.828691, 2998.9], [-119.432392, 37.828687, 3005.6], [-119.432302, 37.828639, 3001.9], [-119.432236, 37.828614, 3000.0], [-119.432188, 37.828646, 3003.8], [-119.432167, 37.828649, 3004.2], [-119.432138, 37.828643, 3003.0], [-119.432079, 37.828565, 2999.0], [-119.432056, 37.828558, 2999.6], [-119.431957, 37.828567, 3000.9], [-119.431937, 37.828557, 3003.0], [-119.431816, 37.828514, 3006.3], [-119.431747, 37.828461, 3007.7], [-119.431732, 37.828459, 3007.9], [-119.431667, 37.82848, 3009.7], [-119.431614, 37.828481, 3010.0], [-119.431545, 37.828429, 3010.0], [-119.431505, 37.828364, 3006.9], [-119.431507, 37.828325, 3006.4], [-119.431489, 37.828306, 3007.4], [-119.431428, 37.828291, 3007.8], [-119.431377, 37.828302, 3009.1], [-119.431354, 37.828321, 3009.2], [-119.431276, 37.828229, 3012.0], [-119.431252, 37.828184, 3012.8], [-119.4312, 37.828172, 3015.4], [-119.431132, 37.828127, 3015.9], [-119.431093, 37.82812, 3016.0], [-119.431054, 37.828124, 3015.7], [-119.431036, 37.828087, 3013.9], [-119.430912, 37.828025, 3011.0], [-119.430791, 37.827933, 3013.1], [-119.430724, 37.827912, 3015.3], [-119.43061, 37.827901, 3018.2], [-119.430536, 37.827865, 3021.3], [-119.430521, 37.827861, 3019.2], [-119.430451, 37.8278, 3015.7], [-119.430341, 37.827774, 3016.2], [-119.4303, 37.827777, 3017.0], [-119.430154, 37.827706, 3016.7], [-119.430056, 37.827621, 3018.8], [-119.42996, 37.827623, 3019.4], [-119.429798, 37.827591, 3024.4], [-119.429731, 37.827594, 3025.3], [-119.42969, 37.827608, 3026.8], [-119.429558, 37.82759, 3028.8], [-119.429506, 37.827597, 3031.2], [-119.429324, 37.827587, 3034.5], [-119.42925, 37.827607, 3034.5], [-119.429163, 37.827598, 3034.3], [-119.429096, 37.827548, 3032.6], [-119.429044, 37.827512, 3033.0], [-119.42895, 37.827509, 3038.0], [-119.428897, 37.827494, 3039.6], [-119.428796, 37.827549, 3039.9], [-119.428765, 37.82755, 3041.0], [-119.428733, 37.827507, 3039.9], [-119.428625, 37.827451, 3041.7], [-119.428557, 37.82743, 3041.7], [-119.428521, 37.827424, 3041.1], [-119.428406, 37.827338, 3040.9], [-119.428345, 37.827285, 3041.2], [-119.428326, 37.827249, 3040.4], [-119.4283, 37.827233, 3039.9], [-119.428262, 37.827233, 3040.6], [-119.428205, 37.827212, 3039.9], [-119.428028, 37.827196, 3049.2], [-119.428018, 37.827197, 3049.6], [-119.427916, 37.827171, 3048.9], [-119.427812, 37.827182, 3050.9], [-119.427799, 37.827178, 3051.1], [-119.427596, 37.827132, 3052.4], [-119.427496, 37.827145, 3054.0], [-119.427468, 37.827111, 3053.4], [-119.427433, 37.827091, 3053.8], [-119.427419, 37.827091, 3053.4], [-119.427289, 37.827051, 3054.9], [-119.427215, 37.827057, 3054.4], [-119.427125, 37.82703, 3054.5], [-119.427022, 37.826962, 3052.2], [-119.426953, 37.826946, 3052.6], [-119.426902, 37.826956, 3053.4], [-119.426801, 37.826951, 3053.4], [-119.426735, 37.826951, 3054.3], [-119.426649, 37.826911, 3054.5], [-119.426611, 37.826909, 3055.1], [-119.426594, 37.826912, 3055.1], [-119.426454, 37.826925, 3056.6], [-119.426345, 37.826885, 3055.0], [-119.426275, 37.826837, 3055.3], [-119.426179, 37.826789, 3055.4], [-119.426172, 37.826783, 3056.1], [-119.426113, 37.826753, 3056.7], [-119.42598, 37.826733, 3056.7], [-119.425965, 37.826732, 3057.2], [-119.425842, 37.826742, 3060.3], [-119.425749, 37.82672, 3060.1], [-119.425739, 37.826716, 3060.0], [-119.425656, 37.826698, 3060.7], [-119.425533, 37.826714, 3060.4], [-119.42552, 37.826714, 3060.3], [-119.425415, 37.826667, 3061.3], [-119.425339, 37.826615, 3061.7], [-119.425328, 37.826613, 3061.9], [-119.425259, 37.826558, 3059.6], [-119.42514, 37.826527, 3060.6], [-119.42509, 37.826506, 3061.0], [-119.425058, 37.826513, 3061.0], [-119.425013, 37.826542, 3061.7], [-119.42492, 37.826522, 3062.7], [-119.424909, 37.826518, 3062.9], [-119.424781, 37.826384, 3065.8], [-119.424775, 37.826376, 3065.5], [-119.424666, 37.8263, 3064.2], [-119.424627, 37.826232, 3065.7], [-119.424544, 37.826196, 3066.4], [-119.424466, 37.826117, 3070.6], [-119.424458, 37.826111, 3070.5], [-119.42427, 37.826082, 3075.3], [-119.424257, 37.826086, 3075.7], [-119.42416, 37.826088, 3077.0], [-119.424129, 37.826078, 3078.8], [-119.424118, 37.826058, 3079.0], [-119.424091, 37.826048, 3080.2], [-119.424048, 37.826055, 3081.6], [-119.423952, 37.826041, 3083.6], [-119.423823, 37.826042, 3085.0], [-119.423776, 37.826033, 3084.2], [-119.423699, 37.826047, 3085.5], [-119.423584, 37.826048, 3089.5], [-119.42346, 37.826027, 3090.5], [-119.423422, 37.826037, 3092.1], [-119.423392, 37.826059, 3092.7], [-119.423381, 37.826058, 3092.2], [-119.423192, 37.825971, 3093.0], [-119.423181, 37.825965, 3093.0], [-119.423096, 37.825891, 3092.9], [-119.423015, 37.825898, 3093.0], [-119.422999, 37.825902, 3093.4], [-119.422878, 37.825911, 3095.6], [-119.422782, 37.825884, 3096.8], [-119.422533, 37.825855, 3098.8], [-119.422522, 37.825852, 3098.4], [-119.422449, 37.825852, 3099.7], [-119.422307, 37.82582, 3099.5], [-119.42228, 37.825819, 3100.3], [-119.422159, 37.825801, 3098.4], [-119.42206, 37.825818, 3101.8], [-119.421947, 37.825811, 3101.4], [-119.421924, 37.825794, 3098.9], [-119.421893, 37.825727, 3098.1], [-119.421892, 37.825712, 3097.3], [-119.421812, 37.825574, 3093.4], [-119.421801, 37.825566, 3093.6], [-119.421763, 37.825563, 3092.7], [-119.421724, 37.825598, 3094.7], [-119.42169, 37.8256, 3093.7], [-119.421707, 37.825617, 3093.2], [-119.421683, 37.825669, 3094.5], [-119.421673, 37.825684, 3094.8], [-119.42158, 37.825763, 3095.6], [-119.421523, 37.825789, 3095.0], [-119.42148, 37.825819, 3093.9], [-119.421388, 37.825941, 3094.2], [-119.421356, 37.825954, 3093.9], [-119.421249, 37.825965, 3092.8], [-119.421142, 37.826024, 3089.6], [-119.421113, 37.82606, 3090.1], [-119.421027, 37.826124, 3089.4], [-119.421016, 37.826138, 3089.8], [-119.420996, 37.826198, 3090.1], [-119.420957, 37.82626, 3086.1], [-119.42091, 37.826288, 3081.6], [-119.42089, 37.826337, 3080.8], [-119.420836, 37.826353, 3080.6], [-119.420809, 37.82637, 3081.3], [-119.420796, 37.826429, 3078.4], [-119.420782, 37.826477, 3077.3], [-119.420742, 37.826515, 3076.5], [-119.420704, 37.826591, 3076.0], [-119.42069, 37.826645, 3075.7], [-119.42064, 37.826739, 3076.1], [-119.420606, 37.826766, 3075.2], [-119.420567, 37.826864, 3071.2], [-119.420428, 37.827007, 3066.0], [-119.420418, 37.827008, 3065.6], [-119.420352, 37.826961, 3064.3], [-119.420325, 37.826968, 3063.6], [-119.420275, 37.826999, 3062.0], [-119.420254, 37.827033, 3059.0], [-119.420222, 37.827028, 3058.7], [-119.420207, 37.827009, 3058.3], [-119.420177, 37.826998, 3058.9], [-119.420141, 37.827036, 3058.3], [-119.420135, 37.827084, 3055.9], [-119.42013, 37.827092, 3055.5], [-119.420025, 37.827184, 3050.7], [-119.420019, 37.827226, 3048.2], [-119.420021, 37.827243, 3048.2], [-119.419994, 37.827251, 3049.2], [-119.419975, 37.82727, 3045.1], [-119.41992, 37.827387, 3043.3], [-119.419876, 37.827435, 3042.7], [-119.419832, 37.827438, 3042.6], [-119.419801, 37.827454, 3042.7], [-119.419782, 37.827513, 3042.8], [-119.419762, 37.827549, 3042.1], [-119.419707, 37.827594, 3044.8], [-119.419681, 37.827641, 3043.8], [-119.419638, 37.827668, 3042.7], [-119.419618, 37.827705, 3042.8], [-119.419616, 37.827718, 3041.8], [-119.419591, 37.827758, 3041.5], [-119.41956, 37.827762, 3040.3], [-119.419508, 37.827752, 3040.8], [-119.41949, 37.82776, 3039.8], [-119.419414, 37.827851, 3038.1], [-119.419405, 37.827912, 3037.7], [-119.419388, 37.827941, 3036.2], [-119.419345, 37.827964, 3030.9], [-119.419358, 37.827983, 3031.5], [-119.419356, 37.828056, 3030.2], [-119.419313, 37.828099, 3027.5], [-119.419305, 37.828176, 3027.3], [-119.419293, 37.828198, 3027.8], [-119.419258, 37.828202, 3026.3], [-119.419182, 37.828174, 3023.1], [-119.419146, 37.828261, 3020.0], [-119.419126, 37.828286, 3019.5], [-119.419106, 37.828361, 3019.3], [-119.419055, 37.828463, 3018.5], [-119.419045, 37.828521, 3021.3], [-119.419015, 37.828575, 3021.7], [-119.419006, 37.828627, 3019.8], [-119.418998, 37.828633, 3018.8], [-119.418966, 37.828684, 3017.3], [-119.418917, 37.828704, 3014.7], [-119.418904, 37.828777, 3014.3], [-119.418899, 37.828785, 3013.1], [-119.41889, 37.828834, 3013.0], [-119.418827, 37.828935, 3010.5], [-119.418822, 37.828945, 3010.1], [-119.418836, 37.828998, 3009.0], [-119.418753, 37.828969, 3004.9], [-119.418694, 37.829011, 3000.9], [-119.418643, 37.829044, 2998.3], [-119.41856, 37.829048, 2998.6], [-119.418513, 37.829087, 2996.8], [-119.418462, 37.82919, 2994.3], [-119.418399, 37.829203, 2990.7], [-119.418373, 37.829222, 2990.4], [-119.41835, 37.829271, 2989.3], [-119.418219, 37.829337, 2985.7], [-119.418212, 37.829346, 2984.8], [-119.418167, 37.829379, 2982.1], [-119.41814, 37.829444, 2977.7], [-119.418164, 37.829462, 2976.4], [-119.418152, 37.829503, 2975.7], [-119.418137, 37.829529, 2973.9], [-119.418069, 37.829547, 2973.2], [-119.418063, 37.829583, 2973.0], [-119.418075, 37.829619, 2974.0], [-119.418071, 37.829644, 2973.4], [-119.418018, 37.829683, 2971.8], [-119.417918, 37.82973, 2968.2], [-119.417918, 37.829734, 2967.7], [-119.41778, 37.829756, 2965.8], [-119.41775, 37.829796, 2963.4], [-119.417695, 37.829804, 2962.0], [-119.417673, 37.829841, 2963.2], [-119.417635, 37.829864, 2960.0], [-119.417624, 37.82991, 2960.2], [-119.417617, 37.829959, 2961.7], [-119.4176, 37.829979, 2959.8], [-119.41752, 37.829977, 2959.0], [-119.417467, 37.830013, 2957.0], [-119.417395, 37.830041, 2954.7], [-119.41734, 37.830033, 2948.6], [-119.417314, 37.830019, 2948.1], [-119.417289, 37.830033, 2947.3], [-119.417288, 37.83007, 2946.9], [-119.417291, 37.830162, 2951.3], [-119.417328, 37.830238, 2951.2], [-119.41733, 37.830253, 2950.0], [-119.417305, 37.830273, 2950.7], [-119.417245, 37.830284, 2947.9], [-119.417209, 37.830311, 2946.7], [-119.417215, 37.830328, 2944.2], [-119.417201, 37.830366, 2943.3], [-119.417194, 37.830434, 2944.1], [-119.417189, 37.830447, 2943.0], [-119.41716, 37.830563, 2941.6], [-119.41716, 37.830623, 2942.5], [-119.417075, 37.830696, 2946.1], [-119.417036, 37.830768, 2945.0], [-119.417006, 37.830813, 2945.4], [-119.416946, 37.830851, 2944.5], [-119.416913, 37.830918, 2943.5], [-119.416899, 37.830975, 2941.9], [-119.416915, 37.831056, 2940.5], [-119.416913, 37.831068, 2939.4], [-119.416936, 37.831135, 2939.1], [-119.416916, 37.831216, 2937.5], [-119.416893, 37.831239, 2937.2], [-119.416817, 37.831268, 2936.5], [-119.416808, 37.831281, 2936.0], [-119.416807, 37.831371, 2936.1], [-119.416804, 37.831387, 2936.3], [-119.416779, 37.831473, 2934.7], [-119.416774, 37.831555, 2935.3], [-119.416764, 37.831574, 2935.1], [-119.416702, 37.831754, 2933.5], [-119.416646, 37.831879, 2932.0], [-119.416615, 37.831921, 2932.8], [-119.416607, 37.831938, 2932.8], [-119.41655, 37.832078, 2935.3], [-119.416547, 37.832121, 2934.3], [-119.416401, 37.832419, 2933.5], [-119.416352, 37.83259, 2935.0], [-119.41632, 37.832747, 2934.9], [-119.416286, 37.832773, 2934.8], [-119.416249, 37.83285, 2934.7], [-119.416214, 37.832892, 2935.8], [-119.416203, 37.83293, 2935.5], [-119.416229, 37.833032, 2933.0], [-119.416229, 37.833038, 2933.5], [-119.416201, 37.833103, 2932.9], [-119.41615, 37.83318, 2932.8], [-119.416127, 37.833252, 2934.3], [-119.416064, 37.83333, 2934.1], [-119.416033, 37.833363, 2933.4], [-119.416018, 37.833419, 2934.1], [-119.415973, 37.833492, 2932.7], [-119.41595, 37.833561, 2934.5], [-119.415911, 37.833635, 2934.7], [-119.415851, 37.833688, 2933.6], [-119.415816, 37.833781, 2933.8], [-119.415809, 37.833794, 2933.2], [-119.415761, 37.833956, 2931.5], [-119.415758, 37.833972, 2931.9], [-119.415705, 37.834097, 2931.1], [-119.415703, 37.834116, 2931.8], [-119.415674, 37.834276, 2934.2], [-119.415631, 37.834453, 2931.7], [-119.415626, 37.834463, 2931.6], [-119.415566, 37.834527, 2932.0], [-119.41552, 37.834616, 2932.7], [-119.415459, 37.83472, 2933.1], [-119.415413, 37.834759, 2933.2], [-119.4154, 37.834776, 2934.4], [-119.415313, 37.834925, 2934.4], [-119.415265, 37.834987, 2934.8], [-119.415237, 37.83508, 2936.0], [-119.415233, 37.835098, 2936.0], [-119.415211, 37.835157, 2935.6], [-119.415146, 37.835208, 2933.9], [-119.415108, 37.835222, 2932.8], [-119.415101, 37.835246, 2932.4], [-119.415015, 37.835394, 2933.2], [-119.415006, 37.835408, 2933.2], [-119.414985, 37.835465, 2934.0], [-119.414943, 37.835507, 2933.9], [-119.414912, 37.83556, 2933.8], [-119.414901, 37.835653, 2933.5], [-119.414914, 37.835712, 2932.7], [-119.41491, 37.835748, 2932.8], [-119.414898, 37.835761, 2932.8], [-119.41486, 37.835783, 2933.1], [-119.414815, 37.835851, 2930.7], [-119.414764, 37.835873, 2930.1], [-119.414701, 37.835891, 2928.3], [-119.414675, 37.835912, 2928.3], [-119.414632, 37.835985, 2927.9], [-119.414623, 37.835995, 2927.7], [-119.414494, 37.836084, 2925.2], [-119.414481, 37.836091, 2925.0], [-119.414315, 37.836133, 2922.3], [-119.414261, 37.836135, 2921.7], [-119.414221, 37.836142, 2921.2], [-119.414207, 37.83616, 2920.8], [-119.414199, 37.83622, 2920.0], [-119.414171, 37.83623, 2918.6], [-119.414122, 37.836227, 2917.0], [-119.414037, 37.836241, 2914.0], [-119.413995, 37.836298, 2913.6], [-119.413967, 37.83632, 2913.9], [-119.413951, 37.836327, 2913.5], [-119.413881, 37.836347, 2913.8], [-119.413807, 37.836419, 2914.2], [-119.413793, 37.836436, 2915.0], [-119.413709, 37.836586, 2912.5], [-119.413651, 37.836727, 2913.2], [-119.413646, 37.836745, 2913.3], [-119.41363, 37.836873, 2912.1], [-119.413612, 37.836913, 2911.2], [-119.413607, 37.836932, 2911.1], [-119.413555, 37.83707, 2911.9], [-119.413547, 37.837087, 2912.4], [-119.413465, 37.837198, 2910.0], [-119.41346, 37.837239, 2910.0], [-119.413434, 37.837276, 2910.2], [-119.413396, 37.837359, 2909.9], [-119.413352, 37.837426, 2909.9], [-119.413346, 37.83744, 2910.2], [-119.413303, 37.837601, 2905.9], [-119.413296, 37.837618, 2905.9], [-119.413248, 37.837681, 2907.4], [-119.413231, 37.837728, 2908.3], [-119.4132, 37.83777, 2907.5], [-119.413108, 37.837859, 2906.7], [-119.412992, 37.837903, 2905.9], [-119.412954, 37.837919, 2904.8], [-119.412897, 37.83795, 2907.1], [-119.412882, 37.837966, 2906.8], [-119.41287, 37.838019, 2906.9], [-119.412815, 37.838072, 2907.3], [-119.412766, 37.838099, 2906.3], [-119.412691, 37.83809, 2906.5], [-119.412658, 37.838114, 2906.6], [-119.412642, 37.838121, 2904.9], [-119.412578, 37.838164, 2906.0], [-119.412509, 37.838262, 2905.0], [-119.412499, 37.838274, 2903.9], [-119.412474, 37.83833, 2905.2], [-119.412389, 37.838383, 2906.5], [-119.412354, 37.838393, 2907.2], [-119.412301, 37.838399, 2905.7], [-119.412259, 37.838438, 2906.3], [-119.412256, 37.838489, 2908.9], [-119.412231, 37.838531, 2908.4], [-119.412232, 37.838582, 2908.3], [-119.412183, 37.838657, 2908.5], [-119.412192, 37.838698, 2910.6], [-119.412193, 37.838753, 2908.8], [-119.412185, 37.83877, 2908.0], [-119.412132, 37.838823, 2907.0], [-119.412096, 37.838832, 2906.6], [-119.412053, 37.838876, 2906.1], [-119.412001, 37.838901, 2904.3], [-119.411925, 37.838956, 2903.9], [-119.411876, 37.839015, 2903.2], [-119.411862, 37.839061, 2903.7], [-119.411863, 37.839106, 2904.6], [-119.411878, 37.839133, 2905.6], [-119.411883, 37.839129, 2905.6], [-119.411898, 37.839212, 2907.2], [-119.411881, 37.839235, 2906.7], [-119.411808, 37.839269, 2905.8], [-119.411753, 37.839316, 2905.7], [-119.411655, 37.839443, 2905.0], [-119.411517, 37.839523, 2905.6], [-119.411462, 37.839549, 2904.3], [-119.41143, 37.839553, 2905.0], [-119.41142, 37.839574, 2904.8], [-119.411419, 37.839619, 2902.8], [-119.411386, 37.839663, 2903.5], [-119.411382, 37.839677, 2903.5], [-119.411374, 37.839776, 2907.4], [-119.411347, 37.839847, 2908.6], [-119.411327, 37.83989, 2909.3], [-119.411323, 37.839933, 2909.2], [-119.411336, 37.839958, 2911.4], [-119.411295, 37.840031, 2910.1], [-119.411283, 37.840069, 2910.1], [-119.41122, 37.840144, 2911.0], [-119.411194, 37.840197, 2910.2], [-119.41119, 37.840217, 2907.3], [-119.411195, 37.840257, 2906.7], [-119.411171, 37.840276, 2907.6], [-119.411114, 37.840272, 2907.9], [-119.411088, 37.840287, 2908.9], [-119.411057, 37.84028, 2910.5], [-119.411017, 37.840325, 2917.0], [-119.41101, 37.840375, 2920.0], [-119.410978, 37.840382, 2920.3], [-119.410928, 37.840418, 2922.1], [-119.410902, 37.840421, 2921.6], [-119.410867, 37.840442, 2922.2], [-119.410786, 37.840464, 2922.0], [-119.410768, 37.840484, 2924.2], [-119.410754, 37.840529, 2924.4], [-119.41076, 37.840583, 2926.2], [-119.410685, 37.840652, 2931.4], [-119.410604, 37.84067, 2933.0], [-119.410589, 37.840694, 2931.8], [-119.410562, 37.84075, 2934.1], [-119.41053, 37.840747, 2934.0], [-119.41047, 37.840798, 2936.7], [-119.410428, 37.840807, 2936.8], [-119.410287, 37.840859, 2941.8], [-119.410237, 37.840897, 2942.6], [-119.410186, 37.840883, 2940.6], [-119.410156, 37.840889, 2941.7], [-119.410091, 37.840937, 2941.2], [-119.410037, 37.840963, 2944.6], [-119.410032, 37.840969, 2946.3], [-119.409959, 37.841009, 2949.4], [-119.409931, 37.841044, 2948.8], [-119.409868, 37.841048, 2951.6], [-119.409833, 37.84107, 2953.8], [-119.409807, 37.841057, 2955.7], [-119.409781, 37.84106, 2957.6], [-119.409738, 37.841088, 2956.0], [-119.409673, 37.8411, 2958.9], [-119.409677, 37.841096, 2959.2], [-119.409692, 37.841122, 2960.6], [-119.409618, 37.841155, 2959.8], [-119.409575, 37.841192, 2961.3], [-119.409595, 37.841216, 2963.7], [-119.409569, 37.84124, 2965.9], [-119.409524, 37.841213, 2968.8], [-119.409401, 37.841218, 2971.5], [-119.40935, 37.841212, 2971.1], [-119.409273, 37.841251, 2972.5], [-119.409225, 37.841229, 2975.8], [-119.409194, 37.841243, 2976.8], [-119.40916, 37.841238, 2979.1], [-119.409162, 37.841265, 2980.5], [-119.409213, 37.841289, 2982.7], [-119.409232, 37.841308, 2983.4], [-119.409217, 37.841326, 2983.0], [-119.409218, 37.841359, 2985.0], [-119.409213, 37.841386, 2985.8], [-119.409103, 37.841396, 2985.4], [-119.409057, 37.841441, 2986.6], [-119.409043, 37.84147, 2986.7], [-119.409068, 37.841538, 2991.8], [-119.409065, 37.841563, 2991.7], [-119.409077, 37.841614, 2993.6], [-119.409098, 37.841669, 2994.8], [-119.409054, 37.841701, 2995.2], [-119.409032, 37.841747, 2996.6], [-119.409003, 37.841772, 2998.2], [-119.408969, 37.84182, 2999.2], [-119.408989, 37.841864, 3000.6], [-119.40898, 37.84189, 3000.8], [-119.408991, 37.841913, 3000.6], [-119.40899, 37.841951, 3000.6], [-119.408941, 37.841995, 3000.3], [-119.408933, 37.842016, 3000.3], [-119.40894, 37.842064, 3002.0], [-119.408922, 37.842113, 3002.6], [-119.408917, 37.842119, 3003.2], [-119.408886, 37.84224, 3006.7], [-119.408833, 37.842292, 3006.9], [-119.408788, 37.842296, 3007.2], [-119.408719, 37.842339, 3008.6], [-119.40869, 37.842386, 3010.2], [-119.408687, 37.842429, 3011.8], [-119.408628, 37.842525, 3015.5], [-119.40854, 37.84254, 3017.6], [-119.40853, 37.842544, 3017.5], [-119.408484, 37.842583, 3018.1], [-119.408458, 37.842626, 3020.4], [-119.408431, 37.842625, 3020.1], [-119.40838, 37.842646, 3020.6], [-119.408333, 37.842651, 3021.3], [-119.408309, 37.842669, 3023.0], [-119.408305, 37.842714, 3023.7], [-119.408285, 37.842747, 3023.6], [-119.408288, 37.842795, 3024.1], [-119.408257, 37.842832, 3024.3], [-119.408189, 37.842875, 3026.3], [-119.408148, 37.842922, 3026.2], [-119.408124, 37.842978, 3027.2], [-119.408077, 37.842996, 3028.2], [-119.408026, 37.843056, 3028.8], [-119.407984, 37.843079, 3029.4], [-119.407928, 37.843131, 3031.7], [-119.407932, 37.843156, 3031.6], [-119.407911, 37.843186, 3031.4], [-119.407859, 37.843241, 3033.2], [-119.407838, 37.843304, 3035.2], [-119.407819, 37.843329, 3034.3], [-119.407759, 37.843365, 3034.9], [-119.407732, 37.843404, 3036.6], [-119.407707, 37.84342, 3037.5], [-119.407638, 37.843441, 3037.1], [-119.40759, 37.843479, 3037.3], [-119.407521, 37.843598, 3041.2], [-119.407485, 37.843642, 3042.7], [-119.407458, 37.843642, 3041.4], [-119.407372, 37.843681, 3041.3], [-119.407338, 37.84371, 3042.2], [-119.407317, 37.843778, 3042.6], [-119.407272, 37.843807, 3041.6], [-119.407225, 37.843853, 3043.6], [-119.407211, 37.843896, 3044.9], [-119.407107, 37.844017, 3047.9], [-119.40704, 37.844072, 3047.5], [-119.407001, 37.84416, 3047.3], [-119.407, 37.844166, 3047.1], [-119.406924, 37.844273, 3050.2], [-119.406897, 37.844331, 3051.7], [-119.406878, 37.844363, 3052.5], [-119.406812, 37.844407, 3053.3], [-119.406788, 37.84448, 3053.2], [-119.406726, 37.844559, 3053.1], [-119.406722, 37.844624, 3055.7], [-119.406685, 37.844692, 3057.5], [-119.406593, 37.844774, 3060.2], [-119.406545, 37.8448, 3060.4], [-119.406529, 37.844821, 3060.6], [-119.406522, 37.844865, 3060.0], [-119.406472, 37.844903, 3059.7], [-119.406418, 37.844957, 3061.4], [-119.406414, 37.845, 3062.4], [-119.406401, 37.84502, 3063.2], [-119.406341, 37.845058, 3065.2], [-119.406304, 37.845152, 3063.8], [-119.406236, 37.845236, 3062.4], [-119.406204, 37.845292, 3063.2], [-119.40619, 37.845359, 3064.2], [-119.406128, 37.845441, 3073.7], [-119.406121, 37.845466, 3074.7], [-119.406133, 37.845542, 3072.9], [-119.40613, 37.845549, 3072.5], [-119.406048, 37.845587, 3074.1], [-119.405995, 37.845601, 3074.4], [-119.40595, 37.845637, 3073.5], [-119.405871, 37.845738, 3070.6], [-119.405843, 37.845748, 3070.3], [-119.405777, 37.845743, 3070.2], [-119.405735, 37.845761, 3071.4], [-119.405701, 37.845817, 3073.2], [-119.405623, 37.845851, 3072.3], [-119.405615, 37.845857, 3072.8], [-119.405433, 37.845953, 3076.5], [-119.405428, 37.84596, 3076.9], [-119.405366, 37.84598, 3077.9], [-119.405318, 37.846009, 3077.6], [-119.405262, 37.846013, 3076.5], [-119.405219, 37.846033, 3076.5], [-119.405125, 37.846104, 3082.0], [-119.405148, 37.846177, 3080.9], [-119.405162, 37.846205, 3083.0], [-119.405151, 37.846225, 3084.2], [-119.405048, 37.846274, 3087.3], [-119.405075, 37.846292, 3086.3], [-119.405109, 37.846334, 3090.1], [-119.405102, 37.846356, 3089.5], [-119.405118, 37.846377, 3092.7], [-119.405113, 37.846425, 3095.5], [-119.405124, 37.846455, 3100.1], [-119.405172, 37.846461, 3103.0], [-119.40519, 37.846482, 3104.7], [-119.405186, 37.846548, 3105.1], [-119.405141, 37.846592, 3106.1], [-119.405154, 37.84662, 3106.5], [-119.405142, 37.846641, 3107.8], [-119.405161, 37.846691, 3108.6], [-119.405143, 37.84674, 3111.2], [-119.405089, 37.84674, 3111.8], [-119.405055, 37.846755, 3112.5], [-119.405007, 37.846803, 3111.2], [-119.404984, 37.846802, 3109.4], [-119.404927, 37.846838, 3110.6], [-119.404924, 37.846844, 3111.4], [-119.404874, 37.846881, 3112.2], [-119.404864, 37.846903, 3114.6], [-119.40484, 37.846921, 3117.4], [-119.404823, 37.846923, 3117.5], [-119.404833, 37.846914, 3121.4], [-119.404854, 37.846965, 3120.9], [-119.404847, 37.846993, 3125.3], [-119.404848, 37.847021, 3125.4], [-119.404905, 37.846955, 3127.8], [-119.404889, 37.846989, 3128.6], [-119.404864, 37.847005, 3126.9], [-119.404876, 37.84703, 3127.4], [-119.404856, 37.847057, 3129.8], [-119.404874, 37.847083, 3137.0], [-119.404907, 37.847081, 3142.8], [-119.404926, 37.8471, 3144.7], [-119.404902, 37.847149, 3148.4], [-119.404891, 37.847202, 3153.8], [-119.404866, 37.847211, 3155.2], [-119.404885, 37.847286, 3156.5], [-119.404868, 37.847272, 3159.2], [-119.404881, 37.847297, 3161.3], [-119.404849, 37.847312, 3156.4], [-119.404895, 37.847344, 3167.5], [-119.404892, 37.847367, 3175.1], [-119.404927, 37.847434, 3173.4], [-119.404909, 37.847416, 3182.8], [-119.404891, 37.847415, 3182.8], [-119.404916, 37.847429, 3180.4], [-119.404925, 37.847454, 3179.3], [-119.404938, 37.847433, 3181.3], [-119.40496, 37.847505, 3202.3], [-119.404997, 37.847509, 3201.8], [-119.405016, 37.847528, 3201.5], [-119.405015, 37.847556, 3210.0], [-119.405059, 37.847573, 3208.1], [-119.405062, 37.847555, 3210.6], [-119.405092, 37.847548, 3207.1], [-119.405093, 37.847541, 3210.1], [-119.405059, 37.847546, 3208.6], [-119.405049, 37.847542, 3209.1], [-119.405073, 37.847537, 3209.2], [-119.405046, 37.847533, 3211.7], [-119.405083, 37.84753, 3211.2], [-119.405223, 37.847465, 3204.6], [-119.40515, 37.847504, 3211.5], [-119.405142, 37.847518, 3210.3], [-119.405078, 37.847542, 3212.3], [-119.405123, 37.847535, 3209.8], [-119.405096, 37.847524, 3212.6], [-119.405075, 37.847534, 3214.0], [-119.405044, 37.847527, 3215.7], [-119.405044, 37.847549, 3218.2], [-119.405007, 37.847557, 3220.5], [-119.40501, 37.847573, 3217.1], [-119.405087, 37.84759, 3216.5], [-119.40511, 37.847589, 3217.2], [-119.405151, 37.847556, 3214.4], [-119.405142, 37.847554, 3215.4], [-119.405149, 37.847579, 3217.3], [-119.405036, 37.847639, 3230.6], [-119.405061, 37.847676, 3229.8], [-119.405089, 37.847692, 3226.6], [-119.405129, 37.847699, 3222.8], [-119.405139, 37.847677, 3222.4], [-119.405231, 37.847688, 3214.6], [-119.40515, 37.847656, 3222.7], [-119.405058, 37.847623, 3230.0], [-119.405042, 37.847595, 3230.3], [-119.405043, 37.847615, 3227.0], [-119.405107, 37.847649, 3221.4], [-119.405086, 37.847631, 3230.4], [-119.405097, 37.847652, 3231.4], [-119.40506, 37.84766, 3238.1], [-119.405033, 37.847627, 3236.3], [-119.40504, 37.847653, 3234.5], [-119.405101, 37.847667, 3227.7], [-119.405102, 37.847661, 3228.4], [-119.405071, 37.847646, 3232.2], [-119.405046, 37.847638, 3229.9], [-119.405086, 37.847673, 3226.0], [-119.40507, 37.847666, 3244.1], [-119.40513, 37.847678, 3252.8], [-119.405228, 37.847693, 3245.2], [-119.405241, 37.847686, 3260.5], [-119.405253, 37.84769, 3259.9], [-119.405193, 37.847694, 3260.5], [-119.405265, 37.847743, 3258.3], [-119.405227, 37.847701, 3256.4], [-119.405234, 37.847716, 3256.4], [-119.40529, 37.847728, 3263.4], [-119.40531, 37.847748, 3257.5], [-119.405308, 37.847777, 3270.9], [-119.405341, 37.847799, 3268.4], [-119.405313, 37.847799, 3271.7], [-119.405251, 37.847773, 3271.8], [-119.405281, 37.847765, 3271.8], [-119.405369, 37.847797, 3284.3], [-119.405435, 37.847797, 3280.4], [-119.405488, 37.847817, 3277.2], [-119.4054, 37.847789, 3285.7], [-119.405398, 37.847818, 3287.9], [-119.405452, 37.847823, 3287.9], [-119.405431, 37.847827, 3293.0], [-119.405464, 37.847831, 3291.6], [-119.405425, 37.847818, 3295.1], [-119.405437, 37.84784, 3293.0], [-119.405466, 37.847851, 3293.9], [-119.405448, 37.847829, 3298.2], [-119.405473, 37.847813, 3294.1], [-119.40542, 37.847804, 3295.3], [-119.405406, 37.847793, 3300.4], [-119.405372, 37.847795, 3296.9], [-119.405387, 37.847808, 3294.4], [-119.405499, 37.847803, 3306.8], [-119.405504, 37.847808, 3306.5], [-119.405513, 37.847845, 3308.3], [-119.405501, 37.847836, 3297.4], [-119.405494, 37.84786, 3297.8], [-119.405587, 37.847785, 3290.0], [-119.405565, 37.847808, 3287.2], [-119.405566, 37.847886, 3289.5], [-119.405664, 37.847861, 3289.1], [-119.405665, 37.847864, 3287.8], [-119.405718, 37.847836, 3284.0], [-119.405718, 37.84786, 3281.9], [-119.405702, 37.847878, 3278.6], [-119.405703, 37.847904, 3277.0], [-119.405713, 37.84788, 3272.6], [-119.405691, 37.847903, 3273.0], [-119.405696, 37.847904, 3272.9], [-119.405707, 37.847936, 3260.1], [-119.405745, 37.847931, 3258.7], [-119.405795, 37.847932, 3254.3], [-119.405819, 37.847915, 3254.7], [-119.405851, 37.84791, 3253.7], [-119.405912, 37.847908, 3249.9], [-119.405943, 37.847918, 3251.1], [-119.405975, 37.847903, 3245.8], [-119.406014, 37.847918, 3242.3], [-119.406042, 37.847917, 3245.2], [-119.406085, 37.84794, 3240.5], [-119.406118, 37.847895, 3231.4], [-119.406105, 37.847925, 3235.1], [-119.406107, 37.847942, 3234.8], [-119.40614, 37.847942, 3232.2], [-119.406164, 37.847923, 3233.0], [-119.406185, 37.847944, 3231.6], [-119.406282, 37.847937, 3229.6], [-119.406296, 37.847955, 3228.4], [-119.406289, 37.847974, 3228.8], [-119.406329, 37.847988, 3228.5], [-119.406367, 37.847957, 3225.8], [-119.406387, 37.847908, 3225.6], [-119.406422, 37.847918, 3226.7], [-119.406474, 37.847924, 3224.6], [-119.406499, 37.847908, 3225.0], [-119.406528, 37.847916, 3225.6], [-119.406527, 37.847938, 3224.7], [-119.406505, 37.847952, 3222.6], [-119.406479, 37.84796, 3221.3], [-119.406442, 37.847952, 3222.4], [-119.406425, 37.848045, 3229.2], [-119.406457, 37.848036, 3226.9], [-119.406481, 37.848052, 3222.7], [-119.406476, 37.848094, 3222.7], [-119.406501, 37.848076, 3216.9], [-119.406532, 37.848072, 3217.5], [-119.406587, 37.848097, 3212.6], [-119.406591, 37.848121, 3210.2], [-119.406577, 37.848138, 3207.2], [-119.406584, 37.848165, 3208.2], [-119.406592, 37.84817, 3208.7], [-119.406603, 37.848194, 3206.3], [-119.406599, 37.848218, 3204.9], [-119.406653, 37.848277, 3200.5], [-119.406649, 37.848301, 3200.2], [-119.40668, 37.848327, 3194.6], [-119.406665, 37.848349, 3193.5], [-119.406663, 37.848376, 3193.2], [-119.406693, 37.848364, 3192.0], [-119.406692, 37.848391, 3191.2], [-119.406671, 37.848409, 3190.2], [-119.406699, 37.848421, 3190.1], [-119.406733, 37.848411, 3189.1], [-119.40675, 37.84844, 3187.4], [-119.406784, 37.848439, 3184.8], [-119.406793, 37.848462, 3182.3], [-119.406855, 37.848469, 3182.5], [-119.406854, 37.848446, 3191.2], [-119.406842, 37.848473, 3181.8], [-119.406897, 37.848499, 3177.5], [-119.406934, 37.848541, 3173.9], [-119.40699, 37.848568, 3170.6], [-119.40698, 37.848536, 3173.1], [-119.40702, 37.848471, 3175.8], [-119.407028, 37.848401, 3175.2], [-119.407045, 37.848371, 3173.0], [-119.407068, 37.848355, 3171.6], [-119.407061, 37.848332, 3171.1], [-119.407116, 37.848305, 3171.9], [-119.407125, 37.848281, 3170.0], [-119.407157, 37.848287, 3166.4], [-119.407155, 37.848318, 3165.8], [-119.407179, 37.848364, 3165.5], [-119.407185, 37.84839, 3163.0], [-119.407176, 37.848414, 3164.2], [-119.407201, 37.848452, 3162.2], [-119.407201, 37.848485, 3161.3], [-119.407206, 37.848513, 3163.2], [-119.407194, 37.848537, 3160.1], [-119.407235, 37.848571, 3158.1], [-119.407212, 37.848605, 3156.7], [-119.407211, 37.848639, 3155.1], [-119.407178, 37.848667, 3159.7], [-119.407178, 37.848693, 3159.6], [-119.407145, 37.848695, 3155.4], [-119.407143, 37.84872, 3155.4], [-119.407099, 37.848756, 3154.7], [-119.407092, 37.848784, 3151.5], [-119.40709, 37.848815, 3151.5], [-119.407131, 37.84888, 3151.9], [-119.407162, 37.848882, 3155.6], [-119.407179, 37.848861, 3158.6], [-119.407177, 37.84889, 3154.5], [-119.407268, 37.848905, 3148.3], [-119.407327, 37.848881, 3148.8], [-119.407396, 37.848888, 3138.8], [-119.407435, 37.848885, 3139.8], [-119.407457, 37.848865, 3142.1], [-119.40752, 37.848857, 3138.0], [-119.407526, 37.848832, 3135.1], [-119.407592, 37.848845, 3131.3], [-119.407619, 37.848862, 3130.0], [-119.407653, 37.848862, 3130.3], [-119.407693, 37.8489, 3130.1], [-119.407776, 37.848857, 3124.6], [-119.407796, 37.848843, 3122.4], [-119.407766, 37.848832, 3117.6], [-119.407784, 37.848809, 3119.9], [-119.407785, 37.848782, 3117.8], [-119.407799, 37.848758, 3118.1], [-119.407786, 37.848734, 3117.2], [-119.40781, 37.848709, 3115.9], [-119.407841, 37.848692, 3117.5], [-119.407846, 37.848666, 3118.3], [-119.407818, 37.848653, 3117.5], [-119.407824, 37.848628, 3117.8], [-119.407853, 37.848591, 3115.4], [-119.407919, 37.848546, 3123.8], [-119.407925, 37.848522, 3114.0], [-119.407918, 37.848496, 3110.7], [-119.407972, 37.848437, 3106.4], [-119.407981, 37.848414, 3106.1], [-119.407978, 37.848401, 3106.9], [-119.407979, 37.848351, 3103.8], [-119.408084, 37.848245, 3109.3], [-119.408098, 37.848237, 3110.1], [-119.4081, 37.848259, 3104.7], [-119.408077, 37.848277, 3099.5], [-119.408079, 37.848304, 3098.4], [-119.408096, 37.848326, 3100.0], [-119.408076, 37.848345, 3087.1], [-119.408089, 37.848361, 3087.0], [-119.408126, 37.848353, 3087.3], [-119.408138, 37.848343, 3086.6], [-119.40817, 37.848343, 3087.3], [-119.408198, 37.848356, 3086.0], [-119.408204, 37.848379, 3083.9], [-119.408246, 37.848359, 3083.3], [-119.408262, 37.848339, 3084.1], [-119.408259, 37.848313, 3083.3], [-119.4083, 37.848299, 3085.5], [-119.408325, 37.848311, 3080.4], [-119.408342, 37.848327, 3081.2], [-119.40835, 37.848351, 3081.6], [-119.408441, 37.848402, 3083.4], [-119.40845, 37.848439, 3079.0], [-119.408433, 37.848462, 3074.7], [-119.408441, 37.848486, 3066.9], [-119.408539, 37.848415, 3065.2], [-119.408551, 37.848415, 3064.9], [-119.408544, 37.848437, 3062.5], [-119.408599, 37.848415, 3066.4], [-119.40865, 37.848422, 3066.5], [-119.408653, 37.848445, 3062.0], [-119.408696, 37.848459, 3056.2], [-119.408785, 37.848466, 3063.2], [-119.408759, 37.84846, 3061.8], [-119.408759, 37.848431, 3058.4], [-119.408823, 37.848422, 3057.1], [-119.408849, 37.848437, 3058.0], [-119.408848, 37.848463, 3053.1], [-119.408875, 37.848476, 3047.8], [-119.408872, 37.848451, 3044.5], [-119.408907, 37.848448, 3041.9], [-119.40893, 37.848478, 3040.2], [-119.408956, 37.848489, 3041.1], [-119.408979, 37.848469, 3042.1], [-119.408987, 37.848445, 3040.2], [-119.409082, 37.848421, 3034.5], [-119.409117, 37.848394, 3036.4], [-119.40912, 37.848367, 3035.1], [-119.409145, 37.848353, 3027.1], [-119.409155, 37.848398, 3024.3], [-119.409167, 37.848421, 3023.1], [-119.409201, 37.848444, 3024.4], [-119.409262, 37.848475, 3024.9], [-119.409289, 37.84844, 3027.6], [-119.409277, 37.848415, 3025.9], [-119.409291, 37.848391, 3025.3], [-119.409328, 37.848373, 3023.4], [-119.409365, 37.848334, 3026.1], [-119.409368, 37.848307, 3025.7], [-119.409399, 37.848301, 3017.3], [-119.409451, 37.848272, 3014.4], [-119.409476, 37.848236, 3013.4], [-119.409518, 37.848182, 3015.3], [-119.409497, 37.848203, 3014.9], [-119.409513, 37.848217, 3013.5], [-119.409527, 37.848257, 3013.6], [-119.40955, 37.848276, 3011.2], [-119.409567, 37.848275, 3011.1], [-119.409591, 37.848345, 3009.8], [-119.409576, 37.848365, 3006.2], [-119.409592, 37.848387, 3005.7], [-119.409622, 37.848378, 3004.5], [-119.409642, 37.848353, 3003.6], [-119.409661, 37.848383, 3002.7], [-119.40966, 37.848358, 3001.0], [-119.409705, 37.848326, 3000.4], [-119.409738, 37.848333, 2999.6], [-119.409769, 37.848322, 2998.8], [-119.409845, 37.848329, 2999.9], [-119.409888, 37.848364, 2994.9], [-119.40992, 37.848356, 2994.8], [-119.409899, 37.848369, 2984.9], [-119.409832, 37.848364, 2976.6], [-119.409831, 37.848362, 2977.2], [-119.409927, 37.848362, 2985.0], [-119.409936, 37.848336, 2987.2], [-119.409966, 37.848334, 2983.8], [-119.409984, 37.848312, 2983.8], [-119.409961, 37.848288, 2989.2], [-119.409958, 37.848315, 2982.1], [-119.40994, 37.848331, 2980.0], [-119.40991, 37.848341, 2977.6], [-119.409886, 37.848322, 2972.3], [-119.409908, 37.84828, 2975.0], [-119.409945, 37.848274, 2973.9], [-119.409975, 37.848244, 2973.2], [-119.409947, 37.848235, 2966.7], [-119.409947, 37.848214, 2969.6], [-119.410005, 37.848155, 2968.3], [-119.409985, 37.848124, 2966.6], [-119.409977, 37.848122, 2966.7], [-119.410002, 37.848074, 2961.3], [-119.410063, 37.848015, 2967.6], [-119.410091, 37.848017, 2969.1], [-119.410116, 37.847998, 2968.6], [-119.410108, 37.847997, 2968.4], [-119.410051, 37.847859, 2963.7], [-119.410051, 37.847856, 2963.5], [-119.4101, 37.847827, 2963.0], [-119.410147, 37.847851, 2965.0], [-119.410148, 37.847805, 2954.6], [-119.410187, 37.847778, 2952.3], [-119.410221, 37.847787, 2951.4], [-119.410258, 37.847827, 2953.1], [-119.410289, 37.847832, 2954.2], [-119.410321, 37.847832, 2953.3], [-119.410328, 37.847783, 2950.2], [-119.410312, 37.847737, 2944.7], [-119.410339, 37.847734, 2944.3], [-119.410366, 37.847745, 2943.3], [-119.410396, 37.847737, 2942.6], [-119.410443, 37.847692, 2940.4], [-119.410455, 37.84765, 2941.4], [-119.410477, 37.847634, 2938.6], [-119.410499, 37.847641, 2939.0], [-119.410527, 37.847678, 2938.9], [-119.410593, 37.847685, 2932.6], [-119.4106, 37.847689, 2932.3], [-119.410641, 37.847741, 2929.9], [-119.410694, 37.847716, 2925.8], [-119.410749, 37.847654, 2927.2], [-119.410758, 37.847648, 2926.1], [-119.410819, 37.84767, 2922.2], [-119.410851, 37.847665, 2918.8], [-119.410869, 37.847648, 2916.0], [-119.410966, 37.847634, 2913.2], [-119.410989, 37.847611, 2910.5], [-119.411045, 37.847586, 2905.4], [-119.411117, 37.847577, 2906.5], [-119.411158, 37.847586, 2907.3], [-119.411234, 37.847598, 2904.2], [-119.411261, 37.847583, 2903.5], [-119.411279, 37.847537, 2903.5], [-119.411319, 37.847523, 2902.4], [-119.411336, 37.847522, 2901.9], [-119.411365, 37.847542, 2899.1], [-119.411463, 37.847577, 2894.1], [-119.411526, 37.847556, 2893.9], [-119.411537, 37.847557, 2893.9], [-119.411619, 37.847511, 2891.6], [-119.411673, 37.847458, 2888.6], [-119.411667, 37.847425, 2887.7], [-119.411618, 37.847465, 2893.1], [-119.411633, 37.847446, 2896.2], [-119.411716, 37.847441, 2889.9], [-119.411755, 37.847421, 2890.8], [-119.411771, 37.847417, 2891.2], [-119.411793, 37.847437, 2888.4], [-119.411815, 37.847443, 2888.3], [-119.411883, 37.847494, 2886.5], [-119.411909, 37.847529, 2883.2], [-119.411921, 37.847536, 2883.4], [-119.412024, 37.847519, 2887.1], [-119.412069, 37.847483, 2887.2], [-119.412089, 37.84745, 2884.8], [-119.412071, 37.847441, 2883.8], [-119.412113, 37.847404, 2881.8], [-119.412168, 37.847386, 2882.6], [-119.412234, 37.847346, 2880.5], [-119.412253, 37.847338, 2880.7], [-119.41235, 37.847304, 2881.3], [-119.412385, 37.847273, 2882.2], [-119.41241, 37.847224, 2878.9], [-119.412423, 37.847223, 2878.4], [-119.412485, 37.847229, 2878.1], [-119.412545, 37.847224, 2875.2], [-119.412604, 37.847238, 2872.7], [-119.412636, 37.847225, 2875.4], [-119.412697, 37.847238, 2874.3], [-119.412722, 37.847225, 2875.6], [-119.412753, 37.847228, 2874.1], [-119.412824, 37.84727, 2873.6], [-119.412835, 37.847287, 2871.8], [-119.412885, 37.847279, 2870.9], [-119.412902, 37.847279, 2870.8], [-119.41296, 37.847323, 2870.0], [-119.413034, 37.847329, 2870.3], [-119.413073, 37.847345, 2868.1], [-119.413163, 37.847396, 2866.3], [-119.413206, 37.847436, 2869.7], [-119.413239, 37.847444, 2869.6], [-119.413318, 37.847485, 2869.0], [-119.413336, 37.847524, 2866.7], [-119.413356, 37.847539, 2865.3], [-119.413391, 37.847541, 2865.6], [-119.413404, 37.847537, 2865.3], [-119.413486, 37.847501, 2864.0], [-119.413551, 37.847509, 2859.3], [-119.413585, 37.847498, 2859.0], [-119.413602, 37.847498, 2859.3], [-119.413674, 37.847514, 2857.5], [-119.413702, 37.847543, 2852.4], [-119.413766, 37.84757, 2855.7], [-119.413799, 37.847608, 2853.4], [-119.413897, 37.847622, 2853.7], [-119.414002, 37.847658, 2854.2], [-119.414018, 37.847657, 2854.5], [-119.414062, 37.847667, 2854.7], [-119.414108, 37.847693, 2854.3], [-119.414171, 37.847737, 2852.8], [-119.4142, 37.84778, 2854.1], [-119.414225, 37.847801, 2854.0], [-119.414243, 37.847843, 2852.7], [-119.414346, 37.847904, 2856.1], [-119.414382, 37.847913, 2856.0], [-119.414436, 37.847965, 2855.0], [-119.414537, 37.848022, 2855.8], [-119.41455, 37.848035, 2854.9], [-119.414582, 37.848081, 2855.6], [-119.414671, 37.848124, 2857.3], [-119.41469, 37.848148, 2856.9], [-119.414706, 37.848187, 2857.9], [-119.414743, 37.848215, 2854.2], [-119.414854, 37.848259, 2857.9], [-119.414907, 37.848337, 2853.2], [-119.414912, 37.848375, 2852.5], [-119.41494, 37.84842, 2851.7], [-119.414953, 37.848428, 2850.3], [-119.415065, 37.848463, 2850.6], [-119.415141, 37.848522, 2850.9], [-119.41518, 37.848539, 2854.3], [-119.415256, 37.848525, 2852.7], [-119.415326, 37.848531, 2852.8], [-119.415345, 37.848526, 2854.4], [-119.415435, 37.848512, 2851.1], [-119.415458, 37.8485, 2850.3], [-119.415569, 37.848501, 2853.7], [-119.415706, 37.848506, 2854.0], [-119.415776, 37.848482, 2853.6], [-119.415859, 37.848468, 2854.0], [-119.415937, 37.84847, 2851.0], [-119.41598, 37.848433, 2851.5], [-119.415992, 37.84843, 2852.4], [-119.416073, 37.848365, 2847.5], [-119.416082, 37.848343, 2848.5], [-119.416127, 37.848324, 2853.7], [-119.416167, 37.848284, 2850.9], [-119.416163, 37.848258, 2849.6], [-119.416194, 37.848216, 2846.5], [-119.41625, 37.848189, 2844.7], [-119.416287, 37.848116, 2840.8], [-119.416404, 37.8481, 2836.6], [-119.416415, 37.848102, 2835.2], [-119.416465, 37.848074, 2833.2], [-119.416495, 37.848069, 2836.2], [-119.416516, 37.848051, 2836.0], [-119.416537, 37.84805, 2833.7], [-119.416561, 37.848065, 2831.6], [-119.416594, 37.848014, 2834.8], [-119.416597, 37.847932, 2842.3], [-119.416609, 37.847908, 2842.4], [-119.416636, 37.847896, 2842.3], [-119.416668, 37.847899, 2842.5], [-119.416687, 37.847874, 2844.4], [-119.416696, 37.847874, 2843.6], [-119.416709, 37.847848, 2839.5], [-119.416751, 37.847818, 2838.5], [-119.416811, 37.847794, 2839.4], [-119.416852, 37.847753, 2842.3], [-119.416947, 37.847723, 2839.4], [-119.417039, 37.847663, 2838.9], [-119.417083, 37.847639, 2836.2], [-119.417173, 37.847526, 2831.7], [-119.417294, 37.847507, 2831.3], [-119.417425, 37.847515, 2831.7], [-119.417539, 37.847516, 2834.0], [-119.417623, 37.84749, 2832.8], [-119.417635, 37.847482, 2833.6], [-119.417854, 37.847402, 2839.0], [-119.417979, 37.847418, 2838.8], [-119.418025, 37.847448, 2837.9], [-119.418074, 37.847446, 2839.2], [-119.418134, 37.847469, 2838.7], [-119.418191, 37.84746, 2837.4], [-119.418291, 37.847464, 2835.8], [-119.418353, 37.847463, 2837.1], [-119.418384, 37.847481, 2834.6], [-119.418406, 37.847521, 2836.6], [-119.418434, 37.847536, 2835.3], [-119.418426, 37.847568, 2830.4], [-119.418428, 37.847579, 2828.9], [-119.418448, 37.847607, 2829.4], [-119.418442, 37.847633, 2830.6], [-119.418492, 37.847663, 2830.6], [-119.418524, 37.847666, 2833.7], [-119.41858, 37.847632, 2836.0], [-119.418591, 37.847628, 2835.1], [-119.418656, 37.847575, 2831.9], [-119.418742, 37.847551, 2833.3], [-119.418789, 37.847554, 2829.7], [-119.418861, 37.847562, 2831.0], [-119.418964, 37.84754, 2831.8], [-119.419089, 37.847547, 2832.0], [-119.41912, 37.84753, 2830.5], [-119.419169, 37.847525, 2829.0], [-119.419327, 37.847547, 2824.7], [-119.419429, 37.84753, 2827.8], [-119.419594, 37.847444, 2824.9], [-119.419612, 37.847437, 2824.4], [-119.419802, 37.847389, 2823.8], [-119.419841, 37.84739, 2824.4], [-119.420084, 37.847334, 2814.8], [-119.420137, 37.847337, 2813.9], [-119.420186, 37.847319, 2814.2], [-119.420236, 37.847319, 2813.8], [-119.420309, 37.847302, 2812.5], [-119.420412, 37.847257, 2815.6], [-119.420471, 37.847248, 2813.9], [-119.420496, 37.84721, 2812.4], [-119.420533, 37.847161, 2815.4], [-119.420557, 37.847145, 2814.8], [-119.420569, 37.847109, 2813.1], [-119.420623, 37.847078, 2814.0], [-119.420672, 37.847024, 2817.4], [-119.420693, 37.846879, 2816.9], [-119.420771, 37.846804, 2819.8], [-119.420775, 37.846768, 2817.6], [-119.420759, 37.846739, 2814.9], [-119.420763, 37.846716, 2814.7], [-119.420733, 37.846687, 2813.8], [-119.420722, 37.84665, 2814.9], [-119.420756, 37.846581, 2818.9], [-119.420808, 37.846542, 2823.4], [-119.420822, 37.846487, 2823.0], [-119.420873, 37.846441, 2823.9], [-119.420883, 37.846427, 2822.6], [-119.42093, 37.846338, 2820.9], [-119.420952, 37.846277, 2819.5], [-119.420988, 37.846203, 2818.6], [-119.421049, 37.846152, 2816.0], [-119.421153, 37.846003, 2818.3], [-119.421177, 37.845992, 2821.5], [-119.421222, 37.846018, 2820.2], [-119.421295, 37.846055, 2818.7], [-119.421421, 37.846061, 2814.6], [-119.421542, 37.84608, 2813.0], [-119.421639, 37.846043, 2815.3], [-119.421654, 37.84604, 2815.1], [-119.421745, 37.845996, 2818.3], [-119.421802, 37.845986, 2817.2], [-119.421836, 37.845968, 2815.9], [-119.421848, 37.845957, 2816.3], [-119.421883, 37.845949, 2815.4], [-119.422048, 37.846018, 2814.1], [-119.422068, 37.846025, 2813.8], [-119.422247, 37.846002, 2818.1], [-119.422301, 37.846006, 2818.1], [-119.422417, 37.846019, 2819.6], [-119.42252, 37.84605, 2821.5], [-119.422528, 37.846054, 2821.4], [-119.422529, 37.846131, 2820.4], [-119.422546, 37.846224, 2819.9], [-119.422546, 37.846291, 2819.3], [-119.422595, 37.846364, 2819.2], [-119.422645, 37.846378, 2819.4], [-119.422648, 37.846391, 2819.7], [-119.422635, 37.846412, 2820.4], [-119.422654, 37.846394, 2824.0], [-119.422685, 37.846391, 2820.9], [-119.422706, 37.8464, 2821.2], [-119.422725, 37.84643, 2819.0], [-119.422736, 37.84644, 2818.1], [-119.422743, 37.846486, 2816.8], [-119.422766, 37.84652, 2815.4], [-119.422763, 37.846588, 2815.1], [-119.422772, 37.846597, 2814.7], [-119.42282, 37.846629, 2812.6], [-119.422845, 37.846702, 2810.6], [-119.42287, 37.846716, 2810.5], [-119.422911, 37.846712, 2811.1], [-119.422927, 37.846699, 2811.5], [-119.422949, 37.846671, 2811.3], [-119.422995, 37.846641, 2811.8], [-119.423028, 37.846564, 2812.3], [-119.423051, 37.846541, 2810.0], [-119.423095, 37.846541, 2807.7], [-119.423117, 37.846525, 2810.2], [-119.423166, 37.846423, 2809.6], [-119.42317, 37.846378, 2811.4], [-119.423197, 37.846288, 2813.7], [-119.423242, 37.846225, 2812.4], [-119.423247, 37.846203, 2810.5], [-119.423329, 37.846174, 2811.7], [-119.423357, 37.846186, 2813.7], [-119.42342, 37.846346, 2813.2], [-119.423422, 37.846359, 2813.7], [-119.423484, 37.846518, 2815.5], [-119.423519, 37.846584, 2815.7], [-119.423553, 37.846621, 2814.5], [-119.423565, 37.846702, 2814.2], [-119.42358, 37.846719, 2812.1], [-119.423629, 37.846737, 2811.7], [-119.423649, 37.846769, 2812.6], [-119.423743, 37.846764, 2813.6], [-119.423842, 37.846742, 2809.0], [-119.423906, 37.846757, 2807.8], [-119.423936, 37.846786, 2805.4], [-119.423951, 37.846794, 2805.2], [-119.424044, 37.846819, 2805.5], [-119.424107, 37.846809, 2807.5], [-119.424162, 37.846785, 2805.1], [-119.424219, 37.846791, 2803.8], [-119.424365, 37.846761, 2808.4], [-119.424426, 37.846765, 2808.1], [-119.42457, 37.846678, 2813.0], [-119.424593, 37.846667, 2813.9], [-119.42472, 37.846641, 2815.1], [-119.424799, 37.846609, 2815.2], [-119.424902, 37.846592, 2815.2], [-119.424936, 37.846575, 2817.1], [-119.424903, 37.846578, 2812.8], [-119.424879, 37.846598, 2811.9], [-119.424983, 37.846541, 2810.1], [-119.425014, 37.846489, 2810.7], [-119.42502, 37.846466, 2811.4], [-119.425003, 37.846445, 2810.1], [-119.425004, 37.846421, 2808.7], [-119.42506, 37.846337, 2804.7], [-119.425067, 37.846333, 2804.3], [-119.425153, 37.846361, 2808.3], [-119.425252, 37.846259, 2809.0], [-119.425304, 37.846261, 2806.0], [-119.425369, 37.846233, 2807.7], [-119.425416, 37.846199, 2807.7], [-119.425428, 37.846186, 2809.0], [-119.425521, 37.84613, 2808.1], [-119.425554, 37.84609, 2807.2], [-119.425556, 37.846082, 2806.6], [-119.425594, 37.846034, 2804.2], [-119.425639, 37.846009, 2806.0], [-119.425666, 37.846006, 2806.2], [-119.425715, 37.845961, 2805.9], [-119.425806, 37.845927, 2806.5], [-119.425902, 37.845949, 2805.9], [-119.425926, 37.845949, 2806.3], [-119.42602, 37.845939, 2807.5], [-119.426045, 37.845921, 2808.3], [-119.426038, 37.845968, 2809.9], [-119.426058, 37.845997, 2810.3], [-119.426129, 37.846057, 2808.7], [-119.426153, 37.84609, 2809.5], [-119.426208, 37.846109, 2811.3], [-119.426291, 37.846152, 2809.3], [-119.426423, 37.846175, 2812.0], [-119.426551, 37.846219, 2814.8], [-119.426587, 37.846262, 2814.8], [-119.426599, 37.846326, 2812.7], [-119.42662, 37.846359, 2810.9], [-119.426638, 37.846434, 2811.4], [-119.426644, 37.846447, 2811.7], [-119.426677, 37.84649, 2813.0], [-119.426725, 37.846523, 2813.2], [-119.426748, 37.846586, 2812.7], [-119.42676, 37.846603, 2813.4], [-119.426787, 37.846628, 2813.9], [-119.426797, 37.846731, 2810.0], [-119.426837, 37.846758, 2809.9], [-119.426856, 37.846762, 2809.7], [-119.426986, 37.846812, 2805.3], [-119.427065, 37.846819, 2804.1], [-119.427086, 37.846818, 2803.2], [-119.427283, 37.846788, 2808.0], [-119.427324, 37.846798, 2806.9], [-119.427388, 37.846752, 2807.9], [-119.427443, 37.846665, 2808.4], [-119.427449, 37.846653, 2807.9], [-119.427474, 37.846624, 2805.3], [-119.427529, 37.846609, 2803.6], [-119.42759, 37.846532, 2802.3], [-119.427605, 37.846521, 2802.3], [-119.427627, 37.846496, 2802.4], [-119.427688, 37.846467, 2804.0], [-119.427746, 37.846456, 2807.0], [-119.42778, 37.846429, 2805.7], [-119.42779, 37.84641, 2805.1], [-119.427824, 37.846363, 2805.3], [-119.427913, 37.846282, 2800.2], [-119.427932, 37.846276, 2801.4], [-119.42801, 37.846266, 2801.4], [-119.428025, 37.846257, 2801.8], [-119.428033, 37.846231, 2803.6], [-119.42806, 37.846226, 2807.8], [-119.428077, 37.846237, 2810.2], [-119.428084, 37.846261, 2810.5], [-119.428111, 37.846263, 2810.9], [-119.428147, 37.846255, 2810.9], [-119.428186, 37.846284, 2810.4], [-119.428193, 37.846309, 2808.6], [-119.428225, 37.846307, 2807.0], [-119.428286, 37.846343, 2807.4], [-119.428332, 37.846305, 2805.0], [-119.428364, 37.8463, 2803.3], [-119.428409, 37.846317, 2803.0], [-119.428462, 37.84631, 2802.0], [-119.428477, 37.846305, 2802.4], [-119.428547, 37.846265, 2801.7], [-119.428575, 37.84628, 2798.8], [-119.42859, 37.846299, 2798.4], [-119.428596, 37.846279, 2798.2], [-119.42856, 37.846237, 2798.7], [-119.42856, 37.846226, 2797.4], [-119.428587, 37.846124, 2790.5], [-119.42861, 37.846122, 2791.0], [-119.428631, 37.846137, 2791.6], [-119.428647, 37.846171, 2791.6], [-119.428685, 37.846192, 2791.6], [-119.428708, 37.846194, 2790.6], [-119.428763, 37.846173, 2792.8], [-119.428825, 37.846189, 2792.8], [-119.428848, 37.846161, 2793.4], [-119.428875, 37.846166, 2792.5], [-119.428837, 37.846207, 2791.0], [-119.428838, 37.846272, 2791.2], [-119.428853, 37.84629, 2791.6], [-119.428934, 37.846305, 2788.5], [-119.428956, 37.846289, 2786.3], [-119.428946, 37.846265, 2784.0], [-119.428921, 37.846283, 2780.6], [-119.42891, 37.846254, 2779.3], [-119.428942, 37.84625, 2785.4], [-119.428932, 37.846274, 2782.1], [-119.428947, 37.846294, 2783.9], [-119.428939, 37.846313, 2783.0], [-119.428981, 37.84638, 2788.6], [-119.428992, 37.846392, 2788.2], [-119.428999, 37.846368, 2785.2], [-119.429024, 37.846384, 2787.8], [-119.429021, 37.846408, 2787.8], [-119.429047, 37.846449, 2786.7], [-119.429096, 37.84649, 2784.8], [-119.429156, 37.846567, 2784.2], [-119.429287, 37.84659, 2782.2], [-119.429349, 37.846615, 2781.5], [-119.429404, 37.846665, 2780.7], [-119.429436, 37.846661, 2781.2], [-119.429462, 37.846641, 2782.8], [-119.429515, 37.846613, 2780.5], [-119.429532, 37.84657, 2776.7], [-119.429586, 37.846558, 2775.3], [-119.429558, 37.846528, 2769.8], [-119.429497, 37.846496, 2765.6], [-119.429483, 37.846473, 2764.7], [-119.429625, 37.846438, 2766.9], [-119.429676, 37.846411, 2768.1], [-119.429684, 37.846387, 2759.2], [-119.429657, 37.846377, 2753.0], [-119.429663, 37.846359, 2756.3], [-119.429721, 37.846368, 2753.7], [-119.429729, 37.846339, 2751.1], [-119.429722, 37.846334, 2750.2], [-119.429739, 37.846312, 2753.7], [-119.429766, 37.846299, 2756.3], [-119.429767, 37.846258, 2753.8], [-119.429783, 37.846224, 2753.4], [-119.429775, 37.846188, 2750.1], [-119.429773, 37.846154, 2746.9], [-119.429742, 37.846113, 2744.0], [-119.429732, 37.846067, 2742.7], [-119.429752, 37.846085, 2742.3], [-119.429759, 37.84612, 2743.0], [-119.429769, 37.846131, 2743.3], [-119.429799, 37.846133, 2743.8], [-119.429857, 37.846119, 2743.1], [-119.429951, 37.846052, 2744.9], [-119.429963, 37.846048, 2745.2], [-119.430145, 37.845973, 2741.6], [-119.430163, 37.845949, 2740.7], [-119.43018, 37.845968, 2736.7], [-119.430185, 37.846007, 2735.5], [-119.430215, 37.846015, 2736.2], [-119.430262, 37.845986, 2736.7], [-119.430309, 37.845979, 2737.6], [-119.430385, 37.845943, 2736.2], [-119.430418, 37.845902, 2736.2], [-119.430415, 37.845924, 2733.4], [-119.430449, 37.845926, 2732.9], [-119.430485, 37.845914, 2730.9], [-119.430499, 37.845899, 2730.5], [-119.430499, 37.845925, 2726.6], [-119.430524, 37.845943, 2727.1], [-119.430515, 37.845968, 2723.4], [-119.430486, 37.845959, 2724.8], [-119.430493, 37.845937, 2722.8], [-119.430561, 37.845931, 2722.7], [-119.430643, 37.845928, 2722.1], [-119.430745, 37.845904, 2721.2], [-119.430767, 37.845884, 2723.7], [-119.430835, 37.845855, 2720.4], [-119.430936, 37.845786, 2715.7], [-119.430968, 37.845756, 2714.2], [-119.430973, 37.845732, 2711.6], [-119.431053, 37.845705, 2714.2], [-119.431122, 37.845716, 2711.5], [-119.431134, 37.845715, 2711.7], [-119.431175, 37.845674, 2709.8], [-119.431299, 37.845627, 2711.4], [-119.431336, 37.845604, 2711.1], [-119.431398, 37.845623, 2710.5], [-119.431422, 37.845616, 2708.2], [-119.431432, 37.845569, 2703.1], [-119.431431, 37.845557, 2702.6], [-119.431462, 37.845481, 2699.6], [-119.431512, 37.845444, 2701.0], [-119.431543, 37.845404, 2701.7], [-119.43158, 37.845386, 2701.2], [-119.431603, 37.845403, 2701.3], [-119.431614, 37.845384, 2703.3], [-119.431662, 37.845372, 2703.1], [-119.43175, 37.845379, 2703.3], [-119.431841, 37.84537, 2703.6], [-119.431954, 37.845333, 2702.5], [-119.431974, 37.845328, 2704.0], [-119.432128, 37.845344, 2698.2], [-119.432212, 37.845381, 2697.0], [-119.432265, 37.845377, 2695.6], [-119.432382, 37.845395, 2693.9], [-119.432396, 37.845396, 2692.6], [-119.432572, 37.845365, 2692.2], [-119.432613, 37.845367, 2691.5], [-119.432747, 37.845407, 2688.8], [-119.43277, 37.845336, 2687.6], [-119.432781, 37.845309, 2686.6], [-119.432754, 37.845301, 2684.9], [-119.432728, 37.845257, 2684.9], [-119.432756, 37.845219, 2690.6], [-119.432747, 37.845193, 2689.8], [-119.432777, 37.845173, 2688.7], [-119.432779, 37.845154, 2688.9], [-119.432872, 37.845108, 2689.6], [-119.43293, 37.845096, 2687.2], [-119.432946, 37.84507, 2690.4], [-119.432991, 37.845074, 2688.5], [-119.432982, 37.845142, 2681.2], [-119.433019, 37.845176, 2678.8], [-119.433022, 37.845207, 2679.6], [-119.433068, 37.845274, 2680.0], [-119.433124, 37.8453, 2677.2], [-119.433145, 37.845342, 2674.6], [-119.433169, 37.845353, 2674.3], [-119.4332, 37.84538, 2673.5], [-119.433211, 37.845425, 2672.6], [-119.433253, 37.845458, 2668.0], [-119.433249, 37.845483, 2666.6], [-119.43328, 37.845519, 2665.1], [-119.433313, 37.845541, 2664.4], [-119.433308, 37.845555, 2663.7], [-119.433323, 37.845589, 2663.5], [-119.433315, 37.845644, 2660.8], [-119.43333, 37.845683, 2658.4], [-119.433361, 37.845697, 2656.6], [-119.433398, 37.84575, 2651.6], [-119.433425, 37.845766, 2651.6], [-119.433485, 37.845772, 2649.9], [-119.433498, 37.845781, 2649.5], [-119.433575, 37.84587, 2646.4], [-119.433589, 37.845893, 2646.3], [-119.433587, 37.845919, 2645.4], [-119.433623, 37.84594, 2644.5], [-119.433641, 37.845943, 2645.0], [-119.433788, 37.845945, 2641.9], [-119.433868, 37.84598, 2640.0], [-119.433958, 37.846009, 2641.5], [-119.434073, 37.846005, 2639.3], [-119.434089, 37.846008, 2638.6], [-119.434275, 37.846019, 2632.7], [-119.434288, 37.846023, 2632.0], [-119.434347, 37.846031, 2632.3], [-119.434411, 37.846053, 2626.9], [-119.434474, 37.846052, 2624.7], [-119.434488, 37.846054, 2624.4], [-119.434558, 37.846055, 2620.8], [-119.434639, 37.846075, 2620.5], [-119.434717, 37.84608, 2619.8], [-119.434757, 37.846124, 2616.2], [-119.434784, 37.846137, 2616.0], [-119.434814, 37.84614, 2613.5], [-119.43485, 37.84611, 2611.7], [-119.434889, 37.846102, 2611.3], [-119.43496, 37.846136, 2611.4], [-119.435038, 37.846216, 2608.1], [-119.435048, 37.84622, 2608.1], [-119.435148, 37.846227, 2606.3], [-119.435173, 37.846213, 2606.7], [-119.435202, 37.846226, 2606.1], [-119.435278, 37.846221, 2603.4], [-119.435302, 37.846246, 2602.4], [-119.435309, 37.846272, 2600.7], [-119.435348, 37.84633, 2599.7], [-119.435409, 37.846367, 2601.7], [-119.435431, 37.846398, 2599.2], [-119.435476, 37.846433, 2595.6], [-119.435562, 37.846483, 2595.2], [-119.435615, 37.846504, 2595.7], [-119.435636, 37.846524, 2594.5], [-119.435643, 37.846546, 2592.8], [-119.43575, 37.846592, 2589.8], [-119.43582, 37.846636, 2585.9], [-119.435888, 37.846651, 2585.7], [-119.43596, 37.846681, 2586.3], [-119.436081, 37.846699, 2584.5], [-119.436169, 37.846745, 2586.7], [-119.436204, 37.84677, 2584.8], [-119.436231, 37.846754, 2582.3], [-119.43624, 37.846732, 2575.7], [-119.436293, 37.846696, 2576.7], [-119.436323, 37.846657, 2575.6], [-119.436341, 37.84666, 2576.1], [-119.436343, 37.846635, 2575.1], [-119.436362, 37.846618, 2573.2], [-119.436467, 37.846573, 2570.8], [-119.43651, 37.846543, 2572.2], [-119.436607, 37.846453, 2570.1], [-119.436637, 37.846407, 2570.1], [-119.436649, 37.846407, 2569.6], [-119.436682, 37.846393, 2570.1], [-119.43671, 37.846343, 2570.9], [-119.436755, 37.846301, 2569.9], [-119.436757, 37.846275, 2573.9], [-119.436772, 37.846253, 2574.2], [-119.43682, 37.846223, 2575.8], [-119.436869, 37.846138, 2575.2], [-119.436878, 37.846125, 2577.3], [-119.436893, 37.846086, 2579.4], [-119.43697, 37.846052, 2577.8], [-119.437043, 37.845997, 2569.5], [-119.437052, 37.845987, 2564.4], [-119.437091, 37.845965, 2567.5], [-119.437103, 37.84594, 2566.7], [-119.437149, 37.845921, 2564.3], [-119.437196, 37.845855, 2569.7], [-119.437262, 37.845787, 2573.3], [-119.437285, 37.845789, 2573.3], [-119.437331, 37.845767, 2573.9], [-119.437359, 37.845778, 2571.5], [-119.437401, 37.845777, 2567.9], [-119.437431, 37.845754, 2565.8], [-119.437434, 37.845729, 2565.5], [-119.437479, 37.845699, 2568.8], [-119.437524, 37.845735, 2564.4], [-119.437567, 37.84573, 2565.4], [-119.437614, 37.845694, 2567.7], [-119.437665, 37.84567, 2571.3], [-119.437706, 37.845635, 2567.0], [-119.437758, 37.845636, 2565.0], [-119.437842, 37.845655, 2564.2], [-119.437869, 37.84567, 2562.1], [-119.437851, 37.845712, 2564.9], [-119.437859, 37.84574, 2563.1], [-119.437888, 37.845754, 2562.8], [-119.437894, 37.845734, 2562.1], [-119.437995, 37.845656, 2563.6], [-119.438067, 37.845629, 2563.8], [-119.438082, 37.845589, 2563.9], [-119.438135, 37.84557, 2560.7], [-119.438184, 37.84557, 2560.7], [-119.438274, 37.845561, 2557.1], [-119.438315, 37.845621, 2555.9], [-119.438329, 37.845628, 2556.4], [-119.438353, 37.845598, 2553.6], [-119.43838, 37.845592, 2552.2], [-119.438405, 37.845602, 2555.1], [-119.438434, 37.84559, 2555.2], [-119.43849, 37.8456, 2558.3], [-119.438545, 37.845627, 2557.2], [-119.438599, 37.845636, 2556.3], [-119.438639, 37.845628, 2555.7], [-119.438711, 37.845572, 2554.2], [-119.438803, 37.845536, 2554.3], [-119.438892, 37.845552, 2556.2], [-119.438923, 37.845538, 2554.7], [-119.438974, 37.845487, 2555.3], [-119.439021, 37.84546, 2552.0], [-119.439061, 37.845472, 2554.0], [-119.439174, 37.845437, 2552.5], [-119.439196, 37.845413, 2550.9], [-119.439196, 37.845373, 2549.0], [-119.439206, 37.845345, 2551.5], [-119.439194, 37.845322, 2552.9], [-119.439213, 37.845275, 2553.4], [-119.43924, 37.845264, 2550.3], [-119.439264, 37.845272, 2553.6], [-119.439292, 37.845267, 2557.9], [-119.439308, 37.845228, 2557.5], [-119.439359, 37.845156, 2556.5], [-119.439463, 37.845049, 2556.6], [-119.439542, 37.845045, 2557.0], [-119.439552, 37.845078, 2558.0], [-119.439588, 37.845093, 2554.2], [-119.439616, 37.845092, 2551.1], [-119.439633, 37.84506, 2552.0], [-119.439677, 37.845048, 2553.8], [-119.439687, 37.845003, 2552.4], [-119.439718, 37.844993, 2551.8], [-119.439808, 37.844971, 2548.6], [-119.439899, 37.844887, 2545.4], [-119.439933, 37.84486, 2545.1], [-119.439965, 37.844853, 2540.4], [-119.440009, 37.844815, 2541.7], [-119.440091, 37.844786, 2540.9], [-119.440295, 37.844802, 2537.5], [-119.440362, 37.844803, 2534.8], [-119.440431, 37.844761, 2533.7], [-119.440487, 37.844743, 2532.2], [-119.440534, 37.84471, 2531.3], [-119.440621, 37.844702, 2528.0], [-119.440671, 37.844677, 2527.4], [-119.440709, 37.844665, 2528.3], [-119.440716, 37.844628, 2527.4], [-119.440703, 37.844571, 2526.9], [-119.44071, 37.844542, 2524.4], [-119.440771, 37.844433, 2524.1], [-119.440858, 37.844415, 2522.7], [-119.440929, 37.844407, 2520.9], [-119.441054, 37.844366, 2520.7], [-119.441073, 37.844363, 2520.5], [-119.441173, 37.844338, 2520.3], [-119.441248, 37.844353, 2515.6], [-119.44128, 37.844324, 2515.4], [-119.441313, 37.844304, 2515.3], [-119.441368, 37.84429, 2513.5], [-119.441443, 37.844305, 2515.4], [-119.441428, 37.844333, 2510.7], [-119.44141, 37.844317, 2507.4], [-119.441371, 37.844311, 2510.4], [-119.441357, 37.84429, 2506.6], [-119.441388, 37.844235, 2503.7], [-119.441387, 37.844224, 2503.7], [-119.441406, 37.844141, 2506.4], [-119.441437, 37.844105, 2503.8], [-119.441427, 37.844033, 2505.2], [-119.44141, 37.843946, 2507.6], [-119.44142, 37.843878, 2503.6], [-119.441442, 37.843851, 2504.4], [-119.441485, 37.843814, 2502.1], [-119.441574, 37.843809, 2505.0], [-119.441604, 37.843798, 2505.5], [-119.441609, 37.843758, 2506.1], [-119.441609, 37.843709, 2506.4], [-119.441622, 37.843666, 2507.9], [-119.44161, 37.843603, 2511.2], [-119.44164, 37.843618, 2512.3], [-119.441696, 37.843602, 2512.6], [-119.44179, 37.843542, 2504.4], [-119.441809, 37.843547, 2504.7], [-119.441833, 37.84356, 2505.9], [-119.441856, 37.84355, 2505.5], [-119.441928, 37.843568, 2504.0], [-119.44198, 37.843536, 2504.5], [-119.441997, 37.843515, 2503.0], [-119.442192, 37.843537, 2499.8], [-119.442229, 37.843518, 2502.2], [-119.442308, 37.843463, 2499.7], [-119.442371, 37.843443, 2499.6], [-119.442414, 37.843407, 2502.0], [-119.442434, 37.843394, 2502.8], [-119.442582, 37.843365, 2505.1], [-119.442615, 37.843337, 2508.0], [-119.442641, 37.843319, 2507.3], [-119.442725, 37.8433, 2509.7], [-119.442782, 37.84327, 2507.2], [-119.442802, 37.843264, 2509.4], [-119.442853, 37.843295, 2509.3], [-119.44299, 37.843255, 2507.4], [-119.443074, 37.843204, 2499.6], [-119.443117, 37.843197, 2500.8], [-119.443174, 37.843209, 2501.9], [-119.443219, 37.843223, 2501.2], [-119.443215, 37.843248, 2497.0], [-119.443243, 37.843256, 2500.0], [-119.443299, 37.843262, 2496.7], [-119.443382, 37.843235, 2497.2], [-119.443524, 37.843193, 2492.2], [-119.443604, 37.843201, 2491.6], [-119.443767, 37.843147, 2492.2], [-119.44377, 37.843117, 2489.4], [-119.443785, 37.843107, 2489.9], [-119.443895, 37.843009, 2489.7], [-119.443927, 37.843007, 2487.1], [-119.44396, 37.843023, 2488.5], [-119.444019, 37.843013, 2482.5], [-119.444055, 37.842975, 2482.0], [-119.444098, 37.842955, 2482.0], [-119.444124, 37.842921, 2482.2], [-119.444155, 37.842889, 2482.8], [-119.444185, 37.842879, 2482.0], [-119.444243, 37.842877, 2480.5], [-119.444353, 37.842833, 2473.2], [-119.444449, 37.842785, 2471.5], [-119.444473, 37.842743, 2471.9], [-119.444508, 37.842736, 2469.7], [-119.444517, 37.842738, 2467.0], [-119.444639, 37.842729, 2469.5], [-119.444724, 37.842687, 2472.3], [-119.444774, 37.842671, 2473.0], [-119.444807, 37.84268, 2470.6], [-119.444937, 37.84265, 2476.6], [-119.445018, 37.842579, 2471.3], [-119.445088, 37.842556, 2472.8], [-119.445138, 37.842564, 2471.5], [-119.44521, 37.8425, 2465.7], [-119.445269, 37.842462, 2466.7], [-119.445281, 37.842448, 2467.3], [-119.445349, 37.842353, 2473.5], [-119.445319, 37.842286, 2469.0], [-119.445321, 37.842269, 2467.6], [-119.445339, 37.842215, 2467.0], [-119.445411, 37.842093, 2464.2], [-119.445394, 37.842064, 2466.0], [-119.445393, 37.842017, 2464.2], [-119.44549, 37.841961, 2463.9], [-119.445503, 37.841952, 2465.5], [-119.445588, 37.841837, 2467.0], [-119.445598, 37.841826, 2467.5], [-119.445673, 37.841772, 2469.9], [-119.445747, 37.841686, 2472.0], [-119.445828, 37.841611, 2470.3], [-119.445914, 37.841571, 2470.9], [-119.445963, 37.84155, 2472.2], [-119.44601, 37.841508, 2472.6], [-119.44606, 37.841496, 2470.6], [-119.4461, 37.84146, 2466.2], [-119.446263, 37.841321, 2465.9], [-119.446271, 37.84131, 2466.1], [-119.4464, 37.841171, 2463.9], [-119.446457, 37.841111, 2465.9], [-119.44657, 37.841051, 2467.2], [-119.446765, 37.840973, 2468.9], [-119.446777, 37.840964, 2468.9], [-119.446882, 37.840838, 2471.2], [-119.446943, 37.840746, 2469.3], [-119.447001, 37.840694, 2470.3], [-119.447007, 37.84068, 2469.3], [-119.447031, 37.840587, 2468.9], [-119.447066, 37.84053, 2468.2], [-119.447077, 37.84052, 2467.8], [-119.447187, 37.840378, 2466.4], [-119.447191, 37.840364, 2467.0], [-119.447233, 37.840272, 2467.0], [-119.447268, 37.840237, 2467.1], [-119.447322, 37.840215, 2467.9], [-119.447342, 37.840195, 2468.6], [-119.44739, 37.840095, 2467.9], [-119.447397, 37.840083, 2468.2], [-119.447435, 37.840042, 2467.0], [-119.447503, 37.84, 2466.5], [-119.447541, 37.839951, 2465.0], [-119.447624, 37.839883, 2466.7], [-119.447653, 37.839835, 2468.1], [-119.447665, 37.839768, 2467.4], [-119.447724, 37.839684, 2467.2], [-119.447728, 37.839667, 2469.3], [-119.447761, 37.839589, 2468.5], [-119.44777, 37.839494, 2470.5], [-119.447844, 37.839439, 2469.4], [-119.447862, 37.839406, 2469.5], [-119.447864, 37.839337, 2468.3], [-119.447883, 37.839262, 2468.6], [-119.447923, 37.83921, 2469.0], [-119.447914, 37.839122, 2470.7], [-119.447918, 37.839108, 2470.0], [-119.447929, 37.839013, 2469.0], [-119.447952, 37.83897, 2465.2], [-119.447955, 37.838921, 2466.4], [-119.448003, 37.838805, 2467.0], [-119.447996, 37.838755, 2468.4], [-119.448003, 37.838715, 2470.2], [-119.448036, 37.838668, 2469.8], [-119.448068, 37.838587, 2471.1], [-119.448058, 37.838569, 2471.9], [-119.448039, 37.83855, 2472.1], [-119.448048, 37.838527, 2471.4], [-119.448111, 37.838465, 2472.6], [-119.448129, 37.838385, 2471.3], [-119.448181, 37.838283, 2468.1], [-119.448184, 37.838229, 2468.2], [-119.448182, 37.838175, 2468.9], [-119.448198, 37.838139, 2469.8], [-119.448192, 37.83811, 2470.2], [-119.448202, 37.838068, 2470.2], [-119.448229, 37.838011, 2470.3], [-119.448218, 37.837986, 2469.9], [-119.448191, 37.83797, 2470.8], [-119.448154, 37.837893, 2470.4], [-119.448088, 37.837825, 2472.1], [-119.448054, 37.837753, 2470.7], [-119.448055, 37.83774, 2470.2], [-119.448076, 37.837683, 2468.5], [-119.448074, 37.837585, 2464.3], [-119.447942, 37.837553, 2464.3], [-119.447872, 37.837511, 2468.1], [-119.447781, 37.837436, 2470.2], [-119.447697, 37.837389, 2470.6], [-119.447647, 37.837372, 2472.0], [-119.447608, 37.837344, 2473.2], [-119.447548, 37.837342, 2476.2], [-119.447542, 37.837323, 2476.7], [-119.447562, 37.837289, 2475.9], [-119.447553, 37.837241, 2474.3], [-119.447494, 37.837178, 2474.5], [-119.447479, 37.837118, 2474.7], [-119.447483, 37.837109, 2474.2], [-119.447473, 37.836989, 2476.2], [-119.447483, 37.836946, 2475.8], [-119.447543, 37.836832, 2473.1], [-119.447535, 37.836778, 2470.2], [-119.447536, 37.836767, 2470.2], [-119.447528, 37.836731, 2471.7], [-119.447556, 37.836571, 2473.1], [-119.447573, 37.836528, 2474.5], [-119.447635, 37.836453, 2476.0], [-119.447645, 37.836419, 2476.1], [-119.447686, 37.836376, 2476.1], [-119.447805, 37.836302, 2477.7], [-119.447851, 37.836257, 2476.0], [-119.447944, 37.836232, 2477.1], [-119.447979, 37.836208, 2477.4], [-119.447987, 37.836193, 2478.4], [-119.448013, 37.836168, 2475.7], [-119.448136, 37.836107, 2474.0], [-119.448214, 37.83607, 2473.0], [-119.448247, 37.836066, 2470.9], [-119.448272, 37.836077, 2470.6], [-119.448373, 37.836061, 2472.0], [-119.448385, 37.836055, 2472.2], [-119.44847, 37.836036, 2470.0], [-119.44852, 37.835987, 2472.1], [-119.448562, 37.835976, 2470.0], [-119.448626, 37.835967, 2469.5], [-119.448707, 37.835986, 2468.3], [-119.448724, 37.836003, 2467.0], [-119.448725, 37.836028, 2465.3], [-119.448767, 37.836048, 2465.2], [-119.448899, 37.836103, 2463.6], [-119.448946, 37.836103, 2463.7], [-119.448972, 37.836085, 2463.6], [-119.449, 37.836151, 2463.3], [-119.449085, 37.836234, 2460.0], [-119.449135, 37.836291, 2461.0], [-119.449222, 37.836362, 2462.1], [-119.449301, 37.83641, 2461.1], [-119.449284, 37.836501, 2459.0], [-119.449304, 37.836531, 2457.7], [-119.449323, 37.836542, 2457.6], [-119.449323, 37.836566, 2457.7], [-119.449313, 37.836591, 2458.4], [-119.449336, 37.836606, 2459.8], [-119.449381, 37.836609, 2460.7], [-119.449454, 37.836595, 2462.2], [-119.449638, 37.83661, 2462.9], [-119.449661, 37.836613, 2463.4], [-119.44978, 37.836677, 2462.9], [-119.44982, 37.836681, 2461.8], [-119.449839, 37.836686, 2462.3], [-119.450002, 37.83674, 2465.3], [-119.450024, 37.836746, 2465.6], [-119.450126, 37.836768, 2465.7], [-119.450176, 37.836793, 2467.1], [-119.450244, 37.836808, 2466.6], [-119.450303, 37.836824, 2466.1], [-119.450417, 37.836819, 2470.4], [-119.450451, 37.836837, 2468.0], [-119.450505, 37.836847, 2468.6], [-119.450535, 37.836874, 2468.4], [-119.450666, 37.83693, 2470.1], [-119.450749, 37.836953, 2471.5], [-119.450778, 37.836979, 2472.0], [-119.450806, 37.837023, 2473.7], [-119.450839, 37.83704, 2473.8], [-119.450842, 37.837057, 2472.5], [-119.45084, 37.837115, 2473.3], [-119.450851, 37.83714, 2474.0], [-119.450873, 37.837155, 2473.0], [-119.450904, 37.837148, 2469.8], [-119.450988, 37.837154, 2468.9], [-119.451074, 37.837135, 2467.3], [-119.451183, 37.837167, 2467.3], [-119.451201, 37.83716, 2467.1], [-119.451202, 37.837206, 2461.3], [-119.451165, 37.837274, 2462.5], [-119.451157, 37.837327, 2463.6], [-119.451158, 37.837356, 2462.6], [-119.451179, 37.83741, 2461.3], [-119.451228, 37.837474, 2455.7], [-119.45124, 37.837483, 2455.8], [-119.451299, 37.837561, 2455.6], [-119.45133, 37.837569, 2453.9], [-119.451396, 37.837558, 2455.0], [-119.45153, 37.837593, 2459.4], [-119.451577, 37.837637, 2457.3], [-119.451588, 37.837653, 2457.3], [-119.451624, 37.83768, 2454.6], [-119.451664, 37.837685, 2455.4]]}}