{"type": "Feature", "properties": {}, "geometry": {"type": "LineString", "coordinates": [[-122.050054, 37.81647, 298.3], [-122.050001, 37.816396, 280.4], [-122.049945, 37.816356, 283.2], [-122.049933, 37.816374, 286.2], [-122.049928, 37.816423, 285.7], [-122.049912, 37.816443, 287.6], [-122.049888, 37.816443, 288.0], [-122.049839, 37.816469, 290.3], [-122.049816, 37.81649, 290.2], [-122.049808, 37.81652, 291.2], [-122.049829, 37.81662, 291.8], [-122.049829, 37.816635, 292.0], [-122.049839, 37.816693, 282.7], [-122.049889, 37.816782, 289.3], [-122.049898, 37.816794, 289.1], [-122.049976, 37.816829, 289.1], [-122.049992, 37.816865, 289.5], [-122.05004, 37.816915, 291.4], [-122.050103, 37.816976, 290.8], [-122.050158, 37.817063, 293.2], [-122.050165, 37.81708, 293.1], [-122.050248, 37.817236, 292.8], [-122.050345, 37.817344, 292.4], [-122.050383, 37.817361, 293.6], [-122.050368, 37.817361, 290.2], [-122.050373, 37.817375, 291.6], [-122.050466, 37.817476, 290.9], [-122.050477, 37.817485, 292.2], [-122.050526, 37.81754, 292.5], [-122.05057, 37.817621, 292.3], [-122.050576, 37.817639, 291.6], [-122.050594, 37.817704, 291.8], [-122.050604, 37.817816, 291.6], [-122.050599, 37.817935, 293.0], [-122.050634, 37.817976, 293.4], [-122.050645, 37.817987, 292.7], [-122.050696, 37.818028, 292.5], [-122.050836, 37.818093, 293.7], [-122.050859, 37.818098, 293.3], [-122.05104, 37.818191, 293.2], [-122.051056, 37.818198, 293.3], [-122.051124, 37.818261, 291.3], [-122.051204, 37.818312, 295.0], [-122.051237, 37.818342, 295.7], [-122.051342, 37.818397, 299.2], [-122.051353, 37.818404, 299.0], [-122.051484, 37.818513, 303.4], [-122.051485, 37.818518, 302.4], [-122.051536, 37.818576, 305.3], [-122.051593, 37.818664, 304.5], [-122.051598, 37.818678, 304.5], [-122.05165, 37.818757, 303.9], [-122.051713, 37.818816, 304.3], [-122.051753, 37.81889, 306.5], [-122.05184, 37.818981, 308.0], [-122.051982, 37.819091, 311.7], [-122.051989, 37.819097, 312.1], [-122.052037, 37.819152, 309.9], [-122.052065, 37.819209, 309.1], [-122.052093, 37.819231, 308.0], [-122.052168, 37.819312, 308.1], [-122.052206, 37.819326, 311.8], [-122.05222, 37.819336, 311.9], [-122.052341, 37.819416, 308.8], [-122.052352, 37.819436, 308.9], [-122.052393, 37.819464, 309.1], [-122.052408, 37.819472, 308.9], [-122.052556, 37.819575, 308.8], [-122.052574, 37.819585, 308.4], [-122.052687, 37.819626, 314.2], [-122.052754, 37.819672, 318.2], [-122.052806, 37.819725, 313.9], [-122.052861, 37.819815, 315.6], [-122.052919, 37.819909, 314.7], [-122.052929, 37.819953, 313.4], [-122.052927, 37.819963, 312.1], [-122.05298, 37.820128, 311.3], [-122.05301, 37.820164, 312.0], [-122.052991, 37.820183, 316.8], [-122.053003, 37.8202, 316.5], [-122.053053, 37.820254, 315.7], [-122.053096, 37.820279, 317.7], [-122.053163, 37.820299, 320.9], [-122.05328, 37.820296, 324.0], [-122.053285, 37.820295, 324.2], [-122.0533, 37.82031, 323.9], [-122.053393, 37.820313, 324.3], [-122.053469, 37.820347, 323.9], [-122.053477, 37.820353, 323.6], [-122.053633, 37.820436, 323.7], [-122.053645, 37.820443, 324.0], [-122.053683, 37.820489, 325.5], [-122.053717, 37.820511, 326.5], [-122.05375, 37.820568, 324.9], [-122.053757, 37.820577, 325.3], [-122.053826, 37.820672, 324.5], [-122.053876, 37.820709, 325.5], [-122.053886, 37.820715, 327.4], [-122.054028, 37.820791, 327.0], [-122.054054, 37.82084, 326.6], [-122.054063, 37.820852, 327.5], [-122.054106, 37.820904, 322.1], [-122.054225, 37.820967, 328.6], [-122.054263, 37.820995, 327.8], [-122.054293, 37.820999, 329.0], [-122.054291, 37.820974, 331.3], [-122.054263, 37.820946, 333.6], [-122.054291, 37.82096, 333.0], [-122.054317, 37.820997, 327.2], [-122.054327, 37.821006, 326.6], [-122.054497, 37.821044, 329.4], [-122.05451, 37.821033, 330.3], [-122.05456, 37.821033, 330.4], [-122.054717, 37.821076, 329.4], [-122.054728, 37.821078, 329.2], [-122.054859, 37.821122, 329.7], [-122.054907, 37.82115, 330.2], [-122.054921, 37.821155, 329.5], [-122.055037, 37.821218, 331.5], [-122.055095, 37.821232, 332.1], [-122.05511, 37.821232, 332.3], [-122.055307, 37.821223, 334.1], [-122.055358, 37.821238, 331.5], [-122.055478, 37.821246, 330.8], [-122.055527, 37.821257, 329.9], [-122.055591, 37.821274, 330.3], [-122.055646, 37.821307, 329.4], [-122.055697, 37.821316, 329.1], [-122.055739, 37.821339, 329.3], [-122.055747, 37.821347, 328.8], [-122.055809, 37.821401, 331.3], [-122.055856, 37.821418, 332.2], [-122.055905, 37.821457, 331.8], [-122.05591, 37.821463, 330.5], [-122.055938, 37.821571, 330.7], [-122.055932, 37.821622, 330.9], [-122.055935, 37.821635, 330.7], [-122.055974, 37.821711, 329.5], [-122.056014, 37.821758, 330.3], [-122.056043, 37.821776, 331.3], [-122.05605, 37.821782, 331.5], [-122.05615, 37.821843, 329.1], [-122.056234, 37.821849, 330.1], [-122.056301, 37.821845, 331.2], [-122.056328, 37.821832, 333.4], [-122.056417, 37.821766, 338.6], [-122.056432, 37.821757, 340.2], [-122.056516, 37.821703, 345.7], [-122.056643, 37.821683, 346.1], [-122.056654, 37.821685, 346.0], [-122.05677, 37.821761, 345.1], [-122.056829, 37.821786, 345.3], [-122.056844, 37.821795, 344.2], [-122.056917, 37.821864, 344.3], [-122.056995, 37.82192, 343.6], [-122.057058, 37.821948, 344.2], [-122.057106, 37.822012, 342.0], [-122.057169, 37.822061, 343.7], [-122.057178, 37.82207, 344.7], [-122.057211, 37.822098, 345.9], [-122.057247, 37.82215, 345.0], [-122.057313, 37.822205, 346.1], [-122.057321, 37.822215, 345.6], [-122.057453, 37.822347, 347.8], [-122.057462, 37.822353, 346.8], [-122.057644, 37.822444, 350.9], [-122.057656, 37.822452, 351.0], [-122.057725, 37.822464, 350.8], [-122.057767, 37.822486, 352.4], [-122.05786, 37.822511, 345.8], [-122.057879, 37.822517, 346.2], [-122.057912, 37.822545, 349.4], [-122.057935, 37.822595, 349.2], [-122.057927, 37.822613, 350.5], [-122.057896, 37.822623, 349.3], [-122.057934, 37.822641, 349.8], [-122.05802, 37.822708, 347.2], [-122.058039, 37.82271, 346.6], [-122.058091, 37.82276, 347.5], [-122.058106, 37.822777, 347.2], [-122.058178, 37.822869, 346.7], [-122.05823, 37.82291, 346.8], [-122.058298, 37.822974, 345.6], [-122.058367, 37.823004, 345.8], [-122.05841, 37.823012, 348.1], [-122.058427, 37.823012, 348.3], [-122.05852, 37.822995, 353.3], [-122.058623, 37.822933, 358.8], [-122.058682, 37.822849, 363.5], [-122.058675, 37.822805, 364.9], [-122.058685, 37.822728, 369.9], [-122.058699, 37.822669, 370.5], [-122.058681, 37.822579, 374.3], [-122.058676, 37.822565, 374.5], [-122.058683, 37.822518, 373.6], [-122.058759, 37.822455, 373.6], [-122.058799, 37.822436, 373.5], [-122.058817, 37.822434, 372.8], [-122.058902, 37.82244, 372.8], [-122.058947, 37.822475, 372.3], [-122.059003, 37.822492, 372.8], [-122.059015, 37.822497, 372.2], [-122.059136, 37.822542, 371.2], [-122.059206, 37.822542, 370.9], [-122.059395, 37.822561, 375.3], [-122.059439, 37.822555, 375.6], [-122.059454, 37.822557, 376.6], [-122.059544, 37.822608, 379.8], [-122.059617, 37.822669, 381.3], [-122.059628, 37.822679, 381.5], [-122.059678, 37.822701, 381.5], [-122.05975, 37.822771, 382.0], [-122.059784, 37.822781, 383.2], [-122.059895, 37.822793, 383.8], [-122.059986, 37.822827, 384.3], [-122.060092, 37.822876, 381.2], [-122.060131, 37.822907, 381.4], [-122.060206, 37.822988, 385.0], [-122.060235, 37.823048, 386.6], [-122.060245, 37.82306, 387.3], [-122.060288, 37.823165, 390.1], [-122.060291, 37.823214, 391.5], [-122.060289, 37.823227, 392.4], [-122.060264, 37.823316, 391.1], [-122.06026, 37.823384, 392.3], [-122.060258, 37.823395, 392.2], [-122.060199, 37.823508, 392.7], [-122.060159, 37.823561, 396.4], [-122.060093, 37.823643, 396.3], [-122.060081, 37.823718, 398.1], [-122.060079, 37.823735, 399.3], [-122.060045, 37.823867, 402.2], [-122.060023, 37.823918, 402.8], [-122.060021, 37.823927, 402.8], [-122.059991, 37.824028, 402.8], [-122.060002, 37.824113, 402.0], [-122.060007, 37.824128, 402.1], [-122.060003, 37.824177, 401.5], [-122.059958, 37.824273, 402.8], [-122.059953, 37.824285, 403.5], [-122.05994, 37.82433, 404.0], [-122.059903, 37.82438, 404.5], [-122.059858, 37.824418, 403.7], [-122.059819, 37.824455, 402.4], [-122.059774, 37.824467, 400.9], [-122.05968, 37.824465, 398.1], [-122.059647, 37.824474, 399.5], [-122.059596, 37.824479, 401.1], [-122.059524, 37.824506, 399.7], [-122.059428, 37.824513, 401.8], [-122.059396, 37.824513, 403.3], [-122.05934, 37.824531, 402.9], [-122.059293, 37.824574, 400.4], [-122.059251, 37.824588, 403.1], [-122.05923, 37.82459, 403.8], [-122.059186, 37.824598, 404.1], [-122.059132, 37.824599, 382.0], [-122.059078, 37.824589, 405.8], [-122.059048, 37.824599, 406.9], [-122.058995, 37.824598, 408.3], [-122.058978, 37.824595, 408.3], [-122.058945, 37.824598, 408.4], [-122.0589, 37.824622, 408.4], [-122.05881, 37.824631, 364.7], [-122.058777, 37.824651, 389.2], [-122.058764, 37.824663, 390.3], [-122.058664, 37.824801, 409.5], [-122.058651, 37.824807, 410.9], [-122.058561, 37.824844, 413.5], [-122.058515, 37.824874, 413.7], [-122.058444, 37.824891, 406.5], [-122.05844, 37.824896, 410.5], [-122.058388, 37.824933, 414.5], [-122.058355, 37.824985, 417.8], [-122.058299, 37.825029, 418.1], [-122.058226, 37.825031, 418.9], [-122.058159, 37.825138, 374.7], [-122.058155, 37.825147, 393.6], [-122.058122, 37.825201, 419.7], [-122.058095, 37.825205, 426.0], [-122.058037, 37.825197, 431.0], [-122.05802, 37.825179, 430.4], [-122.057977, 37.825163, 434.1], [-122.057966, 37.825162, 435.2], [-122.05784, 37.825142, 440.0], [-122.057729, 37.825154, 437.9], [-122.057655, 37.825169, 438.6], [-122.057596, 37.825201, 437.9], [-122.057592, 37.825226, 437.8], [-122.057569, 37.825251, 441.1], [-122.057549, 37.825295, 443.7], [-122.057549, 37.825331, 444.8], [-122.057528, 37.825406, 445.0], [-122.057533, 37.825443, 446.0], [-122.057573, 37.825526, 448.0], [-122.057583, 37.825579, 449.5], [-122.057601, 37.825596, 449.5], [-122.057606, 37.825654, 451.4], [-122.057624, 37.825676, 452.6], [-122.057616, 37.825753, 453.3], [-122.057605, 37.825775, 452.5], [-122.057638, 37.825807, 456.4], [-122.057662, 37.825847, 454.5], [-122.057737, 37.825876, 457.6], [-122.057742, 37.825874, 458.0], [-122.057715, 37.825865, 459.6], [-122.05768, 37.825903, 457.9], [-122.057678, 37.825944, 461.4], [-122.057696, 37.825991, 461.4], [-122.057696, 37.826, 460.4], [-122.057739, 37.826129, 467.4], [-122.057765, 37.826151, 469.2], [-122.057842, 37.826235, 470.4], [-122.057858, 37.82631, 469.0], [-122.057859, 37.82632, 468.4], [-122.057881, 37.826389, 469.6], [-122.057903, 37.826408, 469.4], [-122.05794, 37.826475, 471.9], [-122.057999, 37.82655, 478.3], [-122.058052, 37.826656, 479.5], [-122.058088, 37.826725, 481.4], [-122.058076, 37.826772, 474.0], [-122.058083, 37.826812, 477.5], [-122.05808, 37.826823, 477.6], [-122.058089, 37.826858, 481.3], [-122.058121, 37.826867, 481.4], [-122.058233, 37.826935, 484.0], [-122.058241, 37.826942, 484.1], [-122.058275, 37.826987, 483.8], [-122.058299, 37.826991, 483.6], [-122.058395, 37.827056, 478.0], [-122.058406, 37.827062, 481.1], [-122.058437, 37.827087, 483.2], [-122.058464, 37.827071, 488.7], [-122.058575, 37.827116, 490.8], [-122.058592, 37.827119, 491.6], [-122.058614, 37.827099, 494.0], [-122.058642, 37.827105, 500.0], [-122.058742, 37.827168, 500.7], [-122.058748, 37.827174, 501.2], [-122.058819, 37.82728, 498.6], [-122.058868, 37.827316, 499.2], [-122.058877, 37.827324, 499.6], [-122.058908, 37.827342, 500.6], [-122.058923, 37.827381, 501.4], [-122.058901, 37.827483, 504.3], [-122.058897, 37.827498, 504.4], [-122.058928, 37.827638, 501.7], [-122.058947, 37.827661, 503.2], [-122.058951, 37.82767, 503.0], [-122.058964, 37.827752, 502.8], [-122.058992, 37.827744, 502.6], [-122.059016, 37.82775, 501.8], [-122.059039, 37.827811, 500.3], [-122.059043, 37.827817, 500.3], [-122.059126, 37.827867, 499.4], [-122.059227, 37.827865, 503.5], [-122.059238, 37.827863, 504.0], [-122.059273, 37.827861, 504.0], [-122.059256, 37.827882, 501.2], [-122.059264, 37.827894, 501.2], [-122.059328, 37.827937, 502.2], [-122.05937, 37.827948, 500.7], [-122.0594, 37.82797, 500.3], [-122.059415, 37.828008, 501.2], [-122.059457, 37.828062, 501.5], [-122.059494, 37.828053, 503.4], [-122.0595, 37.828056, 503.8], [-122.059546, 37.828108, 505.1], [-122.059596, 37.828131, 506.8], [-122.059631, 37.828183, 506.2], [-122.059707, 37.828229, 508.3], [-122.059803, 37.828306, 506.2], [-122.059861, 37.828337, 511.1], [-122.059989, 37.828383, 510.7], [-122.060002, 37.828391, 511.8], [-122.060069, 37.828447, 512.5], [-122.06017, 37.828473, 514.7], [-122.060186, 37.82848, 514.5], [-122.060276, 37.82856, 513.5], [-122.060368, 37.828621, 512.4], [-122.060441, 37.828658, 512.5], [-122.060508, 37.828722, 512.3], [-122.060516, 37.828731, 512.1], [-122.060583, 37.828789, 513.7], [-122.060661, 37.828824, 513.3], [-122.060677, 37.828832, 513.0], [-122.06078, 37.8289, 514.1], [-122.060829, 37.828946, 514.3], [-122.060905, 37.829049, 514.9], [-122.060958, 37.829091, 515.3], [-122.060969, 37.829101, 514.9], [-122.061112, 37.829211, 513.3], [-122.061191, 37.829273, 513.8], [-122.061198, 37.829298, 513.2], [-122.061219, 37.829315, 513.7], [-122.061253, 37.829333, 514.0], [-122.061264, 37.829342, 513.8], [-122.06141, 37.829468, 514.4], [-122.06142, 37.829476, 514.9], [-122.061513, 37.829542, 513.2], [-122.061551, 37.829581, 512.5], [-122.06156, 37.829595, 512.3], [-122.061589, 37.829646, 511.6], [-122.06161, 37.829765, 510.4], [-122.061686, 37.829878, 511.5], [-122.061697, 37.829908, 511.7], [-122.061708, 37.829918, 511.8], [-122.061762, 37.830017, 510.7], [-122.061804, 37.830047, 512.2], [-122.061816, 37.830052, 511.6], [-122.061933, 37.830153, 510.9], [-122.061942, 37.83016, 511.1], [-122.061988, 37.830208, 512.1], [-122.062035, 37.830295, 512.3], [-122.062123, 37.830482, 508.2], [-122.062156, 37.830592, 507.4], [-122.062149, 37.830647, 502.0], [-122.06215, 37.830654, 502.0], [-122.062206, 37.830818, 498.9], [-122.062262, 37.83091, 495.2], [-122.062318, 37.830972, 493.2], [-122.062329, 37.830983, 493.0], [-122.062361, 37.831005, 492.7], [-122.062382, 37.831086, 491.0], [-122.062414, 37.831131, 489.0], [-122.062437, 37.831175, 488.7], [-122.062444, 37.831218, 488.8], [-122.062478, 37.831259, 487.2], [-122.062491, 37.831296, 486.5], [-122.062542, 37.831382, 486.4], [-122.062575, 37.831418, 487.2], [-122.062577, 37.831469, 484.0], [-122.062588, 37.831484, 484.0], [-122.06261, 37.831637, 482.3], [-122.062613, 37.83165, 482.2], [-122.062616, 37.831706, 480.1], [-122.062641, 37.831745, 482.2], [-122.06266, 37.831815, 479.1], [-122.062668, 37.831882, 438.0], [-122.062703, 37.831985, 481.8], [-122.062714, 37.832004, 480.3], [-122.062746, 37.831993, 476.2], [-122.062755, 37.832042, 483.0], [-122.062794, 37.832121, 479.7], [-122.0628, 37.832135, 480.0], [-122.062854, 37.832197, 481.2], [-122.062865, 37.832263, 479.6], [-122.062888, 37.832315, 479.9], [-122.062889, 37.83238, 479.4], [-122.062901, 37.832428, 479.9], [-122.062913, 37.832594, 478.3], [-122.06293, 37.83265, 481.6], [-122.063021, 37.832741, 481.9], [-122.063218, 37.832845, 483.6], [-122.063235, 37.832853, 483.5], [-122.063343, 37.832894, 488.2], [-122.063358, 37.832942, 485.9], [-122.063359, 37.832959, 485.3], [-122.063389, 37.83296, 483.5], [-122.06341, 37.832981, 483.4], [-122.063438, 37.833022, 484.8], [-122.063437, 37.833044, 400.2], [-122.063463, 37.833057, 442.6], [-122.063486, 37.833084, 469.9], [-122.063488, 37.833107, 471.0], [-122.063544, 37.833159, 483.1], [-122.063614, 37.833198, 489.8], [-122.063652, 37.833206, 488.8], [-122.063628, 37.833203, 483.1], [-122.063604, 37.833218, 463.6], [-122.06362, 37.833194, 491.8], [-122.063646, 37.833201, 493.5], [-122.063678, 37.83328, 491.7], [-122.063684, 37.833284, 493.1], [-122.063736, 37.833307, 494.7], [-122.06378, 37.833364, 496.1], [-122.063791, 37.833383, 498.7], [-122.063773, 37.833418, 481.8], [-122.063672, 37.833535, 497.8], [-122.063673, 37.833563, 499.5], [-122.063677, 37.833583, 499.1], [-122.063692, 37.833627, 499.3], [-122.063728, 37.833654, 501.0], [-122.063756, 37.833666, 500.6], [-122.063824, 37.83367, 502.3], [-122.063841, 37.833672, 502.1], [-122.064005, 37.83373, 509.9], [-122.064021, 37.833734, 509.6], [-122.064165, 37.833795, 507.6], [-122.064199, 37.833834, 508.4], [-122.064209, 37.833843, 507.1], [-122.064245, 37.833859, 505.9], [-122.064252, 37.833878, 506.2], [-122.064183, 37.83387, 510.5], [-122.064108, 37.833813, 511.5], [-122.064096, 37.833807, 511.1], [-122.063978, 37.833737, 509.3], [-122.063931, 37.833723, 509.6], [-122.063911, 37.833721, 509.4], [-122.06372, 37.833682, 509.4], [-122.063702, 37.833677, 508.9], [-122.063669, 37.833663, 511.3], [-122.063652, 37.833617, 504.2], [-122.063653, 37.833596, 502.9], [-122.063692, 37.833538, 499.5], [-122.063746, 37.833507, 481.5], [-122.063781, 37.833451, 492.3], [-122.06384, 37.833387, 495.8], [-122.063834, 37.833377, 496.2], [-122.063808, 37.833323, 493.6], [-122.063759, 37.833268, 490.9], [-122.063693, 37.833245, 494.2], [-122.063683, 37.833243, 494.0], [-122.063622, 37.833158, 487.5], [-122.06356, 37.8331, 365.2], [-122.063538, 37.833087, 397.0], [-122.063442, 37.833012, 468.0], [-122.063388, 37.83298, 470.0], [-122.063345, 37.832931, 484.9], [-122.063283, 37.832907, 484.3], [-122.063209, 37.832859, 483.4], [-122.063134, 37.832819, 485.7], [-122.063045, 37.832753, 487.0], [-122.062996, 37.832736, 483.7], [-122.062983, 37.832719, 483.0], [-122.062949, 37.832587, 458.7], [-122.062953, 37.832576, 464.7], [-122.062963, 37.832493, 472.4], [-122.062982, 37.832437, 469.6], [-122.062979, 37.832399, 470.5], [-122.06298, 37.832388, 470.7], [-122.062976, 37.832316, 384.7], [-122.06294, 37.832235, 457.9], [-122.062937, 37.832221, 460.2], [-122.062933, 37.832181, 464.9], [-122.062871, 37.832069, 470.0], [-122.062857, 37.832054, 470.0], [-122.062806, 37.83198, 472.0], [-122.06279, 37.831895, 456.0], [-122.06279, 37.831882, 459.4], [-122.06275, 37.831811, 467.6], [-122.062754, 37.831773, 404.1], [-122.062741, 37.831729, 452.9], [-122.062743, 37.831694, 465.2], [-122.062719, 37.831641, 470.4], [-122.062729, 37.831564, 473.1], [-122.06267, 37.8314, 474.5], [-122.062663, 37.831392, 474.9], [-122.062662, 37.831354, 476.2], [-122.062591, 37.831229, 478.1], [-122.062589, 37.831218, 477.6], [-122.062587, 37.831184, 477.0], [-122.062537, 37.831134, 485.2], [-122.062491, 37.831065, 485.1], [-122.062487, 37.831057, 485.2], [-122.062433, 37.830997, 485.6], [-122.06238, 37.830994, 493.3], [-122.062311, 37.83094, 492.1], [-122.062269, 37.830832, 488.5], [-122.062277, 37.830812, 492.6], [-122.062236, 37.830768, 498.7], [-122.062233, 37.830731, 499.9], [-122.062218, 37.830711, 500.0], [-122.062253, 37.830609, 499.2], [-122.062243, 37.830541, 495.4], [-122.062176, 37.830445, 503.0], [-122.062176, 37.830436, 503.0], [-122.062171, 37.83041, 497.3], [-122.062142, 37.83036, 498.2], [-122.062132, 37.830294, 497.0], [-122.062129, 37.83028, 499.6], [-122.062025, 37.830164, 497.9], [-122.06201, 37.830154, 497.5], [-122.061895, 37.830073, 501.5], [-122.061875, 37.830047, 501.5], [-122.061871, 37.830038, 502.4], [-122.06183, 37.82996, 504.6], [-122.061769, 37.829879, 500.7], [-122.061763, 37.829869, 503.3], [-122.061668, 37.829682, 505.4], [-122.061663, 37.829567, 454.4], [-122.061628, 37.829515, 484.7], [-122.061612, 37.829507, 486.8], [-122.061473, 37.829443, 503.6], [-122.061438, 37.829406, 503.9], [-122.06138, 37.829355, 508.1], [-122.061338, 37.829277, 481.0], [-122.061308, 37.829253, 507.3], [-122.061291, 37.829243, 506.8], [-122.06123, 37.829186, 509.4], [-122.061171, 37.829166, 509.8], [-122.061139, 37.829171, 514.0], [-122.061109, 37.829148, 514.1], [-122.061096, 37.829127, 513.3], [-122.06111, 37.8291, 512.7], [-122.060981, 37.828996, 513.9], [-122.060927, 37.828924, 513.2], [-122.060844, 37.828871, 513.3], [-122.060834, 37.82886, 513.1], [-122.06076, 37.828808, 508.3], [-122.060684, 37.828777, 511.6], [-122.060667, 37.828747, 515.1], [-122.060561, 37.82865, 491.3], [-122.060493, 37.828622, 506.0], [-122.060483, 37.828612, 506.7], [-122.06038, 37.828567, 506.1], [-122.060313, 37.828501, 505.2], [-122.060304, 37.82849, 506.4], [-122.060218, 37.828424, 503.7], [-122.06012, 37.828372, 508.1], [-122.059968, 37.828335, 512.3], [-122.059937, 37.828314, 510.4], [-122.05994, 37.82831, 510.4], [-122.059934, 37.828284, 494.8], [-122.059779, 37.828237, 510.3], [-122.059773, 37.828232, 507.9], [-122.059725, 37.828173, 505.9], [-122.059652, 37.828142, 504.3], [-122.059629, 37.82812, 501.9], [-122.059614, 37.828095, 502.5], [-122.059629, 37.828072, 500.2], [-122.059552, 37.827983, 499.1], [-122.059502, 37.827956, 499.8], [-122.059326, 37.827871, 498.7], [-122.059306, 37.827863, 500.3], [-122.059146, 37.827818, 499.1], [-122.059133, 37.827813, 498.7], [-122.058969, 37.82772, 499.6], [-122.058955, 37.827711, 500.7], [-122.058872, 37.827611, 501.6], [-122.058843, 37.827604, 503.7], [-122.058813, 37.82758, 505.8], [-122.058787, 37.827539, 505.8], [-122.058748, 37.827508, 504.8], [-122.058689, 37.827505, 504.8], [-122.058637, 37.827479, 504.0], [-122.058624, 37.827474, 504.1], [-122.058589, 37.827445, 505.8], [-122.058512, 37.827438, 504.2], [-122.058447, 37.82738, 505.3], [-122.058432, 37.827373, 505.3], [-122.058305, 37.827329, 508.1], [-122.058251, 37.827298, 508.8], [-122.058237, 37.827288, 508.7], [-122.058208, 37.827273, 486.1], [-122.05804, 37.827252, 507.8], [-122.057995, 37.827232, 507.5], [-122.057979, 37.827182, 506.1], [-122.057962, 37.82717, 506.6], [-122.057957, 37.827143, 505.6], [-122.057982, 37.827092, 504.7], [-122.057983, 37.827081, 504.9], [-122.057979, 37.827046, 503.8], [-122.057901, 37.827009, 501.3], [-122.057877, 37.826991, 500.8], [-122.057865, 37.826963, 499.3], [-122.057863, 37.826954, 500.1], [-122.057871, 37.82692, 500.4], [-122.057826, 37.826858, 498.4], [-122.057807, 37.826789, 496.2], [-122.0578, 37.82678, 495.3], [-122.057773, 37.826724, 493.6], [-122.057755, 37.82671, 493.6], [-122.057714, 37.826682, 494.3], [-122.057655, 37.826667, 495.9], [-122.057647, 37.826672, 496.1], [-122.057634, 37.826657, 496.6], [-122.057607, 37.826649, 497.7], [-122.057564, 37.826592, 496.1], [-122.057496, 37.826572, 495.9], [-122.057486, 37.826567, 496.6], [-122.05746, 37.826444, 495.2], [-122.05741, 37.826406, 496.9], [-122.057404, 37.826397, 497.0], [-122.057375, 37.826321, 494.2], [-122.057322, 37.826271, 492.5], [-122.057302, 37.82623, 491.1], [-122.057289, 37.826172, 489.7], [-122.057263, 37.826141, 489.0], [-122.057177, 37.826118, 488.3], [-122.057167, 37.826114, 487.9], [-122.057138, 37.826095, 474.9], [-122.057057, 37.826067, 491.4], [-122.05701, 37.82601, 492.8], [-122.057, 37.826007, 492.8], [-122.056852, 37.825878, 493.9], [-122.056843, 37.825864, 499.9], [-122.056805, 37.825817, 492.9], [-122.056695, 37.825738, 491.5], [-122.056682, 37.825727, 491.0], [-122.056644, 37.825705, 491.4], [-122.056559, 37.825693, 498.0], [-122.05653, 37.825679, 492.7], [-122.056491, 37.825691, 493.4], [-122.056477, 37.825694, 495.6], [-122.056354, 37.825711, 491.7], [-122.056302, 37.825689, 492.1], [-122.056263, 37.82569, 493.5], [-122.056243, 37.825687, 495.1], [-122.056165, 37.825682, 498.4], [-122.056056, 37.825639, 497.0], [-122.056047, 37.825634, 496.5], [-122.055949, 37.825531, 497.8], [-122.055899, 37.825509, 498.0], [-122.055884, 37.825507, 499.4], [-122.055806, 37.825503, 500.3], [-122.055766, 37.825477, 499.7], [-122.055743, 37.825443, 499.1], [-122.055723, 37.825432, 499.4], [-122.055703, 37.825425, 501.6], [-122.055599, 37.825352, 498.0], [-122.055507, 37.825358, 497.8], [-122.055381, 37.825348, 496.7], [-122.05531, 37.825356, 494.4], [-122.055286, 37.825354, 494.7], [-122.055181, 37.825338, 493.0], [-122.055102, 37.825386, 495.3], [-122.055089, 37.825397, 494.8], [-122.055045, 37.825439, 492.8], [-122.055, 37.825425, 492.7], [-122.054976, 37.825407, 492.3], [-122.054955, 37.825427, 492.2], [-122.054888, 37.825415, 488.7], [-122.054884, 37.825416, 488.8], [-122.054768, 37.825432, 490.3], [-122.054664, 37.825428, 489.8], [-122.05461, 37.825429, 487.8], [-122.054586, 37.825445, 486.9], [-122.054563, 37.825439, 485.7], [-122.054517, 37.825418, 485.5], [-122.054459, 37.825364, 484.9], [-122.054418, 37.825314, 483.8], [-122.054395, 37.825303, 483.7], [-122.054268, 37.825278, 490.2], [-122.054258, 37.825281, 489.6], [-122.054164, 37.825253, 493.2], [-122.054085, 37.825273, 494.9], [-122.054066, 37.825277, 493.2], [-122.053937, 37.825269, 492.2], [-122.053856, 37.825222, 490.3], [-122.053842, 37.825212, 490.1], [-122.053745, 37.825172, 490.1], [-122.053683, 37.825173, 490.6], [-122.053588, 37.825211, 491.1], [-122.053501, 37.825223, 488.5], [-122.053434, 37.825221, 488.1], [-122.053354, 37.825202, 491.0], [-122.053256, 37.825223, 488.7], [-122.053235, 37.825227, 489.3], [-122.053179, 37.825232, 490.4], [-122.053057, 37.825205, 494.0], [-122.053049, 37.825202, 491.7], [-122.05287, 37.825206, 497.1], [-122.052828, 37.825224, 500.0], [-122.052806, 37.825244, 499.4], [-122.052757, 37.825272, 501.0], [-122.052639, 37.825291, 502.9], [-122.052605, 37.825306, 503.5], [-122.052572, 37.825325, 504.6], [-122.052554, 37.825368, 496.3], [-122.052524, 37.825369, 505.0], [-122.052502, 37.825414, 505.0], [-122.052477, 37.825436, 507.9], [-122.052469, 37.82544, 508.6], [-122.052384, 37.825442, 505.5], [-122.052262, 37.825466, 509.2], [-122.052253, 37.825467, 507.9], [-122.052188, 37.825451, 442.4], [-122.052168, 37.825396, 479.9], [-122.052128, 37.825351, 485.9], [-122.052111, 37.825337, 492.3], [-122.052016, 37.825293, 507.8], [-122.051925, 37.825287, 503.5], [-122.051892, 37.825283, 504.1], [-122.051852, 37.825254, 502.5], [-122.051857, 37.825209, 497.0], [-122.051843, 37.825185, 496.1], [-122.051841, 37.825131, 442.4], [-122.051843, 37.82512, 360.5], [-122.051851, 37.825098, 439.3], [-122.051851, 37.825027, 472.7], [-122.051823, 37.824979, 484.1], [-122.051816, 37.824971, 485.2], [-122.05176, 37.824934, 492.2], [-122.05173, 37.824893, 493.9], [-122.05174, 37.824854, 494.8], [-122.051764, 37.824827, 496.0], [-122.051772, 37.824815, 496.1], [-122.051798, 37.824783, 495.5], [-122.051758, 37.8247, 493.5], [-122.051774, 37.824644, 490.8], [-122.051813, 37.82461, 491.4], [-122.051838, 37.824565, 489.1], [-122.051836, 37.824489, 487.9], [-122.051837, 37.824476, 487.8], [-122.05178, 37.824315, 484.1], [-122.05178, 37.824299, 483.6], [-122.051831, 37.824264, 482.5], [-122.051842, 37.824244, 482.9], [-122.051846, 37.824228, 482.5], [-122.051835, 37.824174, 483.0], [-122.051831, 37.824167, 482.9], [-122.051806, 37.824091, 480.7], [-122.051757, 37.824015, 483.5], [-122.051732, 37.824006, 478.8], [-122.051637, 37.823927, 476.9], [-122.05158, 37.823908, 475.7], [-122.051404, 37.823855, 476.9], [-122.051389, 37.823851, 477.8], [-122.051343, 37.823831, 477.5], [-122.05126, 37.823737, 478.4], [-122.051184, 37.82366, 477.1], [-122.051096, 37.823618, 461.4], [-122.051074, 37.8236, 466.3], [-122.051057, 37.823556, 468.0], [-122.051057, 37.823532, 468.3], [-122.051024, 37.823466, 471.8], [-122.051002, 37.823413, 473.3], [-122.050935, 37.823312, 473.3], [-122.050868, 37.823242, 473.7], [-122.050788, 37.823213, 473.8], [-122.050776, 37.823207, 473.2], [-122.050745, 37.823183, 470.1], [-122.050693, 37.823169, 470.3], [-122.050653, 37.823107, 468.5], [-122.050628, 37.823086, 469.7], [-122.050625, 37.823075, 468.8], [-122.050624, 37.823043, 467.1], [-122.050535, 37.822943, 467.1], [-122.050518, 37.822934, 467.7], [-122.050462, 37.822896, 466.7], [-122.050434, 37.822858, 460.2], [-122.050392, 37.822825, 460.4], [-122.050381, 37.822794, 456.7], [-122.050374, 37.822783, 457.4], [-122.050339, 37.82278, 460.9], [-122.050237, 37.822722, 463.9], [-122.050211, 37.822672, 462.7], [-122.050142, 37.822613, 468.6], [-122.050028, 37.822558, 466.5], [-122.050014, 37.822549, 466.3], [-122.049964, 37.822525, 468.6], [-122.049944, 37.82248, 440.3], [-122.049875, 37.822407, 460.4], [-122.049862, 37.822397, 462.4], [-122.049803, 37.822365, 462.1], [-122.049755, 37.822313, 457.8], [-122.049689, 37.822295, 398.6], [-122.049677, 37.822294, 409.4], [-122.049635, 37.822282, 448.8], [-122.049635, 37.822301, 457.1], [-122.049608, 37.822292, 458.2], [-122.04957, 37.822216, 452.7], [-122.049561, 37.822202, 453.4], [-122.049522, 37.822174, 453.7], [-122.049389, 37.82213, 455.9], [-122.049231, 37.822085, 406.8], [-122.049182, 37.822091, 451.5], [-122.049096, 37.822067, 461.4], [-122.049028, 37.822068, 465.0], [-122.048998, 37.822026, 464.5], [-122.048988, 37.821995, 464.1], [-122.04895, 37.82197, 465.0], [-122.048955, 37.821948, 464.5], [-122.048972, 37.82193, 463.9], [-122.049001, 37.82192, 462.4], [-122.049005, 37.821889, 463.1], [-122.049001, 37.821881, 463.9], [-122.048963, 37.821838, 465.0], [-122.048909, 37.821824, 467.1], [-122.048894, 37.821804, 463.9], [-122.048886, 37.821743, 463.6], [-122.048872, 37.821723, 464.9], [-122.048851, 37.821717, 465.1], [-122.048705, 37.821717, 447.1], [-122.048688, 37.821716, 451.1], [-122.048653, 37.821698, 462.5], [-122.048606, 37.821654, 465.2], [-122.048596, 37.821636, 466.0], [-122.04861, 37.82158, 448.5], [-122.048616, 37.821563, 450.6], [-122.048629, 37.821414, 459.3], [-122.048629, 37.821401, 461.4], [-122.048599, 37.821365, 460.5], [-122.048495, 37.82135, 462.6], [-122.048462, 37.821324, 460.8], [-122.048456, 37.821314, 459.4], [-122.048381, 37.821271, 459.2], [-122.048276, 37.821276, 459.8], [-122.048147, 37.82129, 462.0], [-122.048055, 37.821264, 461.3], [-122.048044, 37.821259, 461.5], [-122.048024, 37.821235, 461.6], [-122.048028, 37.82117, 460.1], [-122.047985, 37.821113, 457.7], [-122.047976, 37.821105, 458.5], [-122.047889, 37.821057, 459.7], [-122.047878, 37.821035, 458.1], [-122.047855, 37.821023, 459.4], [-122.047781, 37.821008, 463.7], [-122.047767, 37.821006, 463.2], [-122.047667, 37.820975, 459.7], [-122.047588, 37.820962, 467.6], [-122.047574, 37.820955, 468.6], [-122.047574, 37.820922, 465.9], [-122.047592, 37.820896, 465.9], [-122.047581, 37.820875, 466.6], [-122.047486, 37.820841, 459.7], [-122.047466, 37.820838, 461.6], [-122.047385, 37.820815, 465.7], [-122.047277, 37.820815, 471.8], [-122.047257, 37.820814, 471.1], [-122.047117, 37.820822, 469.6], [-122.047099, 37.820802, 468.3], [-122.047064, 37.820818, 468.0], [-122.047059, 37.820824, 468.3], [-122.047006, 37.82085, 468.4], [-122.046898, 37.820884, 464.9], [-122.046912, 37.820844, 465.8], [-122.046941, 37.820843, 466.7], [-122.046973, 37.820815, 467.0], [-122.046987, 37.820807, 466.1], [-122.047059, 37.82081, 467.8], [-122.047109, 37.820781, 468.3], [-122.047109, 37.820755, 466.5], [-122.047073, 37.820707, 465.1], [-122.047043, 37.820656, 460.9], [-122.047041, 37.820611, 458.9], [-122.047004, 37.820539, 457.7], [-122.047, 37.82053, 457.6], [-122.046993, 37.820475, 457.0], [-122.046968, 37.820436, 457.2], [-122.046915, 37.820396, 458.6], [-122.046889, 37.8204, 457.7], [-122.046832, 37.820381, 458.6], [-122.046767, 37.820384, 457.8], [-122.046691, 37.820373, 455.7], [-122.046604, 37.820368, 455.4], [-122.046457, 37.82032, 452.7], [-122.046447, 37.820314, 452.5], [-122.046391, 37.820285, 452.1], [-122.046361, 37.820225, 438.5], [-122.046327, 37.820185, 445.5], [-122.046337, 37.820189, 444.1], [-122.046278, 37.820118, 444.2], [-122.046268, 37.820074, 446.1], [-122.046264, 37.820068, 445.4], [-122.046276, 37.820031, 442.5], [-122.046251, 37.819946, 443.6], [-122.046224, 37.819892, 442.8], [-122.046215, 37.819878, 442.5], [-122.046175, 37.819801, 432.2], [-122.046171, 37.819745, 439.0], [-122.046167, 37.819732, 439.4], [-122.046161, 37.81962, 437.7], [-122.046096, 37.819596, 435.1], [-122.046088, 37.819594, 435.6], [-122.045894, 37.819531, 432.5], [-122.045884, 37.819524, 431.8], [-122.045838, 37.819479, 431.9], [-122.045777, 37.819364, 430.7], [-122.045774, 37.819352, 430.6], [-122.045756, 37.819186, 428.0], [-122.045758, 37.819168, 428.8], [-122.045769, 37.819121, 428.2], [-122.045757, 37.819055, 426.3], [-122.045769, 37.819012, 429.0], [-122.045773, 37.818993, 428.8], [-122.045763, 37.818952, 426.6], [-122.045743, 37.818927, 425.8], [-122.045708, 37.818902, 425.4], [-122.045673, 37.818894, 424.5], [-122.045656, 37.818888, 424.8], [-122.04553, 37.818858, 411.6], [-122.045477, 37.8188, 424.7], [-122.04547, 37.81879, 425.2], [-122.045452, 37.818736, 420.8], [-122.045459, 37.818666, 420.4], [-122.04549, 37.818615, 420.9], [-122.045498, 37.818605, 419.8], [-122.045523, 37.81858, 419.5], [-122.045615, 37.818526, 417.5], [-122.045614, 37.818506, 415.5], [-122.045582, 37.818467, 414.2], [-122.045508, 37.818392, 411.5], [-122.045484, 37.818333, 408.4], [-122.045402, 37.818248, 406.5], [-122.045318, 37.818201, 403.9], [-122.045306, 37.818184, 405.1], [-122.04532, 37.81815, 406.9], [-122.045408, 37.818084, 406.9], [-122.04542, 37.818052, 405.5], [-122.045421, 37.81804, 404.7], [-122.045398, 37.817958, 403.6], [-122.045279, 37.817916, 400.0], [-122.045255, 37.817902, 399.1], [-122.045136, 37.817816, 381.5], [-122.045134, 37.817775, 390.6], [-122.04515, 37.817755, 390.7], [-122.045168, 37.817742, 392.7], [-122.045213, 37.817721, 392.7], [-122.0453, 37.817698, 391.4], [-122.045316, 37.817678, 390.9], [-122.045313, 37.817636, 389.7], [-122.045301, 37.817614, 385.6], [-122.045243, 37.817546, 383.9], [-122.045264, 37.817451, 383.1], [-122.045272, 37.817436, 383.0], [-122.045305, 37.817363, 382.2], [-122.045339, 37.817314, 381.0], [-122.045374, 37.817286, 380.1], [-122.045388, 37.817281, 379.5], [-122.045438, 37.817249, 379.6], [-122.045482, 37.817189, 378.5], [-122.045533, 37.817168, 378.2], [-122.045554, 37.817162, 377.7], [-122.045593, 37.817136, 376.8], [-122.045597, 37.817117, 377.3], [-122.045637, 37.817085, 377.6], [-122.045656, 37.817042, 373.9], [-122.045653, 37.816994, 374.3], [-122.045645, 37.816969, 373.9], [-122.045639, 37.816931, 373.0], [-122.045665, 37.816825, 373.0], [-122.045659, 37.816747, 370.8], [-122.045659, 37.816725, 369.8], [-122.04576, 37.816591, 369.1], [-122.045758, 37.816573, 368.1], [-122.045715, 37.816452, 368.0], [-122.045679, 37.816413, 367.7], [-122.045666, 37.816403, 366.8], [-122.045655, 37.816398, 367.1], [-122.045649, 37.816372, 365.2], [-122.04566, 37.816352, 365.0], [-122.045616, 37.816248, 358.5], [-122.045599, 37.81623, 357.3], [-122.045498, 37.816075, 359.2], [-122.045468, 37.816048, 358.8], [-122.045425, 37.815999, 358.7], [-122.045337, 37.815927, 356.2], [-122.045296, 37.815859, 355.1], [-122.045302, 37.81584, 353.1], [-122.045376, 37.815791, 350.9], [-122.045377, 37.815731, 349.8], [-122.045388, 37.815695, 350.3], [-122.045403, 37.815678, 349.8], [-122.045546, 37.815606, 348.4], [-122.045586, 37.815572, 350.0], [-122.04567, 37.815464, 348.6], [-122.045692, 37.815459, 347.7], [-122.045707, 37.815469, 346.2], [-122.045704, 37.815511, 344.6], [-122.045708, 37.815534, 344.6], [-122.045698, 37.815617, 352.6], [-122.045736, 37.815705, 344.5], [-122.045749, 37.815719, 343.3], [-122.045847, 37.815804, 338.9], [-122.045888, 37.815853, 334.4], [-122.045901, 37.815867, 333.9], [-122.045945, 37.815909, 332.7], [-122.045985, 37.815927, 331.3], [-122.046045, 37.815916, 331.2], [-122.046081, 37.81589, 331.0], [-122.046085, 37.815875, 329.7], [-122.046137, 37.815785, 324.7], [-122.046117, 37.815757, 322.4], [-122.046147, 37.815715, 323.0], [-122.046192, 37.815614, 322.6], [-122.046188, 37.815558, 322.5], [-122.046193, 37.815547, 322.3], [-122.046234, 37.81554, 322.1], [-122.046252, 37.815558, 321.2], [-122.046311, 37.815577, 322.0], [-122.046367, 37.815649, 319.5], [-122.046389, 37.815671, 318.0], [-122.046451, 37.815728, 316.8], [-122.046499, 37.81575, 318.5], [-122.046546, 37.815731, 318.1], [-122.046567, 37.815676, 316.2], [-122.046564, 37.815647, 317.5], [-122.046461, 37.815397, 311.1], [-122.046455, 37.815374, 308.0], [-122.046433, 37.815322, 308.3], [-122.046436, 37.815295, 308.1], [-122.046472, 37.815279, 307.5], [-122.046523, 37.815278, 306.5], [-122.046679, 37.815339, 308.1], [-122.046713, 37.815352, 308.6], [-122.046823, 37.815404, 307.9], [-122.046928, 37.815435, 305.8], [-122.046947, 37.815462, 303.6], [-122.046949, 37.81547, 305.1], [-122.047046, 37.815508, 299.5], [-122.047079, 37.81551, 298.1], [-122.047138, 37.815497, 298.5], [-122.047153, 37.815486, 299.6], [-122.047194, 37.815469, 300.0], [-122.047217, 37.815484, 301.2], [-122.047241, 37.815527, 300.8], [-122.047267, 37.815532, 307.4], [-122.047332, 37.815519, 302.8], [-122.047352, 37.815516, 303.1], [-122.047452, 37.815524, 302.6], [-122.047542, 37.815565, 301.7], [-122.04756, 37.81557, 302.0], [-122.047754, 37.81564, 300.3], [-122.047769, 37.815647, 299.7], [-122.04788, 37.815693, 300.3], [-122.047924, 37.815733, 299.9], [-122.047817, 37.815796, 298.7], [-122.047708, 37.815738, 298.3], [-122.047491, 37.815644, 296.6], [-122.04741, 37.815598, 295.6], [-122.047247, 37.815496, 293.8], [-122.047097, 37.815385, 292.9]]}}