{"type": "Feature", "properties": {}, "geometry": {"type": "LineString", "coordinates": [[-122.18257505446672, 46.14718289114535, 1131.61], [-122.18254270032048, 46.14716579206288, 1144.59], [-122.18251361511648, 46.14717802964151, 1137.38], [-122.1825155429542, 46.14716554060578, 1145.55], [-122.18260757625103, 46.147260926663876, 1146.51], [-122.18257069587708, 46.14724156446755, 1134.01], [-122.18253599479795, 46.1471716593951, 1140.74], [-122.18253649771214, 46.147151878103614, 1140.74], [-122.18250062316656, 46.147120697423816, 1144.59], [-122.18256910331547, 46.14713570103049, 1141.22], [-122.18264470808208, 46.14710234105587, 1140.74], [-122.18265552073717, 46.14708214066923, 1141.22], [-122.18273255042732, 46.14707895554602, 1142.18], [-122.18270011246204, 46.14706286229193, 1140.74], [-122.18270346522331, 46.14707778207958, 1136.9], [-122.1827420219779, 46.14704618230462, 1138.82], [-122.18278728425503, 46.14702790975571, 1139.3], [-122.1828768029809, 46.14697082899511, 1141.22], [-122.1828942373395, 46.1469816416502, 1141.22], [-122.18290178105235, 46.14695440046489, 1140.26], [-122.18314745463431, 46.146710738539696, 1142.66], [-122.18330897390842, 46.146588614210486, 1144.59], [-122.18343981541693, 46.14642801694572, 1144.11], [-122.18348239548504, 46.1463341396302, 1144.59], [-122.1835919469595, 46.14630253985524, 1146.03], [-122.18359990976751, 46.14627035334706, 1145.55], [-122.18372404575348, 46.14627345465124, 1145.55], [-122.18385421670973, 46.14631377160549, 1142.66], [-122.1840634290129, 46.14640546962619, 1143.63], [-122.18419460579753, 46.146493228152394, 1146.99], [-122.18423928134143, 46.146556762978435, 1149.39], [-122.18437473289669, 46.14662457257509, 1149.87], [-122.18449392355978, 46.146667236462235, 1150.35], [-122.18464228324592, 46.14670696668327, 1152.28], [-122.1848578657955, 46.14678223617375, 1155.16], [-122.18487119302154, 46.146916346624494, 1158.53], [-122.18486373312771, 46.14711608737707, 1159.01], [-122.18492022715509, 46.14723955281079, 1159.97], [-122.18509641475976, 46.14739503711462, 1159.49], [-122.18531149439514, 46.14755094051361, 1163.81], [-122.18549212440848, 46.14762746728957, 1168.62], [-122.18565314076841, 46.14778018556535, 1171.5], [-122.18571742996573, 46.14787322469056, 1174.87], [-122.18569898977876, 46.14809995517135, 1178.23], [-122.18570326454937, 46.14829416386783, 1178.71], [-122.18572882935405, 46.14848476834595, 1181.6], [-122.18580971471965, 46.14855559542775, 1188.33], [-122.18583100475371, 46.148602198809385, 1190.25], [-122.18575623817742, 46.14865316078067, 1189.77], [-122.1857223752886, 46.14878132008016, 1185.92], [-122.18566454015672, 46.14896739833057, 1187.37], [-122.18564157374203, 46.14919085986912, 1187.85], [-122.18562355265021, 46.149330753833055, 1187.37], [-122.18558172695339, 46.149541810154915, 1190.25], [-122.18552028760314, 46.14992511458695, 1192.17], [-122.1854805573821, 46.15005461499095, 1193.13], [-122.18540512025356, 46.15026684477925, 1192.65], [-122.1852997597307, 46.15046130493283, 1192.17], [-122.18529121018946, 46.15061511285603, 1192.17], [-122.185327000916, 46.150771183893085, 1197.46], [-122.18532825820148, 46.150954496115446, 1199.86], [-122.18535868450999, 46.15108416415751, 1202.75], [-122.18545683659613, 46.15128507837653, 1204.67], [-122.18547242693603, 46.15140661597252, 1204.19], [-122.18530680052936, 46.15166938863695, 1203.23], [-122.18527528457344, 46.15181305445731, 1201.3], [-122.18528525903821, 46.151975747197866, 1202.27], [-122.18526279553771, 46.152128130197525, 1205.63], [-122.1851216442883, 46.15229291841388, 1210.44], [-122.18512449413538, 46.152485283091664, 1214.28], [-122.18511787243187, 46.15271871909499, 1215.24], [-122.18513497151434, 46.15292935632169, 1215.72], [-122.18518811278045, 46.153117613866925, 1216.69], [-122.18520680442452, 46.1532673984766, 1219.09], [-122.18527595512569, 46.153409304097295, 1219.09], [-122.1853568404913, 46.153489518910646, 1218.61], [-122.18554627150297, 46.15364952944219, 1217.65], [-122.18557485379279, 46.15380157716572, 1217.65], [-122.18563662841916, 46.15389168262482, 1219.09], [-122.18589814379811, 46.1540652718395, 1220.53], [-122.18598766252398, 46.1541982088238, 1223.42], [-122.18599914573133, 46.15425520576537, 1224.86], [-122.18608355149627, 46.154404655098915, 1226.78], [-122.18617491424084, 46.15458218380809, 1228.7], [-122.18627046793699, 46.154712019488215, 1228.7], [-122.18626401387155, 46.154909664765, 1228.7], [-122.18622461892664, 46.15505861118436, 1227.74], [-122.18630374409258, 46.155179562047124, 1227.74], [-122.18647481873631, 46.15526388399303, 1226.3], [-122.18673926778138, 46.15538910962641, 1225.34], [-122.1872488874942, 46.15551165305078, 1227.74], [-122.18733748421073, 46.15559404715896, 1226.78], [-122.18733882531524, 46.15573402494192, 1226.78], [-122.18740277923644, 46.15585816092789, 1227.74], [-122.18743152916431, 46.156110959127545, 1232.07], [-122.18740713782609, 46.156230233609676, 1233.03], [-122.187509983778, 46.1563169863075, 1235.91], [-122.18754401430488, 46.15642829798162, 1237.35], [-122.18776135705411, 46.15646802820265, 1242.16], [-122.1878966409713, 46.15638714283705, 1249.85], [-122.18800879083574, 46.156315645202994, 1257.54], [-122.18810979276896, 46.15626275539398, 1262.83], [-122.1881643589586, 46.15619670599699, 1271.0], [-122.18827684409916, 46.15602747537196, 1274.85], [-122.18838413245976, 46.15593728609383, 1279.65], [-122.18849804252386, 46.155852964147925, 1282.06], [-122.18861664645374, 46.15586251951754, 1281.57], [-122.18877498060465, 46.15596503019333, 1277.73], [-122.18886123038828, 46.15605153143406, 1273.88], [-122.1889603883028, 46.15617273375392, 1272.44], [-122.18900112435222, 46.15623299963772, 1268.12], [-122.18900808133185, 46.15632712841034, 1263.31], [-122.18916264362633, 46.156455958262086, 1257.06], [-122.18922215513885, 46.15657229907811, 1259.46], [-122.18941166996956, 46.156681682914495, 1261.87], [-122.18962146900594, 46.15666542202234, 1268.12], [-122.18987418338656, 46.15658948197961, 1271.48], [-122.19009253196418, 46.15660180337727, 1275.81], [-122.19029411673546, 46.15666123107076, 1280.61], [-122.19041942618787, 46.15666533820331, 1283.5], [-122.1906697936356, 46.1566919926554, 1283.98], [-122.19083558768034, 46.15666089579463, 1286.38], [-122.19095301814377, 46.15663189440966, 1291.19], [-122.19117413274944, 46.15659551694989, 1294.55], [-122.19148560427129, 46.15648546256125, 1294.07], [-122.19176732003689, 46.15640331991017, 1294.07], [-122.19199555926025, 46.15642980672419, 1298.4], [-122.19214148819447, 46.156537514179945, 1301.76], [-122.19218825921416, 46.15659065544605, 1301.28], [-122.19217970967293, 46.15685108117759, 1305.61], [-122.19202573411167, 46.15696834400296, 1305.13], [-122.19211282208562, 46.15709616802633, 1299.36], [-122.19219094142318, 46.15719021297991, 1299.36], [-122.19229688867927, 46.15725450217724, 1295.99], [-122.19252764247358, 46.15730940364301, 1294.07], [-122.1927526127547, 46.15738903172314, 1289.75], [-122.19276828691363, 46.15739037282765, 1289.27], [-122.19286275096238, 46.157448291778564, 1285.42], [-122.19293835572898, 46.157536804676056, 1284.94], [-122.19295947812498, 46.157600088045, 1284.94], [-122.19297967851162, 46.15768684074283, 1284.94], [-122.19305410981178, 46.1578366253525, 1282.54], [-122.19304631464183, 46.15789764560759, 1281.09], [-122.19305067323148, 46.158072827383876, 1278.69], [-122.19300624914467, 46.15817257203162, 1277.25], [-122.19291614368558, 46.158341467380524, 1276.29], [-122.19286886975169, 46.1585742328316, 1278.21], [-122.19291849061847, 46.158721670508385, 1279.17], [-122.19289569184184, 46.158871706575155, 1282.06], [-122.19283115118742, 46.15902040153742, 1285.42], [-122.19275085255504, 46.159170689061284, 1288.3], [-122.19267373904586, 46.1593306157738, 1291.67], [-122.19249956309795, 46.15945131517947, 1298.4], [-122.19243250787258, 46.159508228302, 1300.32], [-122.19228875823319, 46.1595774628222, 1303.69], [-122.1922279894352, 46.159706711769104, 1303.69], [-122.19224894419312, 46.15990050137043, 1305.61], [-122.1922229602933, 46.1600333545357, 1308.01], [-122.19224299304187, 46.16013552993536, 1308.97], [-122.19229286536574, 46.160275507718325, 1311.86], [-122.19229521229863, 46.16033585742116, 1312.82], [-122.19244943931699, 46.160466028377414, 1315.22], [-122.19258698634803, 46.160592595115304, 1314.26], [-122.1926320809871, 46.16065755486488, 1310.9], [-122.19281489029527, 46.160771464928985, 1308.49], [-122.1928826160729, 46.16076668724418, 1306.09], [-122.19282352365553, 46.16074439138174, 1308.49], [-122.19278798438609, 46.16079971194267, 1308.97], [-122.19282084144652, 46.16079183295369, 1308.49], [-122.19288873486221, 46.16074724122882, 1309.45], [-122.19291773624718, 46.160790072754025, 1313.3], [-122.19293860718608, 46.16076962091029, 1315.7], [-122.19289133325219, 46.16085628978908, 1320.99], [-122.19279267825186, 46.16090658120811, 1322.43], [-122.1927235275507, 46.160923009738326, 1327.72], [-122.19256661832333, 46.16098721511662, 1331.08], [-122.19242110848427, 46.16108017042279, 1336.37], [-122.19227660447359, 46.161196092143655, 1338.29], [-122.19223913736641, 46.161296339705586, 1345.5], [-122.19210804440081, 46.161405220627785, 1345.5], [-122.19196580350399, 46.16160077042878, 1343.1], [-122.19195859506726, 46.16169196553528, 1342.62], [-122.19189531169832, 46.16180269047618, 1343.1], [-122.19179690815508, 46.161905117332935, 1344.06], [-122.19176053069532, 46.16191810928285, 1343.1], [-122.19156431034207, 46.16202908568084, 1345.5], [-122.191540338099, 46.16204031743109, 1345.98], [-122.19129332341254, 46.16217811591923, 1349.35], [-122.19124621711671, 46.162347765639424, 1351.75], [-122.19126725569367, 46.162403505295515, 1354.15], [-122.19128334894776, 46.16240920498967, 1355.12], [-122.19131645746529, 46.16251188330352, 1360.4], [-122.19132685102522, 46.16252923384309, 1362.33], [-122.1913405135274, 46.16262470372021, 1366.65], [-122.19145425595343, 46.162760155275464, 1375.78], [-122.19147420488298, 46.16293374449015, 1374.82], [-122.19148929230869, 46.16300851106644, 1375.3], [-122.19148778356612, 46.163082187995315, 1370.98], [-122.19147722236812, 46.16316273808479, 1371.46], [-122.19140857458115, 46.16327497176826, 1368.09], [-122.19131704419851, 46.16329793818295, 1367.13], [-122.19128351658583, 46.163405729457736, 1369.54], [-122.19128360040486, 46.163416961207986, 1370.02], [-122.19112652353942, 46.16359951905906, 1374.34], [-122.19106583856046, 46.16360396146774, 1377.23], [-122.19097011722624, 46.163595244288445, 1377.23], [-122.19091203063726, 46.163581078872085, 1377.71], [-122.190694604069, 46.163571858778596, 1379.15], [-122.19034331850708, 46.16364008747041, 1377.23], [-122.1902416460216, 46.16365324705839, 1379.63], [-122.19021432101727, 46.16366389207542, 1380.11], [-122.19005439430475, 46.16368157789111, 1381.55], [-122.19000016339123, 46.163669507950544, 1382.03], [-122.18977762386203, 46.163691049441695, 1383.96], [-122.18957260251045, 46.1637151055038, 1385.4], [-122.18949029222131, 46.16377956233919, 1386.84], [-122.18950018286705, 46.16390889510512, 1391.17], [-122.1894651465118, 46.16403135471046, 1397.89], [-122.18947872519493, 46.164125399664044, 1402.22], [-122.18946548178792, 46.16421299055219, 1407.03], [-122.18949733301997, 46.164404433220625, 1411.83], [-122.1894990094006, 46.16447014734149, 1416.64], [-122.1894167829305, 46.16452538408339, 1421.45], [-122.18939867801964, 46.16454826667905, 1423.37], [-122.18940630555153, 46.16455723531544, 1419.04], [-122.1895341295749, 46.16447861306369, 1420.49], [-122.18957863748074, 46.1644263099879, 1415.68], [-122.18960336409509, 46.16436109878123, 1414.72], [-122.18961694277823, 46.16428792476654, 1415.2], [-122.18963144347072, 46.16424048319459, 1418.08], [-122.18971098773181, 46.16415071301162, 1417.6], [-122.18989321030676, 46.16416370496154, 1417.6], [-122.18999127857387, 46.16417518816888, 1416.16], [-122.19016562215984, 46.164212403818965, 1415.2], [-122.19030702486634, 46.16430309601128, 1421.93], [-122.19034968875349, 46.16434274241328, 1427.7], [-122.1904493495822, 46.16450962610543, 1434.91], [-122.19045613892376, 46.164540722966194, 1435.87], [-122.19049955718219, 46.16463091224432, 1439.71], [-122.19056434929371, 46.164730489254, 1445.48], [-122.1906251180917, 46.16477214731276, 1449.81], [-122.1906063426286, 46.164853535592556, 1450.29], [-122.19062478281558, 46.16486510261893, 1451.73], [-122.19071145169437, 46.16495009511709, 1457.98], [-122.1907789260149, 46.16497649811208, 1452.21], [-122.19079384580255, 46.164976079016924, 1445.0], [-122.19071505591273, 46.16495001129806, 1444.52], [-122.19066384248435, 46.16498119197786, 1444.04], [-122.19066392630339, 46.164962500333786, 1442.6], [-122.19059309922159, 46.16498270072043, 1443.56], [-122.19060625880957, 46.16498630493879, 1443.08], [-122.19061547890306, 46.16501991637051, 1441.15], [-122.19069954939187, 46.16508143953979, 1436.83], [-122.19060223549604, 46.16505755111575, 1434.91], [-122.19061966985464, 46.16523826494813, 1444.04], [-122.19069971702993, 46.16533071734011, 1452.21], [-122.19072268344462, 46.16536835208535, 1453.17], [-122.19076459296048, 46.16545828990638, 1454.13], [-122.19085059128702, 46.165430042892694, 1451.73], [-122.19087146222591, 46.165473042055964, 1451.73], [-122.1909411996603, 46.16551687940955, 1451.73], [-122.19102317467332, 46.16557882167399, 1452.69], [-122.19113515689969, 46.16567756049335, 1451.73], [-122.19117949716747, 46.16576003842056, 1453.17], [-122.1912625618279, 46.165836146101356, 1455.09], [-122.19133422710001, 46.165933376178145, 1456.05], [-122.191416118294, 46.16601719520986, 1459.42], [-122.19153631478548, 46.16606061346829, 1459.9], [-122.19157696701586, 46.16612372919917, 1463.74], [-122.19164175912738, 46.16617066785693, 1465.67], [-122.1917163580656, 46.166217690333724, 1469.03], [-122.1918307710439, 46.16626136004925, 1471.44], [-122.19190922565758, 46.16627820767462, 1472.4], [-122.19199907965958, 46.16630930453539, 1474.32], [-122.1920982375741, 46.166319865733385, 1475.28], [-122.19216512516141, 46.16634417325258, 1477.68], [-122.192203681916, 46.16640033200383, 1481.05], [-122.19225531443954, 46.16641039028764, 1485.37], [-122.19229127280414, 46.166410725563765, 1484.89], [-122.19228649511933, 46.16644752211869, 1484.89], [-122.1923263091594, 46.166492868214846, 1490.66], [-122.19233226031065, 46.16652723401785, 1493.55], [-122.1923746727407, 46.16655481047928, 1495.95], [-122.19237743876874, 46.16662220098078, 1496.43], [-122.19242177903652, 46.16667249239981, 1499.79], [-122.19244977459311, 46.16671674884856, 1502.2], [-122.1924817096442, 46.166816325858235, 1505.56], [-122.19249428249896, 46.16687575355172, 1506.52], [-122.1925245411694, 46.16690349765122, 1508.45], [-122.19251347705722, 46.16693953983486, 1509.89], [-122.19252948649228, 46.16699628531933, 1510.85], [-122.19254792667925, 46.16702796891332, 1511.81], [-122.19253426417708, 46.16710927337408, 1512.29], [-122.1925887465477, 46.167149506509304, 1513.73], [-122.19258044846356, 46.16717574186623, 1514.69], [-122.19259872101247, 46.16718244738877, 1517.1], [-122.19264574348927, 46.16722410544753, 1519.02], [-122.19270232133567, 46.16726316511631, 1522.39], [-122.1927150618285, 46.167304487898946, 1526.71], [-122.19275806099176, 46.16735737770796, 1529.59], [-122.19283433631063, 46.16737104021013, 1533.44], [-122.1929804328829, 46.16733583621681, 1535.36], [-122.19307120889425, 46.16734170354903, 1536.8], [-122.19315544702113, 46.167384535074234, 1538.73], [-122.19317145645618, 46.16740490309894, 1541.61], [-122.1932016313076, 46.167421163991094, 1544.98], [-122.19321764074266, 46.16745955310762, 1549.3], [-122.19325653277338, 46.167516047134995, 1552.19], [-122.19329257495701, 46.167556531727314, 1555.07], [-122.19344940036535, 46.16759835742414, 1556.99], [-122.1934799104929, 46.167621575295925, 1558.43], [-122.19357739202678, 46.167676728218794, 1560.84], [-122.19355266541243, 46.16779290139675, 1568.53], [-122.19354964792728, 46.167852664366364, 1574.3], [-122.1935679204762, 46.167869344353676, 1573.82], [-122.19354218803346, 46.167884934693575, 1576.22], [-122.19355124048889, 46.16797939874232, 1581.99], [-122.19352534040809, 46.16802357137203, 1583.91], [-122.19350438565016, 46.168086770921946, 1588.24], [-122.19346549361944, 46.16811820305884, 1589.2], [-122.19337161630392, 46.16826631128788, 1593.52], [-122.19331671483815, 46.168314004316926, 1595.93], [-122.19325460493565, 46.16837636567652, 1597.37], [-122.19316424801946, 46.168422382324934, 1598.81], [-122.19313139095902, 46.16842431016266, 1597.85], [-122.19315343536437, 46.16846672259271, 1599.77], [-122.19315796159208, 46.16851852275431, 1602.17], [-122.1931427065283, 46.16857577115297, 1603.14], [-122.19317832961679, 46.168660931289196, 1608.42], [-122.19318738207221, 46.16873100399971, 1611.31], [-122.19319769181311, 46.16887617856264, 1617.07], [-122.19319241121411, 46.16895806975663, 1620.44], [-122.19321420416236, 46.16902956739068, 1622.36], [-122.19322099350393, 46.16914984770119, 1623.8], [-122.19329291023314, 46.16926451213658, 1625.73], [-122.19329006038606, 46.16934313438833, 1625.73], [-122.19332409091294, 46.16943944245577, 1627.65], [-122.19335024245083, 46.16952736862004, 1629.09], [-122.19337404705584, 46.16957355290651, 1628.61], [-122.19340967014432, 46.169620994478464, 1628.61], [-122.19340363517404, 46.169656282290816, 1629.57], [-122.19347664155066, 46.169731887057424, 1629.09], [-122.19354503788054, 46.169820819050074, 1630.53], [-122.19353925436735, 46.169857531785965, 1632.46], [-122.19350757077336, 46.169858537614346, 1631.01], [-122.19350983388722, 46.169873122125864, 1630.05], [-122.1935312077403, 46.16985375992954, 1629.57], [-122.19356171786785, 46.169858956709504, 1631.01], [-122.1935830079019, 46.16989441215992, 1631.49], [-122.1936313714832, 46.17000379599631, 1636.3], [-122.19364025630057, 46.170106725767255, 1639.19], [-122.19363891519606, 46.17013916373253, 1641.59], [-122.19367319718003, 46.17019356228411, 1641.59], [-122.19369507394731, 46.17021015845239, 1643.03], [-122.19371711835265, 46.17027075961232, 1646.4], [-122.19372742809355, 46.17033127695322, 1649.28], [-122.19371653161943, 46.17038198746741, 1651.2], [-122.19373304396868, 46.17041786201298, 1654.09], [-122.1937420964241, 46.17047997191548, 1656.01], [-122.19379808753729, 46.17068700492382, 1665.62], [-122.19378735870123, 46.17072313092649, 1667.54], [-122.19378098845482, 46.17078582756221, 1671.87], [-122.19377688132226, 46.17094751447439, 1679.56], [-122.19375207088888, 46.170989172533154, 1682.93], [-122.19375693239272, 46.17102764546871, 1685.81], [-122.1937439404428, 46.171137196943164, 1691.1], [-122.19373371452093, 46.171197379007936, 1691.1], [-122.19371343031526, 46.171242473647, 1692.06], [-122.19370672479272, 46.17134372703731, 1695.42], [-122.19371636398137, 46.17138513363898, 1697.83], [-122.19369725324214, 46.17138857021928, 1696.38], [-122.19366892240942, 46.1714806035161, 1699.75], [-122.19364897347987, 46.17160021327436, 1701.67], [-122.19364712946117, 46.17166584357619, 1704.07], [-122.19363413751125, 46.17174295708537, 1705.04], [-122.19361318275332, 46.17176055908203, 1706.48], [-122.19361754134297, 46.17180875502527, 1706.96], [-122.19358577392995, 46.171869691461325, 1710.8], [-122.19357672147453, 46.17191872559488, 1712.25], [-122.19354118220508, 46.17195309139788, 1716.09], [-122.19353950582445, 46.171988463029265, 1718.01], [-122.19352534040809, 46.17202785797417, 1721.38], [-122.19355149194598, 46.17203305475414, 1724.26], [-122.19352919608355, 46.17204235866666, 1720.9], [-122.19343691132963, 46.17220010608435, 1723.3], [-122.19341008923948, 46.17234041914344, 1728.11], [-122.19338066875935, 46.17235609330237, 1728.59], [-122.19335820525885, 46.1724029481411, 1731.47], [-122.19335418194532, 46.172455586493015, 1734.84], [-122.19336633570492, 46.17247050628066, 1734.36], [-122.19331436790526, 46.17255063727498, 1738.2], [-122.19329668208957, 46.17258735001087, 1740.12], [-122.1932758949697, 46.172603107988834, 1742.53], [-122.19325100071728, 46.172605622559786, 1742.05], [-122.19320741482079, 46.17264065891504, 1743.01], [-122.19320515170693, 46.17265968583524, 1743.97], [-122.19314077869058, 46.17270897142589, 1744.93], [-122.19306961633265, 46.172790275886655, 1748.29], [-122.19304790720344, 46.17283746600151, 1749.26], [-122.19302284531295, 46.17287216708064, 1751.18], [-122.19300189055502, 46.172918267548084, 1752.62], [-122.19296576455235, 46.172949532046914, 1753.1], [-122.19293156638741, 46.173001332208514, 1755.99], [-122.1929080132395, 46.17301382124424, 1755.99], [-122.1928768325597, 46.17304575629532, 1756.95], [-122.19282235018909, 46.173086408525705, 1757.91], [-122.19274900853634, 46.17315614596009, 1762.71], [-122.19271657057106, 46.17319604381919, 1763.68], [-122.19267524778843, 46.17321473546326, 1765.12], [-122.19264138489962, 46.173252537846565, 1766.56], [-122.19259855337441, 46.173275923356414, 1768.0], [-122.19254926778376, 46.1733110435307, 1769.92], [-122.19248221255839, 46.173331243917346, 1773.29], [-122.19245974905789, 46.173313558101654, 1771.85], [-122.19246695749462, 46.17334079928696, 1769.92], [-122.1925594098866, 46.17336804047227, 1770.89], [-122.19258891418576, 46.17336753755808, 1770.41], [-122.19254180788994, 46.17339234799147, 1770.89], [-122.19247735105455, 46.17351212538779, 1775.21], [-122.19242680817842, 46.173560908064246, 1777.61], [-122.19239956699312, 46.17356250062585, 1781.94], [-122.19232941046357, 46.17361203767359, 1783.86], [-122.19230342656374, 46.17364229634404, 1784.34], [-122.19225858338177, 46.17365210317075, 1786.27], [-122.19220418483019, 46.17368412204087, 1788.67], [-122.19218708574772, 46.17371153086424, 1790.59], [-122.19211894087493, 46.17377020418644, 1793.48], [-122.1920913644135, 46.173812951892614, 1795.88], [-122.19206294976175, 46.173834996297956, 1796.36], [-122.19205272383988, 46.17386877536774, 1796.84], [-122.19200461171567, 46.173938512802124, 1800.69], [-122.19197552651167, 46.17396525107324, 1801.65], [-122.1918981615454, 46.17402006871998, 1804.53], [-122.19163530506194, 46.174157448112965, 1815.59], [-122.19159163534641, 46.174200028181076, 1817.51], [-122.19157730229199, 46.17422953248024, 1818.95], [-122.19153723679483, 46.17426666431129, 1820.87], [-122.19145995564759, 46.17436590604484, 1825.68], [-122.1913920622319, 46.174486856907606, 1830.01], [-122.19132659956813, 46.174534214660525, 1831.45], [-122.19134520739317, 46.17454435676336, 1833.85], [-122.19132618047297, 46.1746356356889, 1834.81], [-122.19128997065127, 46.17467310279608, 1834.81], [-122.19128569588065, 46.17471660487354, 1836.26], [-122.19125082716346, 46.174780977889895, 1837.7], [-122.1912504080683, 46.17485071532428, 1840.58], [-122.19123347662389, 46.1749207880348, 1842.5], [-122.19119617715478, 46.17501097731292, 1846.83], [-122.1911898907274, 46.17500024847686, 1847.79], [-122.19119927845895, 46.1750761885196, 1848.75], [-122.19117010943592, 46.17517098784447, 1848.75], [-122.19120380468667, 46.17531641386449, 1851.16], [-122.19116784632206, 46.17534784600139, 1852.6], [-122.19113021157682, 46.175365783274174, 1854.52], [-122.19103239476681, 46.17542806081474, 1859.33], [-122.19095410779119, 46.17550877854228, 1864.13], [-122.1909462288022, 46.17553853429854, 1865.09], [-122.19089903868735, 46.175630735233426, 1867.5], [-122.19088629819453, 46.17568949237466, 1871.34], [-122.19086525961757, 46.175740202888846, 1874.71], [-122.1908481605351, 46.175809018313885, 1877.11], [-122.19078663736582, 46.1758738104254, 1880.96], [-122.19077884219587, 46.17592225782573, 1885.28], [-122.1907049138099, 46.17593156173825, 1886.72], [-122.19069879502058, 46.175921922549605, 1888.65], [-122.19066057354212, 46.1759549472481, 1891.53], [-122.19065252691507, 46.175989313051105, 1892.97], [-122.19063123688102, 46.17600129917264, 1895.38], [-122.1906214300543, 46.17603315040469, 1896.82], [-122.19049997627735, 46.176063660532236, 1901.14], [-122.19047541730106, 46.176086626946926, 1903.07], [-122.19041582196951, 46.176075395196676, 1904.99], [-122.19038137234747, 46.17605393752456, 1904.99], [-122.19031699933112, 46.176092494279146, 1906.91], [-122.19023066572845, 46.176163237541914, 1908.83], [-122.19022479839623, 46.17621839046478, 1911.72], [-122.19021490775049, 46.176247308030725, 1911.72], [-122.19016612507403, 46.17626993916929, 1913.16], [-122.19015103764832, 46.1763228289783, 1916.04], [-122.19015288166702, 46.17635124363005, 1917.97], [-122.19012681394815, 46.17636976763606, 1920.37], [-122.1901346091181, 46.17642005905509, 1921.81], [-122.19015765935183, 46.17645425722003, 1922.77], [-122.19018406234682, 46.17647144012153, 1925.18], [-122.19014466740191, 46.17647973820567, 1925.66], [-122.1901229582727, 46.17650320753455, 1926.62], [-122.19012949615717, 46.17654318921268, 1928.54], [-122.19009823165834, 46.1765905469656, 1929.5], [-122.19006713479757, 46.17660630494356, 1931.43], [-122.19008171930909, 46.17665181867778, 1933.83], [-122.1901039313525, 46.176668582484126, 1935.75], [-122.19010619446635, 46.17669750005007, 1937.19], [-122.19006503932178, 46.176737984642386, 1940.08], [-122.19008934684098, 46.17677670903504, 1941.04], [-122.19012513756752, 46.176788276061416, 1942.0], [-122.19012304209173, 46.17680378258228, 1943.92], [-122.19008549116552, 46.17682607844472, 1945.36], [-122.19008205458522, 46.17684175260365, 1946.33], [-122.19010602682829, 46.17685901932418, 1949.69], [-122.19007384032011, 46.17690922692418, 1954.5], [-122.19005908817053, 46.176920123398304, 1957.38], [-122.19008138403296, 46.176944598555565, 1960.27], [-122.19005120918155, 46.1769756115973, 1961.71], [-122.19001147896051, 46.17697988636792, 1963.15], [-122.18997459858656, 46.17700184695423, 1963.15], [-122.1900212019682, 46.17704308591783, 1965.07], [-122.18996093608439, 46.17710016667843, 1971.8], [-122.18991860747337, 46.17716487497091, 1972.76], [-122.18987661413848, 46.17718775756657, 1972.76], [-122.18985389918089, 46.17722740396857, 1974.2], [-122.18985884450376, 46.177261183038354, 1975.17], [-122.18981626443565, 46.177281299605966, 1976.61], [-122.18979866243899, 46.177324214950204, 1978.05], [-122.18969279900193, 46.17738749831915, 1980.93], [-122.18967695720494, 46.17740644142032, 1981.9], [-122.1896287612617, 46.177504090592265, 1985.26], [-122.189597832039, 46.17757617495954, 1987.66], [-122.18955156393349, 46.17760634981096, 1989.1], [-122.18954234384, 46.1776371113956, 1990.55], [-122.18951895833015, 46.17766544222832, 1991.03], [-122.18947453424335, 46.17774213664234, 1994.39], [-122.18948090448976, 46.1778406240046, 1998.24], [-122.1894527412951, 46.17787239141762, 1999.68], [-122.18943404965103, 46.177853448316455, 2000.16], [-122.18937696889043, 46.177886724472046, 2001.12], [-122.18933396972716, 46.17794363759458, 2002.56], [-122.18930480070412, 46.17795495316386, 2002.08], [-122.18933296389878, 46.17796475999057, 2002.56], [-122.18929750844836, 46.17796517908573, 2004.01], [-122.18925115652382, 46.17800951935351, 2005.45], [-122.18921008519828, 46.17804028093815, 2005.45], [-122.18918929807842, 46.178081184625626, 2007.37], [-122.18922584317625, 46.1781619861722, 2010.25], [-122.1892423555255, 46.178165758028626, 2010.25], [-122.1892817504704, 46.178251253440976, 2014.1], [-122.1893113385886, 46.17829358205199, 2018.43], [-122.18930957838893, 46.17831939831376, 2020.35], [-122.18932575546205, 46.178334234282374, 2023.23], [-122.18931921757758, 46.17837371304631, 2023.71], [-122.18924294225872, 46.178448144346476, 2025.64], [-122.18923347070813, 46.17849223315716, 2027.56], [-122.18920765444636, 46.17853422649205, 2029.0], [-122.18920782208443, 46.17854855954647, 2029.96], [-122.18923430889845, 46.17858334444463, 2029.0], [-122.18921352177858, 46.17859239690006, 2027.08], [-122.18919122591615, 46.178699769079685, 2032.36], [-122.18921142630279, 46.17873941548169, 2033.81], [-122.18922274187207, 46.178780319169164, 2036.21], [-122.18921218067408, 46.17881518788636, 2039.09], [-122.18922290951014, 46.17885726504028, 2039.57], [-122.18924294225872, 46.178901102393866, 2041.5], [-122.18923741020262, 46.17894728668034, 2044.38], [-122.18927655369043, 46.178980227559805, 2046.3], [-122.18928761780262, 46.1790375597775, 2048.23], [-122.1893094945699, 46.17907200939953, 2050.63], [-122.18930589035153, 46.179107716307044, 2051.59], [-122.1893182117492, 46.17915532551706, 2053.03], [-122.1893026214093, 46.179214334115386, 2053.99], [-122.18933187425137, 46.1792653799057, 2054.96], [-122.1893280185759, 46.179365208372474, 2058.32], [-122.1893420163542, 46.17948188446462, 2061.2], [-122.18937286175787, 46.17954240180552, 2062.65], [-122.18940504826605, 46.17963870987296, 2066.97], [-122.189457770437, 46.179695539176464, 2068.89], [-122.18948031775653, 46.17975153028965, 2071.3], [-122.18952985480428, 46.179751781746745, 2072.74], [-122.18952239491045, 46.17978815920651, 2074.66], [-122.18948903493583, 46.17979997768998, 2076.59], [-122.18954217620194, 46.179842725396156, 2078.03], [-122.18956497497857, 46.179872481152415, 2079.95], [-122.1895790565759, 46.1799128819257, 2082.83], [-122.18966027721763, 46.179996114224195, 2088.6], [-122.18971098773181, 46.18001966737211, 2090.52], [-122.18968190252781, 46.180024445056915, 2091.97], [-122.1897083055228, 46.18003752082586, 2092.93], [-122.18980511650443, 46.180063085630536, 2092.93], [-122.18984266743064, 46.18004221469164, 2091.0], [-122.18983344733715, 46.18008085526526, 2090.04], [-122.18982732854784, 46.180059062317014, 2091.0], [-122.18975557945669, 46.18011396378279, 2095.33], [-122.18972129747272, 46.180264335125685, 2096.29], [-122.1896924637258, 46.180338179692626, 2097.73], [-122.18968039378524, 46.18040489964187, 2100.14], [-122.18964133411646, 46.18047757074237, 2102.54], [-122.18965181149542, 46.18054764345288, 2104.94], [-122.18964125029743, 46.18059164844453, 2107.35], [-122.18964921310544, 46.18067161180079, 2111.19], [-122.18961350619793, 46.18076691403985, 2116.0], [-122.18958215788007, 46.180877052247524, 2119.36], [-122.18957461416721, 46.18091703392565, 2120.81], [-122.18948509544134, 46.181029519066215, 2124.65], [-122.18944863416255, 46.18113337084651, 2130.42], [-122.18950194306672, 46.181269492954016, 2138.11], [-122.18949800357223, 46.181320790201426, 2140.51], [-122.18951887451112, 46.18137468583882, 2142.92], [-122.18953186646104, 46.18142791092396, 2144.36], [-122.18953027389944, 46.18145548738539, 2145.8], [-122.18954117037356, 46.18152966722846, 2145.8], [-122.18957059085369, 46.18166092783213, 2150.13], [-122.18959137797356, 46.181704346090555, 2151.09], [-122.18962951563299, 46.18184633553028, 2155.41], [-122.18962926417589, 46.18191313929856, 2157.82], [-122.18964485451579, 46.182054374367, 2160.22], [-122.18964125029743, 46.18208756670356, 2162.14], [-122.18954251147807, 46.182198291644454, 2169.83], [-122.18949850648642, 46.18230641819537, 2171.76], [-122.18944477848709, 46.18250263854861, 2176.08], [-122.18938266858459, 46.182572208344936, 2179.45], [-122.18937353231013, 46.18266030214727, 2185.69], [-122.18934997916222, 46.18273565545678, 2188.58], [-122.18933774158359, 46.18279726244509, 2190.02], [-122.18932181596756, 46.18284101597965, 2190.98], [-122.18933086842299, 46.182849146425724, 2191.94], [-122.18931938521564, 46.18288367986679, 2192.9], [-122.18935718759894, 46.18293304927647, 2194.83], [-122.18934511765838, 46.18295383639634, 2198.19], [-122.18932575546205, 46.18307520635426, 2203.96], [-122.18925534747541, 46.183194229379296, 2211.17], [-122.18926414847374, 46.18328877724707, 2215.01], [-122.18931695446372, 46.183217195793986, 2214.05], [-122.1893959119916, 46.18323747999966, 2214.53], [-122.18941711820662, 46.18327746167779, 2216.46], [-122.18943832442164, 46.1833562515676, 2218.86], [-122.1894664876163, 46.18342808447778, 2221.26], [-122.18946439214051, 46.183479046449065, 2221.74], [-122.1895011048764, 46.183471167460084, 2221.74], [-122.18942667357624, 46.183529086411, 2223.67], [-122.18931653536856, 46.183635955676436, 2226.55], [-122.18923808075488, 46.18372555822134, 2230.88], [-122.18913699500263, 46.183802084997296, 2234.24], [-122.18911805190146, 46.18383955210447, 2235.68], [-122.1890385914594, 46.1838866584003, 2237.61], [-122.18897019512951, 46.18397139944136, 2240.49], [-122.18890322372317, 46.184010123834014, 2241.93], [-122.1888641640544, 46.1840489320457, 2244.33], [-122.18884496949613, 46.184092769399285, 2246.74], [-122.1888602245599, 46.1841298174113, 2247.7], [-122.18892292119563, 46.18419016711414, 2251.06], [-122.18899064697325, 46.18427901528776, 2257.31], [-122.18899165280163, 46.18432947434485, 2258.75], [-122.18897840939462, 46.18435822427273, 2259.24], [-122.18897514045238, 46.1844133771956, 2261.64], [-122.18896583653986, 46.18444170802832, 2263.56], [-122.18898218125105, 46.184471379965544, 2265.0], [-122.18905460089445, 46.18449895642698, 2266.45], [-122.18909005634487, 46.18453583680093, 2268.37], [-122.18909936025739, 46.18457489646971, 2269.33], [-122.18908133916557, 46.184616051614285, 2271.25], [-122.1890589594841, 46.18464086204767, 2272.21], [-122.18907371163368, 46.18466265499592, 2273.66], [-122.18906885012984, 46.18471554480493, 2274.62], [-122.18908058479428, 46.184756783768535, 2276.54], [-122.1890782378614, 46.18485242128372, 2282.31], [-122.18905200250447, 46.18492031469941, 2286.15], [-122.18902735970914, 46.184961553663015, 2288.56], [-122.18898561783135, 46.18499608710408, 2290.96], [-122.18898880295455, 46.185061214491725, 2293.84], [-122.18900422565639, 46.18509516119957, 2297.21], [-122.18902677297592, 46.18508283980191, 2295.28], [-122.18904328532517, 46.18512894026935, 2295.28], [-122.18906935304403, 46.185131538659334, 2296.73], [-122.18907220289111, 46.18514612317085, 2298.17], [-122.18903976492584, 46.185149643570185, 2298.65], [-122.18904068693519, 46.18516355752945, 2299.13], [-122.18907379545271, 46.18521150201559, 2301.05], [-122.18905979767442, 46.18527344428003, 2303.46], [-122.18906180933118, 46.18528878316283, 2304.42], [-122.18902601860464, 46.18535751476884, 2306.82], [-122.1890362445265, 46.185419373214245, 2310.67], [-122.18906348571181, 46.1854546610266, 2313.55], [-122.18906457535923, 46.18550813756883, 2314.03], [-122.18907446600497, 46.18555884808302, 2314.99], [-122.1891173813492, 46.18561257608235, 2316.43], [-122.18916708603501, 46.18568298406899, 2316.91], [-122.18915954232216, 46.18575431406498, 2320.28], [-122.18916666693985, 46.185835702344775, 2323.16], [-122.18915266916156, 46.18585883639753, 2323.16], [-122.18915920704603, 46.185983307659626, 2328.45], [-122.18916884623468, 46.186045836657286, 2331.33], [-122.18916138634086, 46.186101995408535, 2333.74], [-122.18914646655321, 46.18614315055311, 2336.14], [-122.1891332231462, 46.18626007810235, 2340.47], [-122.1891398448497, 46.18634263984859, 2343.35], [-122.18912282958627, 46.18641011416912, 2347.2], [-122.18911662697792, 46.18647599592805, 2352.0], [-122.18909667804837, 46.186599880456924, 2359.21], [-122.18910120427608, 46.18665629066527, 2361.14], [-122.18906960450113, 46.18674580939114, 2365.94], [-122.18906893394887, 46.186843710020185, 2369.31], [-122.18905887566507, 46.186909256502986, 2371.71], [-122.1890935767442, 46.1869655828923, 2373.15], [-122.18910874798894, 46.187028950080276, 2375.55], [-122.18910564668477, 46.187086114659905, 2378.44], [-122.189085111022, 46.187135400250554, 2381.32], [-122.18907932750881, 46.18718661367893, 2383.73], [-122.18905258923769, 46.187225840985775, 2386.13], [-122.18905007466674, 46.18727831169963, 2386.61], [-122.18901093117893, 46.187352826818824, 2390.94], [-122.18897086568177, 46.18744787760079, 2395.26], [-122.18895368278027, 46.187497079372406, 2396.7], [-122.1889516711235, 46.18756857700646, 2398.63], [-122.18893826007843, 46.18761937133968, 2401.51], [-122.18892208300531, 46.1876252386719, 2402.95], [-122.1889090910554, 46.187677877023816, 2402.95], [-122.18888067640364, 46.18776605464518, 2406.32], [-122.18884379602969, 46.18781735189259, 2408.24], [-122.18883725814521, 46.18787786923349, 2410.16], [-122.18878906220198, 46.1879704054445, 2414.97], [-122.18879115767777, 46.18801809847355, 2417.37], [-122.18877950683236, 46.18805279955268, 2420.74], [-122.18874597921968, 46.188098983839154, 2422.66], [-122.1887323167175, 46.18814273737371, 2425.54], [-122.18871873803437, 46.18823753669858, 2429.39], [-122.18869845382869, 46.188281709328294, 2431.79], [-122.1886738948524, 46.18831414729357, 2433.71], [-122.1886670216918, 46.18834205903113, 2435.64], [-122.18867992982268, 46.18836309760809, 2438.04], [-122.18864372000098, 46.18840400129557, 2439.96], [-122.18865419737995, 46.188434176146984, 2439.48], [-122.18863709829748, 46.18845286779106, 2439.96], [-122.18865863978863, 46.188521431759, 2442.37], [-122.18864464201033, 46.18862813338637, 2450.06], [-122.18864698894322, 46.1886733956635, 2453.42], [-122.18869568780065, 46.18874682113528, 2455.82], [-122.18871102668345, 46.188840279355645, 2459.67], [-122.18873131088912, 46.18892812170088, 2464.48], [-122.18876341357827, 46.188999535515904, 2468.8], [-122.18874589540064, 46.18905301205814, 2472.17], [-122.18874648213387, 46.18914638645947, 2475.53], [-122.1887568756938, 46.1891776509583, 2477.94], [-122.1887463144958, 46.18924428708851, 2481.3], [-122.18876844272017, 46.18938233703375, 2488.03], [-122.18878042884171, 46.18941024877131, 2489.47], [-122.18875628896058, 46.189487697556615, 2491.87], [-122.18876710161567, 46.189549220725894, 2494.76], [-122.18875670805573, 46.18962273001671, 2500.05], [-122.18875419348478, 46.189702777192, 2503.41], [-122.18878344632685, 46.18974921293557, 2505.81], [-122.18877875246108, 46.18981207720935, 2507.26], [-122.18878537416458, 46.18985926732421, 2508.7], [-122.18878017738461, 46.18990193121135, 2509.66], [-122.18884438276291, 46.18993713520467, 2510.62], [-122.18889450654387, 46.18990712799132, 2507.74], [-122.18905518762767, 46.1899028532207, 2508.7], [-122.18918108381331, 46.18990754708648, 2509.18], [-122.18935467302799, 46.18994342163205, 2510.62], [-122.18947662971914, 46.189960688352585, 2513.02], [-122.18958232551813, 46.18995347991586, 2513.98], [-122.18969698995352, 46.189975356683135, 2513.5], [-122.18983822502196, 46.189997401088476, 2513.02], [-122.18995448201895, 46.19002053514123, 2512.06], [-122.19010812230408, 46.19004241190851, 2511.58], [-122.19024759717286, 46.19006680324674, 2511.58], [-122.1903677098453, 46.19009764865041, 2511.58], [-122.19064213335514, 46.1901274882257, 2516.39], [-122.19078253023326, 46.1901290807873, 2516.39], [-122.1909274533391, 46.19013695977628, 2515.43], [-122.19109173864126, 46.1901103053242, 2512.54], [-122.1912022959441, 46.190089685842395, 2511.1], [-122.19131863676012, 46.19007920846343, 2510.62], [-122.19140362925828, 46.190060349181294, 2508.22], [-122.19143849797547, 46.19006311520934, 2503.89], [-122.19154704362154, 46.19003972969949, 2499.08], [-122.19167687930167, 46.18999999947846, 2493.8], [-122.19179070554674, 46.18997787125409, 2490.43], [-122.19188407994807, 46.18996974080801, 2487.55], [-122.19199555926025, 46.18996932171285, 2483.22], [-122.19208382070065, 46.18998591788113, 2480.34], [-122.19222421757877, 46.19003428146243, 2478.42], [-122.19235807657242, 46.19004878215492, 2476.49], [-122.19247207045555, 46.19004551321268, 2475.53], [-122.1925628464669, 46.19005221873522, 2475.05], [-122.19271967187524, 46.19007711298764, 2474.57], [-122.19273325055838, 46.19008591398597, 2474.57], [-122.19290499575436, 46.19010544382036, 2475.53], [-122.19299635849893, 46.19011139497161, 2475.53], [-122.1930982824415, 46.19012715294957, 2475.05], [-122.19321043230593, 46.19012170471251, 2474.09], [-122.19323758967221, 46.190117010846734, 2473.61], [-122.1934122685343, 46.190129248425364, 2472.17], [-122.19357999041677, 46.190149281173944, 2473.61], [-122.19369297847152, 46.19017492979765, 2476.01], [-122.19387796707451, 46.19019580073655, 2482.74], [-122.193982321769, 46.190192364156246, 2485.15], [-122.19406739808619, 46.19019395671785, 2487.07], [-122.19414945691824, 46.1902205273509, 2490.43], [-122.19423679634929, 46.19023561477661, 2493.8], [-122.19437677413225, 46.190277775749564, 2496.68], [-122.19443687237799, 46.19030342437327, 2498.12], [-122.19454147852957, 46.190378023311496, 2501.97], [-122.19458162784576, 46.190423872321844, 2502.93], [-122.19462906941772, 46.19045656174421, 2503.89], [-122.19467667862773, 46.19052269496024, 2507.74], [-122.19459713436663, 46.1904314160347, 2502.93], [-122.19452689401805, 46.190340891480446, 2498.6], [-122.19447484239936, 46.190299736335874, 2497.64], [-122.19431701116264, 46.19018389843404, 2493.32], [-122.19418516382575, 46.190144922584295, 2490.43], [-122.19387327320874, 46.1901134904474, 2486.11], [-122.19367118552327, 46.19008105248213, 2481.3], [-122.19350547529757, 46.19008080102503, 2478.9], [-122.19339516945183, 46.190084740519524, 2477.45], [-122.19321101903915, 46.19007074274123, 2476.97], [-122.19302846118808, 46.19006152264774, 2477.94], [-122.19288135878742, 46.1900669708848, 2479.38], [-122.19266292639077, 46.190055068582296, 2478.9], [-122.19255949370563, 46.190051129087806, 2478.9], [-122.19232798554003, 46.19003537110984, 2478.9], [-122.19218800775707, 46.190018774941564, 2479.38], [-122.19206194393337, 46.18998826481402, 2479.86], [-122.19196580350399, 46.18998013436794, 2481.78], [-122.19166858121753, 46.189986085519195, 2494.28], [-122.19160144217312, 46.18999161757529, 2494.76], [-122.1914681699127, 46.19001215323806, 2498.12], [-122.19140413217247, 46.19001139886677, 2500.05], [-122.19125594012439, 46.19006420485675, 2505.81], [-122.1911774855107, 46.19008641690016, 2509.66], [-122.19104991294444, 46.19009597226977, 2509.66], [-122.19092175364494, 46.1900979001075, 2510.14], [-122.19080071896315, 46.190106784924865, 2511.1], [-122.19068488106132, 46.19010401889682, 2512.06], [-122.1905233617872, 46.19009345769882, 2511.58], [-122.19049151055515, 46.1900947149843, 2511.58], [-122.19032370485365, 46.190069150179625, 2511.58], [-122.19007258303463, 46.1900170147419, 2512.06], [-122.18992003239691, 46.189990527927876, 2511.58], [-122.18980628997087, 46.18996739387512, 2511.58], [-122.18965424224734, 46.18994417600334, 2511.1], [-122.1895061340183, 46.189927915111184, 2510.14], [-122.18922450207174, 46.189912743866444, 2507.74], [-122.18906667083502, 46.18989547714591, 2507.26], [-122.18890397809446, 46.1899028532207, 2506.29], [-122.18883717432618, 46.189910899847746, 2506.29], [-122.188826110214, 46.1899065412581, 2503.89], [-122.18880473636091, 46.18984619155526, 2506.29], [-122.18881906941533, 46.189859518781304, 2505.33], [-122.18883315101266, 46.18992833420634, 2506.77], [-122.18884639441967, 46.18990721181035, 2507.74], [-122.18887355178595, 46.18989212438464, 2506.77], [-122.18899852596223, 46.18986647576094, 2505.81], [-122.18900271691382, 46.18987209163606, 2506.29], [-122.18907387927175, 46.18987603113055, 2506.77], [-122.1891260985285, 46.18957738392055, 2497.16], [-122.1891588717699, 46.18922643363476, 2476.01], [-122.1891900524497, 46.189238503575325, 2472.17], [-122.18927043490112, 46.188924349844456, 2459.19], [-122.18930362723768, 46.18861681781709, 2443.33], [-122.18932902440429, 46.18824482895434, 2425.54], [-122.18933128751814, 46.18788826279342, 2407.28], [-122.18932583928108, 46.18785532191396, 2405.84], [-122.1892693452537, 46.18782363831997, 2406.32], [-122.18930454924703, 46.18777150288224, 2403.91], [-122.18935492448509, 46.187780387699604, 2402.47], [-122.18936339020729, 46.187737891450524, 2401.03], [-122.1893660724163, 46.18749129585922, 2391.9], [-122.18932726420462, 46.18742876686156, 2388.53], [-122.18934671021998, 46.18725601583719, 2383.25], [-122.18934880569577, 46.18718032725155, 2379.88], [-122.18932382762432, 46.18705208413303, 2374.11], [-122.18930471688509, 46.1869809217751, 2370.75], [-122.18927931971848, 46.18695007637143, 2367.38], [-122.18928460031748, 46.186899449676275, 2365.94], [-122.18927747569978, 46.18678872473538, 2362.58], [-122.18928879126906, 46.18666919879615, 2356.81], [-122.18933891505003, 46.18649208918214, 2348.64], [-122.18932793475688, 46.18643391877413, 2346.23], [-122.18934210017323, 46.186388656497, 2343.83], [-122.18936297111213, 46.18625312112272, 2338.06], [-122.18936020508409, 46.18615362793207, 2332.3], [-122.18937118537724, 46.18613795377314, 2335.18], [-122.18934218399227, 46.186139630153775, 2333.74], [-122.18934855423868, 46.18600208312273, 2328.93], [-122.18931913375854, 46.185723803937435, 2316.91], [-122.1893211454153, 46.18565666489303, 2314.51], [-122.18947377987206, 46.18547092191875, 2307.3], [-122.18950169160962, 46.18539037182927, 2304.42], [-122.18953991308808, 46.185216531157494, 2297.69], [-122.18955994583666, 46.18496331386268, 2286.63], [-122.18959406018257, 46.18455922231078, 2265.96], [-122.18968961387873, 46.18412470445037, 2243.37], [-122.18971115536988, 46.184010123834014, 2232.32], [-122.18977284617722, 46.1838501971215, 2225.11], [-122.18975197523832, 46.183807449415326, 2228.47], [-122.18970612622797, 46.18380384519696, 2227.51], [-122.1896115783602, 46.183705693110824, 2227.99], [-122.18956204131246, 46.18367141112685, 2227.51], [-122.18951812013984, 46.183627573773265, 2226.07], [-122.18946078792214, 46.183556746691465, 2223.19], [-122.18944368883967, 46.18351869285107, 2221.74], [-122.18951317481697, 46.18339321576059, 2216.46], [-122.18963203020394, 46.183275701478124, 2211.17], [-122.18972666189075, 46.18318718858063, 2208.29], [-122.18974786810577, 46.18312113918364, 2205.88], [-122.18977552838624, 46.18305693380535, 2202.52], [-122.1898116543889, 46.18300823494792, 2199.63], [-122.18982657417655, 46.18296414613724, 2197.71], [-122.18983478844166, 46.18288854137063, 2194.83], [-122.18985549174249, 46.18283196352422, 2192.9], [-122.18990829773247, 46.18274227716029, 2188.1], [-122.18996194191277, 46.18268712423742, 2186.66], [-122.1901121456176, 46.18254639208317, 2179.93], [-122.19010946340859, 46.18252652697265, 2178.48], [-122.1901282388717, 46.182480761781335, 2176.08], [-122.19007057137787, 46.182362493127584, 2170.79], [-122.1900124847889, 46.18214624002576, 2163.58], [-122.18994769267738, 46.182112880051136, 2162.14], [-122.18980059027672, 46.18212972767651, 2162.14], [-122.1897667273879, 46.18201204575598, 2158.3], [-122.18968986533582, 46.18185169994831, 2151.57], [-122.18970897607505, 46.181745920330286, 2145.8], [-122.18970637768507, 46.181610971689224, 2143.4], [-122.18969003297389, 46.18147476576269, 2141.47], [-122.18961325474083, 46.18136747740209, 2137.15], [-122.18973571434617, 46.181283155456185, 2136.19], [-122.18974233604968, 46.1812221352011, 2136.19], [-122.18973110429943, 46.18121920153499, 2137.15], [-122.18976153060794, 46.18118709884584, 2136.67], [-122.18969330191612, 46.18117628619075, 2135.71], [-122.18969816341996, 46.18114468641579, 2133.3], [-122.18975055031478, 46.18110990151763, 2131.38], [-122.189817186445, 46.18107897229493, 2128.98], [-122.18985507264733, 46.18104251101613, 2126.57], [-122.18982833437622, 46.18098727427423, 2123.21], [-122.18981517478824, 46.18077965453267, 2115.04], [-122.189727332443, 46.18054931983352, 2103.98], [-122.1896961517632, 46.180441696196795, 2098.7], [-122.18972188420594, 46.18036223575473, 2095.33], [-122.18974149785936, 46.180317644029856, 2091.0], [-122.18971953727305, 46.18029836565256, 2093.89], [-122.1897339541465, 46.180279506370425, 2092.93], [-122.1897357981652, 46.180242793634534, 2092.45], [-122.18977586366236, 46.18003869429231, 2088.6], [-122.18973839655519, 46.18000131100416, 2087.64], [-122.18966228887439, 46.179994102567434, 2088.12], [-122.18957637436688, 46.17991372011602, 2086.2], [-122.18936758115888, 46.17968120612204, 2079.47], [-122.18927797861397, 46.179497223347425, 2067.45], [-122.18930454924703, 46.17951021529734, 2061.68], [-122.18943128362298, 46.17928382009268, 2059.76], [-122.18938970938325, 46.17922950536013, 2057.36], [-122.18930505216122, 46.17909522727132, 2052.07], [-122.18915702775121, 46.17875031195581, 2038.61], [-122.18913657590747, 46.17871670052409, 2036.21], [-122.18900891952217, 46.17860874161124, 2026.12], [-122.18865285627544, 46.17839911021292, 2014.1], [-122.18868856318295, 46.1783086694777, 2007.85], [-122.18857339583337, 46.17825812660158, 2003.04], [-122.18868671916425, 46.17818838916719, 2000.16], [-122.1888417005539, 46.17812745273113, 2000.64], [-122.18897933140397, 46.178238010033965, 2006.89], [-122.18904303386807, 46.17830280214548, 2011.7], [-122.18911687843502, 46.178333731368184, 2016.5], [-122.1891797427088, 46.17836876772344, 2020.35], [-122.1892785653472, 46.17837857455015, 2021.79], [-122.18940001912415, 46.17834412492812, 2023.71], [-122.18937420286238, 46.17832224816084, 2023.23], [-122.1893058065325, 46.17818738333881, 2021.31], [-122.18925140798092, 46.17791949771345, 2014.1], [-122.18915577046573, 46.17763317190111, 2000.64], [-122.189079830423, 46.177398562431335, 1991.03], [-122.1890486497432, 46.17735858075321, 1977.09], [-122.18925685621798, 46.17740568704903, 1963.15], [-122.18945567496121, 46.177427312359214, 1961.71], [-122.18964602798223, 46.177394622936845, 1968.92], [-122.18977955169976, 46.17741105146706, 1972.76], [-122.18985373154283, 46.17746561765671, 1977.09], [-122.18983445316553, 46.177437203004956, 1982.38], [-122.18997468240559, 46.1774434056133, 1980.93], [-122.19002656638622, 46.17742035537958, 1981.9], [-122.19016042537987, 46.1773952934891, 1980.45], [-122.19004140235484, 46.17736076004803, 1979.01], [-122.19001944176853, 46.17733729071915, 1980.93], [-122.1899134106934, 46.17730158381164, 1979.97], [-122.189711490646, 46.17732505314052, 1978.05], [-122.18974233604968, 46.17726872675121, 1976.61], [-122.18975809402764, 46.17695666849613, 1966.51], [-122.18986093997955, 46.176512176170945, 1947.77], [-122.18996127136052, 46.17628921754658, 1935.75], [-122.19004165381193, 46.176138846203685, 1924.7], [-122.1902812924236, 46.175783202052116, 1896.34], [-122.19029964879155, 46.175776328891516, 1875.19], [-122.19026737846434, 46.17588588036597, 1876.15], [-122.19032060354948, 46.175885796546936, 1876.63], [-122.19037148170173, 46.17586727254093, 1879.51], [-122.19039084389806, 46.175850089639425, 1883.84], [-122.19042713753879, 46.1758394446224, 1886.72], [-122.19043652527034, 46.17582695558667, 1888.65], [-122.19044054858387, 46.175935082137585, 1891.05], [-122.19043610617518, 46.1760432086885, 1896.82], [-122.19038941897452, 46.17614001967013, 1902.11], [-122.19039293937385, 46.17618905380368, 1907.39], [-122.19038237817585, 46.1762469727546, 1909.8], [-122.19035010784864, 46.17628921754658, 1911.72], [-122.19045312143862, 46.17638041265309, 1918.93], [-122.19044700264931, 46.17646984755993, 1921.33], [-122.1905061788857, 46.17650446482003, 1926.62], [-122.1905563864857, 46.17633213289082, 1914.12], [-122.19064112752676, 46.17610054090619, 1903.07], [-122.19088403508067, 46.17562126368284, 1877.11], [-122.19091638922691, 46.17551908828318, 1871.34], [-122.19101403839886, 46.1753592453897, 1862.21], [-122.19112845137715, 46.17524248547852, 1843.47], [-122.19108738005161, 46.17530107498169, 1825.68], [-122.19107866287231, 46.17524919100106, 1822.32], [-122.19108796678483, 46.17523326538503, 1823.28], [-122.19109592959285, 46.17499220184982, 1829.53], [-122.19098805449903, 46.17479648441076, 1833.37], [-122.19099752604961, 46.174767734482884, 1836.74], [-122.19128804281354, 46.17462767288089, 1835.29], [-122.1913508232683, 46.17456179112196, 1834.81], [-122.19132760539651, 46.17450370453298, 1834.33], [-122.19126750715077, 46.174455592408776, 1833.37], [-122.19126985408366, 46.174376886337996, 1832.89], [-122.19164242967963, 46.17443765513599, 1830.49], [-122.19182129949331, 46.17444318719208, 1829.05], [-122.19218406826258, 46.17439230903983, 1827.6], [-122.1922916918993, 46.17435559630394, 1824.72], [-122.19228046014905, 46.17420841008425, 1819.91], [-122.19223528169096, 46.17405812256038, 1816.07], [-122.1922763530165, 46.17384103126824, 1805.49], [-122.19239722006023, 46.173550095409155, 1789.63], [-122.19242949038744, 46.17341564968228, 1784.82], [-122.19246653839946, 46.17329394444823, 1780.02], [-122.19248631969094, 46.17327416315675, 1772.81], [-122.1925541292876, 46.17329151369631, 1770.89], [-122.1927787642926, 46.173315988853574, 1773.29], [-122.192925196141, 46.17334373295307, 1775.69], [-122.19308353029191, 46.17332856170833, 1777.13], [-122.19321303069592, 46.17332328110933, 1779.54], [-122.19326172955334, 46.17329469881952, 1780.98], [-122.1932642441243, 46.17325379513204, 1780.5], [-122.193165672943, 46.17316058836877, 1777.61], [-122.19303667545319, 46.17298800498247, 1768.0], [-122.19307431019843, 46.1729106400162, 1755.99], [-122.19315519556403, 46.17290150374174, 1755.02], [-122.19326566904783, 46.17290502414107, 1758.87], [-122.19337731599808, 46.172885997220874, 1761.27], [-122.19350690022111, 46.1728033516556, 1761.75], [-122.193498685956, 46.17276479490101, 1760.79], [-122.19357085414231, 46.172705283388495, 1759.35], [-122.19355409033597, 46.17270612157881, 1759.35], [-122.1935229934752, 46.17264007218182, 1758.39], [-122.19340790994465, 46.17248559370637, 1755.5], [-122.19331344589591, 46.17221066728234, 1748.29], [-122.19344546087086, 46.17204185575247, 1735.32], [-122.1935002785176, 46.17194781079888, 1722.34], [-122.19354160130024, 46.17181244306266, 1715.61], [-122.19359843060374, 46.171691408380866, 1710.8], [-122.19377939589322, 46.171667855232954, 1709.36], [-122.19403504393995, 46.17161186411977, 1712.25], [-122.19402414746583, 46.17161764763296, 1712.25], [-122.19420779496431, 46.17161345668137, 1713.69], [-122.19421408139169, 46.17161521688104, 1714.17], [-122.19398651272058, 46.17137582972646, 1708.4], [-122.19378895126283, 46.17080611176789, 1676.68], [-122.19368468038738, 46.170382825657725, 1652.64], [-122.19371200539172, 46.17032004520297, 1646.88], [-122.19387134537101, 46.17036354728043, 1636.3], [-122.19392825849354, 46.170370336622, 1635.82], [-122.19369733706117, 46.170125333592296, 1629.57], [-122.19368903897703, 46.170135559514165, 1627.65], [-122.19365517608821, 46.170063726603985, 1631.01], [-122.19364101067185, 46.16999641992152, 1632.94], [-122.19371343031526, 46.170023661106825, 1633.42], [-122.19367939978838, 46.16997563280165, 1636.3], [-122.19370638951659, 46.16992089897394, 1633.9], [-122.19369038008153, 46.169810090214014, 1630.05], [-122.1936887037009, 46.169591657817364, 1626.69], [-122.19365685246885, 46.16950951516628, 1625.25], [-122.19360924325883, 46.169373979792, 1625.73], [-122.19362542033195, 46.16939292289317, 1625.25], [-122.1934764739126, 46.16934774443507, 1624.28], [-122.19336952082813, 46.1693221796304, 1623.32], [-122.1932605560869, 46.16931279189885, 1623.32], [-122.1931865438819, 46.16931932978332, 1622.84], [-122.1931530162692, 46.169310277327895, 1625.25], [-122.19320364296436, 46.169276498258114, 1623.32], [-122.19325929880142, 46.16921556182206, 1620.44], [-122.19324890524149, 46.169175831601024, 1619.48], [-122.19322032295167, 46.16898103617132, 1617.56], [-122.19323717057705, 46.16894499398768, 1616.11], [-122.19316902570426, 46.16894616745412, 1614.19], [-122.19310381449759, 46.168960835784674, 1614.19], [-122.19335560686886, 46.168889002874494, 1613.71], [-122.19342584721744, 46.16882907226682, 1613.23], [-122.19343523494899, 46.16860896348953, 1606.5], [-122.1933882124722, 46.16847602650523, 1601.21], [-122.19335426576436, 46.16828349418938, 1593.04], [-122.1933884639293, 46.168179139494896, 1583.91], [-122.19354369677603, 46.168101439252496, 1581.03], [-122.19360714778304, 46.167987529188395, 1579.1], [-122.19357688911259, 46.16767169907689, 1569.01], [-122.19359264709055, 46.16755301132798, 1559.4], [-122.19359625130892, 46.1675882153213, 1553.15], [-122.19357127323747, 46.167574217543006, 1554.59], [-122.1935491450131, 46.16757648065686, 1555.07], [-122.19352534040809, 46.1675435397774, 1554.59], [-122.19341997988522, 46.167467599734664, 1552.19], [-122.19321965239942, 46.167233157902956, 1542.09], [-122.19317715615034, 46.167233074083924, 1532.48], [-122.1931030601263, 46.1672153044492, 1532.0], [-122.19305821694434, 46.16718529723585, 1529.59], [-122.1930565405637, 46.167155960574746, 1528.15], [-122.19302225857973, 46.16710131056607, 1527.19], [-122.19296660274267, 46.167090497910976, 1526.23], [-122.19293005764484, 46.16705680266023, 1526.71], [-122.19290407374501, 46.167048336938024, 1527.19], [-122.19289309345186, 46.16706250235438, 1526.23], [-122.19282486476004, 46.16707901470363, 1524.31], [-122.19269645400345, 46.16711840964854, 1522.87], [-122.19258950091898, 46.16713810712099, 1519.98], [-122.19253527000546, 46.167157301679254, 1519.02], [-122.19246704131365, 46.16716551594436, 1514.21], [-122.19240576960146, 46.16713752038777, 1511.81], [-122.19236469827592, 46.16715705022216, 1508.45], [-122.19229730777442, 46.16716937161982, 1506.04], [-122.19221097417176, 46.1671481654048, 1502.68], [-122.19216470606625, 46.16712243296206, 1499.31], [-122.19208457507193, 46.16703065112233, 1495.47], [-122.19192146323621, 46.166879860684276, 1488.26], [-122.19205875881016, 46.16679252125323, 1483.45], [-122.19194753095508, 46.16669160313904, 1478.16], [-122.19173555262387, 46.16661524400115, 1472.88], [-122.19171904027462, 46.16661138832569, 1472.4], [-122.19166195951402, 46.16661909967661, 1471.44], [-122.19151888042688, 46.166680455207825, 1469.51], [-122.19132819212973, 46.16670090705156, 1469.51], [-122.1913228277117, 46.166671654209495, 1469.51], [-122.19121880829334, 46.16665287874639, 1469.03], [-122.19107975251973, 46.166587583720684, 1469.99], [-122.19101739116013, 46.16652782075107, 1470.47], [-122.19098880887032, 46.166555900126696, 1469.03], [-122.19102133065462, 46.16654542274773, 1467.59], [-122.19084061682224, 46.16637585684657, 1466.15], [-122.19068094156682, 46.166208889335394, 1463.26], [-122.19054222106934, 46.16611157543957, 1462.78], [-122.19045127741992, 46.16602683439851, 1461.34], [-122.1904459130019, 46.16601778194308, 1458.46], [-122.19048245809972, 46.165985092520714, 1454.61], [-122.19046753831208, 46.165946619585156, 1454.13], [-122.19045496545732, 46.16597017273307, 1456.05], [-122.19045354053378, 46.16588861681521, 1454.61], [-122.19049486331642, 46.165779903531075, 1453.65], [-122.19048857688904, 46.16575241088867, 1453.17], [-122.19050944782794, 46.16565467789769, 1450.29], [-122.19059938564897, 46.16556809283793, 1451.73], [-122.19064238481224, 46.16544311866164, 1451.73], [-122.19062763266265, 46.16537204012275, 1451.25], [-122.19061086885631, 46.16523843258619, 1447.4], [-122.1905767545104, 46.16506886668503, 1446.92], [-122.19061430543661, 46.16495621390641, 1445.0], [-122.19052989967167, 46.164842722937465, 1440.19], [-122.19052000902593, 46.164694698527455, 1436.35], [-122.190454127267, 46.16459922865033, 1433.46], [-122.19045882113278, 46.16454483009875, 1431.06], [-122.1903975494206, 46.16438901051879, 1428.18], [-122.19024927355349, 46.164308628067374, 1427.21], [-122.19010996632278, 46.16421986371279, 1424.81], [-122.19000527635217, 46.16413193754852, 1422.41], [-122.18979338183999, 46.164137218147516, 1417.6], [-122.18975046649575, 46.16415213793516, 1415.68], [-122.18964158557355, 46.16423117928207, 1411.35], [-122.18961459584534, 46.16428934969008, 1409.43], [-122.18959162943065, 46.16432078182697, 1407.99], [-122.18958492390811, 46.16445271298289, 1402.22], [-122.18952935189009, 46.16452689282596, 1395.97], [-122.18956581316888, 46.16441432386637, 1391.65], [-122.18954745680094, 46.164331594482064, 1388.76], [-122.18954804353416, 46.164250038564205, 1385.4], [-122.18957863748074, 46.16418717429042, 1380.59], [-122.18958282843232, 46.164096063002944, 1378.67], [-122.18951904214919, 46.16396631114185, 1380.59], [-122.18952616676688, 46.1638031154871, 1380.11], [-122.18950286507607, 46.16377227008343, 1382.03], [-122.18961996026337, 46.16377922706306, 1383.47], [-122.18979212455451, 46.16377092897892, 1382.03], [-122.19000041484833, 46.16372164338827, 1381.07], [-122.19014910981059, 46.16368945688009, 1380.59], [-122.19026704318821, 46.16365626454353, 1380.11], [-122.19029176980257, 46.16363807581365, 1378.67], [-122.19038019888103, 46.16364100947976, 1376.26], [-122.19069376587868, 46.163677303120494, 1370.5], [-122.19085545279086, 46.1636820808053, 1370.5], [-122.19102711416781, 46.163677386939526, 1370.98], [-122.19106902368367, 46.16364226676524, 1370.98], [-122.19112878665328, 46.16357462480664, 1366.65], [-122.19123993068933, 46.16345786489546, 1367.13], [-122.19129080884159, 46.1633435357362, 1363.29], [-122.19139650464058, 46.163296680897474, 1360.4], [-122.1915130969137, 46.16319668479264, 1357.04], [-122.19154670834541, 46.16306542418897, 1353.67], [-122.19155140221119, 46.16302921436727, 1353.19], [-122.1915334649384, 46.16293391212821, 1352.71], [-122.19154545105994, 46.162916142493486, 1352.71], [-122.19156581908464, 46.16274691186845, 1349.83], [-122.19141854904592, 46.16270089522004, 1346.94], [-122.19140161760151, 46.16260601207614, 1344.54], [-122.1914145257324, 46.162567706778646, 1344.54], [-122.19138778746128, 46.162505177780986, 1343.1], [-122.19134763814509, 46.162470476701856, 1342.62], [-122.1911642421037, 46.162411300465465, 1340.7], [-122.19118578359485, 46.162282302975655, 1338.77], [-122.19145484268665, 46.16210527718067, 1332.52], [-122.19154293648899, 46.162061942741275, 1332.04], [-122.19176296144724, 46.16197711788118, 1332.04], [-122.19190101139247, 46.16187008097768, 1331.08], [-122.19199262559414, 46.161733036860824, 1332.04], [-122.19203461892903, 46.1615942325443, 1330.6], [-122.19213679432869, 46.161367166787386, 1326.76], [-122.19221734441817, 46.16127689369023, 1325.8], [-122.19224953092635, 46.161217130720615, 1324.83], [-122.19251314178109, 46.16108251735568, 1322.43], [-122.19276560470462, 46.1610003747046, 1320.51], [-122.19280416145921, 46.16097506135702, 1320.03], [-122.1928374376148, 46.160921920090914, 1319.55], [-122.1928546205163, 46.16090557537973, 1320.03], [-122.19286375679076, 46.16078889928758, 1319.55], [-122.19282561913133, 46.16076643578708, 1319.07], [-122.19274674542248, 46.16074380464852, 1318.1], [-122.19261540099978, 46.16064850240946, 1317.14], [-122.19257835298777, 46.16056610830128, 1315.7], [-122.1923931967467, 46.16037298925221, 1312.82], [-122.19227207824588, 46.1601940356195, 1310.9], [-122.19220460392535, 46.16004089824855, 1306.09], [-122.19224198721349, 46.159945763647556, 1302.72], [-122.19224089756608, 46.159781981259584, 1298.4], [-122.19223209656775, 46.15969765931368, 1295.03], [-122.19238137826324, 46.15957695990801, 1292.15], [-122.19259310513735, 46.159402281045914, 1292.63], [-122.1926648542285, 46.15932181477547, 1292.15], [-122.19267893582582, 46.159293903037906, 1291.67], [-122.19282830134034, 46.159101873636246, 1286.38], [-122.19293190166354, 46.15892954170704, 1282.54], [-122.19296475872397, 46.15882200188935, 1282.54], [-122.19297934323549, 46.158743714913726, 1283.5], [-122.19292243011296, 46.15857138298452, 1286.38], [-122.19292125664651, 46.15844691172242, 1285.9], [-122.19299577176571, 46.158280950039625, 1282.54], [-122.1930877212435, 46.15813275799155, 1278.21], [-122.19307523220778, 46.15795858204365, 1276.29], [-122.19310523942113, 46.15782614797354, 1274.85], [-122.19304690137506, 46.15758189931512, 1276.77], [-122.19298898242414, 46.15747838281095, 1279.65], [-122.1928630862385, 46.15735684521496, 1277.25], [-122.19269989058375, 46.15728434175253, 1278.21], [-122.19251615926623, 46.15719792433083, 1277.25], [-122.19249000772834, 46.15718778222799, 1276.29], [-122.19237718731165, 46.157117541879416, 1278.69], [-122.19236243516207, 46.15710262209177, 1279.17], [-122.19223469495773, 46.15703263320029, 1279.17], [-122.19233536161482, 46.15696088410914, 1277.25], [-122.19240074045956, 46.15687211975455, 1277.73], [-122.19234642572701, 46.156659638509154, 1278.69], [-122.19221734441817, 46.15647163242102, 1280.61], [-122.19219353981316, 46.15645562298596, 1281.09], [-122.1919045317918, 46.156357722356915, 1280.13], [-122.19176363199949, 46.15636174567044, 1277.25], [-122.19158585183322, 46.15642201155424, 1274.36], [-122.19135275110602, 46.15648906677961, 1275.81], [-122.19108226709068, 46.15661756135523, 1275.33], [-122.19105896539986, 46.15662368014455, 1274.36], [-122.19082670286298, 46.15663734264672, 1270.52], [-122.19067867845297, 46.15661730989814, 1271.48], [-122.1905006468296, 46.15657866932452, 1271.0], [-122.19034935347736, 46.15652351640165, 1271.0], [-122.19007560051978, 46.15655042231083, 1268.6], [-122.18990452587605, 46.156573724001646, 1268.12], [-122.18966061249375, 46.15665762685239, 1261.87], [-122.18958333134651, 46.156669948250055, 1259.94], [-122.18936867080629, 46.15660674870014, 1258.5], [-122.1892233286053, 46.15651438012719, 1258.02], [-122.18915736302733, 46.15637758746743, 1255.14], [-122.1891157887876, 46.1561822053045, 1258.02], [-122.18902191147208, 46.1561097856611, 1259.46], [-122.1889743860811, 46.156040551140904, 1259.94], [-122.18905929476023, 46.15610618144274, 1259.46], [-122.18896013684571, 46.15598841570318, 1258.98], [-122.18878193758428, 46.15582237020135, 1255.14], [-122.1886239387095, 46.155788507312536, 1252.74], [-122.18845814466476, 46.155851539224386, 1251.29], [-122.18834859319031, 46.15600023418665, 1251.29], [-122.1882127225399, 46.15612202323973, 1249.85], [-122.18804374337196, 46.1562136374414, 1246.97], [-122.1879624389112, 46.15629544481635, 1244.56], [-122.18780536204576, 46.15638521499932, 1242.64], [-122.18773998320103, 46.15643215365708, 1240.72], [-122.18761987052858, 46.15642234683037, 1241.2], [-122.18755935318768, 46.15637884475291, 1240.24], [-122.18747452832758, 46.15620986558497, 1236.87], [-122.18746212311089, 46.156078185886145, 1233.03], [-122.18748131766915, 46.15590853616595, 1233.03], [-122.18745038844645, 46.15582044236362, 1232.07], [-122.18744167126715, 46.15566613152623, 1232.07], [-122.18729523941875, 46.15549991838634, 1233.03], [-122.18713648617268, 46.1554416641593, 1230.14], [-122.18693716451526, 46.15538408048451, 1228.7], [-122.18672535382211, 46.15527695976198, 1229.18], [-122.18653835356236, 46.15513815544546, 1228.7], [-122.18643190339208, 46.15501309745014, 1227.74], [-122.18638764694333, 46.15486331284046, 1229.66], [-122.1863685362041, 46.15472937002778, 1233.99], [-122.18628999777138, 46.15454412996769, 1237.35], [-122.1862821187824, 46.154470955953, 1239.28], [-122.18621095642447, 46.15433106198907, 1243.12], [-122.1860595792532, 46.15407491102815, 1249.37], [-122.18582195229828, 46.153969801962376, 1250.33], [-122.18570074997842, 46.15384558215737, 1247.45], [-122.18553411774337, 46.153698563575745, 1242.16], [-122.18545708805323, 46.153642404824495, 1236.39], [-122.18534141778946, 46.15342472679913, 1224.38], [-122.18530034646392, 46.15331081673503, 1221.01], [-122.18529640696943, 46.1531154345721, 1217.17], [-122.18527218326926, 46.15298870019615, 1213.8], [-122.18529481440783, 46.15284285508096, 1213.8], [-122.18529481440783, 46.15270145237446, 1215.24], [-122.18521024100482, 46.15248494781554, 1216.21], [-122.18522717244923, 46.152308424934745, 1213.32], [-122.1852254960686, 46.15228814072907, 1214.28], [-122.18532532453537, 46.1520757433027, 1214.28], [-122.1853618696332, 46.15197792649269, 1212.84], [-122.18538072891533, 46.15178304724395, 1215.72], [-122.18547502532601, 46.151655558496714, 1217.17], [-122.18549363315105, 46.15163594484329, 1218.13], [-122.1855862531811, 46.151409382000566, 1215.72], [-122.18546538613737, 46.150989197194576, 1208.51], [-122.185461781919, 46.1507979221642, 1205.63], [-122.18540604226291, 46.15061469376087, 1203.23], [-122.18542967922986, 46.150421323254704, 1199.86], [-122.18551467172801, 46.15022694692016, 1195.54], [-122.18554694205523, 46.15013910457492, 1193.61], [-122.18563889153302, 46.14996316842735, 1189.29], [-122.18567040748894, 46.14982293918729, 1185.92], [-122.18568725511432, 46.149670304730535, 1187.85], [-122.18574173748493, 46.14943913184106, 1194.09], [-122.18579747714102, 46.14907393231988, 1197.94], [-122.18576537445188, 46.14886438474059, 1195.54], [-122.18579194508493, 46.14865810610354, 1189.29], [-122.18582983128726, 46.14847621880472, 1188.33], [-122.18582111410797, 46.148261558264494, 1186.4], [-122.18580133281648, 46.14806642755866, 1187.37], [-122.1858436614275, 46.14787666127086, 1186.88], [-122.18575783073902, 46.14776451140642, 1179.19], [-122.18560812994838, 46.147628389298916, 1176.31], [-122.18552355654538, 46.147564854472876, 1176.79], [-122.18541098758578, 46.147427977994084, 1178.23], [-122.18520521186292, 46.14728464744985, 1179.67], [-122.18504964374006, 46.14713561721146, 1177.27], [-122.18507177196443, 46.14695423282683, 1172.47], [-122.18505190685391, 46.146794306114316, 1173.43], [-122.18489617109299, 46.146710235625505, 1179.67], [-122.18467673286796, 46.146658435463905, 1184.96], [-122.18445863574743, 46.14659029059112, 1188.33], [-122.18426903709769, 46.146458527073264, 1183.52], [-122.1839096210897, 46.1463529150933, 1166.22], [-122.18390534631908, 46.14629331976175, 1158.05], [-122.18379738740623, 46.14622752182186, 1149.87], [-122.18362304382026, 46.146227940917015, 1145.07], [-122.18357400968671, 46.14624680019915, 1143.63], [-122.18355984427035, 46.14627345465124, 1146.51], [-122.1835229638964, 46.14630245603621, 1146.03], [-122.18342380598187, 46.14640790037811, 1146.99], [-122.18328315764666, 46.14655181765556, 1149.39], [-122.18317528255284, 46.14665667526424, 1150.35], [-122.18301862478256, 46.14679941907525, 1151.32], [-122.18289088457823, 46.146936966106296, 1156.6], [-122.18274956569076, 46.147002931684256, 1156.12], [-122.18271804973483, 46.147028747946024, 1155.64], [-122.18270028010011, 46.14706998690963, 1149.39], [-122.18274973332882, 46.147040985524654, 1148.91], [-122.18320939689875, 46.14669766277075, 1145.55], [-122.1835935395211, 46.14627856761217, 1145.07], [-122.18343193642795, 46.146333469077945, 1146.03]]}}