{"type": "Feature", "properties": {}, "geometry": {"type": "LineString", "coordinates": [[-122.12635729461908, 41.365410313010216, 1999.2], [-122.12641144171357, 41.36537192389369, 1999.2], [-122.12653909809887, 41.36541408486664, 1998.24], [-122.12668930180371, 41.36545641347766, 2000.16], [-122.12689499370754, 41.3656217046082, 1999.68], [-122.12691184133291, 41.36566369794309, 2000.16], [-122.12705860845745, 41.36581616476178, 2003.04], [-122.12715324014425, 41.36597651056945, 2004.01], [-122.1272921282798, 41.366200810298324, 2007.37], [-122.12736077606678, 41.36641622520983, 2012.66], [-122.1274665556848, 41.36657900176942, 2016.02], [-122.12764014489949, 41.36677430011332, 2018.43], [-122.12786318734288, 41.366976387798786, 2022.75], [-122.12789034470916, 41.366993486881256, 2023.23], [-122.12796402163804, 41.36700019240379, 2023.71], [-122.12802001275122, 41.36703925207257, 2024.19], [-122.12803266942501, 41.367255756631494, 2020.35], [-122.12799972854555, 41.36739908717573, 2021.31], [-122.12807323783636, 41.36759287677705, 2019.39], [-122.12812813930213, 41.36762506328523, 2018.91], [-122.12830332107842, 41.36770234443247, 2019.39], [-122.1285152155906, 41.36778121814132, 2024.67], [-122.12863608263433, 41.36791868135333, 2026.12], [-122.12874697521329, 41.36801624670625, 2028.04], [-122.12885543704033, 41.368188075721264, 2029.48], [-122.12904185056686, 41.368307853117585, 2029.96], [-122.12912986055017, 41.36834272183478, 2031.4], [-122.1292974986136, 41.36839033104479, 2035.25], [-122.12934695184231, 41.36845361441374, 2037.65], [-122.12932356633246, 41.3685314822942, 2039.09], [-122.12919171899557, 41.36866031214595, 2042.46], [-122.12913371622562, 41.36882216669619, 2046.3], [-122.12902751751244, 41.36900438927114, 2052.07], [-122.12884303182364, 41.36917009949684, 2050.15], [-122.1286788303405, 41.36928183026612, 2051.59], [-122.12858059443533, 41.36939984746277, 2052.55], [-122.12842544540763, 41.36957318522036, 2056.4], [-122.12839870713651, 41.36961140669882, 2056.88], [-122.12838940322399, 41.36982137337327, 2055.44], [-122.12844816036522, 41.36995414271951, 2059.28], [-122.1284755691886, 41.37017307803035, 2064.09], [-122.12848939932883, 41.37032814323902, 2075.14], [-122.12874630466104, 41.37045789510012, 2078.51], [-122.12885602377355, 41.37049192562699, 2080.43], [-122.12909440509975, 41.37053534388542, 2083.79], [-122.1293419227004, 41.37063642963767, 2089.08], [-122.12931334041059, 41.370723182335496, 2091.0], [-122.12921996600926, 41.37095142155886, 2087.64], [-122.12920328602195, 41.37107815593481, 2081.39], [-122.12923874147236, 41.37123984284699, 2085.24], [-122.12936011143029, 41.37143488973379, 2087.64], [-122.12947343476117, 41.37157562188804, 2088.6], [-122.12962104007602, 41.371695483103395, 2091.0], [-122.12980560958385, 41.371811321005225, 2095.81], [-122.13007852435112, 41.37194065377116, 2097.25], [-122.13023082353175, 41.37197284027934, 2101.1], [-122.13042955845594, 41.37198214419186, 2102.54], [-122.13051522150636, 41.37201139703393, 2101.1], [-122.13074069470167, 41.37206009589136, 2102.06], [-122.13102576322854, 41.372135784476995, 2103.02], [-122.13113062083721, 41.37207727879286, 2103.98], [-122.13112693279982, 41.372030256316066, 2103.98], [-122.13119893334806, 41.37183269485831, 2103.5], [-122.13130806572735, 41.371681401506066, 2105.91], [-122.13145357556641, 41.37152960523963, 2107.35], [-122.13175423443317, 41.371554750949144, 2105.42], [-122.13196394965053, 41.371483504772186, 2106.87], [-122.13212303817272, 41.371413012966514, 2110.71], [-122.13229981251061, 41.3713601231575, 2112.63], [-122.1325143892318, 41.3713981769979, 2113.6], [-122.13258119300008, 41.371506471186876, 2112.63], [-122.13267590850592, 41.37158484198153, 2110.71], [-122.132853185758, 41.37171727605164, 2112.15], [-122.13294329121709, 41.3718384783715, 2114.56], [-122.13288092985749, 41.37216637842357, 2119.84], [-122.13305418379605, 41.37229579500854, 2121.77], [-122.13322710245848, 41.372383050620556, 2123.21], [-122.13328720070422, 41.37244281359017, 2124.65], [-122.13348937220871, 41.37273006141186, 2127.05], [-122.13364292867482, 41.37299266643822, 2125.13], [-122.13372456841171, 41.37307615019381, 2125.61], [-122.13385608047247, 41.373263485729694, 2127.05], [-122.13391031138599, 41.37336406856775, 2128.02], [-122.13390016928315, 41.37342341244221, 2128.98], [-122.13390335440636, 41.37351142242551, 2129.94], [-122.13399949483573, 41.373672438785434, 2132.34], [-122.13400502689183, 41.373729687184095, 2133.3], [-122.1341447532177, 41.3738658092916, 2133.78], [-122.13423284702003, 41.373991118744016, 2135.71], [-122.13426318950951, 41.3741160929203, 2139.07], [-122.1342515386641, 41.37421944178641, 2140.51], [-122.13420803658664, 41.374292615801096, 2141.95], [-122.1342082042247, 41.37441532686353, 2146.76], [-122.13419755920768, 41.37462009675801, 2150.13], [-122.13422790169716, 41.37476300820708, 2152.53], [-122.13435245677829, 41.37486099265516, 2156.37], [-122.13445999659598, 41.374959563836455, 2161.66], [-122.13461665436625, 41.37515176087618, 2165.99], [-122.1346886549145, 41.37526039034128, 2168.87], [-122.13480616919696, 41.37535066343844, 2172.72], [-122.13484975509346, 41.375494161620736, 2174.64], [-122.13497975841165, 41.37570630759001, 2172.72], [-122.13512744754553, 41.37580789625645, 2172.24], [-122.13536163792014, 41.37601970694959, 2171.76], [-122.13551418855786, 41.37607636861503, 2176.08], [-122.13568492792547, 41.376239228993654, 2181.85], [-122.13577176444232, 41.3763437513262, 2184.25], [-122.13586539030075, 41.37641835026443, 2187.62], [-122.13612757623196, 41.37673317454755, 2193.87], [-122.13631491176784, 41.376930652186275, 2200.11], [-122.13651305995882, 41.377160400152206, 2210.21], [-122.13660442270339, 41.377335749566555, 2211.17], [-122.13669084012508, 41.37744840234518, 2211.65], [-122.13679921813309, 41.37754990719259, 2213.09], [-122.13686032220721, 41.37763096019626, 2215.01], [-122.1369419619441, 41.37772332876921, 2215.98], [-122.13710331358016, 41.377888871356845, 2218.86], [-122.13715796358883, 41.37799766846001, 2218.86], [-122.13723692111671, 41.37807629071176, 2218.38], [-122.13733063079417, 41.37815558351576, 2217.9], [-122.13741126470268, 41.378238731995225, 2218.38], [-122.13751972652972, 41.3783626165241, 2217.9], [-122.1376227401197, 41.37844677083194, 2217.9], [-122.13772868737578, 41.37854827567935, 2217.42], [-122.13793379254639, 41.37870401144028, 2218.38], [-122.13808408007026, 41.37884038500488, 2221.26], [-122.13826915249228, 41.37895295396447, 2222.71], [-122.13854332454503, 41.379076754674315, 2227.99], [-122.13869042694569, 41.379148503765464, 2231.84], [-122.1390020661056, 41.379276160150766, 2237.13], [-122.13905327953398, 41.37927356176078, 2238.57], [-122.13920817710459, 41.37933340854943, 2241.93], [-122.13933625258505, 41.37937406077981, 2242.89], [-122.13946131058037, 41.37947028502822, 2246.26], [-122.13959525339305, 41.3794816005975, 2246.74], [-122.13971687480807, 41.37957455590367, 2247.7], [-122.13980823755264, 41.37963448651135, 2249.62], [-122.13993036188185, 41.379690393805504, 2252.51], [-122.14006807655096, 41.37972375378013, 2256.35], [-122.14015801437199, 41.379734398797154, 2259.72], [-122.1402597706765, 41.379773961380124, 2261.16], [-122.14035716839135, 41.37985920533538, 2264.04], [-122.14046286419034, 41.37992131523788, 2265.96], [-122.14054903015494, 41.37995442375541, 2268.85], [-122.1407582424581, 41.380063220858574, 2274.62], [-122.14080249890685, 41.3801187928766, 2276.06], [-122.14086796157062, 41.38016648590565, 2278.46], [-122.14100366458297, 41.380220130085945, 2279.42], [-122.14111128821969, 41.38029749505222, 2283.75], [-122.14113526046276, 41.38034837320447, 2284.23], [-122.14125805534422, 41.38043344952166, 2286.63], [-122.14137867093086, 41.380549035966396, 2288.56], [-122.14149467647076, 41.380648696795106, 2292.4], [-122.14160347357392, 41.38071591965854, 2297.21], [-122.14168184436858, 41.38080141507089, 2298.17], [-122.14171260595322, 41.38090007007122, 2299.13], [-122.14181486517191, 41.38096611946821, 2302.49], [-122.1418410167098, 41.38100501149893, 2304.42], [-122.14197353459895, 41.38115705922246, 2309.7], [-122.14202139526606, 41.381225204095244, 2309.7], [-122.14213186874986, 41.38132310472429, 2309.7], [-122.14235046878457, 41.381471045315266, 2314.99], [-122.14243956841528, 41.38153810054064, 2315.47], [-122.14264492504299, 41.38167740777135, 2317.4], [-122.14272203855217, 41.381775895133615, 2318.36], [-122.14276822283864, 41.38179584406316, 2318.84], [-122.14288766495883, 41.38187639415264, 2322.2], [-122.1430049277842, 41.381943449378014, 2324.61], [-122.14311531744897, 41.38198720291257, 2325.57], [-122.143329475075, 41.382115529850125, 2329.41], [-122.14337180368602, 41.382105303928256, 2329.41], [-122.14348898269236, 41.3821376580745, 2331.81], [-122.14352192357183, 41.38217529281974, 2332.78], [-122.14362191967666, 41.38224192894995, 2333.26], [-122.14379995130002, 41.3823414221406, 2338.06], [-122.14387874118984, 41.38236774131656, 2339.99], [-122.14413028210402, 41.38246857561171, 2345.27], [-122.14423530735075, 41.38250579126179, 2347.2], [-122.14432097040117, 41.38256781734526, 2349.6], [-122.14443555101752, 41.38260587118566, 2352.48], [-122.14459371753037, 41.382667561993, 2356.33], [-122.14477887377143, 41.38283218257129, 2360.17], [-122.14497048407793, 41.38294089585543, 2362.58], [-122.14517776854336, 41.383131332695484, 2368.35], [-122.1453848015517, 41.3832685444504, 2374.11], [-122.14555218815804, 41.38335110619664, 2377.0], [-122.145657800138, 41.383427968248725, 2377.96], [-122.14591110125184, 41.383541878312826, 2378.44], [-122.14609265327454, 41.3837019726634, 2382.28], [-122.14618183672428, 41.383736338466406, 2385.65], [-122.14632852002978, 41.383775817230344, 2388.05], [-122.14640689082444, 41.38384505175054, 2390.46], [-122.14645852334797, 41.38387572951615, 2390.94], [-122.1465920470655, 41.383974300697446, 2393.34], [-122.14666111394763, 41.38398326933384, 2394.3], [-122.1467849984765, 41.3840613886714, 2397.18], [-122.14682850055397, 41.38407957740128, 2398.15], [-122.146952804178, 41.384161384776235, 2399.59], [-122.14711105450988, 41.384321143850684, 2402.47], [-122.14722245000303, 41.38438384048641, 2403.91], [-122.14732135646045, 41.38452608138323, 2407.76], [-122.14740517549217, 41.384575702250004, 2409.68], [-122.14755672030151, 41.384647618979216, 2414.01], [-122.14771354570985, 41.38470151461661, 2416.89], [-122.14783441275358, 41.38472313992679, 2418.81], [-122.14792116545141, 41.384703274816275, 2420.74], [-122.1480493247509, 41.384716518223286, 2423.14], [-122.14816918596625, 41.38471811078489, 2425.54], [-122.14824219234288, 41.38473286293447, 2426.02], [-122.14835777878761, 41.38478416018188, 2427.95], [-122.14841444045305, 41.38478742912412, 2428.43], [-122.148546455428, 41.384817687794566, 2430.35], [-122.14881031773984, 41.384841576218605, 2432.75], [-122.14884552173316, 41.38485498726368, 2432.75], [-122.14899689890444, 41.38486756011844, 2434.2], [-122.14912463910878, 41.38488742522895, 2435.64], [-122.14922136627138, 41.38493578881025, 2437.08], [-122.14936763048172, 41.385052632540464, 2442.37], [-122.14945656247437, 41.38513712212443, 2444.77], [-122.14958564378321, 41.38532152399421, 2447.17], [-122.14970584027469, 41.38542931526899, 2451.02], [-122.14975990355015, 41.385444067418575, 2452.46], [-122.1498023159802, 41.385496286675334, 2453.9], [-122.14979846030474, 41.38552151620388, 2453.9], [-122.1498570498079, 41.385631654411554, 2455.82], [-122.14994070120156, 41.385696614161134, 2456.79], [-122.1500594727695, 41.38573500327766, 2460.63], [-122.15010213665664, 41.38576861470938, 2462.55], [-122.15011906810105, 41.385840866714716, 2464.0], [-122.1501596365124, 41.38594673015177, 2464.96], [-122.15029852464795, 41.38607271015644, 2469.28], [-122.15037086047232, 41.38615518808365, 2471.21], [-122.15042064897716, 41.386192655190825, 2472.65], [-122.15048401616514, 41.38630321249366, 2476.49], [-122.15056356042624, 41.38638040982187, 2478.42], [-122.15073916129768, 41.386474538594484, 2483.22], [-122.15080294758081, 41.38653539121151, 2484.66], [-122.15086178854108, 41.38661560602486, 2486.11], [-122.15098198503256, 41.386723816394806, 2489.95], [-122.15103236027062, 41.386738987639546, 2491.39], [-122.1512630302459, 41.3868519756943, 2496.2], [-122.15131273493171, 41.38688567094505, 2497.16], [-122.15143578127027, 41.38702564872801, 2501.97], [-122.15148322284222, 41.387099577113986, 2503.41], [-122.15161766856909, 41.38724835589528, 2505.33], [-122.15171833522618, 41.387309208512306, 2506.29], [-122.15179435908794, 41.38737450353801, 2507.74], [-122.15193383395672, 41.3875253777951, 2511.1], [-122.15204170905054, 41.38758782297373, 2513.5], [-122.15211479924619, 41.38765060342848, 2514.95], [-122.15224773623049, 41.38773123733699, 2516.39], [-122.15236147865653, 41.387832993641496, 2518.31], [-122.15251880697906, 41.38791052624583, 2518.31], [-122.1527068130672, 41.38794740661979, 2517.35], [-122.15285919606686, 41.387990741059184, 2516.87], [-122.1529850922525, 41.38801756314933, 2517.35], [-122.15315666981041, 41.38807355426252, 2516.87], [-122.1532435901463, 41.388116804882884, 2516.87], [-122.15329497121274, 41.3881279528141, 2517.35], [-122.15350116603076, 41.38819542713463, 2517.35], [-122.15358490124345, 41.3882178068161, 2517.83], [-122.15363938361406, 41.38824848458171, 2518.79], [-122.1536910161376, 41.3882574532181, 2519.27], [-122.15381381101906, 41.388321071863174, 2521.68], [-122.15396367944777, 41.38838578015566, 2524.08], [-122.15405948460102, 41.38840581290424, 2524.56], [-122.15420499444008, 41.38848611153662, 2526.0], [-122.15444857254624, 41.38856272213161, 2528.89], [-122.15448000468314, 41.388589879497886, 2529.85], [-122.15457287617028, 41.388622066006064, 2531.29], [-122.15464646928012, 41.38868048787117, 2532.25], [-122.15476775541902, 41.38870454393327, 2534.65], [-122.15493648312986, 41.38879138045013, 2537.54], [-122.15500454418361, 41.388817531988025, 2537.54], [-122.15506640262902, 41.38881426304579, 2537.54], [-122.15522297658026, 41.388864470645785, 2538.02], [-122.15526379644871, 41.38885885477066, 2538.02], [-122.15541802346706, 41.38891107402742, 2537.54], [-122.15558633208275, 41.388949463143945, 2538.02], [-122.15571750886738, 41.38895692303777, 2538.02], [-122.15586855076253, 41.388942673802376, 2537.06], [-122.15597382746637, 41.38894183561206, 2537.54], [-122.15610299259424, 41.38887897133827, 2538.5], [-122.15642075054348, 41.388949966058135, 2538.5], [-122.156543713063, 41.388991456478834, 2539.94], [-122.15661470778286, 41.38904451392591, 2540.42], [-122.15679198503494, 41.38915088027716, 2541.38], [-122.15692844241858, 41.38919983059168, 2542.82], [-122.15704218484461, 41.38922497630119, 2543.79], [-122.15734234079719, 41.38932170346379, 2546.67], [-122.1575712505728, 41.38929680921137, 2547.15], [-122.15770930051804, 41.389346681535244, 2547.63], [-122.15779965743423, 41.3893299177289, 2549.07], [-122.15791935101151, 41.389236794784665, 2547.63], [-122.15798481367528, 41.3891988247633, 2547.15], [-122.15809679590166, 41.389194801449776, 2547.63], [-122.15823308564723, 41.38913964852691, 2549.55], [-122.15830944478512, 41.38908164575696, 2551.0], [-122.15836635790765, 41.38906169682741, 2551.0], [-122.15843358077109, 41.388968070968986, 2551.0], [-122.15851597487926, 41.388966562226415, 2551.96], [-122.15866215527058, 41.38890570960939, 2553.88], [-122.15868813917041, 41.388874696567655, 2554.36], [-122.15876047499478, 41.38883354142308, 2554.84], [-122.15879106894135, 41.388765815645456, 2554.84], [-122.15884504839778, 41.38872927054763, 2556.28], [-122.15890707448125, 41.38870965689421, 2557.24], [-122.1590338088572, 41.38861024752259, 2558.69], [-122.15919708833098, 41.388549814000726, 2561.09], [-122.15930546633899, 41.38845099136233, 2563.01], [-122.1594225615263, 41.38831369578838, 2563.49], [-122.15951543301344, 41.38825091533363, 2562.53], [-122.15973637998104, 41.3882318045944, 2563.01], [-122.15991843491793, 41.38827161863446, 2563.97], [-122.1599907707423, 41.388257537037134, 2563.49], [-122.16007115319371, 41.388163827359676, 2562.53], [-122.16016452759504, 41.38815519399941, 2562.05], [-122.16022646985948, 41.3881316408515, 2563.01], [-122.16028380207717, 41.38807129114866, 2562.53], [-122.16035538353026, 41.38806366361678, 2562.53], [-122.1604865603149, 41.38802125118673, 2564.45], [-122.1604998037219, 41.387958051636815, 2564.93], [-122.16057104989886, 41.38792737387121, 2565.42], [-122.16065939515829, 41.38782192952931, 2567.82], [-122.16078110039234, 41.38773308135569, 2567.82], [-122.16097958385944, 41.38763727620244, 2566.86], [-122.16103037819266, 41.38756016269326, 2566.86], [-122.16109424829483, 41.387511882930994, 2569.26], [-122.16119516640902, 41.38756141997874, 2574.55], [-122.16132366098464, 41.3875927682966, 2578.39], [-122.16136724688113, 41.3876170758158, 2581.76], [-122.16147679835558, 41.38764607720077, 2586.56], [-122.16159909032285, 41.38771707192063, 2591.37], [-122.16159808449447, 41.387742049992085, 2592.33], [-122.16174786910415, 41.38775252737105, 2595.7], [-122.16180310584605, 41.387776248157024, 2596.66], [-122.16185163706541, 41.38775437138975, 2598.1], [-122.16187586076558, 41.38771631754935, 2599.54], [-122.1619041915983, 41.38771313242614, 2600.98], [-122.16203570365906, 41.38780231587589, 2602.43], [-122.1620767749846, 41.387761663645506, 2602.91], [-122.16213997453451, 41.38773886486888, 2604.83], [-122.1621251385659, 41.38771899975836, 2607.71], [-122.16219814494252, 41.38769167475402, 2608.19], [-122.16226696036756, 41.38768547214568, 2610.12], [-122.16232412494719, 41.38771019876003, 2611.08], [-122.16241104528308, 41.38776853680611, 2612.52], [-122.16243669390678, 41.387821678072214, 2613.0], [-122.16257776133716, 41.38789191842079, 2616.37], [-122.16276635415852, 41.38791974633932, 2621.65], [-122.16277096420527, 41.38795109465718, 2622.61], [-122.16284891590476, 41.38796324841678, 2625.02], [-122.16290046460927, 41.38799308799207, 2626.94], [-122.16292133554816, 41.38805746100843, 2628.86], [-122.16297355480492, 41.38810062780976, 2630.3], [-122.16297917068005, 41.388139771297574, 2631.27], [-122.1630699466914, 41.388151003047824, 2634.63], [-122.16318100690842, 41.38813214376569, 2637.51], [-122.16323465108871, 41.38816491700709, 2640.4], [-122.16323548927903, 41.388185285031796, 2640.4], [-122.16330673545599, 41.388213532045484, 2640.88], [-122.16344361193478, 41.388199953362346, 2642.8], [-122.16347554698586, 41.38815854676068, 2643.28], [-122.16351485811174, 41.388042122125626, 2643.76], [-122.16360789723694, 41.38801831752062, 2642.8], [-122.1636466216296, 41.38804103247821, 2640.4], [-122.16380235739052, 41.38807514682412, 2640.4], [-122.16386681422591, 41.38809551484883, 2644.24], [-122.16384049504995, 41.38810498639941, 2642.8], [-122.16370747424662, 41.38807397335768, 2641.84], [-122.1636585239321, 41.38804321177304, 2642.32], [-122.16359783895314, 41.388043127954006, 2644.24], [-122.16358115896583, 41.38806223869324, 2644.72], [-122.16368685476482, 41.38818025588989, 2643.76], [-122.1637224778533, 41.38823616318405, 2643.76], [-122.16386924497783, 41.388280587270856, 2644.72], [-122.16397074982524, 41.3882833532989, 2645.69], [-122.16401190496981, 41.38826365582645, 2648.09], [-122.1641210373491, 41.388234570622444, 2647.13], [-122.16429001651704, 41.38814304023981, 2646.65], [-122.16438263654709, 41.38805603608489, 2650.01], [-122.16442664153874, 41.38804530724883, 2650.97], [-122.16463392600417, 41.387950172647834, 2655.78], [-122.16476451605558, 41.387920416891575, 2656.26], [-122.16486962512136, 41.387880854308605, 2656.74], [-122.16499283909798, 41.38787163421512, 2657.7], [-122.16510607860982, 41.38783810660243, 2658.18], [-122.16523599810898, 41.387847159057856, 2658.66], [-122.16533565893769, 41.387823605909944, 2661.07], [-122.1654733736068, 41.387850092723966, 2664.43], [-122.16565936803818, 41.38779066503048, 2668.76], [-122.16572315432131, 41.38779644854367, 2670.2], [-122.1657569333911, 41.38784212991595, 2672.6], [-122.16591275297105, 41.387803656980395, 2676.45], [-122.16601735912263, 41.387812457978725, 2677.89], [-122.16609749011695, 41.38779200613499, 2678.85], [-122.16612447984517, 41.38786844909191, 2685.58], [-122.16620871797204, 41.38791530393064, 2689.91], [-122.1662316005677, 41.387958554551005, 2690.87], [-122.16632757335901, 41.3879588060081, 2691.83], [-122.16638281010091, 41.38794841244817, 2693.27], [-122.16643913649023, 41.38798864558339, 2695.67], [-122.16660233214498, 41.388026028871536, 2702.88], [-122.16665664687753, 41.38801680877805, 2704.81], [-122.16663192026317, 41.388105154037476, 2707.69], [-122.16662370599806, 41.38820892199874, 2708.65], [-122.1666716504842, 41.38821906410158, 2709.13], [-122.16668313369155, 41.38828603550792, 2710.09], [-122.16678522527218, 41.388322999700904, 2713.46], [-122.16683694161475, 41.38844487257302, 2721.15], [-122.1668912563473, 41.388503881171346, 2724.03], [-122.16695420444012, 41.38850949704647, 2724.99], [-122.16694615781307, 41.38854671269655, 2725.48], [-122.16698421165347, 41.38857948593795, 2725.96], [-122.16717163100839, 41.38851100578904, 2730.28], [-122.16722225770354, 41.38854352757335, 2732.68], [-122.16721639037132, 41.38858241960406, 2733.65], [-122.16724338009953, 41.38864578679204, 2735.57], [-122.1672955993563, 41.38864578679204, 2736.05], [-122.16737958602607, 41.38874167576432, 2736.53], [-122.16740959323943, 41.38874058611691, 2737.01], [-122.16754789464176, 41.388673866167665, 2740.86], [-122.16756423935294, 41.38870060443878, 2743.26], [-122.16766079887748, 41.3886876963079, 2747.1], [-122.16783354990184, 41.38864729553461, 2753.83], [-122.16791426762938, 41.38864033855498, 2755.76], [-122.1679655648768, 41.38861401937902, 2757.2], [-122.16800764203072, 41.38861443847418, 2759.6], [-122.1681101527065, 41.38857395388186, 2762.97], [-122.16815759427845, 41.38856699690223, 2764.41], [-122.16827896423638, 41.388579150661826, 2767.77], [-122.16832397505641, 41.38859700411558, 2769.7], [-122.16840896755457, 41.388587448745966, 2771.62], [-122.16843402944505, 41.38861452229321, 2772.1], [-122.16841525398195, 41.388662634417415, 2772.58], [-122.16851147823036, 41.38867218978703, 2780.27], [-122.16849999502301, 41.38871812261641, 2780.27], [-122.16851340606809, 41.388749638572335, 2780.75], [-122.16861541382968, 41.388740837574005, 2785.08], [-122.1686786133796, 41.38876296579838, 2785.56], [-122.16875497251749, 41.38876556418836, 2786.04], [-122.16879143379629, 41.388779478147626, 2786.52], [-122.16884583234787, 41.38876598328352, 2787.96], [-122.16890358366072, 41.388805294409394, 2790.36], [-122.16888665221632, 41.38885726220906, 2792.29], [-122.16898220591247, 41.38885734602809, 2800.46], [-122.16900357976556, 41.38890621252358, 2808.63], [-122.16909946873784, 41.388948960229754, 2814.88], [-122.16906426474452, 41.38898340985179, 2817.76], [-122.16902285814285, 41.38910796493292, 2822.09], [-122.16903576627374, 41.38913495466113, 2824.49], [-122.16911028139293, 41.38916043564677, 2829.3], [-122.16917105019093, 41.38916781172156, 2832.18], [-122.16920793056488, 41.389194801449776, 2834.58], [-122.16920223087072, 41.38926520943642, 2834.58], [-122.16932938434184, 41.389337964355946, 2839.87], [-122.16936928220093, 41.389351626858115, 2842.76], [-122.16932661831379, 41.3894197717309, 2845.64], [-122.16936509124935, 41.389493783935905, 2856.21], [-122.16942669823766, 41.38953167013824, 2858.62], [-122.1693797595799, 41.38956477865577, 2856.69], [-122.16951412148774, 41.38969553634524, 2861.98], [-122.1694904845208, 41.389742977917194, 2864.87], [-122.16955091804266, 41.38984154909849, 2870.15], [-122.16966449283063, 41.38993827626109, 2877.36], [-122.16964161023498, 41.38998705893755, 2879.29], [-122.16969734989107, 41.39001379720867, 2880.73], [-122.16970724053681, 41.39007272198796, 2882.65], [-122.16978896409273, 41.39014296233654, 2885.53], [-122.1697719488293, 41.39017380774021, 2886.5], [-122.16986163519323, 41.3902488257736, 2888.9], [-122.16986867599189, 41.39034479856491, 2892.26], [-122.16992332600057, 41.39040372334421, 2892.26], [-122.17000815086067, 41.39039793983102, 2892.26], [-122.17003849335015, 41.39050019904971, 2897.55], [-122.17010538093746, 41.39058804139495, 2901.88], [-122.17019347473979, 41.3906526658684, 2910.53], [-122.1701826620847, 41.39070622622967, 2912.45], [-122.17018878087401, 41.39076213352382, 2915.34], [-122.17025156132877, 41.390786776319146, 2917.26], [-122.17028743587434, 41.39085358008742, 2920.14], [-122.1703912038356, 41.39094821177423, 2923.99], [-122.17037728987634, 41.39100546017289, 2925.91], [-122.17045390047133, 41.39106639660895, 2929.75], [-122.17044836841524, 41.39111618511379, 2932.64], [-122.17047921381891, 41.39112523756921, 2933.6], [-122.17067685909569, 41.39124878682196, 2938.41], [-122.17070879414678, 41.39131307601929, 2939.85], [-122.17078490182757, 41.39128650538623, 2940.81], [-122.17084751464427, 41.39128348790109, 2942.73], [-122.17085681855679, 41.39125641435385, 2947.06], [-122.17092152684927, 41.39127233996987, 2948.98], [-122.17096729204059, 41.3913072925061, 2950.9], [-122.17103065922856, 41.39130938798189, 2952.35], [-122.17116837389767, 41.39138306491077, 2956.67], [-122.17121640220284, 41.3914161734283, 2958.11], [-122.17126652598381, 41.39140318147838, 2960.04], [-122.17130416072905, 41.39142354950309, 2962.44], [-122.17137523926795, 41.39143436215818, 2963.4], [-122.17138831503689, 41.39148314483464, 2966.29], [-122.1714728884399, 41.39149739407003, 2967.73], [-122.17156743630767, 41.3915610127151, 2971.57], [-122.17164647765458, 41.39158230274916, 2975.42], [-122.17169316485524, 41.39157953672111, 2975.42], [-122.17173683457077, 41.39161482453346, 2975.9], [-122.17180816456676, 41.39164483174682, 2976.38], [-122.17184848152101, 41.391633516177535, 2976.86], [-122.1718975994736, 41.391753293573856, 2983.59], [-122.17198141850531, 41.3917338475585, 2985.03], [-122.17200522311032, 41.391740972176194, 2985.03], [-122.17207236215472, 41.3918237015605, 2986.47], [-122.17212592251599, 41.39181984588504, 2988.4], [-122.17218367382884, 41.39179654419422, 2990.8], [-122.17224402353168, 41.391804590821266, 2992.72], [-122.17223874293268, 41.391850942745805, 2996.09], [-122.17227461747825, 41.391889583319426, 2998.49], [-122.17226916924119, 41.39192998409271, 2999.45], [-122.17233521863818, 41.39198605902493, 3002.82], [-122.17243856750429, 41.39198748394847, 3006.66], [-122.1724462788552, 41.39203744009137, 3007.14], [-122.17259153723717, 41.39208236709237, 3009.06], [-122.17262833379209, 41.392145063728094, 3013.87], [-122.17263487167656, 41.39218647032976, 3015.31], [-122.17275800183415, 41.39219485223293, 3018.2], [-122.17279739677906, 41.39222418889403, 3020.6], [-122.17281826771796, 41.392271714285016, 3022.52], [-122.1728815510869, 41.392270205542445, 3024.93], [-122.17290912754834, 41.39230356551707, 3026.37], [-122.1729626879096, 41.392314126715064, 3027.33], [-122.17302915640175, 41.392304822802544, 3029.73], [-122.17308749444783, 41.39231337234378, 3031.17], [-122.17318682000041, 41.39235829934478, 3033.58], [-122.17326167039573, 41.39235838316381, 3035.02], [-122.17326301150024, 41.39237699098885, 3037.42], [-122.17335864901543, 41.39238998293877, 3039.35], [-122.17347012832761, 41.392385540530086, 3041.27], [-122.17357842251658, 41.392398281022906, 3044.15], [-122.17370993457735, 41.392435412853956, 3047.52], [-122.17379895038903, 41.392437256872654, 3049.44], [-122.17393758706748, 41.39245871454477, 3051.36], [-122.17405878938735, 41.392460223287344, 3054.73], [-122.1740303747356, 41.392525266855955, 3056.17], [-122.17403582297266, 41.39255326241255, 3056.65], [-122.17410815879703, 41.392566338181496, 3059.05], [-122.17419533059001, 41.392626855522394, 3062.42], [-122.1742790658027, 41.39263045974076, 3064.82], [-122.17434050515294, 41.39265795238316, 3067.22], [-122.17446112073958, 41.39269466511905, 3070.11], [-122.17460327781737, 41.39272894710302, 3072.99], [-122.17472909018397, 41.3927455432713, 3075.88], [-122.17477787286043, 41.39273657463491, 3077.32], [-122.17486169189215, 41.39274604618549, 3078.28], [-122.17506017535925, 41.39282014220953, 3081.64], [-122.1751009952277, 41.392851239070296, 3084.05], [-122.17517224140465, 41.39293530955911, 3090.29], [-122.1751818805933, 41.392991971224546, 3092.7], [-122.17523477040231, 41.39304636977613, 3096.06], [-122.17521163634956, 41.39306288212538, 3097.51], [-122.1753042563796, 41.39311761595309, 3100.87], [-122.17530249617994, 41.393157513812184, 3106.16], [-122.1754548791796, 41.393225491046906, 3103.27], [-122.175487652421, 41.393262539058924, 3105.68], [-122.17548748478293, 41.39330939389765, 3107.6], [-122.17555680312216, 41.39334526844323, 3111.44], [-122.17553283087909, 41.39338357374072, 3117.21], [-122.17562469653785, 41.39342271722853, 3116.25], [-122.1756189968437, 41.39347384683788, 3116.25], [-122.1757445577532, 41.39353645965457, 3118.65], [-122.17576668597758, 41.39356965199113, 3120.1], [-122.175831226632, 41.39359756372869, 3124.9], [-122.17587154358625, 41.393643245100975, 3129.71], [-122.17584212310612, 41.39372329227626, 3133.07], [-122.1759277023375, 41.39373226091266, 3138.84], [-122.17599777504802, 41.39379202388227, 3142.69], [-122.1761539299041, 41.393878776580095, 3149.42], [-122.17617245391011, 41.39391322620213, 3151.34], [-122.17615979723632, 41.39397005550563, 3154.22], [-122.17622450552881, 41.3940479233861, 3154.22], [-122.17633430846035, 41.39409922063351, 3159.51], [-122.17630078084767, 41.39414037577808, 3161.91], [-122.17630782164633, 41.39418764971197, 3163.84], [-122.17634939588606, 41.394232995808125, 3169.6], [-122.17637001536787, 41.39433542266488, 3171.05], [-122.1764234919101, 41.39433919452131, 3173.93], [-122.17643673531711, 41.39437657780945, 3176.33], [-122.17649415135384, 41.394404992461205, 3177.78], [-122.17646162956953, 41.39445402659476, 3177.78], [-122.17647839337587, 41.39447322115302, 3178.26], [-122.1764697600156, 41.39451781287789, 3178.26], [-122.17658140696585, 41.39452368021011, 3182.58], [-122.17658266425133, 41.394590148702264, 3185.47], [-122.17660227790475, 41.394620994105935, 3187.87], [-122.17658727429807, 41.39465292915702, 3188.83], [-122.17664150521159, 41.394699197262526, 3189.31], [-122.17665265314281, 41.39473892748356, 3194.12], [-122.17664351686835, 41.394791482016444, 3199.89], [-122.17665835283697, 41.39484068378806, 3201.33], [-122.17671082355082, 41.39484688639641, 3203.25], [-122.17673504725099, 41.39486809261143, 3205.17], [-122.17672348022461, 41.39490254223347, 3205.65], [-122.17675373889506, 41.394919557496905, 3205.65], [-122.17677611857653, 41.39488988555968, 3206.61], [-122.17682976275682, 41.39487965963781, 3209.02], [-122.17679682187736, 41.39486465603113, 3217.19], [-122.17683697119355, 41.39485023915768, 3214.79], [-122.1769486181438, 41.394833056256175, 3216.23], [-122.17704450711608, 41.394809167832136, 3217.19], [-122.17712673358619, 41.39480874873698, 3217.19], [-122.17713268473744, 41.394848227500916, 3219.11], [-122.17717006802559, 41.39486071653664, 3220.55], [-122.17716663144529, 41.395028438419104, 3222.96], [-122.17725740745664, 41.39503841288388, 3227.28], [-122.17729127034545, 41.39506288804114, 3229.21], [-122.1772956289351, 41.39513279311359, 3234.49], [-122.17733929865062, 41.39518945477903, 3237.86], [-122.17750375159085, 41.39519884251058, 3244.11], [-122.17760156840086, 41.39524083584547, 3247.47], [-122.17761372216046, 41.39526757411659, 3249.39], [-122.17768773436546, 41.39535516500473, 3254.68], [-122.17777197249234, 41.39538986608386, 3256.12], [-122.17782561667264, 41.395395901054144, 3257.56], [-122.17785369604826, 41.395419957116246, 3259.97], [-122.17789929360151, 41.39550553634763, 3265.26], [-122.17795067466795, 41.395513750612736, 3267.18], [-122.17799141071737, 41.39556881971657, 3269.58], [-122.17807598412037, 41.39555054716766, 3273.91], [-122.17811747454107, 41.39559597708285, 3275.83], [-122.17829558998346, 41.39564727433026, 3283.04], [-122.17840296216309, 41.395738553255796, 3288.33], [-122.17838804237545, 41.395761435851455, 3288.81], [-122.17837236821651, 41.39585053548217, 3288.33], [-122.1783781517297, 41.3958833925426, 3289.77], [-122.17833909206092, 41.39594156295061, 3295.06], [-122.17835543677211, 41.396000403910875, 3299.38], [-122.17839759774506, 41.39601155184209, 3296.98], [-122.178402710706, 41.39595799148083, 3295.54], [-122.17837085947394, 41.39597609639168, 3295.06], [-122.17841033823788, 41.396032171323895, 3296.02], [-122.1783820912242, 41.39602362178266, 3296.5], [-122.17836507596076, 41.396056227386, 3294.58], [-122.17841687612236, 41.396076092496514, 3303.23], [-122.17843648977578, 41.396148512139916, 3309.96], [-122.17851469293237, 41.39622788876295, 3315.72], [-122.17859465628862, 41.396262338384986, 3320.53], [-122.17861829325557, 41.39630081132054, 3321.97], [-122.17866389080882, 41.396324867382646, 3323.42], [-122.17886488884687, 41.39637683518231, 3329.18], [-122.17893705703318, 41.39638873748481, 3331.59], [-122.17898516915739, 41.39643316157162, 3334.95], [-122.1789809782058, 41.396480184048414, 3336.87], [-122.17895390465856, 41.39655050821602, 3339.28], [-122.17891115695238, 41.39658889733255, 3340.24], [-122.17890185303986, 41.39662125147879, 3340.24], [-122.17892825603485, 41.396703477948904, 3342.64], [-122.17889925464988, 41.39672376215458, 3346.01], [-122.17894812114537, 41.396758798509836, 3346.97], [-122.1790795493871, 41.39688855037093, 3349.85], [-122.17915255576372, 41.397029450163245, 3359.95], [-122.17924090102315, 41.3971268478781, 3364.75], [-122.17928390018642, 41.39715266413987, 3366.67], [-122.17931206338108, 41.3972251676023, 3370.04], [-122.1793834771961, 41.39730437658727, 3374.36], [-122.17939982190728, 41.39736874960363, 3377.73], [-122.17943854629993, 41.39740060083568, 3380.13], [-122.17943795956671, 41.39744393527508, 3381.09], [-122.17951934784651, 41.39747419394553, 3384.94], [-122.17957198619843, 41.39757201075554, 3386.38], [-122.1796216070652, 41.39763445593417, 3397.44], [-122.17967935837805, 41.397668570280075, 3399.84], [-122.17968908138573, 41.39773193746805, 3403.69], [-122.17973409220576, 41.39774937182665, 3406.09], [-122.17981983907521, 41.39783771708608, 3411.86], [-122.17982235364616, 41.397879710420966, 3413.3], [-122.17985353432596, 41.397916339337826, 3413.78], [-122.17987423762679, 41.39798917807639, 3417.14], [-122.17985739000142, 41.3980367872864, 3418.1], [-122.17993601225317, 41.39809671789408, 3421.95], [-122.17995780520141, 41.398145919665694, 3422.91], [-122.17997347936034, 41.398291010409594, 3428.2], [-122.18000030145049, 41.39831070788205, 3433.01], [-122.17999326065183, 41.39834909699857, 3436.37], [-122.18005352653563, 41.39840316027403, 3443.1], [-122.18006526120007, 41.398450350388885, 3446.94], [-122.18011722899973, 41.398535929620266, 3450.31], [-122.18006341718137, 41.39859879389405, 3450.31], [-122.1799754910171, 41.398761570453644, 3453.67], [-122.17993492260575, 41.398909175768495, 3458.0], [-122.17987515963614, 41.39909952878952, 3460.88], [-122.1798787638545, 41.399180917069316, 3462.33], [-122.17982981353998, 41.399243948981166, 3464.25], [-122.17979938723147, 41.39936372637749, 3468.09], [-122.17978765256703, 41.39955257065594, 3473.38], [-122.17977281659842, 41.399647872895, 3474.82], [-122.17978270724416, 41.39973915182054, 3476.75], [-122.17975538223982, 41.39985431917012, 3479.63], [-122.17974389903247, 41.399951884523034, 3481.55], [-122.17975420877337, 41.40015103854239, 3484.92], [-122.17973870225251, 41.40027601271868, 3494.53], [-122.17974934726954, 41.4003180898726, 3493.09], [-122.17974775470793, 41.40045069158077, 3490.68], [-122.17975554987788, 41.40056736767292, 3491.65], [-122.1798372734338, 41.40072662383318, 3499.34], [-122.1798356808722, 41.40079351142049, 3502.7], [-122.1798132173717, 41.40088235959411, 3506.07], [-122.17985110357404, 41.40096995048225, 3509.43], [-122.17991044744849, 41.40097992494702, 3513.76], [-122.18026315793395, 41.40079996548593, 3527.69], [-122.18036206439137, 41.400782531127334, 3531.06], [-122.18035879544914, 41.400859812274575, 3534.42], [-122.18038109131157, 41.40100775286555, 3541.15], [-122.1803748048842, 41.401112861931324, 3545.0], [-122.18049081042409, 41.40109643340111, 3545.96], [-122.18061595223844, 41.40105779282749, 3546.44], [-122.18060388229787, 41.401245882734656, 3550.29], [-122.18062332831323, 41.40134856104851, 3553.65], [-122.18065886758268, 41.401446126401424, 3556.53], [-122.18077302910388, 41.40141578391194, 3560.86], [-122.18077730387449, 41.4014975912869, 3564.71], [-122.18080077320337, 41.40160722658038, 3567.11], [-122.18088987283409, 41.40160211361945, 3569.03], [-122.18107720836997, 41.40150169841945, 3574.8], [-122.18118927441537, 41.40144931152463, 3577.2], [-122.1811824850738, 41.401519887149334, 3579.13], [-122.18129723332822, 41.401820378378034, 3587.78], [-122.18132170848548, 41.40187595039606, 3594.99], [-122.18144458718598, 41.40182691626251, 3596.91], [-122.18162588775158, 41.40173722989857, 3601.72], [-122.18169461935759, 41.401717280969024, 3602.68], [-122.18174147419631, 41.4016873575747, 3604.12], [-122.18175379559398, 41.401716358959675, 3606.04], [-122.18174792826176, 41.40183253213763, 3609.89], [-122.18178564682603, 41.40194082632661, 3616.14], [-122.18181431293488, 41.401945604011416, 3617.58], [-122.18188011087477, 41.40192238613963, 3618.06], [-122.18209544196725, 41.40182314440608, 3621.42], [-122.18222100287676, 41.40178458765149, 3624.79], [-122.18222091905773, 41.40212514437735, 3639.21], [-122.18223525211215, 41.40218758955598, 3641.13], [-122.18225218355656, 41.402188427746296, 3641.61], [-122.18233684077859, 41.402124892920256, 3642.57], [-122.18251277692616, 41.402046689763665, 3646.42], [-122.18263464979827, 41.40202187933028, 3649.3], [-122.18266809359193, 41.40211198478937, 3651.71], [-122.18263783492148, 41.40218323096633, 3654.59], [-122.18269424512982, 41.402303930372, 3657.95], [-122.18269474804401, 41.40234366059303, 3659.4], [-122.18277890235186, 41.402302253991365, 3662.76], [-122.18281293287873, 41.40227316878736, 3664.2], [-122.18289138749242, 41.40225757844746, 3666.61], [-122.18295651488006, 41.40222287736833, 3667.57], [-122.18300404027104, 41.40222329646349, 3668.05], [-122.1830422617495, 41.402299823239446, 3670.93], [-122.1830446086824, 41.402358412742615, 3673.82], [-122.18307830393314, 41.40243133530021, 3677.18], [-122.18308802694082, 41.40256058424711, 3681.99], [-122.18315156176686, 41.40279150567949, 3689.2], [-122.18315122649074, 41.40283609740436, 3694.0], [-122.18317100778222, 41.4029342494905, 3697.37], [-122.18320554122329, 41.40300306491554, 3699.77], [-122.18323102220893, 41.40300574712455, 3701.21], [-122.18334342353046, 41.402938440442085, 3704.1], [-122.18358172103763, 41.40285068191588, 3709.87], [-122.18381457030773, 41.402749260887504, 3717.56], [-122.18390702269971, 41.402717074379325, 3719.96], [-122.18401783145964, 41.40269628725946, 3722.84], [-122.1841387823224, 41.40263753011823, 3726.69], [-122.18419033102691, 41.40262546017766, 3728.13], [-122.18422645702958, 41.40263635665178, 3729.57], [-122.1842479147017, 41.40270265750587, 3731.49], [-122.18425629660487, 41.402804078534245, 3732.46], [-122.18425260856748, 41.4028824493289, 3734.86], [-122.1842790953815, 41.402998035773635, 3738.7], [-122.1843153052032, 41.40310926362872, 3746.4], [-122.18438898213208, 41.403068946674466, 3748.32], [-122.18444103375077, 41.40305335633457, 3749.28], [-122.18461018055677, 41.40297079458833, 3752.64], [-122.18470112420619, 41.40293902717531, 3756.97], [-122.18481570482254, 41.402935506775975, 3760.81], [-122.1848422754556, 41.402913546189666, 3761.3], [-122.18497437424958, 41.40285805799067, 3765.14], [-122.18499256297946, 41.40292150899768, 3766.1], [-122.18498434871435, 41.40300021506846, 3767.54], [-122.18499574810266, 41.403120663017035, 3766.58], [-122.18506556935608, 41.40304857864976, 3771.87], [-122.18512952327728, 41.40300549566746, 3774.27], [-122.18516464345157, 41.40300717204809, 3775.23], [-122.18516766093671, 41.403075736016035, 3777.16], [-122.18514519743621, 41.40313449315727, 3777.64], [-122.18514855019748, 41.403181264176965, 3778.12], [-122.18516958877444, 41.403178330510855, 3778.6], [-122.18523245304823, 41.40311839990318, 3782.93], [-122.18530068174005, 41.40308721922338, 3783.89], [-122.18530671671033, 41.40312108211219, 3784.37], [-122.18529271893203, 41.40319878235459, 3785.81], [-122.18529858626425, 41.40326508320868, 3787.25], [-122.18539531342685, 41.40319425612688, 3791.58], [-122.18545340001583, 41.403195429593325, 3793.98], [-122.18546622432768, 41.40333238989115, 3798.31], [-122.18547804281116, 41.40330070629716, 3799.75], [-122.18559823930264, 41.40324764885008, 3802.63], [-122.18564090318978, 41.403291234746575, 3803.11], [-122.18563201837242, 41.403387458994985, 3806.48], [-122.18571248464286, 41.4033589605242, 3809.84], [-122.18573939055204, 41.403401205316186, 3811.76], [-122.18583041802049, 41.40338033437729, 3816.09], [-122.18588892370462, 41.40345417894423, 3821.86], [-122.18592144548893, 41.40347429551184, 3823.78], [-122.18598330393434, 41.403448563069105, 3825.22], [-122.18610869720578, 41.40337396413088, 3828.11], [-122.18614180572331, 41.40338393859565, 3829.07], [-122.18614750541747, 41.40350681729615, 3831.47], [-122.18619612045586, 41.40346826054156, 3833.39], [-122.18626527115703, 41.40343615785241, 3834.84], [-122.18626979738474, 41.403534980490804, 3836.28], [-122.18628723174334, 41.403585858643055, 3837.24], [-122.18642829917371, 41.403520815074444, 3842.53], [-122.18643601052463, 41.403582505881786, 3844.45], [-122.18646962195635, 41.40362424775958, 3843.49], [-122.1865012217313, 41.40363154001534, 3843.97], [-122.18654497526586, 41.40358032658696, 3845.89], [-122.18660239130259, 41.403564903885126, 3848.78], [-122.1866225078702, 41.40363061800599, 3851.18], [-122.18673105351627, 41.403608322143555, 3853.58], [-122.18674262054265, 41.40369180589914, 3861.27], [-122.1867900621146, 41.40368275344372, 3864.16], [-122.18686424195766, 41.40374310314655, 3866.56], [-122.18693473376334, 41.4036766346544, 3869.44], [-122.1869835164398, 41.40370865352452, 3871.37], [-122.18698552809656, 41.4037511497736, 3873.77], [-122.18704663217068, 41.40373790636659, 3875.21], [-122.18708435073495, 41.403787108138204, 3876.65], [-122.18717428855598, 41.40375894494355, 3880.5], [-122.18721083365381, 41.40379213728011, 3882.9], [-122.18724503181875, 41.403773948550224, 3884.82], [-122.18725685030222, 41.40380445867777, 3886.75], [-122.18731015920639, 41.40382985584438, 3890.11], [-122.18734544701874, 41.40388651750982, 3894.44], [-122.18746245838702, 41.4038513135165, 3897.8], [-122.1875097323209, 41.40384812839329, 3896.36], [-122.18756790272892, 41.40386790968478, 3898.28], [-122.1876846626401, 41.40386858023703, 3900.69], [-122.18769622966647, 41.403972851112485, 3901.17], [-122.18772875145078, 41.40401006676257, 3904.53], [-122.18776169233024, 41.40399204567075, 3906.45], [-122.18782640062273, 41.40400629490614, 3908.38], [-122.1878860797733, 41.40407997183502, 3917.03], [-122.18794542364776, 41.40409338288009, 3919.91], [-122.18795883469284, 41.40411827713251, 3917.99], [-122.18803360126913, 41.40417971648276, 3916.55], [-122.18809319660068, 41.404191786423326, 3920.39], [-122.18815195374191, 41.404261691495776, 3925.2], [-122.18819118104875, 41.404289016500115, 3928.08], [-122.18822319991887, 41.40437367372215, 3930.01], [-122.18832445330918, 41.404496720060706, 3935.77], [-122.18836158514023, 41.40457031317055, 3941.06], [-122.1884233597666, 41.404667710885406, 3942.5], [-122.18843467533588, 41.40472101978958, 3942.98], [-122.18847759068012, 41.40477986074984, 3943.47], [-122.18849527649581, 41.404843060299754, 3945.87], [-122.18859443441033, 41.40497524291277, 3948.75], [-122.18862326815724, 41.40499519184232, 3950.67], [-122.18866660259664, 41.40509124845266, 3956.44], [-122.18872309662402, 41.4051341637969, 3959.33], [-122.18880197033286, 41.40512033365667, 3962.69], [-122.18885921873152, 41.40517615713179, 3971.34], [-122.18893054872751, 41.40521043911576, 3973.75], [-122.1890779864043, 41.405166601762176, 3978.55], [-122.18911000527442, 41.405141204595566, 3980.48], [-122.18915007077157, 41.405191915109754, 3983.36], [-122.18923078849912, 41.40525561757386, 3985.76], [-122.189304465428, 41.40529283322394, 3989.61], [-122.18936908990145, 41.40526341274381, 3992.49], [-122.18940085731447, 41.40529777854681, 3995.86], [-122.18944452702999, 41.405264334753156, 3996.34], [-122.18956237658858, 41.405339017510414, 3999.7], [-122.18960051424801, 41.40540171414614, 4004.99], [-122.18966740183532, 41.405395679175854, 4008.83], [-122.1897637937218, 41.40542903915048, 4016.04], [-122.18981073237956, 41.405343459919095, 4015.56], [-122.18986328691244, 41.405373802408576, 4017.01], [-122.18986404128373, 41.40542224980891, 4017.97], [-122.18992045149207, 41.405387464910746, 4019.89], [-122.18997426331043, 41.405373215675354, 4022.77], [-122.19002421945333, 41.40543012879789, 4024.22], [-122.19008482061327, 41.40541948378086, 4028.54], [-122.19014449976385, 41.405431469902396, 4029.98], [-122.1901937853545, 41.4053897280246, 4034.31], [-122.19023535959423, 41.40543540939689, 4038.64], [-122.19028053805232, 41.405423087999225, 4041.52], [-122.19029864296317, 41.40538511797786, 4042.48], [-122.19035932794213, 41.40538863837719, 4049.21], [-122.19040241092443, 41.40537514351308, 4053.54], [-122.19041959382594, 41.40534555539489, 4057.86], [-122.1904770936817, 41.40531278215349, 4058.82], [-122.19051598571241, 41.40533432364464, 4060.75], [-122.19051347114146, 41.40530054457486, 4061.23], [-122.19057742506266, 41.4053033106029, 4062.67], [-122.1906956937164, 41.40526324510574, 4074.69], [-122.1907133795321, 41.40529207885265, 4076.61], [-122.19075193628669, 41.40528000891209, 4077.57], [-122.19078940339386, 41.40534614212811, 4083.82], [-122.19087825156748, 41.40531303361058, 4086.22], [-122.1909237653017, 41.40527623705566, 4092.47], [-122.19095687381923, 41.405289229005575, 4092.95], [-122.19103859737515, 41.40525729395449, 4094.39], [-122.1910603903234, 41.40529375523329, 4095.35], [-122.19109877943993, 41.405312698334455, 4098.24], [-122.19108738005161, 41.40533591620624, 4099.68], [-122.19111554324627, 41.40537950210273, 4101.6], [-122.19116323627532, 41.40538218431175, 4103.04], [-122.19127094373107, 41.4054243452847, 4107.37], [-122.19131318852305, 41.40541227534413, 4109.77], [-122.19138007611036, 41.40553833916783, 4114.1], [-122.19144612550735, 41.40551663003862, 4115.06], [-122.19152072444558, 41.40550883486867, 4116.98], [-122.19159549102187, 41.40555342659354, 4118.43], [-122.19165097922087, 41.40556013211608, 4118.91], [-122.19166631810367, 41.40559634193778, 4120.35], [-122.19177922233939, 41.40557270497084, 4124.19], [-122.19180881045759, 41.405604807659984, 4125.15], [-122.19193973578513, 41.40560757368803, 4131.4], [-122.19196152873337, 41.40563238412142, 4133.81], [-122.19207937829196, 41.405663564801216, 4140.54], [-122.1920842397958, 41.405694829300046, 4141.5], [-122.19230870716274, 41.40589968301356, 4153.99], [-122.19239780679345, 41.405964558944106, 4156.88], [-122.19246301800013, 41.405996326357126, 4160.72], [-122.1925078611821, 41.40600252896547, 4162.17], [-122.19269352033734, 41.40608257614076, 4170.34], [-122.19284481368959, 41.40618952922523, 4176.1], [-122.19291212037206, 41.40615130774677, 4179.95], [-122.19294439069927, 41.406153654679656, 4180.43], [-122.19299719668925, 41.406205454841256, 4183.31], [-122.19310951419175, 41.40626764856279, 4190.04], [-122.19314966350794, 41.40630528330803, 4191.49], [-122.19323725439608, 41.406357837840915, 4193.89], [-122.19328754581511, 41.40640905126929, 4195.81], [-122.19334957189858, 41.40650963410735, 4197.73], [-122.19342978671193, 41.40662094578147, 4201.1], [-122.19354277476668, 41.40673418529332, 4206.87], [-122.19356481917202, 41.40680652111769, 4208.31], [-122.1936112549156, 41.40683929435909, 4208.79], [-122.19365886412561, 41.40681498683989, 4211.19], [-122.1937109157443, 41.40682043507695, 4213.12], [-122.19379565678537, 41.406905176118016, 4215.04], [-122.19389372505248, 41.406964687630534, 4215.04], [-122.19405063427985, 41.407040040940046, 4215.52], [-122.19413721933961, 41.40710382722318, 4216.96], [-122.19420720823109, 41.407113717868924, 4218.4], [-122.19425817020237, 41.40717599540949, 4221.77], [-122.19431047327816, 41.40717985108495, 4223.21], [-122.19440351240337, 41.40723844058812, 4228.02], [-122.19442069530487, 41.40727230347693, 4228.98], [-122.19446361064911, 41.407280936837196, 4229.94], [-122.19449453987181, 41.40738160349429, 4235.23], [-122.19470132142305, 41.40745125710964, 4242.44], [-122.19480031169951, 41.40752141363919, 4242.92], [-122.19480752013624, 41.40755393542349, 4241.95], [-122.19479536637664, 41.407683938741684, 4240.51], [-122.19482344575226, 41.40780036337674, 4239.07], [-122.19485403969884, 41.407871106639504, 4239.07], [-122.19495898112655, 41.40800982713699, 4241.95], [-122.19493207521737, 41.40803027898073, 4242.92], [-122.19485118985176, 41.4080405049026, 4243.88], [-122.19494188204408, 41.4080700930208, 4244.36], [-122.1950614079833, 41.408159863203764, 4243.4], [-122.19514103606343, 41.408249298110604, 4243.88], [-122.19515075907111, 41.40828508883715, 4243.4], [-122.19522678293288, 41.40836153179407, 4245.8], [-122.19525544904172, 41.40842439606786, 4248.2], [-122.19542191363871, 41.408542497083545, 4251.57], [-122.19552316702902, 41.40864400193095, 4253.01], [-122.19562534242868, 41.40868599526584, 4253.49], [-122.19565970823169, 41.408712565898895, 4252.05], [-122.19573439098895, 41.40881231054664, 4249.65], [-122.19577361829579, 41.40889411792159, 4250.13], [-122.19586933963001, 41.409017499536276, 4248.68], [-122.19588752835989, 41.40913115814328, 4249.16], [-122.19584964215755, 41.409198716282845, 4251.09], [-122.19576087780297, 41.409234926104546, 4253.49], [-122.19575123861432, 41.40926543623209, 4253.49], [-122.19569943845272, 41.40930449590087, 4254.45], [-122.19567538239062, 41.40934397466481, 4256.37], [-122.19563967548311, 41.409356044605374, 4258.78], [-122.19559977762401, 41.40932167880237, 4261.66], [-122.19557723030448, 41.409343304112554, 4264.06], [-122.1955709438771, 41.40939342789352, 4266.95], [-122.1954934950918, 41.40934900380671, 4270.31], [-122.19543104991317, 41.40925814397633, 4273.68], [-122.19540280289948, 41.409268118441105, 4274.64], [-122.19534052535892, 41.40933374874294, 4278.48], [-122.1953375916928, 41.40936467796564, 4280.41], [-122.19524547457695, 41.409462159499526, 4285.69], [-122.19518512487411, 41.409461572766304, 4284.73], [-122.19508219510317, 41.40941094607115, 4290.02], [-122.19503098167479, 41.40933978371322, 4296.27], [-122.19498412683606, 41.409366354346275, 4300.6], [-122.19492126256227, 41.409351686015725, 4305.88], [-122.19489276409149, 41.409317487850785, 4307.8], [-122.19492327421904, 41.409272057935596, 4309.73], [-122.19488278962672, 41.40920081175864, 4310.69], [-122.1948718931526, 41.40922260470688, 4313.57], [-122.19491874799132, 41.40926216728985, 4312.61], [-122.19488295726478, 41.409304244443774, 4307.32], [-122.19489661976695, 41.40936115756631, 4304.44], [-122.1949490904808, 41.409367863088846, 4301.08], [-122.19503500498831, 41.40933819115162, 4298.19], [-122.19505855813622, 41.40939887613058, 4295.31], [-122.1951499208808, 41.409446485340595, 4290.02], [-122.19523893669248, 41.409453861415386, 4286.18], [-122.19528227113187, 41.409407844766974, 4284.25], [-122.19537522643805, 41.40925562940538, 4277.52], [-122.19543591141701, 41.40927373431623, 4273.68], [-122.19549332745373, 41.40934715978801, 4271.27], [-122.19555292278528, 41.40937088057399, 4268.39], [-122.19557848758996, 41.40932419337332, 4267.91], [-122.19560849480331, 41.409313045442104, 4266.47], [-122.19568158499897, 41.40931631438434, 4261.18], [-122.19573958776891, 41.40926644206047, 4259.74], [-122.19578761607409, 41.40919762663543, 4256.37], [-122.19586883671582, 41.40916083008051, 4252.05], [-122.19589155167341, 41.409138701856136, 4252.05], [-122.19586724415421, 41.4090870693326, 4253.01], [-122.1958524081856, 41.40899126417935, 4253.01], [-122.1957744564861, 41.40891993418336, 4251.57], [-122.19575023278594, 41.40885505825281, 4250.13], [-122.19575786031783, 41.40876009128988, 4250.61], [-122.19573439098895, 41.408669566735625, 4250.13], [-122.19574126414955, 41.40852849930525, 4249.16], [-122.19572382979095, 41.40849840827286, 4245.8], [-122.19554353505373, 41.40840109437704, 4241.95], [-122.19550791196525, 41.40833311714232, 4243.88], [-122.19550179317594, 41.40827503055334, 4242.44], [-122.1952926646918, 41.408129604533315, 4240.51], [-122.19515620730817, 41.408110493794084, 4239.07], [-122.19509770162404, 41.40809280797839, 4239.55], [-122.19497440382838, 41.40802684240043, 4243.4], [-122.19494766555727, 41.408037738874555, 4243.88], [-122.1948803588748, 41.40802424401045, 4245.32], [-122.19492101110518, 41.407969342544675, 4242.44], [-122.19486032612622, 41.407890133559704, 4242.44], [-122.19485186040401, 41.40784445218742, 4242.44], [-122.19480626285076, 41.40772148966789, 4243.88], [-122.194793689996, 41.40750817023218, 4240.99], [-122.19469084404409, 41.40743851661682, 4241.47], [-122.1944707352668, 41.407380849123, 4234.74], [-122.19445740804076, 41.40732427127659, 4232.82], [-122.19442572444677, 41.40728261321783, 4229.94], [-122.19438632950187, 41.40726987272501, 4228.5], [-122.19432983547449, 41.407209020107985, 4224.65], [-122.194270407781, 41.40716878697276, 4221.29], [-122.19422799535096, 41.40716585330665, 4219.36], [-122.19418508000672, 41.40711589716375, 4216.96], [-122.19413545913994, 41.40711589716375, 4215.52], [-122.19397720880806, 41.40698111616075, 4211.67], [-122.19392272643745, 41.406999472528696, 4211.67], [-122.19382281415164, 41.40700802206993, 4212.15], [-122.19369222410023, 41.406880700960755, 4211.67], [-122.19364017248154, 41.40684189274907, 4211.67], [-122.19355425797403, 41.4068163279444, 4210.23], [-122.19355107285082, 41.406778274104, 4209.27], [-122.19348167069256, 41.40667417086661, 4205.42], [-122.19340841285884, 41.40660250559449, 4203.02], [-122.19333691522479, 41.40647577121854, 4200.62], [-122.19326659105718, 41.40638239681721, 4197.25], [-122.19316961243749, 41.406336380168796, 4194.37], [-122.19306861050427, 41.40625348314643, 4189.56], [-122.19299954362214, 41.40621735714376, 4186.2], [-122.19294212758541, 41.406169664114714, 4183.79], [-122.19281572848558, 41.40616941265762, 4178.03], [-122.19273308292031, 41.40611727721989, 4175.14], [-122.19265152700245, 41.40608207322657, 4172.74], [-122.19257282093167, 41.406032955273986, 4170.34], [-122.19244407489896, 41.40599121339619, 4164.57], [-122.19236352480948, 41.40594729222357, 4160.24], [-122.19234642572701, 41.40592549927533, 4157.84], [-122.19225615262985, 41.40586556866765, 4153.03], [-122.19209957867861, 41.40573112294078, 4146.78], [-122.19205959700048, 41.405672784894705, 4143.42], [-122.19186086207628, 41.40560941770673, 4134.29], [-122.1917271707207, 41.4055850263685, 4129.0], [-122.1916666533798, 41.40560522675514, 4128.52], [-122.1915419306606, 41.40551914460957, 4120.83], [-122.19145660288632, 41.40552987344563, 4117.94], [-122.19136884436011, 41.405578069388866, 4113.62], [-122.19131109304726, 41.4054536819458, 4108.81], [-122.19131201505661, 41.405358128249645, 4105.93], [-122.19127169810236, 41.40530079603195, 4102.56], [-122.1911999490112, 41.40524287708104, 4097.76], [-122.19118553213775, 41.405212534591556, 4096.31], [-122.1911328099668, 41.40521379187703, 4093.91], [-122.19110992737114, 41.40517615713179, 4091.99], [-122.19099157489836, 41.40513273887336, 4085.74], [-122.1909567900002, 41.40507783740759, 4081.41], [-122.1908685285598, 41.405093343928456, 4075.65], [-122.19083500094712, 41.405128967016935, 4073.24], [-122.19078965485096, 41.40512435697019, 4069.4], [-122.19075721688569, 41.40509879216552, 4067.48], [-122.19069167040288, 41.40514531172812, 4060.75], [-122.19063375145197, 41.405127458274364, 4056.42], [-122.19056451693177, 41.405126536265016, 4054.02], [-122.19051774591208, 41.40508412383497, 4051.61], [-122.19047231599689, 41.40511614270508, 4049.21], [-122.19037022441626, 41.40511312521994, 4045.36], [-122.19033803790808, 41.405089907348156, 4045.85], [-122.19031465239823, 41.405120668932796, 4040.56], [-122.19028062187135, 41.40511362813413, 4039.6], [-122.19025698490441, 41.40502762980759, 4035.27], [-122.19016855582595, 41.40497633256018, 4029.98], [-122.19012320972979, 41.40492981299758, 4027.1], [-122.19010912813246, 41.40485789626837, 4022.77], [-122.19012170098722, 41.40475681051612, 4017.97], [-122.1901108045131, 41.40472085215151, 4015.08], [-122.19007241539657, 41.40470350161195, 4013.16], [-122.19002497382462, 41.40465513803065, 4009.32], [-122.19000988639891, 41.404619263485074, 4007.39], [-122.18995758332312, 41.40462395735085, 4005.47], [-122.18994014896452, 41.40460685826838, 4004.03], [-122.18996261246502, 41.404574420303106, 4004.03], [-122.18991969712079, 41.40453393571079, 4000.66], [-122.18990259803832, 41.404561093077064, 3998.74], [-122.18981173820794, 41.4045072812587, 3993.45], [-122.18975096940994, 41.404498564079404, 3988.65], [-122.18971903435886, 41.40453360043466, 3989.13], [-122.18962079845369, 41.404539132490754, 3985.28], [-122.18948467634618, 41.404485404491425, 3976.63], [-122.18942977488041, 41.40445439144969, 3974.23], [-122.18942089006305, 41.404419941827655, 3972.3], [-122.18933564610779, 41.404434610158205, 3968.46], [-122.189299184829, 41.40440301038325, 3965.58], [-122.18923347070813, 41.40441332012415, 3962.69], [-122.1891226619482, 41.40431516803801, 3955.96], [-122.18909684568644, 41.40427686274052, 3953.08], [-122.18904303386807, 41.40426630154252, 3952.6], [-122.18895309604704, 41.40428331680596, 3950.19], [-122.18894085846841, 41.40429748222232, 3946.83], [-122.1888935007155, 41.40427686274052, 3946.35], [-122.18881806358695, 41.404270492494106, 3943.47], [-122.18877363950014, 41.404253309592605, 3940.1], [-122.1887394413352, 41.4042139146477, 3938.18], [-122.18873114325106, 41.40416890382767, 3935.77], [-122.18865009024739, 41.40418030321598, 3930.49], [-122.1886117849499, 41.40411928296089, 3926.64], [-122.18855503946543, 41.40411039814353, 3923.28], [-122.18833995983005, 41.404095981270075, 3916.07], [-122.18823577277362, 41.40412012115121, 3912.7], [-122.18819084577262, 41.4041050337255, 3909.82], [-122.18810677528381, 41.40413470566273, 3907.9], [-122.18808749690652, 41.40416136011481, 3906.94], [-122.18798037618399, 41.404130263254046, 3908.86], [-122.18797082081437, 41.404113080352545, 3908.38], [-122.1878723334521, 41.404037643224, 3903.09], [-122.18778717331588, 41.40399464406073, 3899.73], [-122.18773981556296, 41.403937647119164, 3895.4], [-122.18773017637432, 41.403877632692456, 3892.52], [-122.18768793158233, 41.40383823774755, 3890.59], [-122.18762850388885, 41.40381124801934, 3887.23], [-122.18751861713827, 41.40386790968478, 3881.46], [-122.18743605539203, 41.40389037318528, 3879.06], [-122.18736011534929, 41.40386355109513, 3876.17], [-122.18721862882376, 41.40379666350782, 3869.92], [-122.18710890971124, 41.403788616880774, 3865.12], [-122.18706171959639, 41.40375165268779, 3863.2], [-122.18700346536934, 41.40376045368612, 3861.75], [-122.18696029856801, 41.403711922466755, 3857.91], [-122.18685384839773, 41.40372441150248, 3854.06], [-122.1868138667196, 41.40369507484138, 3851.66], [-122.18675184063613, 41.403701696544886, 3850.22], [-122.1867261081934, 41.403604382649064, 3847.33], [-122.18663876876235, 41.403609747067094, 3843.01], [-122.18659224919975, 41.40356498770416, 3840.6], [-122.18648655340075, 41.40361427329481, 3838.2], [-122.18642838299274, 41.40352274291217, 3832.43], [-122.18634774908423, 41.403572112321854, 3830.03], [-122.18629695475101, 41.40354763716459, 3828.59], [-122.18630039133132, 41.40344965271652, 3824.74], [-122.18624766916037, 41.403457364067435, 3822.82], [-122.1861972939223, 41.40349474735558, 3821.38], [-122.18616829253733, 41.4034469705075, 3819.46], [-122.18616594560444, 41.40338712371886, 3817.53], [-122.18593041412532, 41.40346725471318, 3811.28], [-122.18587408773601, 41.40340531244874, 3807.92], [-122.18582320958376, 41.403383519500494, 3805.52], [-122.18575313687325, 41.40339030884206, 3803.59], [-122.18569027259946, 41.40334370546043, 3801.67], [-122.1856311801821, 41.403352338820696, 3799.75], [-122.18562673777342, 41.4032535161823, 3798.31], [-122.18558365479112, 41.40325913205743, 3797.83], [-122.18544518575072, 41.403315626084805, 3793.5], [-122.18543730676174, 41.40317372046411, 3790.13], [-122.18536748550832, 41.403220826759934, 3787.73], [-122.1853029448539, 41.40324538573623, 3786.77], [-122.18526757322252, 41.40318587422371, 3783.89], [-122.18528525903821, 41.40306970104575, 3781.96], [-122.18513455241919, 41.40316751785576, 3776.2], [-122.18510613776743, 41.40312870964408, 3774.75], [-122.18514871783555, 41.40297666192055, 3770.91], [-122.1850040461868, 41.40307506546378, 3767.54], [-122.18497345224023, 41.403072802349925, 3766.1], [-122.1849696803838, 41.40296450816095, 3762.74], [-122.18488410115242, 41.402897452935576, 3757.45], [-122.18481335788965, 41.402920335531235, 3755.05], [-122.18472400680184, 41.40292997471988, 3752.16], [-122.1845573745668, 41.402999544516206, 3747.84], [-122.1845032274723, 41.40301253646612, 3745.91], [-122.18433106318116, 41.40308705158532, 3741.59], [-122.18426518142223, 41.40295981429517, 3734.38], [-122.18422318808734, 41.402835259214044, 3729.57], [-122.18424405902624, 41.402710787951946, 3727.17], [-122.18422905541956, 41.40259620733559, 3724.28], [-122.18389235436916, 41.40272411517799, 3713.23], [-122.1837698109448, 41.40275303274393, 3707.94], [-122.18357602134347, 41.40283442102373, 3702.66], [-122.18344107270241, 41.40288622118533, 3697.85], [-122.1833482850343, 41.402909103780985, 3694.48], [-122.18322968110442, 41.402989234775305, 3689.68], [-122.18318802304566, 41.40293919481337, 3687.27], [-122.1831513941288, 41.40286602079868, 3685.83], [-122.18313102610409, 41.40276812016964, 3682.47], [-122.18307310715318, 41.402577264234424, 3678.62], [-122.1830583550036, 41.40255060978234, 3678.14], [-122.18303270637989, 41.40243108384311, 3676.22], [-122.18300672248006, 41.40235707163811, 3672.85], [-122.18297973275185, 41.402184907346964, 3664.2], [-122.18291779048741, 41.40222731977701, 3662.28], [-122.18286339193583, 41.40224047936499, 3659.88], [-122.18270648270845, 41.40231164172292, 3653.63], [-122.18261050991714, 41.40201064758003, 3644.01], [-122.18246575444937, 41.40206077136099, 3637.77], [-122.18228152021766, 41.40214676968753, 3631.04], [-122.1822448913008, 41.40214014798403, 3630.56], [-122.18222259543836, 41.40199698507786, 3627.19], [-122.18219015747309, 41.401901599019766, 3625.27], [-122.18217574059963, 41.40174502506852, 3620.94], [-122.18207725323737, 41.401809230446815, 3616.14], [-122.18188078142703, 41.401904951781034, 3606.52], [-122.1817977167666, 41.40190000645816, 3602.68], [-122.18179335817695, 41.40179766342044, 3596.91], [-122.18176092021167, 41.40176413580775, 3596.91], [-122.18173141591251, 41.40166338533163, 3596.91], [-122.18154173344374, 41.4017460308969, 3588.26], [-122.18142203986645, 41.40182012692094, 3585.37], [-122.1813775319606, 41.40183923766017, 3584.41], [-122.18131517060101, 41.40181669034064, 3583.45], [-122.18125322833657, 41.40170814469457, 3579.61], [-122.18120645731688, 41.40154494903982, 3573.36], [-122.18118969351053, 41.401434475556016, 3572.88], [-122.18099749647081, 41.401496501639485, 3566.63], [-122.18084746040404, 41.401602532714605, 3562.3], [-122.18080731108785, 41.40159113332629, 3562.78], [-122.18078744597733, 41.401466745883226, 3557.5], [-122.18073807656765, 41.40137278474867, 3555.57], [-122.18064210377634, 41.401411006227136, 3552.69], [-122.18062056228518, 41.4013057295233, 3548.84], [-122.18062701635063, 41.40123423188925, 3546.44], [-122.18061645515263, 41.40105955302715, 3542.6], [-122.18059357255697, 41.40105661936104, 3541.63], [-122.18043180182576, 41.401116382330656, 3537.31], [-122.18036684207618, 41.40086685307324, 3530.58], [-122.18036508187652, 41.40077171847224, 3529.14], [-122.18030892312527, 41.40076291747391, 3525.29], [-122.18018621206284, 41.400842210277915, 3521.45], [-122.18006123788655, 41.40089384280145, 3517.6], [-122.17986049130559, 41.401016637682915, 3512.31], [-122.17982914298773, 41.400953438133, 3510.39], [-122.17981472611427, 41.40073115006089, 3504.62], [-122.17976183630526, 41.40058781951666, 3500.3], [-122.17973476275802, 41.40042420476675, 3495.97], [-122.17973358929157, 41.40031716786325, 3494.05], [-122.17971925623715, 41.400202084332705, 3491.65], [-122.17973275110126, 41.400182554498315, 3490.68], [-122.17972805723548, 41.399926990270615, 3488.76], [-122.17973333783448, 41.39977854676545, 3487.32], [-122.17976611107588, 41.399697326123714, 3482.99], [-122.17975378967822, 41.39960487373173, 3476.75], [-122.17977843247354, 41.399434050545096, 3470.5], [-122.17981338500977, 41.39930262230337, 3466.65], [-122.17984506860375, 41.39924185350537, 3465.21], [-122.17986325733364, 41.399149149656296, 3464.25], [-122.17987650074065, 41.39901344664395, 3460.88], [-122.17994120903313, 41.398893501609564, 3457.52], [-122.17999602667987, 41.39873147942126, 3452.71], [-122.18006148934364, 41.39859829097986, 3448.87], [-122.18012846074998, 41.39849712140858, 3446.94], [-122.1801739744842, 41.398406848311424, 3445.02], [-122.18023365363479, 41.39834540896118, 3443.1], [-122.18029274605215, 41.39826385304332, 3441.66], [-122.1803748048842, 41.39804265461862, 3437.33], [-122.18032107688487, 41.398007199168205, 3433.01], [-122.18030842021108, 41.39795824885368, 3429.16], [-122.18023298308253, 41.3979210332036, 3427.24], [-122.18014497309923, 41.397824389860034, 3420.51], [-122.18014229089022, 41.39777049422264, 3419.07], [-122.17999971471727, 41.39768005348742, 3411.86], [-122.17997037805617, 41.39766840264201, 3410.41], [-122.17992972582579, 41.39757159166038, 3406.09], [-122.17988052405417, 41.39753337018192, 3402.24], [-122.17981128953397, 41.397515600547194, 3399.84], [-122.17979385517538, 41.39741468243301, 3395.99], [-122.17976376414299, 41.39738442376256, 3393.59], [-122.1797497663647, 41.39732323586941, 3389.27], [-122.17966686934233, 41.39723245985806, 3387.34], [-122.17963485047221, 41.39716926030815, 3386.86], [-122.17944986186922, 41.39695300720632, 3381.09], [-122.17936746776104, 41.39690422452986, 3379.17], [-122.17930929735303, 41.39685125090182, 3377.25], [-122.17926378361881, 41.396769527345896, 3374.36], [-122.179190274328, 41.39669350348413, 3372.44], [-122.17914735898376, 41.396663999184966, 3371.48], [-122.17911785468459, 41.39658319763839, 3367.64], [-122.17912338674068, 41.39653768390417, 3364.27], [-122.1792212035507, 41.39649040997028, 3338.32], [-122.17922799289227, 41.396473813802004, 3337.83], [-122.17915808781981, 41.39640265144408, 3333.99], [-122.1790882665664, 41.39635596424341, 3331.59], [-122.17911316081882, 41.3962822034955, 3328.22], [-122.17908130958676, 41.396245239302516, 3324.86], [-122.17894602566957, 41.396240796893835, 3318.61], [-122.17884368263185, 41.39622336253524, 3316.69], [-122.1788340434432, 41.396109284833074, 3313.32], [-122.17877570539713, 41.39601230621338, 3310.44], [-122.17883027158678, 41.39591666869819, 3306.11], [-122.1787613723427, 41.39586931094527, 3302.27], [-122.1786318719387, 41.395795634016395, 3291.21], [-122.17857604846358, 41.39578272588551, 3289.29], [-122.17851092107594, 41.39575062319636, 3288.33], [-122.17846926301718, 41.39582362957299, 3284.0], [-122.1783561911434, 41.39567811973393, 3284.0], [-122.17827119864523, 41.39566923491657, 3284.0], [-122.17817069962621, 41.395624643191695, 3281.6], [-122.1782161295414, 41.39559019356966, 3275.35], [-122.1780712902546, 41.39553353190422, 3272.95], [-122.17794254422188, 41.39536203816533, 3261.89], [-122.17785713262856, 41.39530780725181, 3258.53], [-122.17783148400486, 41.395279644057155, 3256.6], [-122.17785294167697, 41.39520135708153, 3250.83], [-122.17783642932773, 41.39521242119372, 3250.83], [-122.17768161557615, 41.39514586888254, 3248.91], [-122.17740199528635, 41.394940093159676, 3243.63], [-122.177395792678, 41.39490849338472, 3236.9], [-122.17731775715947, 41.39486365020275, 3234.49], [-122.17702916823328, 41.39466709457338, 3225.84], [-122.17710485681891, 41.39459769241512, 3212.86], [-122.17706537805498, 41.39459584839642, 3209.02], [-122.17684510163963, 41.39449040405452, 3205.65], [-122.17662373557687, 41.39433475211263, 3200.85], [-122.17660278081894, 41.394256046041846, 3193.64], [-122.17661736533046, 41.39424514956772, 3188.35], [-122.17643447220325, 41.39409201219678, 3183.06], [-122.17655466869473, 41.39411514624953, 3176.33], [-122.1764890383929, 41.39416971243918, 3173.45], [-122.17634118162096, 41.39419267885387, 3167.68], [-122.17627898789942, 41.39418471604586, 3165.28], [-122.17627328820527, 41.39412579126656, 3162.88], [-122.176243532449, 41.39411414042115, 3162.39], [-122.17612844891846, 41.394001906737685, 3154.7], [-122.17592619359493, 41.393781546503305, 3140.28], [-122.17583206482232, 41.39376168139279, 3135.96], [-122.1757606510073, 41.39369479380548, 3131.15], [-122.17561019584537, 41.39357836917043, 3123.94], [-122.17535496689379, 41.39350133948028, 3119.62], [-122.17536075040698, 41.393481558188796, 3119.62], [-122.17530777677894, 41.39343646354973, 3115.29], [-122.17521205544472, 41.39341835863888, 3110.96], [-122.17512262053788, 41.39338893815875, 3107.6], [-122.17508213594556, 41.39336203224957, 3105.68], [-122.1748916991055, 41.39331811107695, 3101.35], [-122.17484341934323, 41.393317859619856, 3099.91], [-122.17472515068948, 41.39325943775475, 3097.51], [-122.17471987009048, 41.39323018491268, 3097.51], [-122.17453395947814, 41.393180061131716, 3095.1], [-122.17440554872155, 41.39313664287329, 3091.26], [-122.17433522455394, 41.39313303865492, 3089.33], [-122.17423615045846, 41.39307587407529, 3085.49], [-122.17422827146947, 41.39303186908364, 3083.57], [-122.17401403002441, 41.392946038395166, 3077.32], [-122.17397882603109, 41.39291737228632, 3075.88], [-122.1739347372204, 41.392851155251265, 3075.4], [-122.17389525845647, 41.39283816330135, 3075.4], [-122.17380112968385, 41.39277555048466, 3074.43], [-122.17370021156967, 41.39276004396379, 3073.95], [-122.17364111915231, 41.392679661512375, 3072.99], [-122.17353492043912, 41.392628448084, 3071.55], [-122.17348773032427, 41.39265853911638, 3068.19], [-122.17335185967386, 41.392614701762795, 3060.98], [-122.17321749776602, 41.39258997514844, 3054.73], [-122.17316578142345, 41.39253809116781, 3052.8], [-122.17316729016602, 41.39239199459553, 3049.92], [-122.17303074896336, 41.39233692549169, 3047.52], [-122.17292731627822, 41.392288226634264, 3045.59], [-122.1728664636612, 41.39230909757316, 3042.71], [-122.17276160605252, 41.392271211370826, 3033.58], [-122.17275179922581, 41.39222695492208, 3030.69], [-122.17257041484118, 41.39216652140021, 3027.33], [-122.17254426330328, 41.39214933849871, 3027.33], [-122.17249900102615, 41.392061077058315, 3025.41], [-122.17232306487858, 41.39198262244463, 3024.93], [-122.17227084562182, 41.39192797243595, 3024.44], [-122.17215810902417, 41.39187902212143, 3022.52], [-122.17212625779212, 41.39180542901158, 3014.35], [-122.17207537963986, 41.39178321696818, 3008.1], [-122.17203464359045, 41.391797214746475, 3005.7], [-122.17197990976274, 41.39178413897753, 3002.82], [-122.1719768922776, 41.39174809679389, 3000.41], [-122.17190589755774, 41.39172772876918, 2995.12], [-122.17181771993637, 41.39174616895616, 2989.84], [-122.17182232998312, 41.3917235378176, 2988.88], [-122.17176089063287, 41.391656985506415, 2980.71], [-122.17172970995307, 41.39164022170007, 2979.26], [-122.17156123369932, 41.391615495085716, 2977.34], [-122.17147070914507, 41.39155908487737, 2973.01], [-122.1714723855257, 41.39151223003864, 2969.65], [-122.17143022455275, 41.391522623598576, 2965.8], [-122.17134539969265, 41.391491862013936, 2962.44], [-122.17131304554641, 41.39145774766803, 2960.52], [-122.17124498449266, 41.3914315123111, 2958.11], [-122.17121950350702, 41.39144115149975, 2957.63], [-122.17111950740218, 41.39140225946903, 2953.31], [-122.17106259427965, 41.39134936966002, 2951.38], [-122.17098489403725, 41.391326654702425, 2947.54], [-122.17090325430036, 41.39126789756119, 2943.21], [-122.17086603865027, 41.39126664027572, 2942.25], [-122.1707180980593, 41.39131408184767, 2940.81], [-122.17059580609202, 41.39125934801996, 2934.56], [-122.17050662264228, 41.39116848818958, 2931.68], [-122.17033688910306, 41.39103027060628, 2923.99], [-122.17033898457885, 41.39098634943366, 2923.03], [-122.17027989216149, 41.39085341244936, 2917.74], [-122.1702381502837, 41.39085014350712, 2916.3], [-122.17023722827435, 41.39080513268709, 2913.89], [-122.17014888301492, 41.39075718820095, 2909.09], [-122.17015684582293, 41.390650905668736, 2906.2], [-122.17007428407669, 41.39055987820029, 2900.92], [-122.17002927325666, 41.39053179882467, 2899.47], [-122.17001955024898, 41.390501875430346, 2898.03], [-122.16982819139957, 41.39033708721399, 2890.34], [-122.16979189775884, 41.39020222239196, 2887.94], [-122.16979709453881, 41.390175903216004, 2887.46], [-122.16974755749106, 41.390157882124186, 2886.5], [-122.16975786723197, 41.39011211693287, 2883.61], [-122.1697302069515, 41.390100717544556, 2882.65], [-122.16973657719791, 41.39006978832185, 2881.69], [-122.16967924498022, 41.39006073586643, 2880.25], [-122.16965803876519, 41.39001505449414, 2878.81], [-122.16962140984833, 41.38998412527144, 2877.36], [-122.16967706568539, 41.38989946804941, 2876.88], [-122.1696678455919, 41.38988429680467, 2876.4], [-122.16953750699759, 41.389846159145236, 2874.48], [-122.16952191665769, 41.38980198651552, 2872.08], [-122.16948973014951, 41.38977164402604, 2871.11], [-122.16947590000927, 41.389729818329215, 2869.67], [-122.16953197494149, 41.38968673534691, 2866.79], [-122.16947204433382, 41.38964666984975, 2861.98], [-122.16942954808474, 41.38954726047814, 2852.85], [-122.16943667270243, 41.38948171399534, 2848.52], [-122.16935293748975, 41.38937819749117, 2841.31], [-122.16928345151246, 41.389325726777315, 2836.51], [-122.16919183731079, 41.38929747976363, 2831.7], [-122.1691865567118, 41.38926554471254, 2831.22], [-122.16922578401864, 41.38921617530286, 2830.26], [-122.16915839351714, 41.38919077813625, 2828.82], [-122.16908974573016, 41.38918214477599, 2825.93], [-122.16902688145638, 41.38914601877332, 2821.13], [-122.16903350315988, 41.389055997133255, 2815.84], [-122.16905437409878, 41.38901970349252, 2813.44], [-122.16899880208075, 41.38897821307182, 2807.67], [-122.16895177960396, 41.38885986059904, 2799.5], [-122.16884809546173, 41.38883379288018, 2794.21], [-122.16883334331214, 41.38877763412893, 2792.77], [-122.16879880987108, 41.388775538653135, 2791.33], [-122.16861667111516, 41.388679817318916, 2779.79], [-122.16854366473854, 41.388665568083525, 2776.42], [-122.16841173358262, 41.38860144652426, 2771.14], [-122.16830620542169, 41.38860764913261, 2766.81], [-122.16821006499231, 41.38858216814697, 2764.41], [-122.16816580854356, 41.388595746830106, 2762.97], [-122.16802231036127, 41.38860899023712, 2761.04], [-122.16795584186912, 41.38863514177501, 2760.08], [-122.16781795956194, 41.38864151202142, 2754.8], [-122.16770480386913, 41.388681661337614, 2749.99], [-122.16758100315928, 41.38871183618903, 2742.3], [-122.16749601066113, 41.38871166855097, 2740.86], [-122.16739634983242, 41.388747710734606, 2738.45], [-122.16734144836664, 41.38878023251891, 2737.97], [-122.16727070510387, 41.38877679593861, 2734.13], [-122.16725947335362, 41.388705633580685, 2731.72], [-122.1672417037189, 41.38869171962142, 2730.76], [-122.16718537732959, 41.3885286077857, 2726.44], [-122.16699217446148, 41.388588370755315, 2722.11], [-122.16693174093962, 41.38856867328286, 2720.19], [-122.16690877452493, 41.38851352035999, 2717.3], [-122.16686233878136, 41.388510167598724, 2715.38], [-122.16681665740907, 41.38838393613696, 2711.54], [-122.16677072457969, 41.3883475586772, 2709.13], [-122.16669520363212, 41.38831855729222, 2706.25], [-122.16666712425649, 41.388238091021776, 2703.85], [-122.16662982478738, 41.38823138549924, 2702.4], [-122.16664290055633, 41.388032818213105, 2697.6], [-122.16660258360207, 41.38803801499307, 2697.12], [-122.16638959944248, 41.387980096042156, 2691.83], [-122.16622489504516, 41.38798403553665, 2688.46], [-122.16610126197338, 41.387873562052846, 2682.7], [-122.1660796366632, 41.3878224324435, 2680.29], [-122.16593781486154, 41.38782159425318, 2675.01], [-122.16576204635203, 41.38785604387522, 2671.64], [-122.16570873744786, 41.38783425092697, 2671.16], [-122.16569356620312, 41.38780583627522, 2671.16], [-122.16560421511531, 41.38779946602881, 2670.2], [-122.16541620902717, 41.38784548267722, 2668.28], [-122.16532677412033, 41.38783207163215, 2665.87], [-122.16511538252234, 41.38783014379442, 2663.47], [-122.16492318548262, 41.387880351394415, 2661.55], [-122.16470634564757, 41.38794204220176, 2658.66], [-122.16438649222255, 41.38806818984449, 2651.45], [-122.16432966291904, 41.388113368302584, 2649.53], [-122.16414140537381, 41.38816508464515, 2648.09], [-122.16404853388667, 41.38813256286085, 2645.69], [-122.16391174122691, 41.38812677934766, 2644.72], [-122.1636445261538, 41.388089982792735, 2642.8], [-122.16363639570773, 41.3880312256515, 2638.96], [-122.16359264217317, 41.38810280710459, 2638.48], [-122.16358392499387, 41.388150500133634, 2637.51], [-122.16339156031609, 41.38827539049089, 2635.59], [-122.1633770596236, 41.3882902264595, 2635.11], [-122.16327915899456, 41.38825016096234, 2632.71], [-122.16321704909205, 41.388176484033465, 2630.79], [-122.16308394446969, 41.38820255175233, 2627.42], [-122.16298176907003, 41.38816734775901, 2628.86], [-122.16294597834349, 41.388106578961015, 2626.46], [-122.16291882097721, 41.388069447129965, 2628.38], [-122.16286115348339, 41.38801873661578, 2626.94], [-122.16266702860594, 41.38793198391795, 2620.69], [-122.16256208717823, 41.38790801167488, 2618.29], [-122.16244541108608, 41.38784606941044, 2615.4], [-122.1623476780951, 41.387770883738995, 2613.48], [-122.16226243413985, 41.387723023071885, 2610.6], [-122.16204048134387, 41.3877915032208, 2604.35], [-122.16199957765639, 41.38779024593532, 2601.95], [-122.16192363761365, 41.387749426066875, 2600.02], [-122.16184250079095, 41.38779317960143, 2596.66], [-122.16175742447376, 41.387769877910614, 2594.25], [-122.16149004176259, 41.387664349749684, 2587.04], [-122.16138627380133, 41.38764658011496, 2584.16], [-122.16131896711886, 41.38761766254902, 2581.28], [-122.16120379976928, 41.38759075663984, 2576.47], [-122.16107220388949, 41.38762537389994, 2571.18], [-122.16079132631421, 41.38776124455035, 2567.82], [-122.16070029884577, 41.38785671442747, 2565.9], [-122.160510616377, 41.38797691091895, 2564.45], [-122.16049971990287, 41.38803591951728, 2565.9], [-122.16033853590488, 41.38810255564749, 2565.9], [-122.16029553674161, 41.38810247182846, 2565.9], [-122.16021389700472, 41.38817296363413, 2563.97], [-122.16017031110823, 41.38819073326886, 2563.49], [-122.16011264361441, 41.38818050734699, 2563.01], [-122.15998934581876, 41.388283018022776, 2560.61], [-122.1598541457206, 41.38829265721142, 2559.17], [-122.15976504608989, 41.388266421854496, 2558.69], [-122.15953580103815, 41.38826994225383, 2557.24], [-122.15943027287722, 41.388354850932956, 2557.73], [-122.15931124985218, 41.38847772963345, 2559.65], [-122.15914830565453, 41.38858552090824, 2560.13], [-122.15897002257407, 41.38867059722543, 2560.13], [-122.15888117440045, 41.388733545318246, 2559.65], [-122.15880322270095, 41.388756930828094, 2559.65], [-122.15872074477375, 41.38887352310121, 2558.21], [-122.1585903223604, 41.388940662145615, 2557.73], [-122.15850030072033, 41.388975363224745, 2557.24], [-122.15840583667159, 41.388991959393024, 2556.28], [-122.15835412032902, 41.38905909843743, 2555.32], [-122.1582295652479, 41.38914233073592, 2555.8], [-122.15802798047662, 41.3892331905663, 2555.8], [-122.15785061940551, 41.389327151700854, 2554.84], [-122.15778314508498, 41.389355063438416, 2554.36], [-122.15761735104024, 41.38934601098299, 2552.92], [-122.15743739157915, 41.38931466266513, 2551.48], [-122.15732473880053, 41.389337377622724, 2550.03], [-122.15717327781022, 41.389274848625064, 2550.51], [-122.15692911297083, 41.389198154211044, 2549.07], [-122.15675141662359, 41.389133697375655, 2548.11], [-122.15659786015749, 41.38904702849686, 2549.07], [-122.15652510523796, 41.38899799436331, 2549.07], [-122.15633978135884, 41.388928508386016, 2549.55], [-122.15612377971411, 41.388874696567655, 2549.55], [-122.15595186688006, 41.388929430395365, 2549.07], [-122.15567652136087, 41.38895524665713, 2544.75], [-122.15554333291948, 41.38893152587116, 2544.75], [-122.15546814724803, 41.38892523944378, 2544.75], [-122.15530461631715, 41.388890789821744, 2542.34], [-122.1552590187639, 41.38889263384044, 2541.86], [-122.1551228966564, 41.388858603313565, 2541.38], [-122.15504234656692, 41.388830188661814, 2541.38], [-122.15497311204672, 41.38882256112993, 2541.38], [-122.15484159998596, 41.38875081203878, 2540.42], [-122.15463708154857, 41.388697838410735, 2539.94], [-122.15453758835793, 41.38865265995264, 2538.98], [-122.15439543128014, 41.38857294805348, 2538.02], [-122.15424254536629, 41.38850999996066, 2537.06], [-122.1541178226471, 41.38847731053829, 2535.13], [-122.15382621623576, 41.388368429616094, 2529.37], [-122.15370551683009, 41.38830414041877, 2526.96], [-122.15347275137901, 41.388211185112596, 2521.68], [-122.1531315241009, 41.388097275048494, 2520.23], [-122.15281829237938, 41.38801395893097, 2520.23], [-122.1527929790318, 41.387997111305594, 2520.23], [-122.15248678810894, 41.387922428548336, 2523.6], [-122.15225821360946, 41.387798795476556, 2523.12], [-122.15214581228793, 41.38769351877272, 2522.64], [-122.1519139688462, 41.38754725456238, 2518.79], [-122.15176611207426, 41.387376515194774, 2516.39], [-122.15155170299113, 41.38724248856306, 2512.54], [-122.15125833638012, 41.386893801391125, 2499.08], [-122.15096404775977, 41.38678500428796, 2488.51], [-122.15092138387263, 41.38676455244422, 2486.11], [-122.15074108913541, 41.386546455323696, 2482.26], [-122.15064025484025, 41.38649582862854, 2481.3], [-122.15043154545128, 41.38634780421853, 2477.45], [-122.15042014606297, 41.38631712645292, 2476.49], [-122.15028637088835, 41.386160803958774, 2472.65], [-122.15011429041624, 41.38600951060653, 2468.8], [-122.150092497468, 41.38580876402557, 2465.92], [-122.14997297152877, 41.38575302436948, 2463.52], [-122.14984808117151, 41.385707845911384, 2463.52], [-122.14983282610774, 41.385682029649615, 2462.55], [-122.14978479780257, 41.38553760945797, 2458.71], [-122.14966644532979, 41.38550098054111, 2455.82], [-122.1495671197772, 41.38539478182793, 2450.54], [-122.14942471124232, 41.385208033025265, 2446.21], [-122.14915741235018, 41.38497778214514, 2442.37], [-122.14900678955019, 41.384915420785546, 2438.52], [-122.14878793805838, 41.384880216792226, 2434.2], [-122.14855760335922, 41.38486663810909, 2431.31], [-122.14853690005839, 41.38485565781593, 2429.39], [-122.1483117621392, 41.3847987446934, 2429.87], [-122.14821461588144, 41.38475549407303, 2428.91], [-122.14801663532853, 41.384734539315104, 2425.54], [-122.14786291122437, 41.38472934253514, 2420.74], [-122.14778470806777, 41.384750716388226, 2418.81], [-122.14753174223006, 41.384664634242654, 2413.53], [-122.14739570394158, 41.384601686149836, 2409.2], [-122.14723762124777, 41.38446656987071, 2402.47], [-122.14716302230954, 41.38433991931379, 2401.03], [-122.14708875864744, 41.38432977721095, 2401.03], [-122.14700871147215, 41.38424118049443, 2399.59], [-122.14688591659069, 41.384155014529824, 2398.15], [-122.14659531600773, 41.38402224518359, 2389.49], [-122.14648056775331, 41.38395560905337, 2385.65], [-122.14634754694998, 41.383851589635015, 2383.25], [-122.14629876427352, 41.383825270459056, 2382.76], [-122.1461877040565, 41.383791994303465, 2380.36], [-122.14602258056402, 41.38368068262935, 2376.04], [-122.14581546373665, 41.383520839735866, 2371.71], [-122.14562678709626, 41.38348245061934, 2370.27], [-122.14558747597039, 41.383405923843384, 2369.31], [-122.14542838744819, 41.38333191163838, 2369.31], [-122.145287822932, 41.38325731270015, 2368.83], [-122.14515262283385, 41.38315404765308, 2366.42], [-122.1451273933053, 41.3831149879843, 2364.5], [-122.14506327174604, 41.3830803707242, 2362.58], [-122.14489663951099, 41.382918348535895, 2358.73], [-122.14480393566191, 41.382883647456765, 2356.81], [-122.14463227428496, 41.38273780234158, 2352.96], [-122.1445007622242, 41.3826540671289, 2348.16], [-122.14423723518848, 41.382566057145596, 2342.87], [-122.14399524964392, 41.38243773020804, 2341.43], [-122.14382761158049, 41.382367154583335, 2337.58], [-122.14369031600654, 41.382277300581336, 2334.22], [-122.14362912811339, 41.382249388843775, 2333.26], [-122.14343718253076, 41.382121900096536, 2330.85], [-122.14333886280656, 41.38211921788752, 2328.45], [-122.14308254420757, 41.38199365697801, 2324.61], [-122.14299445040524, 41.381954764947295, 2322.68], [-122.14278867468238, 41.381814451888204, 2317.4], [-122.14265665970743, 41.38174924068153, 2312.59], [-122.14235566556454, 41.381530556827784, 2305.86], [-122.14215290732682, 41.38141262345016, 2302.49], [-122.1419964171946, 41.38130080886185, 2300.57], [-122.14189725928009, 41.38114440254867, 2298.17], [-122.14170665480196, 41.38097123242915, 2295.77], [-122.14163666591048, 41.380865117534995, 2291.92], [-122.14164488017559, 41.380792362615466, 2288.56], [-122.14149568229914, 41.380734108388424, 2284.71], [-122.14145821519196, 41.3806819729507, 2283.75], [-122.14136735536158, 41.38061583973467, 2282.31], [-122.14118815027177, 41.380433198064566, 2279.42], [-122.14107491075993, 41.38033764436841, 2275.1], [-122.1409934386611, 41.38025742955506, 2272.69], [-122.14086477644742, 41.38024091720581, 2268.37], [-122.14079344645143, 41.38020026497543, 2265.96], [-122.14074189774692, 41.38008518144488, 2265.0], [-122.14057551696897, 41.37999750673771, 2261.16], [-122.14048809371889, 41.37997353449464, 2258.27], [-122.14040712453425, 41.37996473349631, 2256.83], [-122.1403697412461, 41.379919555038214, 2254.91], [-122.1403541509062, 41.379873203113675, 2253.95], [-122.14031240902841, 41.37981922365725, 2252.51], [-122.14000672101974, 41.37973163276911, 2250.58], [-122.13981879875064, 41.37963188812137, 2248.18], [-122.1396225783974, 41.37949568219483, 2243.85], [-122.13943524286151, 41.379466680809855, 2241.45], [-122.13926022872329, 41.37933751568198, 2239.53], [-122.13906962424517, 41.37926559895277, 2237.61], [-122.13882856070995, 41.37919234111905, 2234.24], [-122.13874901644886, 41.37915420345962, 2233.28], [-122.13852362707257, 41.37907273136079, 2229.92], [-122.13824459351599, 41.37893493287265, 2226.55], [-122.13815348222852, 41.37888112105429, 2226.07], [-122.13795675896108, 41.37874818406999, 2223.19], [-122.13792968541384, 41.37868599034846, 2221.74], [-122.13766087777913, 41.37855841778219, 2218.38], [-122.1374964248389, 41.378399496898055, 2215.01], [-122.1373256854713, 41.37826002202928, 2211.17], [-122.1370886452496, 41.378048630431294, 2205.4], [-122.13692612014711, 41.37785257771611, 2201.56], [-122.13685638271272, 41.37778879143298, 2200.11], [-122.13644340634346, 41.377428537234664, 2191.94], [-122.13621340692043, 41.37710893526673, 2188.58], [-122.13614040054381, 41.377016734331846, 2186.66], [-122.13607594370842, 41.37691422365606, 2186.18], [-122.13607233949006, 41.376877846196294, 2187.62], [-122.13602188043296, 41.37682286091149, 2187.14], [-122.13588986545801, 41.37665773741901, 2184.25], [-122.13578433729708, 41.37649102136493, 2179.45], [-122.13563488796353, 41.37630628421903, 2176.56], [-122.1354865282774, 41.37618239969015, 2172.72], [-122.13526541367173, 41.376004787161946, 2168.87], [-122.13513473980129, 41.37585802003741, 2166.95], [-122.13503985665739, 41.375769171863794, 2166.47], [-122.13495226576924, 41.375722819939256, 2166.95], [-122.13487691245973, 41.375669008120894, 2165.51], [-122.13476157747209, 41.37540313415229, 2163.58], [-122.13463107123971, 41.3752818480134, 2161.66], [-122.13461958803236, 41.37524815276265, 2161.18], [-122.1344418078661, 41.375089064240456, 2157.82], [-122.13434994220734, 41.37495579198003, 2153.97], [-122.13418490253389, 41.37474431656301, 2150.13], [-122.13417124003172, 41.3746843021363, 2148.2], [-122.13417735882103, 41.374635603278875, 2146.28], [-122.13414852507412, 41.37443452142179, 2143.4], [-122.1341896802187, 41.37429119087756, 2140.03], [-122.13418213650584, 41.374080553650856, 2137.15], [-122.1341756824404, 41.37402892112732, 2136.67], [-122.1340289991349, 41.37382918037474, 2135.23], [-122.1339808870107, 41.3736276794225, 2132.82], [-122.13398532941937, 41.37361410073936, 2132.82], [-122.13390779681504, 41.37352131307125, 2131.38], [-122.13389195501804, 41.37346691451967, 2130.42], [-122.1338910330087, 41.3734014518559, 2128.98], [-122.13383445516229, 41.373279578983784, 2126.09], [-122.13377117179334, 41.37321453541517, 2125.61], [-122.13362842798233, 41.37297682464123, 2122.73], [-122.13351728394628, 41.372827123850584, 2120.81], [-122.13337655179203, 41.372691756114364, 2118.88], [-122.13325895369053, 41.372444154694676, 2116.48], [-122.13319458067417, 41.37237626127899, 2115.52], [-122.13299106806517, 41.37231281027198, 2114.56], [-122.13290582410991, 41.37224751524627, 2114.08], [-122.13287523016334, 41.37217568233609, 2113.12], [-122.13291252963245, 41.371960770338774, 2110.71], [-122.13290766812861, 41.37188273482025, 2109.75], [-122.13272854685783, 41.37169824913144, 2107.35], [-122.13255152106285, 41.37157495133579, 2101.1], [-122.13240785524249, 41.371399434283376, 2098.7], [-122.13219948112965, 41.37146037071943, 2100.14], [-122.13215690106153, 41.3714793138206, 2099.66], [-122.13187786750495, 41.371627589687705, 2097.25], [-122.13169539347291, 41.37167670764029, 2094.37], [-122.13163412176073, 41.37167067267001, 2093.41], [-122.13157050311565, 41.37168098241091, 2092.45], [-122.13146262802184, 41.371779553592205, 2090.52], [-122.13138090446591, 41.37194635346532, 2089.08], [-122.13126146234572, 41.37204525992274, 2088.12], [-122.13107756339014, 41.372125223279, 2088.12], [-122.13072460144758, 41.372067388147116, 2090.04], [-122.13051103055477, 41.37204693630338, 2089.08], [-122.13025538250804, 41.37205841951072, 2087.16], [-122.13002261705697, 41.37195632793009, 2086.2], [-122.1298046875745, 41.37187108397484, 2087.16], [-122.12963537313044, 41.37175968848169, 2083.79], [-122.12948550470173, 41.371637815609574, 2078.51], [-122.12940864264965, 41.37155458331108, 2075.62], [-122.1292681619525, 41.371378395706415, 2070.34], [-122.12919096462429, 41.371218049898744, 2066.49], [-122.12916858494282, 41.37115183286369, 2066.01], [-122.12921409867704, 41.37098243460059, 2064.57], [-122.1293265838176, 41.370877493172884, 2066.01], [-122.12935474701226, 41.37077464722097, 2065.53], [-122.12928995490074, 41.37072376906872, 2065.05], [-122.12908258661628, 41.3706661015749, 2064.57], [-122.12874756194651, 41.37053609825671, 2063.13], [-122.12858025915921, 41.37042101472616, 2066.01], [-122.12853114120662, 41.37035940773785, 2065.53], [-122.1283925883472, 41.37014038860798, 2059.28], [-122.12826174683869, 41.369722886011004, 2053.03], [-122.12841153144836, 41.369547452777624, 2050.15], [-122.12844958528876, 41.36949095875025, 2049.19], [-122.12860565632582, 41.36936447583139, 2046.78], [-122.1288844384253, 41.36918141506612, 2047.75], [-122.12906523607671, 41.368937669321895, 2045.82], [-122.1290483046323, 41.36875360272825, 2044.86], [-122.12918157689273, 41.36857523582876, 2041.02], [-122.12917814031243, 41.368516478687525, 2038.61], [-122.12912935763597, 41.36845629662275, 2037.65], [-122.12896700017154, 41.36836216785014, 2038.61], [-122.12879869155586, 41.3682000618428, 2037.65], [-122.12876239791512, 41.368126133456826, 2037.17], [-122.1285564545542, 41.367959501221776, 2035.73], [-122.12839267216623, 41.36779714375734, 2032.84], [-122.12825386784971, 41.36771382763982, 2028.04], [-122.12811506353319, 41.367736123502254, 2026.12], [-122.12796033360064, 41.36760343797505, 2021.79], [-122.12799386121333, 41.367362290620804, 2018.43], [-122.12799771688879, 41.36726330034435, 2014.1], [-122.12797667831182, 41.36719104833901, 2012.66], [-122.12776369415224, 41.36702533811331, 2008.81], [-122.12769898585975, 41.366969933733344, 2008.81], [-122.1275476925075, 41.36690044775605, 2006.89], [-122.1273756120354, 41.36670045554638, 2006.41], [-122.12733495980501, 41.36649962514639, 2000.16], [-122.12721979245543, 41.36632762849331, 1998.24], [-122.12712432257831, 41.366170886904, 1996.32], [-122.12702776305377, 41.36597441509366, 1996.8], [-122.12696682661772, 41.36591666378081, 1995.35], [-122.12686590850353, 41.365670235827565, 1992.47], [-122.12665946222842, 41.365541657432914, 1990.07], [-122.12660280056298, 41.36554492637515, 1990.07], [-122.12638277560472, 41.3653973210603, 1985.74], [-122.12625939399004, 41.36534468270838, 1983.82], [-122.12605160661042, 41.365358009934425, 1984.3], [-122.1259973756969, 41.36538625694811, 1982.38], [-122.12596477009356, 41.365293050184846, 1983.82], [-122.12602796964347, 41.36532699689269, 1986.7]]}}