{"type": "Feature", "properties": {}, "geometry": {"type": "LineString", "coordinates": [[-124.045818, 41.322872, 20.2], [-124.045696, 41.322804, 22.8], [-124.045627, 41.322743, 23.7], [-124.045711, 41.322789, 17.6], [-124.045731, 41.322819, 17.4], [-124.045732, 41.322861, 16.7], [-124.045704, 41.322957, 18.1], [-124.045809, 41.322914, 15.8], [-124.045859, 41.322794, 15.1], [-124.045843, 41.322702, 13.9], [-124.045846, 41.32266, 12.9], [-124.045874, 41.322621, 11.3], [-124.045872, 41.322584, 10.4], [-124.045898, 41.32253, 7.8], [-124.045897, 41.322503, 7.2], [-124.045852, 41.322443, 5.8], [-124.045811, 41.322435, 6.8], [-124.045789, 41.322394, 4.6], [-124.045743, 41.322374, 4.7], [-124.04543, 41.322292, 9.5], [-124.045173, 41.32224, 17.6], [-124.045137, 41.322237, 19.1], [-124.045008, 41.322265, 16.6], [-124.044946, 41.322291, 17.1], [-124.044879, 41.322289, 16.8], [-124.044803, 41.322259, 16.6], [-124.044774, 41.322212, 14.6], [-124.044805, 41.322172, 13.1], [-124.044817, 41.322138, 14.0], [-124.044892, 41.322099, 14.9], [-124.044934, 41.322063, 14.5], [-124.04502, 41.321953, 12.1], [-124.045077, 41.321926, 9.4], [-124.04514, 41.321843, 6.7], [-124.045151, 41.321789, 6.5], [-124.04518, 41.321751, 4.4], [-124.045199, 41.321704, 4.3], [-124.045192, 41.321686, 5.3], [-124.045243, 41.321606, 5.0], [-124.045294, 41.321565, 6.8], [-124.045361, 41.321477, 6.8], [-124.045433, 41.321417, 9.0], [-124.045491, 41.32139, 9.1], [-124.045519, 41.321301, 12.7], [-124.045558, 41.321264, 14.3], [-124.045656, 41.321226, 15.1], [-124.04578, 41.321215, 15.5], [-124.045816, 41.321191, 13.3], [-124.045874, 41.321177, 10.7], [-124.045911, 41.321184, 9.4], [-124.045998, 41.321225, 1.3], [-124.046019, 41.321243, 0.4], [-124.046049, 41.321296, -0.5], [-124.04605, 41.321315, -0.4], [-124.046087, 41.321291, -0.9], [-124.046149, 41.321292, -3.5], [-124.046285, 41.321262, -2.7], [-124.046365, 41.321071, 1.6], [-124.046271, 41.32105, 7.4], [-124.046061, 41.321026, 13.5], [-124.045914, 41.321038, 16.5], [-124.045938, 41.321071, 18.8], [-124.045875, 41.321071, 20.7], [-124.046009, 41.321108, 20.1], [-124.046165, 41.321063, 22.1], [-124.046208, 41.321023, 22.4], [-124.046247, 41.320902, 22.1], [-124.046245, 41.320794, 24.0], [-124.046219, 41.320675, 26.4], [-124.046206, 41.320521, 26.8], [-124.046222, 41.320514, 26.6], [-124.046214, 41.320309, 28.3], [-124.046244, 41.320346, 28.5], [-124.046238, 41.32029, 34.3], [-124.046217, 41.320331, 40.5], [-124.046208, 41.320261, 37.7], [-124.046189, 41.320349, 44.4], [-124.046177, 41.320355, 48.7], [-124.046176, 41.320408, 50.9], [-124.046301, 41.320547, 36.2], [-124.046296, 41.32053, 36.3], [-124.046799, 41.320774, 67.3], [-124.047127, 41.320728, 43.9], [-124.047097, 41.320773, 44.2], [-124.04713, 41.320783, 39.6], [-124.047177, 41.320823, 39.2], [-124.047213, 41.320807, 39.1], [-124.047383, 41.321066, 38.4], [-124.047413, 41.32107, 40.1], [-124.047429, 41.321102, 44.7], [-124.047441, 41.321061, 46.1], [-124.047508, 41.321026, 48.3], [-124.047555, 41.321014, 47.7], [-124.0476, 41.320964, 47.1], [-124.047646, 41.320977, 47.8], [-124.047705, 41.320925, 46.5], [-124.047854, 41.320884, 49.6], [-124.047971, 41.320888, 52.4], [-124.048069, 41.320923, 56.0], [-124.048082, 41.32092, 55.8], [-124.048368, 41.320926, 47.2], [-124.048406, 41.320944, 46.8], [-124.048427, 41.320975, 48.6], [-124.048645, 41.321048, 40.6], [-124.04868, 41.321057, 38.0], [-124.04874, 41.321031, 34.3], [-124.048775, 41.321044, 34.1], [-124.048806, 41.321022, 33.1], [-124.048922, 41.321069, 38.9], [-124.048979, 41.321076, 41.9], [-124.049016, 41.321054, 44.3], [-124.049042, 41.321059, 42.9], [-124.049096, 41.320865, 29.6], [-124.049134, 41.320815, 27.6], [-124.049151, 41.32081, 27.3], [-124.049195, 41.320616, 29.7], [-124.049212, 41.320598, 29.5], [-124.049266, 41.320597, 27.3], [-124.049202, 41.320515, 47.1], [-124.049091, 41.320503, 50.0], [-124.049085, 41.32052, 48.9], [-124.049113, 41.32053, 49.1], [-124.049153, 41.320501, 50.1], [-124.049337, 41.320448, 44.8], [-124.049398, 41.320442, 44.7], [-124.049439, 41.320375, 47.5], [-124.049471, 41.320377, 48.1], [-124.049469, 41.320295, 53.5], [-124.049555, 41.320238, 56.1], [-124.049181, 41.320342, 70.9], [-124.049113, 41.320327, 75.5], [-124.049019, 41.320338, 78.5], [-124.04894, 41.320327, 80.4], [-124.048898, 41.320328, 79.5], [-124.04879, 41.320369, 74.7], [-124.048591, 41.320381, 80.8], [-124.048543, 41.320393, 83.9], [-124.048511, 41.320388, 86.3], [-124.048479, 41.320328, 98.8], [-124.048669, 41.320296, 106.2], [-124.048724, 41.320297, 105.6], [-124.048788, 41.32032, 110.2], [-124.048805, 41.320355, 114.9], [-124.048891, 41.320452, 113.5], [-124.04891, 41.320455, 113.6], [-124.048953, 41.320506, 112.2], [-124.049025, 41.320544, 113.0], [-124.049052, 41.32065, 114.6], [-124.049032, 41.320618, 98.2], [-124.049096, 41.320614, 33.9], [-124.049074, 41.320587, 34.3], [-124.049122, 41.320544, 34.9], [-124.049167, 41.320522, 35.4], [-124.049187, 41.32056, 37.4], [-124.049158, 41.320601, 35.3], [-124.049107, 41.320606, 36.8], [-124.049026, 41.320584, 35.9], [-124.048881, 41.320566, 30.3], [-124.048858, 41.320558, 30.3], [-124.048808, 41.320516, 31.4], [-124.048777, 41.320517, 30.9], [-124.048675, 41.320461, 30.1], [-124.048652, 41.320436, 30.2], [-124.048668, 41.320482, 29.5], [-124.048673, 41.320396, 26.7], [-124.047663, 41.320942, 25.7], [-124.047632, 41.320939, 28.8], [-124.047615, 41.320916, 31.2], [-124.047578, 41.320915, 33.9], [-124.047469, 41.320955, 40.8], [-124.047396, 41.320943, 34.4], [-124.047359, 41.32092, 35.5], [-124.047242, 41.320872, 36.7], [-124.047217, 41.320874, 36.6], [-124.047192, 41.320851, 36.7], [-124.047147, 41.321016, 43.7], [-124.047221, 41.320916, 36.3], [-124.04719, 41.3209, 37.6], [-124.047079, 41.320867, 39.2], [-124.047053, 41.320883, 40.0], [-124.047127, 41.320883, 41.0], [-124.047142, 41.320891, 40.8], [-124.047243, 41.320898, 35.8], [-124.04732, 41.320932, 35.1], [-124.047363, 41.320938, 36.6], [-124.047453, 41.320981, 37.4], [-124.047581, 41.321001, 31.6], [-124.047972, 41.321081, 23.7], [-124.048026, 41.321153, 21.1], [-124.048022, 41.321238, 17.9], [-124.048076, 41.321264, 8.8], [-124.048146, 41.321255, 10.0], [-124.048145, 41.321285, 10.5], [-124.048212, 41.321354, 9.1], [-124.048205, 41.321379, 10.6], [-124.048291, 41.321436, -5.5], [-124.048369, 41.32145, -15.8], [-124.048422, 41.321445, -27.5], [-124.048721, 41.32129, -32.0], [-124.048758, 41.32118, -37.4], [-124.048828, 41.321192, -36.9], [-124.048843, 41.321208, -36.6], [-124.048943, 41.321216, -35.5], [-124.04898, 41.321258, -28.6], [-124.049022, 41.321273, -28.3], [-124.045242, 41.321434, 38.5], [-124.045228, 41.321469, 27.4], [-124.04517, 41.321538, 21.1], [-124.045078, 41.321609, 18.2], [-124.045048, 41.321721, 16.1], [-124.045017, 41.321773, 14.6], [-124.045017, 41.321791, 13.8], [-124.044936, 41.321929, 7.6], [-124.044885, 41.321998, 5.3], [-124.044827, 41.322102, 7.1], [-124.044784, 41.32216, 8.7], [-124.044772, 41.322222, 9.5], [-124.044779, 41.322236, 9.5], [-124.044886, 41.322285, 10.1], [-124.044897, 41.322336, 8.5], [-124.044824, 41.322545, 7.1], [-124.044812, 41.322626, 8.0]]}}