{"type": "Feature", "properties": {}, "geometry": {"type": "LineString", "coordinates": [[-119.91790140978992, 47.15500658378005, 376.97], [-119.91792546585202, 47.15500557795167, 373.13], [-119.9178558960557, 47.15498588047922, 374.09], [-119.91782748140395, 47.15498219244182, 374.09], [-119.91774341091514, 47.15489719994366, 373.61], [-119.91775271482766, 47.154848501086235, 374.09], [-119.91775196045637, 47.15479049831629, 374.09], [-119.91782370954752, 47.154629146680236, 373.13], [-119.91798883304, 47.15446083806455, 373.13], [-119.91810349747539, 47.154350616037846, 373.13], [-119.91817499510944, 47.154307113960385, 373.13], [-119.91826937533915, 47.15417836792767, 372.17], [-119.9183205049485, 47.154067223891616, 372.17], [-119.91831874474883, 47.15405808761716, 372.65], [-119.91833919659257, 47.15403076261282, 373.13], [-119.91836258210242, 47.153990026563406, 372.17], [-119.91853952407837, 47.15376145206392, 369.28], [-119.91877220571041, 47.15361116454005, 366.88], [-119.91880246438086, 47.153596160933375, 366.88], [-119.91904905997217, 47.15348451398313, 366.4], [-119.91931585595012, 47.153371861204505, 366.88], [-119.91955465637147, 47.15327253565192, 367.36], [-119.919778034091, 47.153180753812194, 366.88], [-119.92005690000951, 47.15303549543023, 364.48], [-119.92028673179448, 47.152876406908035, 361.59], [-119.92054514586926, 47.15268563479185, 360.15], [-119.92081311531365, 47.15248069725931, 359.67], [-119.92088746279478, 47.1524362731725, 360.15], [-119.92113707587123, 47.15229235589504, 360.15], [-119.92140186019242, 47.15216335840523, 360.63], [-119.92165549658239, 47.15206445194781, 360.63], [-119.92188013158739, 47.15192589908838, 360.15], [-119.92190175689757, 47.15190276503563, 359.67], [-119.92193981073797, 47.15187795460224, 360.15], [-119.9220989830792, 47.15181718580425, 359.19], [-119.92216050624847, 47.15184233151376, 358.71], [-119.92236946709454, 47.15196814388037, 358.71], [-119.92264891974628, 47.15206076391041, 357.27], [-119.92286877706647, 47.15214324183762, 358.23], [-119.92293792776763, 47.15219152159989, 359.19], [-119.92308586835861, 47.152192862704396, 358.71], [-119.9230644106865, 47.15219981968403, 356.79], [-119.92321360856295, 47.15220375917852, 358.71], [-119.92353186942637, 47.15226746164262, 360.63], [-119.92378609254956, 47.15231942944229, 360.63], [-119.92386127822101, 47.152329152449965, 360.63], [-119.92418674752116, 47.15237860567868, 360.15], [-119.92448950186372, 47.152439039200544, 359.19], [-119.92478328756988, 47.15246292762458, 358.71], [-119.92502183653414, 47.15245932340622, 359.67], [-119.92533783428371, 47.152446834370494, 359.19], [-119.92552240379155, 47.15246854349971, 360.15], [-119.92565265856683, 47.15255060233176, 359.67], [-119.925830187276, 47.15265914797783, 359.19], [-119.92596371099353, 47.152599887922406, 358.71], [-119.92626009508967, 47.152505088597536, 358.71], [-119.92654667235911, 47.15248363092542, 358.23], [-119.92688513360918, 47.152475249022245, 357.27], [-119.92723356932402, 47.15252470225096, 356.79], [-119.92756633087993, 47.15261707082391, 357.75], [-119.9276283569634, 47.15279342606664, 358.23], [-119.92758627980947, 47.15288336388767, 358.23], [-119.92751981131732, 47.15312191285193, 358.23], [-119.92743046022952, 47.15335534885526, 358.71], [-119.92739642970264, 47.15354595333338, 359.67], [-119.92739047855139, 47.15354595333338, 357.75], [-119.92739718407393, 47.15355877764523, 359.19], [-119.9273897241801, 47.153556095436215, 359.19], [-119.92742400616407, 47.15358710847795, 359.19], [-119.92744127288461, 47.153614684939384, 359.19], [-119.92745091207325, 47.15364477597177, 359.19], [-119.92759709246457, 47.15381878428161, 358.71], [-119.92766121402383, 47.153861029073596, 358.71], [-119.92790680378675, 47.15396630577743, 361.11], [-119.92813998833299, 47.15405800379813, 363.04], [-119.92838499136269, 47.154146768152714, 365.44], [-119.92867525666952, 47.15418666601181, 363.52], [-119.92899217642844, 47.1541681420058, 361.59], [-119.92935209535062, 47.15416579507291, 362.55], [-119.92968494072556, 47.15416453778744, 363.52], [-119.92974218912423, 47.15416671708226, 363.52], [-119.9297711905092, 47.154161436483264, 363.52], [-119.93014208972454, 47.15414509177208, 363.04], [-119.93034560233355, 47.15414743870497, 363.52], [-119.93048390373588, 47.15413788333535, 363.04], [-119.9305537249893, 47.15414802543819, 363.52], [-119.93056889623404, 47.15414115227759, 363.52], [-119.93062530644238, 47.154144337400794, 364.0], [-119.93066486902535, 47.15414266102016, 364.48], [-119.93071541190147, 47.15415892191231, 365.44], [-119.93072966113687, 47.1541456785053, 365.44], [-119.93069403804839, 47.15425212867558, 370.24], [-119.93070987984538, 47.1542630251497, 366.4], [-119.93070971220732, 47.15424978174269, 368.32], [-119.93069965392351, 47.15418423525989, 366.88], [-119.93070719763637, 47.154199155047536, 366.88], [-119.93085304275155, 47.15413386002183, 366.4], [-119.93112042546272, 47.15410351753235, 363.52], [-119.93132167495787, 47.154081808403134, 362.55], [-119.93146291002631, 47.15407770127058, 362.55], [-119.93182031437755, 47.15403746813536, 361.59], [-119.93211359716952, 47.153982650488615, 359.19], [-119.93241149000823, 47.153934706002474, 359.67], [-119.93266571313143, 47.15400008484721, 361.59], [-119.93282639421523, 47.154022213071585, 361.11], [-119.93305664509535, 47.15401500463486, 360.63], [-119.93339938111603, 47.15400813147426, 360.63], [-119.93347741663456, 47.154006035998464, 361.59], [-119.93358235806227, 47.154028080403805, 362.07], [-119.93394169025123, 47.15406211093068, 361.59], [-119.93425852619112, 47.154007125645876, 360.63], [-119.93439900688827, 47.15387008152902, 359.19], [-119.93441040627658, 47.15372432023287, 357.75], [-119.93441032245755, 47.15367805212736, 355.83], [-119.93445332162082, 47.15358467772603, 353.9], [-119.93448676541448, 47.153571266680956, 353.42], [-119.93455675430596, 47.15344495140016, 351.02], [-119.9345856718719, 47.15341527946293, 351.02], [-119.93475624360144, 47.15334361419082, 349.1], [-119.93479345925152, 47.15330086648464, 348.62], [-119.93483670987189, 47.153221322223544, 346.69], [-119.93485456332564, 47.153209168463945, 347.17], [-119.93492270819843, 47.153187626972795, 346.21], [-119.93498020805418, 47.15313180349767, 344.77], [-119.93496486917138, 47.15306835249066, 343.33], [-119.93495506234467, 47.15304957702756, 342.85], [-119.93502991273999, 47.152915047481656, 340.44], [-119.93502396158874, 47.15284061618149, 338.04], [-119.93502773344517, 47.152795270085335, 335.64], [-119.93512689135969, 47.15278722345829, 333.71], [-119.93519805371761, 47.152730729430914, 332.75], [-119.93528924882412, 47.152691250666976, 330.35], [-119.93545470759273, 47.15268462896347, 326.5], [-119.93554715998471, 47.15266317129135, 324.1], [-119.93556551635265, 47.152650598436594, 323.14], [-119.9356285482645, 47.152619333937764, 322.18], [-119.93566936813295, 47.1525620855391, 319.78], [-119.93568319827318, 47.15256149880588, 319.78], [-119.9357427097857, 47.15257859788835, 319.3], [-119.93575268425047, 47.15258002281189, 318.81], [-119.935735585168, 47.152586644515395, 318.33], [-119.93576047942042, 47.15256300754845, 316.89], [-119.93596566841006, 47.15251129120588, 315.45], [-119.93604747578502, 47.15250290930271, 315.93], [-119.9360830988735, 47.152509866282344, 315.93], [-119.93616289459169, 47.152472231537104, 314.97], [-119.93625844828784, 47.15239570476115, 313.53], [-119.93635266087949, 47.15234650298953, 313.53], [-119.93642206303775, 47.152333511039615, 312.57], [-119.93645802140236, 47.152332086116076, 312.57], [-119.93651510216296, 47.15230107307434, 312.09], [-119.93666119873524, 47.15229067951441, 311.6], [-119.93677318096161, 47.15233661234379, 312.09], [-119.9369584210217, 47.15236796066165, 310.64], [-119.93699253536761, 47.152376510202885, 310.16], [-119.93709169328213, 47.15236812829971, 308.24], [-119.93718003854156, 47.152406349778175, 306.8], [-119.93730962276459, 47.15239771641791, 305.84], [-119.93780666962266, 47.152544567361474, 306.32], [-119.93796919472516, 47.152707846835256, 303.91], [-119.93800255469978, 47.15273626148701, 303.91], [-119.93814689107239, 47.15280482545495, 303.43], [-119.93827681057155, 47.152839191257954, 303.43], [-119.93831545114517, 47.15284547768533, 303.43], [-119.9384294450283, 47.152876826003194, 303.43], [-119.93860295042396, 47.152860313653946, 302.95], [-119.93868559598923, 47.15286006219685, 302.95], [-119.93876933120191, 47.15283592231572, 303.43], [-119.93882674723864, 47.15285721234977, 304.39], [-119.93893604725599, 47.15285796672106, 303.91], [-119.93902321904898, 47.15290163643658, 303.91], [-119.93905565701425, 47.152884202077985, 303.91], [-119.93911718018353, 47.152885124087334, 303.91], [-119.93917702697217, 47.15287716127932, 303.91], [-119.93928758427501, 47.15288981795311, 303.91], [-119.93937643244863, 47.152866683900356, 301.03], [-119.93943443521857, 47.15288436971605, 298.15], [-119.93945932947099, 47.15287758037448, 297.67], [-119.93955144658685, 47.15291764587164, 297.18], [-119.93964775465429, 47.15290012769401, 294.78], [-119.93966108188033, 47.15289853513241, 294.3], [-119.93969687260687, 47.152904737740755, 294.78], [-119.93982955813408, 47.15296450071037, 295.74], [-119.93994782678783, 47.15294421650469, 293.82], [-119.93999049067497, 47.15291236527264, 292.86], [-119.94002418592572, 47.15290800668299, 289.97], [-119.9400888942182, 47.152890069410205, 287.57], [-119.94010054506361, 47.15287112630904, 283.73], [-119.94014857336879, 47.15286400169134, 280.36], [-119.94014354422688, 47.15284095145762, 278.92], [-119.94018126279116, 47.15279694646597, 277.96], [-119.9402773194015, 47.15270088985562, 276.04], [-119.94027564302087, 47.15264406055212, 273.63], [-119.9402722902596, 47.152577340602875, 272.67], [-119.94025200605392, 47.152531491592526, 271.23], [-119.94034144096076, 47.15255806222558, 270.27], [-119.94037052616477, 47.15251799672842, 268.35], [-119.94040422141552, 47.15246661566198, 267.38], [-119.9403185583651, 47.15253375470638, 266.9], [-119.9403795786202, 47.15252319350839, 263.54], [-119.94040036574006, 47.152532413601875, 262.1], [-119.94039718061686, 47.15256870724261, 261.14], [-119.94031076319516, 47.15258438140154, 261.62], [-119.94036633521318, 47.152485558763146, 260.65], [-119.94039902463555, 47.152422945946455, 260.65], [-119.9407699238509, 47.15183747000992, 314.97], [-119.94080043397844, 47.15188818052411, 317.85], [-119.94095767848194, 47.15165013447404, 338.04], [-119.94093772955239, 47.15165943838656, 337.56], [-119.94095524773002, 47.1516727656126, 337.56], [-119.94109505787492, 47.15180796571076, 337.56], [-119.94120553135872, 47.15185842476785, 337.56], [-119.94075232185423, 47.15259552933276, 273.15], [-119.94079976342618, 47.15271002613008, 264.02], [-119.9409010168165, 47.152881771326065, 259.69], [-119.94097888469696, 47.15290976688266, 257.29], [-119.94098802097142, 47.1529146283865, 256.81], [-119.94109095074236, 47.15300330892205, 258.25], [-119.94116177782416, 47.153019988909364, 257.29], [-119.94127057492733, 47.15307841077447, 257.29], [-119.94140049442649, 47.15315259061754, 257.77], [-119.94141139090061, 47.153168600052595, 258.25], [-119.94147065095603, 47.15321042574942, 258.25], [-119.94164541363716, 47.15326901525259, 258.73], [-119.94167156517506, 47.15326172299683, 261.14], [-119.94173250161111, 47.15328502468765, 260.65], [-119.94193827733397, 47.15336674824357, 260.17], [-119.9420316517353, 47.15343623422086, 260.65], [-119.94220398366451, 47.15348107740283, 259.69], [-119.94234379380941, 47.15354662388563, 259.69], [-119.94247958064079, 47.15357445180416, 259.21], [-119.94265048764646, 47.15362859889865, 257.77], [-119.94268300943077, 47.15362482704222, 257.29], [-119.94287612847984, 47.15362130664289, 257.29], [-119.94305172935128, 47.15364100411534, 257.29], [-119.94314409792423, 47.15360286645591, 258.25], [-119.94321769103408, 47.15357830747962, 259.21], [-119.94323722086847, 47.15355726890266, 258.25], [-119.94333579204977, 47.153529189527035, 257.77], [-119.94345724582672, 47.153497003018856, 260.17], [-119.9436395522207, 47.15346783399582, 264.02], [-119.94379512034357, 47.1534257568419, 270.75], [-119.94406543672085, 47.15336347930133, 279.88], [-119.94418102316558, 47.15331109240651, 280.36], [-119.94431077502668, 47.15327932499349, 284.69], [-119.94444580748677, 47.15324060060084, 286.61], [-119.9446118529886, 47.153185196220875, 287.57], [-119.94462601840496, 47.153183268383145, 287.57], [-119.9446945823729, 47.15316046960652, 288.05], [-119.94472634978592, 47.15315502136946, 288.05], [-119.94476960040629, 47.153141694143414, 289.01], [-119.94485635310411, 47.15310933999717, 289.49], [-119.9449033755809, 47.15309701859951, 289.97], [-119.94500136002898, 47.153028873726726, 290.94], [-119.94511862285435, 47.152958046644926, 291.42], [-119.94525021873415, 47.152891997247934, 293.34], [-119.94532431475818, 47.1528541110456, 292.38], [-119.94532708078623, 47.152843214571476, 291.9], [-119.9453492090106, 47.15284405276179, 290.94], [-119.94540335610509, 47.15283039025962, 291.42], [-119.94577618315816, 47.15267515741289, 290.94], [-119.94586301967502, 47.1527003031224, 291.9], [-119.94590928778052, 47.1527209226042, 291.9], [-119.94612428359687, 47.1528628282249, 292.86], [-119.9463936779648, 47.152946814894676, 294.3], [-119.94646567851305, 47.15294949710369, 293.82], [-119.94655402377248, 47.152989227324724, 293.82], [-119.94681830517948, 47.15307212434709, 293.82], [-119.94710203260183, 47.15315376408398, 293.34], [-119.94734988547862, 47.153229620307684, 292.86], [-119.94761181995273, 47.15331997722387, 291.9], [-119.94783385656774, 47.153368005529046, 291.42], [-119.94817357510328, 47.15342475101352, 289.01], [-119.94842159561813, 47.153458781540394, 288.05], [-119.94863986037672, 47.153495494276285, 286.13], [-119.94866550900042, 47.15349624864757, 286.13], [-119.94884379208088, 47.15341963805258, 284.69], [-119.94891411624849, 47.1533824224025, 283.73], [-119.94915425777435, 47.15322794392705, 281.8], [-119.9492347240448, 47.15319341048598, 281.32], [-119.94930982589722, 47.15313959866762, 279.88], [-119.94952163659036, 47.15307069942355, 277.48], [-119.94962448254228, 47.15289627201855, 275.56], [-119.94992380030453, 47.15274288319051, 275.56], [-119.95017525739968, 47.152607599273324, 275.07], [-119.95035622268915, 47.15252646245062, 275.07], [-119.95038899593055, 47.15250902809203, 276.04], [-119.95041715912521, 47.1524809487164, 276.04], [-119.95070901699364, 47.152414647862315, 277.0], [-119.95093239471316, 47.15238564647734, 277.96], [-119.9509909003973, 47.15236226096749, 278.44], [-119.95131536386907, 47.15232856571674, 278.44], [-119.95143178850412, 47.152329152449965, 279.4], [-119.95145014487207, 47.15231414884329, 279.88], [-119.95174560695887, 47.15224206447601, 280.36], [-119.95210175402462, 47.15215916745365, 280.84], [-119.95244901627302, 47.1520908549428, 281.8], [-119.95273852720857, 47.15205145999789, 281.8], [-119.95303155854344, 47.15209152549505, 283.25], [-119.95339969173074, 47.1520493645221, 282.28], [-119.95374963618815, 47.1520097181201, 281.8], [-119.95390738360584, 47.15195221826434, 280.84], [-119.95394526980817, 47.15194987133145, 280.84], [-119.95422111824155, 47.15190410614014, 280.84], [-119.95453108102083, 47.1518440078944, 281.32], [-119.95484724640846, 47.15183830820024, 280.36], [-119.95515150949359, 47.15184467844665, 279.88], [-119.95522401295602, 47.15183981694281, 279.4], [-119.95557353831828, 47.15185984969139, 278.92], [-119.95585625991225, 47.15188097208738, 280.36], [-119.95619773864746, 47.15189974755049, 280.36], [-119.95651122182608, 47.15195347554982, 280.36], [-119.9567916803062, 47.15196286328137, 281.8], [-119.95709426701069, 47.151968060061336, 282.28], [-119.95741554535925, 47.15196688659489, 281.32], [-119.95773958973587, 47.15196420438588, 281.32], [-119.9580380693078, 47.152020027861, 283.25], [-119.95835532434285, 47.15203000232577, 284.69], [-119.95863117277622, 47.15209638699889, 284.69], [-119.95866092853248, 47.15210552327335, 284.21], [-119.95877048000693, 47.1521511208266, 285.17], [-119.9590034969151, 47.15220577083528, 286.61], [-119.95905311778188, 47.152219181880355, 287.09], [-119.95915655046701, 47.15226008556783, 287.09], [-119.959188234061, 47.15232705697417, 287.09], [-119.95924070477486, 47.1523670386523, 287.57], [-119.95940222404897, 47.152410205453634, 288.05], [-119.95959609746933, 47.152459071949124, 290.94], [-119.95984612964094, 47.15251204557717, 293.34], [-119.96003321371973, 47.15255110524595, 293.82], [-119.96015936136246, 47.15258890762925, 294.3], [-119.96023220010102, 47.15262461453676, 294.78], [-119.96036044321954, 47.152685802429914, 294.78], [-119.96061634272337, 47.152784541249275, 296.7], [-119.96076143346727, 47.15281320735812, 298.15], [-119.96094717644155, 47.152819745242596, 299.59], [-119.96127616614103, 47.152822175994515, 298.63], [-119.96139544062316, 47.152819745242596, 298.15], [-119.96148864738643, 47.1528160572052, 297.67], [-119.96181621216238, 47.15283365920186, 297.67], [-119.96211695484817, 47.15286408551037, 297.67], [-119.96242063120008, 47.15288830921054, 297.67], [-119.96277912519872, 47.152863247320056, 297.67], [-119.96312295086682, 47.15285369195044, 298.15], [-119.96342201717198, 47.15291580185294, 300.07], [-119.96372686699033, 47.15297430753708, 301.03], [-119.96406373567879, 47.153057204559445, 301.51], [-119.96431418694556, 47.15315066277981, 302.47], [-119.96464267373085, 47.15319810435176, 301.99], [-119.96500468812883, 47.15322492644191, 301.51], [-119.96535647660494, 47.15330304577947, 301.03], [-119.96570147573948, 47.153325006365776, 300.55], [-119.96602803468704, 47.15332584455609, 300.07], [-119.96608327142894, 47.15331410989165, 300.07], [-119.96618133969605, 47.153309751302004, 299.59], [-119.96657487004995, 47.15329877100885, 299.59], [-119.96690612286329, 47.15335073880851, 300.07], [-119.96720485389233, 47.15343229472637, 301.03], [-119.967484138906, 47.15347873046994, 301.03], [-119.9678210914135, 47.153554083779454, 301.03], [-119.96817036531866, 47.153616193681955, 301.51], [-119.96850547380745, 47.15368174016476, 301.51], [-119.96879766695201, 47.15373462997377, 300.55], [-119.96918952092528, 47.15382255613804, 300.55], [-119.96948816813529, 47.15388558804989, 301.99], [-119.96978388167918, 47.15398273430765, 301.99], [-119.96990818530321, 47.154010981321335, 301.99], [-119.96998345479369, 47.154024727642536, 301.99], [-119.9703455530107, 47.154127825051546, 300.55], [-119.97064311057329, 47.154209883883595, 300.55], [-119.9709502235055, 47.15434139594436, 300.55], [-119.97124987654388, 47.154457569122314, 301.51], [-119.971519773826, 47.154576759785414, 300.55], [-119.97183292172849, 47.154659908264875, 298.15], [-119.9721400346607, 47.154702907428145, 295.26], [-119.97244572266936, 47.1547294780612, 293.34], [-119.97277261689305, 47.154792258515954, 292.86], [-119.97303874231875, 47.15496417135, 293.82], [-119.97321031987667, 47.15511806309223, 294.78], [-119.9732775427401, 47.155176820233464, 294.78], [-119.97332305647433, 47.1552266087383, 295.26], [-119.97357099317014, 47.155334735289216, 295.74], [-119.97384290210903, 47.15542500838637, 296.7], [-119.97404498979449, 47.155478401109576, 296.7], [-119.97419200837612, 47.15546691790223, 295.26], [-119.97423861175776, 47.15547270141542, 294.78], [-119.97439987957478, 47.1554789878428, 294.78], [-119.97471906244755, 47.15555232949555, 294.78], [-119.97503363527358, 47.15559541247785, 295.26], [-119.97535055503249, 47.15556473471224, 294.78], [-119.9756177701056, 47.15558610856533, 295.26], [-119.97579630464315, 47.155746454373, 296.22], [-119.97596872039139, 47.15593630447984, 296.7], [-119.97616494074464, 47.15609732083976, 296.22], [-119.976427545771, 47.156228413805366, 296.7], [-119.9765882268548, 47.15637576766312, 297.67], [-119.97680674307048, 47.15653552673757, 297.67], [-119.97691377997398, 47.15672571212053, 299.11], [-119.97704286128283, 47.15688991360366, 298.15], [-119.97711662203074, 47.156953029334545, 297.67], [-119.97714319266379, 47.15698194690049, 297.18], [-119.97711720876396, 47.15699032880366, 296.7], [-119.97713774442673, 47.15695420280099, 297.18], [-119.97717060148716, 47.15695294551551, 298.15], [-119.97716397978365, 47.156962333247066, 297.67], [-119.97712374664843, 47.15694934129715, 296.7], [-119.97717135585845, 47.15697758831084, 297.67], [-119.9771926458925, 47.15697716921568, 296.22], [-119.97719549573958, 47.15700130909681, 297.18], [-119.97720027342439, 47.156988652423024, 296.7], [-119.97732575051486, 47.15707398019731, 297.67], [-119.97746706940234, 47.157142627984285, 298.15], [-119.97764744795859, 47.15724555775523, 299.59], [-119.97764602303505, 47.15726567432284, 298.63], [-119.97769287787378, 47.15724270790815, 299.11], [-119.97791558504105, 47.15726047754288, 299.59], [-119.97806838713586, 47.157445130869746, 300.55], [-119.97820928692818, 47.157599441707134, 301.03], [-119.9784707184881, 47.157757272943854, 301.99], [-119.97864137403667, 47.15792323462665, 303.43], [-119.97880012728274, 47.15804636478424, 304.39], [-119.9788349121809, 47.158063212409616, 305.36], [-119.97911411337554, 47.15813102200627, 306.32], [-119.97926658019423, 47.15822800062597, 307.28], [-119.9793671630323, 47.15826764702797, 308.24], [-119.97960361652076, 47.15833964757621, 308.24], [-119.97967947274446, 47.158370492979884, 306.8], [-119.97973303310573, 47.15827795676887, 306.8], [-119.9797746911645, 47.15825247578323, 305.84], [-119.9797897785902, 47.15814208611846, 301.51], [-119.97975524514914, 47.158094476908445, 298.63], [-119.97973739169538, 47.15804720297456, 297.67], [-119.97972004115582, 47.157947374507785, 298.63], [-119.97966757044196, 47.15788031928241, 300.07], [-119.97963890433311, 47.157832542434335, 301.51], [-119.97960805892944, 47.15776431374252, 303.91], [-119.97958241030574, 47.15774143114686, 303.91], [-119.97946942225099, 47.15769222937524, 302.47], [-119.97941678389907, 47.15765878558159, 301.99], [-119.97919374145567, 47.15748838149011, 301.03], [-119.9789781589061, 47.15737137012184, 301.03], [-119.97890247032046, 47.15733784250915, 300.55], [-119.97878302820027, 47.157263243570924, 300.07], [-119.97879057191312, 47.1572195738554, 300.07], [-119.97877053916454, 47.15700885280967, 299.59], [-119.97875000350177, 47.1568292286247, 298.63], [-119.9787278752774, 47.15672940015793, 297.67], [-119.97872544452548, 47.15664239600301, 298.15], [-119.97868998907506, 47.15656880289316, 298.63], [-119.97864254750311, 47.156350538134575, 298.15], [-119.97860927134752, 47.15628272853792, 298.15], [-119.97855462133884, 47.156071085482836, 298.15], [-119.97860114090145, 47.15588618069887, 296.7], [-119.97867708094418, 47.155690882354975, 295.26], [-119.97867716476321, 47.15554931201041, 295.74], [-119.97862695716321, 47.15548208914697, 296.22], [-119.9786034040153, 47.15543255209923, 296.22], [-119.97839511372149, 47.155314618721604, 295.26], [-119.97817383147776, 47.15518402867019, 294.3], [-119.97793142683804, 47.15504363179207, 293.82], [-119.977682903409, 47.1549176517874, 292.86], [-119.97757762670517, 47.15488035231829, 292.38], [-119.97747972607613, 47.1547794342041, 292.38], [-119.97732197865844, 47.15454172343016, 291.9], [-119.97724033892155, 47.15428632684052, 291.9], [-119.97721049934626, 47.154059847816825, 291.42], [-119.97718015685678, 47.153832111507654, 291.42], [-119.97714704833925, 47.15361946262419, 291.42], [-119.9771149456501, 47.15337345376611, 290.94], [-119.97707395814359, 47.153120739385486, 290.94], [-119.97693356126547, 47.15293172746897, 290.94], [-119.97690497897565, 47.15289727784693, 290.46], [-119.97678386047482, 47.1527417935431, 289.49], [-119.97678042389452, 47.1526884008199, 288.53], [-119.97680523432791, 47.15248329564929, 289.01], [-119.97684831731021, 47.15223393402994, 288.53], [-119.97680246829987, 47.15198633261025, 288.05], [-119.97677899897099, 47.15171677060425, 288.05], [-119.97684270143509, 47.151469588279724, 286.61], [-119.97709156014025, 47.15126029215753, 285.65], [-119.9772875290364, 47.15107069350779, 284.21], [-119.97731275856495, 47.150849578902125, 284.21], [-119.97729339636862, 47.15060843154788, 283.25], [-119.97730479575694, 47.150380443781614, 283.73], [-119.9772011116147, 47.150145415216684, 284.21], [-119.97719750739634, 47.14992840774357, 283.73], [-119.97714855708182, 47.14966940693557, 283.25], [-119.97695535421371, 47.14944343082607, 283.73], [-119.97679685242474, 47.14926657266915, 283.73], [-119.97661798261106, 47.14910044334829, 284.69], [-119.97640608809888, 47.148954598233104, 285.17], [-119.97635344974697, 47.14877405203879, 286.61], [-119.97649803757668, 47.148573473095894, 287.57], [-119.9766934197396, 47.14838806539774, 286.61], [-119.97675661928952, 47.14815990999341, 287.57], [-119.97673532925546, 47.14791180565953, 289.49], [-119.97649325989187, 47.147739976644516, 289.49], [-119.97647716663778, 47.14773193001747, 289.49], [-119.9764428846538, 47.147659761831164, 289.97], [-119.976443387568, 47.147634448483586, 289.97], [-119.97642670758069, 47.14757250621915, 290.46], [-119.97642125934362, 47.147525483742356, 291.42], [-119.97634883970022, 47.147342674434185, 294.3], [-119.97648018412292, 47.147188698872924, 295.26], [-119.97677514329553, 47.14707059785724, 294.3], [-119.97691981494427, 47.14698627591133, 293.34], [-119.9769421108067, 47.146943947300315, 293.82], [-119.9771683383733, 47.146821739152074, 294.78], [-119.97721360065043, 47.14679131284356, 295.74], [-119.97744829393923, 47.14665435254574, 296.22], [-119.97766722925007, 47.146511022001505, 296.7], [-119.97782086953521, 47.14644027873874, 297.18], [-119.97800099663436, 47.14638085104525, 297.67], [-119.97821741737425, 47.146240873262286, 298.15], [-119.97829503379762, 47.14622897095978, 298.63], [-119.97853534296155, 47.14611363597214, 298.15], [-119.97869124636054, 47.14599151164293, 298.63], [-119.97881865128875, 47.145912973210216, 299.59], [-119.97904655523598, 47.145795626565814, 300.07], [-119.97925953939557, 47.14567509479821, 300.55], [-119.97944243252277, 47.145534781739116, 300.55], [-119.97960579581559, 47.145393965765834, 300.55], [-119.97984258458018, 47.145260190591216, 301.51], [-119.98002396896482, 47.14507922530174, 301.51], [-119.98014911077917, 47.14486540295184, 300.55], [-119.98000762425363, 47.144680162891746, 299.59], [-119.98000075109303, 47.144668931141496, 299.59], [-119.9799541477114, 47.144617047160864, 298.63], [-119.97981215827167, 47.14446340687573, 297.18], [-119.97982355765998, 47.144454354420304, 295.26], [-119.9798177741468, 47.14444622397423, 295.74], [-119.97983043082058, 47.144447481259704, 294.3], [-119.97982054017484, 47.14445837773383, 294.3], [-119.97977586463094, 47.144452929496765, 294.3], [-119.97978215105832, 47.144442619755864, 292.86], [-119.97976136393845, 47.14443080127239, 295.26], [-119.97975365258753, 47.1444424521178, 296.7], [-119.97979908250272, 47.144476817920804, 297.18], [-119.97994375415146, 47.1444857865572, 296.7], [-119.97995381243527, 47.1444805059582, 296.7], [-119.98012312687933, 47.144449995830655, 296.7], [-119.9803527072072, 47.14441705495119, 296.22], [-119.98038003221154, 47.14440230280161, 295.74], [-119.98049293644726, 47.14434907771647, 295.26], [-119.98069820925593, 47.14427154511213, 295.26], [-119.98077113181353, 47.14421312324703, 293.82], [-119.98082536272705, 47.1441818587482, 293.82], [-119.98085059225559, 47.144161742180586, 293.82], [-119.98102191835642, 47.14411304332316, 295.26], [-119.98103700578213, 47.144100135192275, 295.74], [-119.98122367076576, 47.14405537582934, 298.15], [-119.9813369102776, 47.14404716156423, 298.15], [-119.98142584227026, 47.14402997866273, 298.15], [-119.98163036070764, 47.14400759898126, 298.15], [-119.98164544813335, 47.14400860480964, 298.15], [-119.98175198212266, 47.144084461033344, 296.22], [-119.98186991550028, 47.14406811632216, 294.3], [-119.98186396434903, 47.14405302889645, 294.3], [-119.98190059326589, 47.14398588985205, 293.82], [-119.98206269927323, 47.14392528869212, 293.34], [-119.98207837343216, 47.14392386376858, 293.34], [-119.98231491073966, 47.143889497965574, 292.38], [-119.98255304060876, 47.143869549036026, 291.9], [-119.98270701617002, 47.143874913454056, 291.42], [-119.98283157125115, 47.14384934864938, 290.94], [-119.98297649435699, 47.14385110884905, 291.42], [-119.9830153863877, 47.143845492973924, 291.42], [-119.98325787484646, 47.14388941414654, 290.94], [-119.98347111046314, 47.143868962302804, 289.97], [-119.98357613570988, 47.14382185600698, 289.49], [-119.98368920758367, 47.14381632395089, 289.97], [-119.98401333577931, 47.143846582621336, 290.94], [-119.98413956724107, 47.143812300637364, 291.42], [-119.98443075455725, 47.14385454542935, 291.42], [-119.98473015613854, 47.143913973122835, 291.9], [-119.98485169373453, 47.143935430794954, 291.9], [-119.98490802012384, 47.14397222734988, 291.42], [-119.98500047251582, 47.14400500059128, 291.9], [-119.98509761877358, 47.143966192379594, 292.86], [-119.98518864624202, 47.14397189207375, 294.3], [-119.98525025323033, 47.14395982213318, 294.78], [-119.98534706421196, 47.14394984766841, 294.78], [-119.98547547496855, 47.14391657151282, 293.82], [-119.98557245358825, 47.14395001530647, 293.34], [-119.98560648411512, 47.14397365227342, 292.38], [-119.98563431203365, 47.14400592260063, 291.9], [-119.98573631979525, 47.14401790872216, 289.97], [-119.98580521903932, 47.14405587874353, 289.01], [-119.98587646521628, 47.144127041101456, 288.53], [-119.9859460350126, 47.144176410511136, 288.05], [-119.9860496353358, 47.14432720094919, 287.09], [-119.98619363643229, 47.144383108243346, 289.01], [-119.9863834027201, 47.14437833055854, 289.01], [-119.98659940436482, 47.144420240074396, 289.01], [-119.98661315068603, 47.144419653341174, 289.01], [-119.98663586564362, 47.144433399662375, 289.01], [-119.9866590835154, 47.14447279460728, 288.05], [-119.9866783618927, 47.14453850872815, 287.09], [-119.98671239241958, 47.14453247375786, 287.09], [-119.98672924004495, 47.14446600526571, 287.57], [-119.98681230470538, 47.14446944184601, 289.49], [-119.9868908431381, 47.144506741315126, 291.42], [-119.98693308793008, 47.144532054662704, 290.94], [-119.98695907182992, 47.14452987536788, 291.42], [-119.98704113066196, 47.14448385871947, 291.42], [-119.9872275441885, 47.14440691284835, 291.9], [-119.98733231797814, 47.14433575049043, 291.42], [-119.98735369183123, 47.144234497100115, 290.46], [-119.98735276982188, 47.14421563781798, 289.97], [-119.98732619918883, 47.14418982155621, 289.49], [-119.98736777342856, 47.144104577600956, 288.53], [-119.98737003654242, 47.14403785765171, 288.53], [-119.9874313082546, 47.14402545243502, 290.46], [-119.98742317780852, 47.14400818571448, 286.13], [-119.98739719390869, 47.144031655043364, 289.97], [-119.98741487972438, 47.14402997866273, 288.53], [-119.98739099130034, 47.1440074313432, 288.05], [-119.98739409260452, 47.14399888180196, 289.01], [-119.98738235794008, 47.1440055873245, 290.94], [-119.98740155249834, 47.1440106164664, 292.86], [-119.98733307234943, 47.14406719431281, 289.01], [-119.98730599880219, 47.14410633780062, 288.53], [-119.98726568184793, 47.144198287278414, 289.01], [-119.98720415867865, 47.14430280961096, 290.46], [-119.98719049617648, 47.14430700056255, 290.46], [-119.98709200881422, 47.14438092894852, 290.94], [-119.98705965466797, 47.144439266994596, 291.42], [-119.98698279261589, 47.144517386332154, 291.42], [-119.98694038018584, 47.14453004300594, 291.42], [-119.9867959599942, 47.144552590325475, 292.86], [-119.98674952425063, 47.14453431777656, 291.42], [-119.98673351481557, 47.144654765725136, 292.38], [-119.98668632470071, 47.14469893835485, 291.9], [-119.98650276102126, 47.144714780151844, 290.46], [-119.98634979128838, 47.14479273185134, 290.46], [-119.98635984957218, 47.144797844812274, 289.49], [-119.98625859618187, 47.14479616843164, 289.97], [-119.98610805720091, 47.14478401467204, 290.46], [-119.98605558648705, 47.14475710876286, 291.42], [-119.98600965365767, 47.14473959058523, 291.42], [-119.98588090762496, 47.14466214179993, 291.42], [-119.98582952655852, 47.14462853036821, 290.94], [-119.9858014471829, 47.14453884400427, 290.46], [-119.98573657125235, 47.14443549513817, 289.01], [-119.98565861955285, 47.14438729919493, 288.53], [-119.98563691042364, 47.14432477019727, 288.53], [-119.98564252629876, 47.14430381543934, 288.53], [-119.985585026443, 47.144247656688094, 289.49], [-119.9855284485966, 47.14422142133117, 289.97], [-119.98550179414451, 47.144202813506126, 290.46], [-119.98532879166305, 47.14415453374386, 292.38], [-119.98517381027341, 47.144161155447364, 292.86], [-119.98503483831882, 47.144179260358214, 291.9], [-119.9847342632711, 47.14416576549411, 291.9], [-119.98460459522903, 47.144178254529834, 292.86], [-119.9841176904738, 47.14419669471681, 294.3], [-119.9839099869132, 47.14420197531581, 293.34], [-119.98370052315295, 47.14424933306873, 294.78], [-119.98356750234962, 47.144252099096775, 295.74], [-119.98346792533994, 47.1442714612931, 296.7], [-119.98345082625747, 47.1442664321512, 295.26], [-119.98342031612992, 47.14422343298793, 295.74], [-119.98337388038635, 47.14412561617792, 295.26], [-119.9833441246301, 47.14411145076156, 295.26], [-119.98320674523711, 47.144073313102126, 293.82], [-119.98315217904747, 47.144049340859056, 291.9], [-119.98304631561041, 47.14401891455054, 290.46], [-119.98305092565715, 47.144019082188606, 290.94], [-119.98317355290055, 47.143956972286105, 290.94], [-119.98316517099738, 47.14396518655121, 292.86], [-119.98315628618002, 47.14395621791482, 292.86], [-119.98316911049187, 47.14393802918494, 294.3], [-119.98317212797701, 47.14392042718828, 293.82], [-119.98309375718236, 47.14378774166107, 291.42], [-119.98310658149421, 47.14376452378929, 291.42], [-119.98311596922576, 47.143766954541206, 291.9], [-119.98311630450189, 47.14375781826675, 291.9], [-119.98312669806182, 47.143762428313494, 292.86], [-119.98310767114162, 47.143782963976264, 290.46], [-119.98301731422544, 47.14380492456257, 289.97], [-119.98290692456067, 47.14388011023402, 290.46], [-119.98289284296334, 47.143897879868746, 290.46], [-119.98286861926317, 47.14391020126641, 290.94], [-119.98281036503613, 47.14400424621999, 291.42], [-119.98275990597904, 47.14403240941465, 291.9], [-119.98254859820008, 47.14414271526039, 292.38], [-119.98234969563782, 47.144190995022655, 293.82], [-119.98212480917573, 47.14422460645437, 293.82], [-119.98194795101881, 47.14430322870612, 293.34], [-119.98176614753902, 47.14436860755086, 293.34], [-119.98155131936073, 47.14451260864735, 293.34], [-119.98137907125056, 47.14465116150677, 294.3], [-119.98125979676843, 47.14476389810443, 294.78], [-119.98113934881985, 47.14479650370777, 295.26], [-119.98095595277846, 47.144804298877716, 296.22], [-119.98059041798115, 47.1448380779475, 297.67], [-119.98039637692273, 47.144862385466695, 299.11], [-119.98017945326865, 47.14491284452379, 300.07], [-119.98013905249536, 47.144931787624955, 300.55], [-119.98015682213008, 47.144927345216274, 299.11], [-119.98009823262691, 47.14493396691978, 299.11], [-119.98012547381222, 47.14491871185601, 301.99], [-119.98009865172207, 47.14495944790542, 301.99], [-119.9800783675164, 47.144979732111096, 301.99], [-119.9800279084593, 47.1450384054333, 301.99], [-119.97987996786833, 47.14519506320357, 301.03], [-119.97969682328403, 47.14532766491175, 300.55], [-119.97948593460023, 47.14544836431742, 301.03], [-119.97932969592512, 47.14562245644629, 300.55], [-119.97924336232245, 47.145664785057306, 300.55], [-119.9790246784687, 47.14578473009169, 299.11], [-119.97876768931746, 47.14592671953142, 298.15], [-119.97854615561664, 47.146086394786835, 297.18], [-119.97833794914186, 47.146217320114374, 296.22], [-119.97811675071716, 47.14627423323691, 296.7], [-119.97804726473987, 47.14634271338582, 296.22], [-119.9777381401509, 47.1464785002172, 294.78], [-119.97750420123339, 47.14660515077412, 294.3], [-119.97747142799199, 47.14663499034941, 294.3], [-119.9772724416107, 47.14673347771168, 293.82], [-119.97698318213224, 47.146888710558414, 292.38], [-119.97687463648617, 47.146999100223184, 291.9], [-119.97662552632391, 47.14713346213102, 292.38], [-119.97642008587718, 47.1471865195781, 292.86], [-119.97634096071124, 47.14725315570831, 293.34], [-119.9763397872448, 47.14725675992668, 293.34], [-119.97629871591926, 47.14725583791733, 292.86], [-119.97602974064648, 47.147384751588106, 290.94], [-119.97599772177637, 47.147375363856554, 290.94], [-119.97602412477136, 47.14739170856774, 291.42], [-119.97601415030658, 47.14741509407759, 290.94], [-119.9760025832802, 47.14746882207692, 290.46], [-119.97605723328888, 47.147621121257544, 289.01], [-119.97607592493296, 47.14762145653367, 289.01], [-119.97639527544379, 47.14771189726889, 287.57], [-119.97668327763677, 47.147835697978735, 286.61], [-119.97676349245012, 47.148046251386404, 286.13], [-119.97671445831656, 47.14826409704983, 285.65], [-119.97663105838001, 47.148447996005416, 286.13], [-119.97641623020172, 47.148637594655156, 284.69], [-119.97631841339171, 47.14880531653762, 283.73], [-119.97642268426716, 47.14899122714996, 285.17], [-119.97661328874528, 47.14911519549787, 284.21], [-119.97680012136698, 47.14931074529886, 283.73], [-119.97697203420103, 47.14946270920336, 282.28], [-119.97714352793992, 47.14969078078866, 279.88], [-119.97718543745577, 47.149923630058765, 279.88], [-119.97719599865377, 47.15011834166944, 280.36], [-119.97725836001337, 47.15029704384506, 281.32], [-119.97732407413423, 47.150488486513495, 280.84], [-119.9772875290364, 47.15068546123803, 280.84], [-119.97732524760067, 47.15090942569077, 281.8], [-119.9772666580975, 47.151105143129826, 283.73], [-119.97712081298232, 47.15123816393316, 283.25], [-119.97690866701305, 47.15139993466437, 283.25], [-119.97678243555129, 47.15157167986035, 283.73], [-119.97678587213159, 47.151588862761855, 283.73], [-119.976776400581, 47.15164912864566, 284.21], [-119.97677698731422, 47.15184174478054, 286.13], [-119.97680288739502, 47.15202941559255, 286.61], [-119.97683130204678, 47.15221633203328, 287.09], [-119.97681554406881, 47.15242965146899, 287.09], [-119.97676164843142, 47.15262545272708, 287.09], [-119.97677262872458, 47.15275352820754, 287.57], [-119.97663776390254, 47.15273383073509, 287.57], [-119.9765953514725, 47.15272285044193, 287.09], [-119.97648269869387, 47.152731316164136, 286.13], [-119.97622453607619, 47.1527589764446, 286.61], [-119.97619545087218, 47.15275629423559, 286.13], [-119.97598104178905, 47.15276811271906, 286.13], [-119.97581851668656, 47.15276760980487, 286.61], [-119.97553353197873, 47.15275838971138, 286.61], [-119.975217115134, 47.152719078585505, 286.61], [-119.97489902190864, 47.15265185572207, 286.61], [-119.97464094310999, 47.15261212550104, 288.05], [-119.97439661063254, 47.152535347267985, 288.05], [-119.97418035753071, 47.15243577025831, 287.57], [-119.97396234422922, 47.15228942222893, 288.05], [-119.97376226820052, 47.15214466676116, 287.57], [-119.9735217075795, 47.15201751329005, 286.61], [-119.97327972203493, 47.151906033977866, 285.65], [-119.97310143895447, 47.15184283442795, 285.17], [-119.9728115927428, 47.15173462405801, 283.73], [-119.97254161164165, 47.15165457688272, 282.28], [-119.97222955338657, 47.151599591597915, 281.32], [-119.97192168608308, 47.151538571342826, 280.36], [-119.97164960950613, 47.151509234681726, 280.84], [-119.97138348408043, 47.151404125615954, 280.36], [-119.9711500480771, 47.15127454139292, 279.4], [-119.97080370783806, 47.151189632713795, 277.96], [-119.97049206867814, 47.15117823332548, 277.48], [-119.97020280919969, 47.15119139291346, 277.48], [-119.96995110064745, 47.15122106485069, 277.48], [-119.96968723833561, 47.15124352835119, 278.92], [-119.96940116398036, 47.151234056800604, 278.92], [-119.96907770633698, 47.151228776201606, 278.92], [-119.9687585234642, 47.15117270126939, 278.92], [-119.96844881214201, 47.15113238431513, 277.96], [-119.96814019046724, 47.15111369267106, 277.96], [-119.96782436035573, 47.1510942466557, 277.48], [-119.96748589910567, 47.151060719043016, 277.48], [-119.96718783862889, 47.151016630232334, 277.48], [-119.96689665131271, 47.15102090500295, 278.44], [-119.9665760435164, 47.15098477900028, 278.92], [-119.96629717759788, 47.150939935818315, 278.44], [-119.96596525423229, 47.150889560580254, 277.96], [-119.96559284627438, 47.150867599993944, 277.96], [-119.96527324430645, 47.150885285809636, 278.44], [-119.96496940031648, 47.150871120393276, 277.96], [-119.9647022690624, 47.15089224278927, 277.96], [-119.96439079754055, 47.150910682976246, 278.44], [-119.96409801766276, 47.150894086807966, 277.48], [-119.96394873596728, 47.15088092721999, 277.48], [-119.96362670324743, 47.15079417452216, 275.56], [-119.96334138326347, 47.15080674737692, 275.07], [-119.96303854510188, 47.15082434937358, 275.07], [-119.96251132339239, 47.150692669674754, 274.59], [-119.96217445470393, 47.1506626624614, 274.59], [-119.96187069453299, 47.15067196637392, 274.59], [-119.96151463128626, 47.150651598349214, 274.11], [-119.96125848032534, 47.15072778984904, 275.07], [-119.9609515350312, 47.15077506378293, 275.56], [-119.96063796803355, 47.15079476125538, 275.56], [-119.96030369773507, 47.15086692944169, 275.07], [-119.96003522537649, 47.1509097609669, 275.07], [-119.95970858260989, 47.150884196162224, 275.07], [-119.9593578837812, 47.150848153978586, 275.56], [-119.95902386493981, 47.150871036574244, 276.04], [-119.95869018137455, 47.150797275826335, 277.0], [-119.95839949697256, 47.150786463171244, 276.52], [-119.95818953029811, 47.15080196969211, 277.0], [-119.95794142596424, 47.15082250535488, 277.0], [-119.95766893029213, 47.150843963027, 277.0], [-119.95729803107679, 47.150817811489105, 276.52], [-119.95699125342071, 47.15078243985772, 275.56], [-119.95665245689452, 47.15077850036323, 274.11], [-119.95636537671089, 47.150727957487106, 274.59], [-119.95602993294597, 47.15073985978961, 276.04], [-119.95571385137737, 47.15087606571615, 277.96], [-119.95540774427354, 47.150915544480085, 277.48], [-119.95510331355035, 47.150938929989934, 277.48], [-119.95481120422482, 47.150987377390265, 277.96], [-119.95447089895606, 47.15101361274719, 278.44], [-119.95415079407394, 47.15098804794252, 280.36], [-119.95380973443389, 47.15098662301898, 282.77], [-119.9535016156733, 47.15099383145571, 283.25], [-119.95311780832708, 47.151021491736174, 285.65], [-119.95275126770139, 47.15097304433584, 283.73], [-119.95240224525332, 47.150948233902454, 281.8], [-119.95203964412212, 47.15086097829044, 278.92], [-119.95186756365001, 47.15072569437325, 276.52], [-119.9518730957061, 47.15074589475989, 277.0], [-119.95183495804667, 47.150709182024, 277.0], [-119.9518355447799, 47.15071555227041, 277.0], [-119.9516658950597, 47.15086072683334, 277.48], [-119.95165206491947, 47.1508854534477, 277.96], [-119.95161560364068, 47.1509303804487, 278.44], [-119.95159456506371, 47.151001961901784, 278.44], [-119.95151007547975, 47.15113288722932, 278.44], [-119.95136146433651, 47.15128627605736, 277.96], [-119.95125593617558, 47.15137747116387, 277.48], [-119.95118586346507, 47.15157008729875, 277.0], [-119.95117647573352, 47.151765720918775, 274.11], [-119.95115895755589, 47.15186940506101, 272.67], [-119.95122383348644, 47.15205472894013, 271.71], [-119.95119323953986, 47.152220187708735, 273.15], [-119.9511999450624, 47.15228095650673, 273.63], [-119.95098436251283, 47.15235094539821, 274.59], [-119.95090364478528, 47.15237927623093, 274.11], [-119.95056577026844, 47.15241154655814, 271.71], [-119.95028170756996, 47.15251606889069, 270.75], [-119.95002295821905, 47.15266903862357, 271.71], [-119.94979002512991, 47.1528107766062, 272.19], [-119.94956949725747, 47.15292979963124, 272.19], [-119.94947620667517, 47.153104562312365, 271.23], [-119.94919717311859, 47.153208665549755, 273.63], [-119.94908577762544, 47.153304386883974, 276.52], [-119.9488359130919, 47.15342064388096, 280.84], [-119.94856869801879, 47.15348090976477, 284.21], [-119.94836795143783, 47.153445119038224, 286.13], [-119.94807299226522, 47.15341796167195, 288.05], [-119.94781952351332, 47.153373789042234, 289.01], [-119.94755884632468, 47.153300950303674, 290.94], [-119.94727193377912, 47.15322157368064, 292.38], [-119.94695853441954, 47.153142197057605, 293.82], [-119.94682475924492, 47.153097689151764, 292.86], [-119.94681905955076, 47.15309467166662, 292.38], [-119.94654052890837, 47.153006410226226, 291.9], [-119.94639434851706, 47.15295494534075, 290.94], [-119.94626610539854, 47.15290725231171, 289.49], [-119.94611053727567, 47.15284866280854, 288.05], [-119.94592789560556, 47.1527729742229, 287.57], [-119.94578305631876, 47.152677085250616, 287.09], [-119.94569077156484, 47.15269519016147, 287.09], [-119.94539564475417, 47.152820164337754, 287.09], [-119.9453473649919, 47.15284598059952, 287.09], [-119.94521317072213, 47.1528937574476, 286.61], [-119.94495802558959, 47.15306734666228, 283.25], [-119.94483849965036, 47.15312568470836, 282.77], [-119.94466985575855, 47.15315896086395, 279.88], [-119.94444019161165, 47.153240852057934, 278.92], [-119.94417976588011, 47.15330514125526, 274.11], [-119.94409318082035, 47.15335417538881, 271.71], [-119.9439643509686, 47.15336834080517, 268.35], [-119.94388011284173, 47.15339013375342, 266.9], [-119.94360091164708, 47.153456434607506, 259.69], [-119.94357249699533, 47.15347185730934, 259.21], [-119.94341290555894, 47.153479317203164, 256.33], [-119.9431662261486, 47.153551233932376, 250.08], [-119.94316136464477, 47.15354570187628, 249.6], [-119.94315809570253, 47.15355819091201, 246.23], [-119.94318600744009, 47.15360110625625, 245.75], [-119.94319958612323, 47.15357537381351, 250.56], [-119.9431339558214, 47.15359523892403, 251.52], [-119.94309581816196, 47.15360169298947, 252.0], [-119.94295810349286, 47.15358518064022, 252.96], [-119.94289121590555, 47.15357394888997, 252.96], [-119.94277671910822, 47.15356078930199, 253.44], [-119.94267194531858, 47.15352692641318, 253.93], [-119.94263808242977, 47.15352156199515, 254.41], [-119.94258276186883, 47.15351686812937, 253.93], [-119.94251763448119, 47.15351871214807, 254.41], [-119.9424515850842, 47.15351183898747, 254.41], [-119.94238302111626, 47.153481831774116, 254.89], [-119.94232141412795, 47.153480323031545, 255.37], [-119.94224103167653, 47.153449812904, 257.77], [-119.9422100186348, 47.153446627780795, 258.25], [-119.94212972000241, 47.15341075323522, 259.69], [-119.94209971278906, 47.15340580791235, 260.17], [-119.9419819470495, 47.15335509739816, 261.62], [-119.94188295677304, 47.15327831916511, 261.62], [-119.94169645942748, 47.15324319899082, 261.14], [-119.94168321602046, 47.15323959477246, 261.14], [-119.94146034121513, 47.153172455728054, 261.14], [-119.94142530485988, 47.15314538218081, 261.14], [-119.94123302400112, 47.15308771468699, 259.69], [-119.94106572121382, 47.15301043353975, 256.81], [-119.94098609313369, 47.15295192785561, 253.44], [-119.9408524017781, 47.152894008904696, 251.52], [-119.9407334625721, 47.15283282101154, 252.48], [-119.94071695022285, 47.152825528755784, 252.48], [-119.94058736599982, 47.152747912332416, 252.96], [-119.9404673371464, 47.15267540886998, 253.44], [-119.94037153199315, 47.15267222374678, 252.48], [-119.94029332883656, 47.152667278423905, 252.48], [-119.94031621143222, 47.152694687247276, 253.44], [-119.94028804823756, 47.15275679714978, 256.33], [-119.94023532606661, 47.15279761701822, 260.17], [-119.94016542099416, 47.15282619930804, 267.38], [-119.94012602604926, 47.15290289372206, 273.63], [-119.94008688256145, 47.15293608605862, 281.32], [-119.94001999497414, 47.15294245630503, 285.65], [-119.93997330777347, 47.15298654511571, 286.13], [-119.93995889090002, 47.15298419818282, 286.13], [-119.93984313681722, 47.15295293368399, 285.65], [-119.93974506855011, 47.15292016044259, 287.09], [-119.93964716792107, 47.15288093313575, 288.05], [-119.93960517458618, 47.152848998084664, 286.13], [-119.9396091978997, 47.15284044854343, 285.17], [-119.93962948210537, 47.15286165475845, 285.17], [-119.93948413990438, 47.152924267575145, 288.53], [-119.93939395062625, 47.152919908985496, 291.9], [-119.93937685154378, 47.152939857915044, 292.38], [-119.93935346603394, 47.15291580185294, 289.49], [-119.93940711021423, 47.152940863743424, 291.9], [-119.93940551765263, 47.15291529893875, 289.49], [-119.93941666558385, 47.152918400242925, 291.42], [-119.93940526619554, 47.1529077552259, 291.9], [-119.93934877216816, 47.15292451903224, 292.38], [-119.9393018335104, 47.15293315239251, 292.86], [-119.93926176801324, 47.15292745269835, 294.78], [-119.93922765366733, 47.15292879380286, 296.22], [-119.93916839361191, 47.152916975319386, 297.67], [-119.93912405334413, 47.152915969491005, 297.67], [-119.93892062455416, 47.15289358980954, 298.63], [-119.938795985654, 47.15289015322924, 299.59], [-119.93866816163063, 47.152894930914044, 299.59], [-119.93849138729274, 47.15290607884526, 301.99], [-119.93826147168875, 47.15286492370069, 302.47], [-119.93805301375687, 47.152805579826236, 303.43], [-119.93800934404135, 47.15278973802924, 302.95], [-119.93794195353985, 47.15273542329669, 300.55], [-119.93788160383701, 47.15269519016147, 299.59], [-119.93787481449544, 47.152670128270984, 298.63], [-119.93786727078259, 47.15266895480454, 300.07], [-119.93787347339094, 47.15264699421823, 300.07], [-119.93781798519194, 47.1525726467371, 299.59], [-119.93761556223035, 47.15250332839787, 301.03], [-119.93749838322401, 47.1524743270129, 302.95], [-119.93740886449814, 47.15245630592108, 304.39], [-119.93728489615023, 47.15249218046665, 305.36], [-119.93725136853755, 47.15250483714044, 306.32], [-119.93729461915791, 47.15248245745897, 307.76], [-119.93721775710583, 47.152447840198874, 308.72], [-119.93706461973488, 47.152407858520746, 309.2], [-119.9368740990758, 47.15236569754779, 310.64], [-119.93680570274591, 47.15236804448068, 309.68], [-119.93658483959734, 47.15231238864362, 307.76], [-119.93644461035728, 47.15234507806599, 308.24], [-119.93627646937966, 47.15239545330405, 309.2], [-119.93618971668184, 47.15248128399253, 309.2], [-119.93605577386916, 47.15252000838518, 310.16], [-119.93598402477801, 47.15251665562391, 310.64], [-119.93591286242008, 47.15253224596381, 311.12], [-119.93566811084747, 47.15262411162257, 312.09], [-119.93552846834064, 47.15267817489803, 315.93], [-119.93547038175166, 47.15269376523793, 317.37], [-119.9353335890919, 47.152707176283, 320.74], [-119.93520534597337, 47.15274187736213, 324.1], [-119.93515145033598, 47.15274271555245, 326.02], [-119.93513711728156, 47.15273198671639, 325.06], [-119.93510652333498, 47.15274657122791, 326.5], [-119.93515874259174, 47.15276031754911, 328.43], [-119.93507173843682, 47.15276668779552, 333.71], [-119.93501708842814, 47.15286768972874, 337.08], [-119.93503024801612, 47.15289568528533, 337.56], [-119.93503225967288, 47.152925273403525, 337.56], [-119.93494307622313, 47.15305846184492, 339.48], [-119.93482313118875, 47.153095845133066, 340.44], [-119.93473822250962, 47.15316155925393, 341.89], [-119.93465985171497, 47.15320740826428, 342.85], [-119.9343472905457, 47.15337228029966, 344.77], [-119.9342849291861, 47.153411004692316, 345.25], [-119.93419993668795, 47.1534307859838, 345.73], [-119.9340882897377, 47.15348593890667, 345.73], [-119.93382115848362, 47.15362465940416, 347.17], [-119.93370339274406, 47.15365315787494, 347.65], [-119.93344212882221, 47.15368031524122, 348.13], [-119.93335361592472, 47.153698755428195, 347.65], [-119.93332855403423, 47.15371602214873, 346.21], [-119.93323802947998, 47.153789615258574, 348.13], [-119.93323006667197, 47.15380067937076, 348.62], [-119.93321221321821, 47.15391509234905, 351.98], [-119.93310132063925, 47.154000168666244, 354.86], [-119.93305865675211, 47.15404509566724, 357.27], [-119.93274961598217, 47.154030511155725, 359.19], [-119.93257619440556, 47.15400134213269, 361.11], [-119.93239355273545, 47.15394233353436, 361.59], [-119.93224083445966, 47.15394778177142, 360.15], [-119.93197571486235, 47.15400838293135, 359.19], [-119.9317432846874, 47.15406831353903, 359.67], [-119.93148872628808, 47.15409337542951, 360.63], [-119.93116174824536, 47.154095973819494, 360.63], [-119.93088439106941, 47.15412329882383, 361.59], [-119.93056864477694, 47.154131261631846, 362.07], [-119.93034551851451, 47.15413277037442, 362.55], [-119.9303219653666, 47.15412698686123, 363.04], [-119.93009791709483, 47.15414509177208, 361.59], [-119.92964764125645, 47.15415146201849, 361.11], [-119.92950405925512, 47.15416110120714, 361.11], [-119.92918563075364, 47.15415841899812, 360.63], [-119.92914824746549, 47.1541784517467, 360.63], [-119.92889519780874, 47.15418079867959, 360.15], [-119.92856595665216, 47.154199657961726, 361.59], [-119.92830184288323, 47.154144421219826, 364.0], [-119.92803010158241, 47.154031936079264, 362.07], [-119.92772860452533, 47.153909392654896, 358.71], [-119.92747421376407, 47.153692469000816, 356.79], [-119.92738662287593, 47.153476467356086, 355.83], [-119.92748904973269, 47.153218975290656, 352.94], [-119.92756105028093, 47.15297791175544, 351.98], [-119.92762274108827, 47.152780685573816, 351.98], [-119.92749433033168, 47.15258932672441, 353.42], [-119.92716450244188, 47.15251305140555, 354.86], [-119.92681975476444, 47.15247147716582, 355.34], [-119.92647685110569, 47.152486983686686, 356.79], [-119.92615272291005, 47.15250969864428, 355.83], [-119.92584661580622, 47.15249058790505, 358.71], [-119.92583127692342, 47.15249318629503, 358.71], [-119.92562893778086, 47.152472818270326, 358.71], [-119.92525652982295, 47.15243157930672, 359.67], [-119.92490180768073, 47.15243250131607, 359.67], [-119.9245473369956, 47.15244088321924, 359.19], [-119.92424106225371, 47.15240023098886, 359.67], [-119.92394392378628, 47.152336444705725, 360.63], [-119.92364116944373, 47.1522808726877, 361.59], [-119.92333657108247, 47.15222370810807, 361.11], [-119.92304102517664, 47.15216226875782, 361.11], [-119.9228812661022, 47.15210795402527, 361.59], [-119.92262461222708, 47.152019776403904, 362.55], [-119.92232873104513, 47.15189463458955, 362.07], [-119.92201960645616, 47.15181517414749, 360.63], [-119.92182975634933, 47.15197082608938, 360.15], [-119.92155784741044, 47.15208297595382, 360.63], [-119.9213265068829, 47.15217978693545, 361.11], [-119.92113992571831, 47.15227165259421, 361.11], [-119.92112240754068, 47.15230258181691, 358.71], [-119.92100774310529, 47.152338372543454, 357.75], [-119.92078771814704, 47.15246435254812, 356.79], [-119.92054380476475, 47.15265529230237, 356.79], [-119.92035646922886, 47.152803065255284, 356.31], [-119.92013577371836, 47.15294748544693, 358.71], [-119.9199178442359, 47.153085535392165, 361.11], [-119.91966471076012, 47.153196427971125, 363.04], [-119.91944644600153, 47.153280917555094, 364.96], [-119.91918015293777, 47.1533824224025, 364.96], [-119.9189019575715, 47.153496919199824, 364.96], [-119.91866349242628, 47.15361015871167, 365.44], [-119.9184825271368, 47.15375751256943, 366.4], [-119.91838647052646, 47.15394132770598, 368.8], [-119.91828446276486, 47.15415540151298, 369.76], [-119.91815010085702, 47.15435757301748, 369.28], [-119.91796251386404, 47.15453292243183, 369.76], [-119.91783116944134, 47.154675498604774, 369.76], [-119.91781826131046, 47.15472352690995, 370.24], [-119.91780644282699, 47.15494690462947, 371.69], [-119.91797282360494, 47.15508897788823, 374.09], [-119.91798556409776, 47.15509777888656, 372.65], [-119.9179698061198, 47.15509702451527, 375.05], [-119.91797558963299, 47.15509249828756, 373.13], [-119.91796779446304, 47.155085541307926, 373.61], [-119.91796913556755, 47.15509853325784, 376.01], [-119.91796284914017, 47.15511353686452, 376.49], [-119.91793921217322, 47.15510616078973, 375.05], [-119.91782085970044, 47.15506601147354, 375.05]]}}