{"type": "Feature", "properties": {}, "geometry": {"type": "LineString", "coordinates": [[-121.48671372793615, 47.39774851128459, 570.68], [-121.48672923445702, 47.39770844578743, 569.72], [-121.48670651949942, 47.397882202640176, 563.95], [-121.4866937790066, 47.397815650328994, 564.43], [-121.48673065938056, 47.397821014747024, 568.28], [-121.48673887364566, 47.397806849330664, 569.72], [-121.48648490197957, 47.39791137166321, 570.2], [-121.48664306849241, 47.39794699475169, 570.68], [-121.48684062995017, 47.398042883723974, 573.08], [-121.48688522167504, 47.39819166250527, 573.56], [-121.48686426691711, 47.39828394725919, 574.04], [-121.48679335601628, 47.398416213691235, 575.49], [-121.48668698966503, 47.39849860779941, 578.37], [-121.4866192638874, 47.39855912514031, 580.29], [-121.48656042292714, 47.398732798174024, 583.18], [-121.48654910735786, 47.39879951812327, 583.66], [-121.48672956973314, 47.398932203650475, 582.7], [-121.48680349811912, 47.39899741485715, 582.22], [-121.4869477506727, 47.39905348978937, 583.18], [-121.48708160966635, 47.399091040715575, 585.1], [-121.48726777173579, 47.39912825636566, 588.46], [-121.487339688465, 47.399129094555974, 589.43], [-121.4874879643321, 47.39918801933527, 591.83], [-121.48752937093377, 47.39919430576265, 592.31], [-121.48772785440087, 47.39926630631089, 595.67], [-121.4878888707608, 47.39930327050388, 597.12], [-121.48791711777449, 47.399342246353626, 597.6], [-121.48780622519553, 47.39942044951022, 600.0], [-121.4876560214907, 47.39949395880103, 601.44], [-121.48744664154947, 47.39957761019468, 603.36], [-121.48725402541459, 47.39962480030954, 603.85], [-121.48712343536317, 47.39964541979134, 609.61], [-121.48693232797086, 47.39968691021204, 612.5], [-121.48689980618656, 47.39970199763775, 612.98], [-121.48678614757955, 47.399723790585995, 614.9], [-121.48656721226871, 47.39983736537397, 618.26], [-121.4863240532577, 47.399934343993664, 619.71], [-121.4862207043916, 47.39993208087981, 622.11], [-121.48605356924236, 47.39995622076094, 623.55], [-121.48593747988343, 47.39996108226478, 624.03], [-121.4857439417392, 47.39994532428682, 623.55], [-121.48566498421133, 47.39994088187814, 622.59], [-121.48540715686977, 47.39998237229884, 624.51], [-121.48536977358162, 47.39999025128782, 624.51], [-121.48518092930317, 47.40005437284708, 623.07], [-121.48508830927312, 47.40008169785142, 623.07], [-121.48493483662605, 47.40008572116494, 623.55], [-121.48480617441237, 47.400108855217695, 624.51], [-121.4846577309072, 47.400182113051414, 625.47], [-121.48451431654394, 47.40018194541335, 626.44], [-121.48437341675162, 47.40013852715492, 627.4], [-121.48429060354829, 47.400139197707176, 628.36], [-121.4839898608625, 47.400241205468774, 634.13], [-121.48379967547953, 47.40028697066009, 638.45], [-121.48361074738204, 47.40036659874022, 639.41], [-121.48340882733464, 47.40039635449648, 638.93], [-121.48322048597038, 47.400455782189965, 640.86], [-121.48303885012865, 47.400510432198644, 642.3], [-121.48285595700145, 47.400485621765256, 644.7], [-121.48277448490262, 47.400488471612334, 645.66], [-121.48272427730262, 47.40048243664205, 646.14], [-121.48256124928594, 47.400508588179946, 648.55], [-121.48237408138812, 47.40053473971784, 652.39], [-121.48213704116642, 47.40056156180799, 655.76], [-121.48197066038847, 47.40053842775524, 657.68], [-121.48180620744824, 47.40056063979864, 657.68], [-121.48156765848398, 47.40056550130248, 659.6], [-121.4814387448132, 47.40053649991751, 662.49], [-121.48133941926062, 47.40052342414856, 665.85], [-121.48131117224693, 47.40045662038028, 664.41], [-121.48129189386964, 47.40047941915691, 664.41], [-121.48129792883992, 47.40049769170582, 671.14], [-121.48124990053475, 47.40052040666342, 664.89], [-121.4810798317194, 47.40047204308212, 667.77], [-121.48091127164662, 47.4003763217479, 669.7], [-121.48080272600055, 47.40034036338329, 670.66], [-121.48057457059622, 47.4002362601459, 671.62], [-121.48050600662827, 47.40021505393088, 671.62], [-121.48030819371343, 47.400173898786306, 670.66], [-121.48009311407804, 47.40020960569382, 671.14], [-121.47983017377555, 47.400227626785636, 671.14], [-121.47969363257289, 47.40026450715959, 671.14], [-121.47969882935286, 47.40030373446643, 671.62], [-121.47978181019425, 47.40034455433488, 672.58], [-121.4798643719405, 47.40036567673087, 672.58], [-121.47994559258223, 47.4004006292671, 673.06], [-121.48009814321995, 47.40049844607711, 677.39], [-121.4802061021328, 47.40061780437827, 679.79], [-121.48029402829707, 47.40072224289179, 679.31], [-121.48040374740958, 47.4008306208998, 681.71], [-121.48051925003529, 47.40093531087041, 686.52], [-121.48076391778886, 47.40109222009778, 696.13], [-121.48090247064829, 47.4011757876724, 698.53], [-121.4810227509588, 47.401251224800944, 703.82], [-121.48115183226764, 47.40131467580795, 708.15], [-121.48139348253608, 47.40144409239292, 704.78], [-121.48173487745225, 47.40161751396954, 703.34], [-121.48188491351902, 47.40164089947939, 702.86], [-121.4820626936853, 47.40166529081762, 701.9], [-121.48229629732668, 47.40171826444566, 699.98], [-121.48242797702551, 47.401789175346494, 699.98], [-121.48255035281181, 47.401823373511434, 699.98], [-121.48271279409528, 47.40178984589875, 703.82], [-121.48289392702281, 47.40180375985801, 708.15], [-121.48317279294133, 47.401885651052, 713.92], [-121.48337077349424, 47.401920184493065, 714.4], [-121.48342584259808, 47.40194910205901, 714.4], [-121.48351586423814, 47.401979863643646, 712.95], [-121.48364771157503, 47.40203082561493, 710.55], [-121.48385080508888, 47.40208522416651, 709.59], [-121.48398650810122, 47.40211749449372, 711.51], [-121.48416018113494, 47.40212629549205, 715.36], [-121.48419052362442, 47.40223014727235, 718.72], [-121.48428373038769, 47.4023069255054, 723.05], [-121.48438414558768, 47.40234179422259, 724.01], [-121.4844848960638, 47.402329221367836, 725.45], [-121.48469712585211, 47.40231136791408, 731.7], [-121.48491187021136, 47.402376579120755, 734.58], [-121.48497867397964, 47.40244095213711, 735.55], [-121.48501169867814, 47.40247850306332, 736.03], [-121.48507112637162, 47.40250683389604, 737.47], [-121.48522258736193, 47.40255427546799, 741.79], [-121.48547546938062, 47.402518820017576, 742.76], [-121.48565140552819, 47.402575397863984, 740.35], [-121.48566942662, 47.402592077851295, 740.83], [-121.48576992563903, 47.40263566374779, 740.83], [-121.48596463724971, 47.40268888883293, 742.28], [-121.48600093089044, 47.4026919901371, 741.79], [-121.48611576296389, 47.40273247472942, 738.91], [-121.48630033247173, 47.402755776420236, 740.83], [-121.48640837520361, 47.4027715343982, 742.76], [-121.48648641072214, 47.4028492346406, 741.31], [-121.48662077262998, 47.40296859294176, 742.76], [-121.48676510900259, 47.403051154688, 744.68], [-121.48692511953413, 47.40306389518082, 745.64], [-121.48707624524832, 47.403024500235915, 753.33], [-121.48723365738988, 47.40300949662924, 755.25], [-121.48732904344797, 47.40301687270403, 754.77], [-121.48747488856316, 47.40306884050369, 758.14], [-121.48763841949403, 47.40311896428466, 761.98], [-121.48779658600688, 47.40315919741988, 769.67], [-121.48788006976247, 47.403165651485324, 770.63], [-121.48808618076146, 47.40319817326963, 774.48], [-121.48826689459383, 47.403206806629896, 776.88], [-121.488420618698, 47.403261037543416, 775.92], [-121.48859990760684, 47.403307389467955, 776.4], [-121.48874491453171, 47.403361620381474, 778.32], [-121.48886946961284, 47.40341970697045, 782.17], [-121.48897550068796, 47.403472596779466, 785.05], [-121.48904900997877, 47.403492545709014, 786.98], [-121.48918353952467, 47.40357695147395, 786.5], [-121.48932251147926, 47.40367158316076, 785.05], [-121.48949827998877, 47.40371407940984, 784.09], [-121.48956030607224, 47.40373436361551, 785.05], [-121.48971688002348, 47.40382178686559, 785.53], [-121.48983422666788, 47.403843915089965, 785.53], [-121.49004746228456, 47.403828324750066, 790.82], [-121.49019867181778, 47.40385548211634, 791.78], [-121.49032607674599, 47.403891859576106, 790.82], [-121.49034443311393, 47.403885908424854, 789.86], [-121.49040939286351, 47.40388582460582, 789.86], [-121.49060904979706, 47.403879119083285, 790.34], [-121.49076637811959, 47.40390879102051, 791.78], [-121.49084667675197, 47.403910886496305, 792.74], [-121.49099956266582, 47.40394298918545, 795.63], [-121.49108589626849, 47.40405220538378, 799.95], [-121.49113970808685, 47.404180616140366, 804.76], [-121.4912011474371, 47.404305674135685, 808.13], [-121.49128605611622, 47.40437339991331, 815.82], [-121.49136048741639, 47.40437339991331, 817.74], [-121.49145386181772, 47.404354959726334, 821.1], [-121.49153801612556, 47.404381949454546, 820.14], [-121.49159559980035, 47.40440919063985, 820.14], [-121.49167799390852, 47.40448052063584, 820.62], [-121.4917952567339, 47.404553862288594, 823.99], [-121.49186105467379, 47.40457322448492, 827.83], [-121.49191377684474, 47.40456777624786, 825.91], [-121.4919213205576, 47.40448907017708, 820.14], [-121.49199441075325, 47.40440768189728, 818.22], [-121.49211972020566, 47.404306512326, 817.74], [-121.49218048900366, 47.40431799553335, 818.7], [-121.49219901300967, 47.40436895750463, 820.14], [-121.49225181899965, 47.40439142100513, 820.14], [-121.49230487644672, 47.4044050835073, 819.66], [-121.49225718341768, 47.40447448566556, 817.74], [-121.49224176071584, 47.40442260168493, 822.06], [-121.49219440296292, 47.40439443849027, 823.99], [-121.49217403493822, 47.40440525114536, 827.83], [-121.49217587895691, 47.404423858970404, 821.1], [-121.49219683371484, 47.40439083427191, 821.1], [-121.49217202328146, 47.40437281318009, 821.58], [-121.4922213088721, 47.40442997775972, 820.62], [-121.49227478541434, 47.404502648860216, 823.03], [-121.4923510607332, 47.404554365202785, 824.95], [-121.49240889586508, 47.404599292203784, 826.87], [-121.49246756918728, 47.40469207987189, 829.76], [-121.49254786781967, 47.4047314748168, 830.72], [-121.49261173792183, 47.40480246953666, 832.64], [-121.49261995218694, 47.404901795089245, 838.41], [-121.49263814091682, 47.404939429834485, 840.81], [-121.49264040403068, 47.40496817976236, 841.29], [-121.49269446730614, 47.40500908344984, 842.73], [-121.49269455112517, 47.405055267736316, 846.58], [-121.4927429985255, 47.4050750490278, 848.02], [-121.49282891303301, 47.40520169958472, 855.71], [-121.49284165352583, 47.4052545055747, 859.56], [-121.49285724386573, 47.40528627298772, 861.48], [-121.49281592108309, 47.40526615642011, 863.88], [-121.49280049838126, 47.405319046229124, 865.32], [-121.49281005375087, 47.4053686670959, 867.73], [-121.49284483864903, 47.405442176386714, 870.61], [-121.49291809648275, 47.40553689189255, 875.9], [-121.49295170791447, 47.40563152357936, 881.19], [-121.49295807816088, 47.40566630847752, 882.63], [-121.49299437180161, 47.40579580888152, 886.47], [-121.49315882474184, 47.4058713298291, 891.76], [-121.4932076074183, 47.405947521328926, 892.72], [-121.49326980113983, 47.40600108169019, 893.2], [-121.49338438175619, 47.406077943742275, 897.53], [-121.49341933429241, 47.406182549893856, 898.01], [-121.49348806589842, 47.40621096454561, 898.97], [-121.49355872534215, 47.40632244385779, 902.82], [-121.49364162236452, 47.406360413879156, 904.26], [-121.49366425350308, 47.40640508942306, 906.66], [-121.49374539032578, 47.40650810301304, 909.06], [-121.493796184659, 47.40655051544309, 912.91], [-121.49381236173213, 47.40658764727414, 913.39], [-121.49386097677052, 47.4066187441349, 916.75], [-121.49395016022027, 47.40669518709183, 920.6], [-121.49396851658821, 47.40672653540969, 924.93], [-121.49402165785432, 47.40669493563473, 929.73], [-121.49397019296885, 47.40675939247012, 930.69], [-121.49395644664764, 47.40687481127679, 933.1], [-121.49396667256951, 47.40692141465843, 933.58], [-121.49405996315181, 47.40708234719932, 939.83], [-121.494110673666, 47.40719365887344, 943.67], [-121.49413975887, 47.407222827896476, 946.56], [-121.49412576109171, 47.407265743240714, 949.44], [-121.49423254653811, 47.40734671242535, 955.21], [-121.49429046548903, 47.407374791800976, 957.61], [-121.49431183934212, 47.40740178152919, 960.49], [-121.49438275024295, 47.40746255032718, 962.9], [-121.49448207579553, 47.40751560777426, 966.74], [-121.49449347518384, 47.4075135961175, 969.63], [-121.49448693729937, 47.40754569880664, 969.63], [-121.49450504221022, 47.407589200884104, 971.07], [-121.49448366835713, 47.40767536684871, 974.91], [-121.49452658370137, 47.407718701288104, 978.28], [-121.49455156177282, 47.407721215859056, 982.12], [-121.4945525676012, 47.407762287184596, 985.97], [-121.49457117542624, 47.407791120931506, 987.41], [-121.49462532252073, 47.40777812898159, 991.26], [-121.49462590925395, 47.407808639109135, 991.26], [-121.49460537359118, 47.40782892331481, 991.74], [-121.49463571608067, 47.40787913091481, 991.74], [-121.4946183655411, 47.40788709372282, 993.66], [-121.49464569054544, 47.40793897770345, 994.62], [-121.49463278241456, 47.407993292436004, 996.54], [-121.49461509659886, 47.408001171424985, 998.47], [-121.49459623731673, 47.40804048255086, 1000.87], [-121.49459204636514, 47.408091528341174, 1001.83], [-121.4946492947638, 47.40811097435653, 1001.83], [-121.49467586539686, 47.4081471003592, 1001.83], [-121.49461568333209, 47.408230332657695, 1008.56], [-121.49457486346364, 47.40825950168073, 1014.81], [-121.49459808133543, 47.408338794484735, 1018.65], [-121.49450864642859, 47.4083907622844, 1023.94], [-121.49455047212541, 47.40844666957855, 1023.94], [-121.49454334750772, 47.40847893990576, 1023.46], [-121.49458257481456, 47.408502073958516, 1024.9], [-121.49455273523927, 47.40854532457888, 1026.34], [-121.49460042826831, 47.40857415832579, 1027.31], [-121.4945924654603, 47.408606428653, 1030.67], [-121.49456354789436, 47.40864071063697, 1031.63], [-121.49458810687065, 47.40868999622762, 1033.55], [-121.49457536637783, 47.40868211723864, 1035.0], [-121.49449565447867, 47.40874866954982, 1039.8], [-121.4945110771805, 47.40878647193313, 1041.73], [-121.4945477899164, 47.408831315115094, 1042.69], [-121.49456648156047, 47.408872889354825, 1043.65], [-121.49452960118651, 47.40890381857753, 1045.57], [-121.49451216682792, 47.408970119431615, 1048.94], [-121.49446975439787, 47.40900834091008, 1052.78], [-121.49445223622024, 47.409060979261994, 1053.74], [-121.49443463422358, 47.40909316577017, 1055.18], [-121.49443580769002, 47.4091141205281, 1056.63], [-121.4943752065301, 47.409148989245296, 1059.03], [-121.49434000253677, 47.40919475443661, 1059.99], [-121.4943389967084, 47.409231048077345, 1060.95], [-121.49432038888335, 47.4092869553715, 1062.87], [-121.49435760453343, 47.40935241803527, 1066.24], [-121.49438492953777, 47.40937982685864, 1066.24], [-121.49442348629236, 47.40939784795046, 1064.8], [-121.49438727647066, 47.409404469653964, 1060.95], [-121.49436615407467, 47.40937245078385, 1061.43], [-121.49438744410872, 47.40938602946699, 1064.32], [-121.49436892010272, 47.40947471000254, 1071.53], [-121.4943921379745, 47.409519301727414, 1073.93], [-121.49437705054879, 47.40959255956113, 1080.18], [-121.49427990429103, 47.409632708877325, 1084.02], [-121.49426389485598, 47.40968174301088, 1085.95], [-121.4942317083478, 47.4097412545234, 1087.39], [-121.4941870328039, 47.409785175696015, 1091.71], [-121.49416859261692, 47.40981509909034, 1091.23], [-121.49417052045465, 47.409869749099016, 1093.64], [-121.49412433616817, 47.409942504018545, 1095.08], [-121.4940879587084, 47.409970834851265, 1097.0], [-121.49405535310507, 47.409979635849595, 1098.44], [-121.49404806084931, 47.41002137772739, 1101.33], [-121.49402886629105, 47.41004928946495, 1105.17], [-121.49402149021626, 47.41010310128331, 1108.54], [-121.49399852380157, 47.410121290013194, 1109.98], [-121.49396105669439, 47.4101744312793, 1111.9], [-121.49396264925599, 47.410220028832555, 1113.34], [-121.49394420906901, 47.41024475544691, 1114.31], [-121.49394437670708, 47.41027099080384, 1114.31], [-121.49393063038588, 47.41032094694674, 1115.75], [-121.49390405975282, 47.41032882593572, 1117.67], [-121.49389400146902, 47.410350954160094, 1119.11], [-121.49385703727603, 47.4103332683444, 1120.55], [-121.4938794169575, 47.41032589226961, 1123.44], [-121.49388394318521, 47.41035858169198, 1123.92], [-121.49390171281993, 47.41040023975074, 1124.4], [-121.49393239058554, 47.41041918285191, 1127.28], [-121.49397379718721, 47.41043276153505, 1127.28], [-121.49397228844464, 47.410511802881956, 1132.09], [-121.4939209073782, 47.410584976896644, 1135.45], [-121.4939312171191, 47.4106009863317, 1134.97], [-121.49397027678788, 47.41062051616609, 1137.38], [-121.49404051713645, 47.41062596440315, 1143.14], [-121.49403724819422, 47.410614313557744, 1142.66], [-121.49401889182627, 47.41070810705423, 1144.59], [-121.49398427456617, 47.41075521335006, 1147.95], [-121.49397471919656, 47.410794608294964, 1150.84], [-121.49403448216617, 47.41081313230097, 1153.72], [-121.49407153017819, 47.410832326859236, 1156.12], [-121.4941088296473, 47.41084171459079, 1157.56], [-121.49415702559054, 47.41087800823152, 1159.97], [-121.49420480243862, 47.41090038791299, 1161.89], [-121.49419759400189, 47.410930478945374, 1164.29], [-121.49429071694613, 47.411014968529344, 1169.58], [-121.49427277967334, 47.4110412877053, 1171.02], [-121.49425408802927, 47.4112090934068, 1180.64], [-121.49427328258753, 47.41122334264219, 1183.52], [-121.49424972943962, 47.41122485138476, 1184.0], [-121.494245454669, 47.41125812754035, 1186.4], [-121.49426045827568, 47.41128888912499, 1188.33], [-121.49424092844129, 47.41134454496205, 1190.25], [-121.49425978772342, 47.41133842617273, 1190.25], [-121.49424025788903, 47.411373713985085, 1192.17], [-121.49424595758319, 47.41140958853066, 1193.61], [-121.49426825344563, 47.41141201928258, 1196.5], [-121.49428862147033, 47.41150304675102, 1203.71], [-121.49428585544229, 47.41153288632631, 1205.15], [-121.49426942691207, 47.411557445302606, 1206.59], [-121.49427470751107, 47.411589631810784, 1209.0], [-121.49426540359855, 47.4116200581193, 1210.44], [-121.49432072415948, 47.411714689806104, 1214.76], [-121.49441502057016, 47.41171443834901, 1217.17], [-121.49448945187032, 47.41174469701946, 1219.09], [-121.49452448822558, 47.41176472976804, 1219.57], [-121.49454846046865, 47.41183471865952, 1222.93], [-121.49451610632241, 47.41186631843448, 1226.78], [-121.49448769167066, 47.41198374889791, 1231.11], [-121.49448534473777, 47.41201501339674, 1230.62], [-121.4945060480386, 47.41207418963313, 1231.59], [-121.49455223232508, 47.41213227622211, 1233.99], [-121.49456664919853, 47.41220226511359, 1234.47], [-121.49450646713376, 47.412207797169685, 1233.51], [-121.49453312158585, 47.41222221404314, 1234.95], [-121.4945887774229, 47.412236630916595, 1233.03], [-121.4945443533361, 47.41219446994364, 1236.39], [-121.4945834968239, 47.41221098229289, 1237.35], [-121.49458802305162, 47.41235909052193, 1242.64], [-121.49459229782224, 47.412398820742965, 1243.6], [-121.49463957175612, 47.412439892068505, 1246.01], [-121.49463169276714, 47.412460930645466, 1246.97], [-121.49466605857015, 47.41258431226015, 1250.33], [-121.49463110603392, 47.412656396627426, 1254.18], [-121.49457477964461, 47.412681207060814, 1255.14], [-121.49451971054077, 47.41268782876432, 1256.1], [-121.49449716322124, 47.41269847378135, 1256.58], [-121.49452063255012, 47.412758907303214, 1258.02], [-121.49455717764795, 47.412805845960975, 1259.46], [-121.49453840218484, 47.41284775547683, 1261.39], [-121.49454711936414, 47.41288765333593, 1263.31], [-121.49457578547299, 47.41292235441506, 1264.27], [-121.49455432780087, 47.41299334913492, 1266.67], [-121.49455114267766, 47.41311455145478, 1270.04], [-121.49460872635245, 47.41315210238099, 1270.52], [-121.49461903609335, 47.41318177431822, 1271.96], [-121.49467427283525, 47.413217313587666, 1273.88], [-121.4946923777461, 47.413248494267464, 1274.85], [-121.49468282237649, 47.41328579373658, 1277.73], [-121.49472632445395, 47.41333097219467, 1279.17], [-121.49474501609802, 47.4133675172925, 1280.61], [-121.4947735145688, 47.41338989697397, 1281.09], [-121.4947460219264, 47.41340858861804, 1284.46], [-121.4947460219264, 47.413449324667454, 1287.82], [-121.4947650488466, 47.41350682452321, 1288.78], [-121.49475926533341, 47.413552002981305, 1291.19], [-121.49477259255946, 47.4135797470808, 1292.63], [-121.49480100721121, 47.413609167560935, 1295.03], [-121.4948551543057, 47.413624757900834, 1295.51], [-121.49484409019351, 47.413644287735224, 1296.48], [-121.49486135691404, 47.413690723478794, 1301.28], [-121.49489555507898, 47.41375241428614, 1304.17], [-121.49492614902556, 47.413774793967605, 1306.57], [-121.4949154201895, 47.41380823776126, 1310.41], [-121.495011895895, 47.41385467350483, 1314.26], [-121.49508029222488, 47.413892140612006, 1317.62], [-121.49512387812138, 47.413902869448066, 1319.07], [-121.49513779208064, 47.41392005234957, 1320.51], [-121.49511524476111, 47.413940923288465, 1321.95], [-121.4951223693788, 47.41397051140666, 1322.91], [-121.49504986591637, 47.41399649530649, 1323.87], [-121.49502488784492, 47.414021138101816, 1324.83], [-121.494998652488, 47.41407662630081, 1327.72], [-121.49499203078449, 47.414104118943214, 1330.12], [-121.49501834996045, 47.41414141841233, 1332.04], [-121.49501499719918, 47.4141635466367, 1333.97], [-121.49496043100953, 47.41418894380331, 1334.93], [-121.49488784372807, 47.41425164043903, 1338.29], [-121.4948496222496, 47.414254657924175, 1340.22], [-121.49481659755111, 47.41428231820464, 1342.14], [-121.49483101442456, 47.4143173545599, 1345.02], [-121.49485917761922, 47.41432967595756, 1345.5], [-121.49484953843057, 47.414363119751215, 1346.94], [-121.49482171051204, 47.41439857520163, 1348.87], [-121.49475825950503, 47.41450795903802, 1352.23], [-121.49469640105963, 47.41459144279361, 1354.15], [-121.49467477574944, 47.41460636258125, 1355.12], [-121.49466966278851, 47.41463519632816, 1357.04], [-121.49467829614878, 47.414669478312135, 1357.04], [-121.4946601074189, 47.41477056406438, 1364.73], [-121.49458450265229, 47.41480023600161, 1363.77], [-121.4945409167558, 47.41482672281563, 1364.25], [-121.49456220678985, 47.41490785963833, 1369.05], [-121.49455357342958, 47.41494616493583, 1370.5], [-121.49459070526063, 47.41496284492314, 1372.42], [-121.49461375549436, 47.41500215604901, 1372.42], [-121.4945945609361, 47.41514707915485, 1378.67], [-121.49457377381623, 47.41517976857722, 1379.15], [-121.49454058147967, 47.41520659066737, 1380.59], [-121.49456044659019, 47.41525570861995, 1381.07], [-121.49455684237182, 47.415294935926795, 1383.47], [-121.49456857703626, 47.41533131338656, 1390.2], [-121.49458844214678, 47.41535788401961, 1387.32], [-121.49462766945362, 47.4153153039515, 1390.2], [-121.49465532973409, 47.41535905748606, 1393.09], [-121.49475758895278, 47.415462071076035, 1395.97], [-121.49478491395712, 47.415512194857, 1399.82], [-121.49482791312039, 47.415640437975526, 1402.7], [-121.49487091228366, 47.415671702474356, 1402.7], [-121.49504299275577, 47.41578544490039, 1409.91], [-121.49506009183824, 47.41582475602627, 1411.83], [-121.49512706324458, 47.41583137772977, 1415.2], [-121.49518372491002, 47.41583129391074, 1417.6], [-121.49531154893339, 47.41587211377919, 1421.45], [-121.49534750729799, 47.41590949706733, 1425.29], [-121.49542193859816, 47.416003877297044, 1428.66], [-121.49552193470299, 47.41604830138385, 1433.94], [-121.49563576094806, 47.416125331074, 1437.31], [-121.49563550949097, 47.41614678874612, 1440.19], [-121.49567238986492, 47.41618014872074, 1436.83], [-121.49564967490733, 47.416181825101376, 1436.35], [-121.49567699991167, 47.41620412096381, 1435.39], [-121.49566476233304, 47.416214514523745, 1436.83], [-121.49574154056609, 47.416248293593526, 1444.04], [-121.49571907706559, 47.416300596669316, 1445.48], [-121.49565654806793, 47.41632808931172, 1444.52], [-121.49561706930399, 47.41631786338985, 1445.96], [-121.49561799131334, 47.41634678095579, 1445.0], [-121.49559829384089, 47.41632440127432, 1444.52], [-121.49562888778746, 47.41633797995746, 1444.04], [-121.49561572819948, 47.41635055281222, 1445.0], [-121.49562947452068, 47.416379051283, 1447.4], [-121.49565587751567, 47.416383577510715, 1448.36], [-121.495691081509, 47.41641283035278, 1449.81], [-121.49573533795774, 47.416436886414886, 1452.21], [-121.49577942676842, 47.416474018245935, 1454.13], [-121.49586651474237, 47.41652699187398, 1458.94], [-121.49590473622084, 47.41656915284693, 1460.38], [-121.49597648531199, 47.416623048484325, 1464.71], [-121.49603272788227, 47.416687086224556, 1467.59], [-121.49602258577943, 47.41676394827664, 1472.4], [-121.49601336568594, 47.416786160320044, 1472.88], [-121.4959810115397, 47.416806695982814, 1473.36], [-121.49596533738077, 47.41685195825994, 1478.65], [-121.49594765156507, 47.416875679045916, 1479.13], [-121.49595896713436, 47.416896633803844, 1481.05], [-121.4959099330008, 47.41693594492972, 1483.93], [-121.49595553055406, 47.41697106510401, 1486.34], [-121.49599048309028, 47.417033426463604, 1488.26], [-121.49604689329863, 47.41711791604757, 1493.06], [-121.49606952443719, 47.417131159454584, 1494.03], [-121.49608553387225, 47.417157562449574, 1494.99], [-121.4961313828826, 47.41720676422119, 1496.91], [-121.49615921080112, 47.41725395433605, 1499.31], [-121.49615376256406, 47.41726342588663, 1499.79], [-121.4961882121861, 47.417308520525694, 1502.68], [-121.49619458243251, 47.417332576587796, 1504.12], [-121.4962212368846, 47.4173653498292, 1506.04], [-121.49627035483718, 47.417406253516674, 1509.41], [-121.49631947278976, 47.417470542714, 1512.29], [-121.49636683054268, 47.4175051599741, 1513.25], [-121.49638636037707, 47.417538771405816, 1515.18], [-121.4963848516345, 47.41757623851299, 1517.1], [-121.49636775255203, 47.417564671486616, 1517.1], [-121.49632198736072, 47.41759618744254, 1518.06], [-121.49629860185087, 47.41762041114271, 1519.5], [-121.49628192186356, 47.41765620186925, 1521.42], [-121.49625392630696, 47.41767447441816, 1522.87], [-121.49623917415738, 47.41770062595606, 1524.31], [-121.49620899930596, 47.417720491066575, 1525.75], [-121.49614227935672, 47.41779735311866, 1529.11], [-121.49608335457742, 47.41785552352667, 1532.96], [-121.49598084390163, 47.41791721433401, 1536.8], [-121.4959463942796, 47.417965242639184, 1538.73], [-121.49589811451733, 47.41797471418977, 1540.17], [-121.49585427716374, 47.41801385767758, 1542.09], [-121.49577129632235, 47.418057695031166, 1542.57], [-121.49569191969931, 47.418117709457874, 1544.5], [-121.49562612175941, 47.41812768392265, 1544.5], [-121.49557658471167, 47.4181904643774, 1547.38], [-121.49551732465625, 47.41823824122548, 1550.26], [-121.49550215341151, 47.418260453268886, 1550.74], [-121.49544943124056, 47.41839364171028, 1556.51], [-121.49541523307562, 47.41841652430594, 1557.47], [-121.49539235047996, 47.41844552569091, 1558.92], [-121.4953123871237, 47.418518951162696, 1564.2], [-121.49526896886528, 47.41856765002012, 1566.61], [-121.49530459195375, 47.41859547793865, 1567.57], [-121.49530040100217, 47.41862556897104, 1569.01], [-121.4952502772212, 47.41863780654967, 1571.89], [-121.49519780650735, 47.41866613738239, 1572.85], [-121.49520065635443, 47.418697737157345, 1573.82], [-121.49516746401787, 47.41871994920075, 1575.74], [-121.49508154951036, 47.4187396466732, 1577.18], [-121.4950776938349, 47.418757332488894, 1577.66], [-121.49509563110769, 47.418786166235805, 1579.1], [-121.49509219452739, 47.4188107252121, 1579.1], [-121.49513209238648, 47.41887534968555, 1579.1], [-121.49513737298548, 47.41889395751059, 1579.1], [-121.49513779208064, 47.41897157393396, 1578.62], [-121.49518716149032, 47.41906142793596, 1578.14], [-121.49515874683857, 47.41910610347986, 1577.66], [-121.49526502937078, 47.419177517294884, 1578.14], [-121.49528615176678, 47.419239208102226, 1577.66], [-121.49534423835576, 47.419341718778014, 1577.18], [-121.49537550285459, 47.41940994746983, 1576.7], [-121.49537893943489, 47.419446744024754, 1576.22], [-121.49537147954106, 47.41953416727483, 1573.33], [-121.4953438192606, 47.4196223448962, 1572.85], [-121.49535899050534, 47.41970079950988, 1569.97], [-121.49532537907362, 47.41974715143442, 1568.05], [-121.49537055753171, 47.419816721230745, 1566.61], [-121.49539419449866, 47.419885117560625, 1565.16], [-121.4953591581434, 47.41992509923875, 1564.68], [-121.49535287171602, 47.419951586052775, 1563.72], [-121.49534708820283, 47.42004311643541, 1561.8], [-121.4953353535384, 47.420082511380315, 1560.36], [-121.4953369461, 47.42016012780368, 1557.47], [-121.49530492722988, 47.42022885940969, 1556.03], [-121.49524885229766, 47.42025727406144, 1555.07], [-121.49520526640117, 47.42026699706912, 1554.59], [-121.49520652368665, 47.42023715749383, 1554.59], [-121.49528606794775, 47.420264231041074, 1556.03], [-121.49524985812604, 47.420285353437066, 1556.03], [-121.49527793750167, 47.42036456242204, 1555.55], [-121.49528573267162, 47.42041401565075, 1553.15], [-121.49527416564524, 47.420481238514185, 1554.59], [-121.49528757669032, 47.42050881497562, 1554.59], [-121.49526176042855, 47.420564806088805, 1555.55], [-121.49517777375877, 47.4206480383873, 1556.51], [-121.49517492391169, 47.420665388926864, 1556.99], [-121.49512228555977, 47.42076002061367, 1559.4], [-121.49518967606127, 47.420778796076775, 1560.84], [-121.49514399468899, 47.42088717408478, 1563.24], [-121.49513460695744, 47.42094232700765, 1564.68], [-121.49509638547897, 47.42099957540631, 1565.64], [-121.49504550732672, 47.421049447730184, 1565.64], [-121.49502153508365, 47.421103259548545, 1565.64], [-121.49499806575477, 47.42119487375021, 1569.97], [-121.49498876184225, 47.421205351129174, 1570.45], [-121.49500804021955, 47.42131012491882, 1571.89], [-121.49493436329067, 47.421393943950534, 1574.78], [-121.49488558061421, 47.421438032761216, 1576.22], [-121.49481106549501, 47.42149394005537, 1577.18], [-121.49478918872774, 47.421551104635, 1578.14], [-121.49473453871906, 47.42158329114318, 1578.14], [-121.49457729421556, 47.42169929668307, 1581.03], [-121.49455189704895, 47.42174204438925, 1580.54], [-121.49452934972942, 47.42176618427038, 1581.99], [-121.4944560918957, 47.421790743246675, 1583.43], [-121.49439943023026, 47.421818152070045, 1583.91], [-121.49419851601124, 47.42188487201929, 1585.35], [-121.4941590372473, 47.42188688367605, 1586.79], [-121.49405376054347, 47.4219861254096, 1587.27], [-121.4939623977989, 47.42200833745301, 1587.75], [-121.49389148689806, 47.42206701077521, 1588.24], [-121.49383566342294, 47.42210523225367, 1589.68], [-121.49375804699957, 47.422147896140814, 1591.6], [-121.49373365566134, 47.42217522114515, 1593.04], [-121.49368135258555, 47.42218863219023, 1594.0], [-121.49364958517253, 47.422181172296405, 1595.45], [-121.49364883080125, 47.42223171517253, 1597.85], [-121.49360608309507, 47.42232115007937, 1598.33], [-121.49360306560993, 47.42234252393246, 1597.85], [-121.49358387105167, 47.42234428413212, 1598.81], [-121.49355369620025, 47.422383511438966, 1600.73], [-121.4935479965061, 47.42241016589105, 1600.73], [-121.49352989159524, 47.422414692118764, 1601.69], [-121.49350156076252, 47.422451907768846, 1603.14], [-121.49347222410142, 47.4224766343832, 1605.54], [-121.49346048943698, 47.42250161245465, 1606.5], [-121.49344263598323, 47.42250496521592, 1607.46], [-121.49343660101295, 47.42253229022026, 1608.42], [-121.49346015416086, 47.42254989221692, 1608.42], [-121.49341539479792, 47.42258585058153, 1610.35], [-121.49335194379091, 47.42260060273111, 1612.75], [-121.49327675811946, 47.42260563187301, 1615.15], [-121.49326611310244, 47.42264016531408, 1616.11], [-121.49321146309376, 47.422695737332106, 1620.44], [-121.49315631017089, 47.42270722053945, 1620.92], [-121.49310434237123, 47.422701017931104, 1620.44], [-121.49317424744368, 47.422750974074006, 1620.44], [-121.4931640215218, 47.42277544923127, 1622.84], [-121.49310199543834, 47.42281065322459, 1625.25], [-121.49304885417223, 47.42281484417617, 1627.65], [-121.49296830408275, 47.42281283251941, 1628.61], [-121.492884401232, 47.422819873318076, 1630.53], [-121.49281709454954, 47.4228083062917, 1631.49], [-121.492736376822, 47.42282062768936, 1631.98], [-121.492725815624, 47.42284166626632, 1633.9], [-121.49264568462968, 47.422914672642946, 1642.55], [-121.49262313731015, 47.42294752970338, 1643.99], [-121.49259597994387, 47.422968316823244, 1645.91], [-121.49258692748845, 47.42299689911306, 1647.36], [-121.49256999604404, 47.422996228560805, 1647.36], [-121.49252749979496, 47.42305314168334, 1650.24], [-121.49247150868177, 47.423063619062304, 1653.6], [-121.49243655614555, 47.42307744920254, 1655.53], [-121.49235332384706, 47.42312530986965, 1660.33], [-121.4923270046711, 47.42316353134811, 1661.3], [-121.49230998940766, 47.42322555743158, 1665.14], [-121.49227914400399, 47.423278195783496, 1668.02], [-121.49226405657828, 47.423286410048604, 1669.95], [-121.4922820776701, 47.42331985384226, 1671.87], [-121.49226263165474, 47.42337726987898, 1674.75], [-121.49222893640399, 47.42342496290803, 1678.12], [-121.492202533409, 47.42343669757247, 1679.56], [-121.49216925725341, 47.42347441613674, 1679.56], [-121.49213279597461, 47.42352646775544, 1683.89], [-121.49210622534156, 47.42353702895343, 1686.29], [-121.4920262619853, 47.423547925427556, 1686.29], [-121.49199382402003, 47.423574244603515, 1688.69], [-121.49197706021369, 47.42362788878381, 1692.06], [-121.49204931221902, 47.423661751672626, 1691.1], [-121.49208275601268, 47.42369460873306, 1691.58], [-121.49208208546042, 47.42368346080184, 1687.73], [-121.49212055839598, 47.42366837337613, 1687.73], [-121.49218970909715, 47.423660326749086, 1684.85], [-121.49226254783571, 47.42361607030034, 1681.96], [-121.49236497469246, 47.42358036339283, 1677.64], [-121.49238022975624, 47.42353552021086, 1676.68], [-121.49241610430181, 47.42348749190569, 1674.75], [-121.4924649707973, 47.4234505277127, 1672.35], [-121.49255180731416, 47.42342387326062, 1667.54], [-121.49259849451482, 47.423418927937746, 1665.62], [-121.49263512343168, 47.42340736091137, 1664.18], [-121.49264182895422, 47.423355393111706, 1662.26], [-121.49266789667308, 47.423293367028236, 1658.41], [-121.49266982451081, 47.42323720827699, 1654.09], [-121.49266236461699, 47.42319077253342, 1649.76], [-121.49271131493151, 47.42315657436848, 1647.84], [-121.49279312230647, 47.4231434147805, 1645.91], [-121.4928640332073, 47.423151126131415, 1645.91], [-121.4929517917335, 47.423106115311384, 1640.63], [-121.49296754971147, 47.423062697052956, 1638.7], [-121.49301901459694, 47.42299941368401, 1635.34], [-121.49303376674652, 47.422918528318405, 1631.98], [-121.49305237457156, 47.42284401319921, 1628.61], [-121.49309646338224, 47.4227805621922, 1625.73], [-121.49316787719727, 47.42272834293544, 1622.84], [-121.4932665321976, 47.42262599989772, 1616.59], [-121.49339871481061, 47.42257218807936, 1611.31], [-121.49343718774617, 47.42254352197051, 1608.42], [-121.49344531819224, 47.42250211536884, 1606.5], [-121.49354254826903, 47.42239248007536, 1600.73], [-121.49358085356653, 47.422306817024946, 1598.33], [-121.49361035786569, 47.4222765583545, 1597.37], [-121.49362854659557, 47.422204641625285, 1595.93], [-121.49369115941226, 47.42219567298889, 1594.0], [-121.49376936256886, 47.42213440127671, 1590.64], [-121.49393163621426, 47.42203147150576, 1587.75], [-121.49397010914981, 47.42200389504433, 1587.75], [-121.49404563009739, 47.42197799496353, 1586.79], [-121.494121234864, 47.42190448567271, 1585.35], [-121.49413699284196, 47.421879759058356, 1584.87], [-121.49420781992376, 47.42185486480594, 1583.43], [-121.49424830451608, 47.421865509822965, 1581.99], [-121.49427177384496, 47.42184706963599, 1581.99], [-121.49438484571874, 47.421776577830315, 1582.47], [-121.49444821290672, 47.42174447514117, 1581.99], [-121.49447578936815, 47.421717401593924, 1580.54], [-121.49458165280521, 47.42167649790645, 1580.06], [-121.49474887177348, 47.42158614099026, 1578.14], [-121.49477284401655, 47.42156778462231, 1577.66], [-121.4947893563658, 47.421500058844686, 1577.18], [-121.4948844909668, 47.42144205607474, 1576.22], [-121.4949450083077, 47.42137801833451, 1574.3], [-121.49500594474375, 47.42130492813885, 1571.41], [-121.49497677572072, 47.42125052958727, 1569.49], [-121.49499043822289, 47.42116520181298, 1567.57], [-121.49505011737347, 47.42104282602668, 1564.68], [-121.49509244598448, 47.42099295370281, 1563.72], [-121.4950983133167, 47.42096194066107, 1563.24], [-121.49513385258615, 47.42093285545707, 1563.24], [-121.49514298886061, 47.42088709026575, 1561.8], [-121.49516176432371, 47.420837385579944, 1561.32], [-121.49518121033907, 47.42081223987043, 1560.84], [-121.49518020451069, 47.42072272114456, 1559.4], [-121.49519914761186, 47.42067754268646, 1557.47], [-121.49522529914975, 47.420658180490136, 1556.99], [-121.49527290835977, 47.420581402257085, 1556.03], [-121.49527911096811, 47.420454332605004, 1553.15], [-121.49528598412871, 47.42040001787245, 1552.67], [-121.4952645264566, 47.42033866234124, 1552.67], [-121.49527944624424, 47.420262889936566, 1554.59], [-121.4953250437975, 47.420192481949925, 1556.51], [-121.49533962830901, 47.42014344781637, 1558.43], [-121.49534440599382, 47.420085445046425, 1560.36], [-121.49533837102354, 47.42004085332155, 1561.32], [-121.49534977041185, 47.41997773759067, 1562.28], [-121.49536904878914, 47.41991646587849, 1563.24], [-121.49537759833038, 47.41983549669385, 1565.16], [-121.49534935131669, 47.41981462575495, 1566.12], [-121.49532487615943, 47.419762993231416, 1567.09], [-121.49534189142287, 47.419729214161634, 1569.01], [-121.49533459916711, 47.419682275503874, 1570.93], [-121.4953435678035, 47.41961454972625, 1571.41], [-121.49537432938814, 47.41954523138702, 1572.85], [-121.49537432938814, 47.41948362439871, 1572.85], [-121.49534641765058, 47.419340293854475, 1576.22], [-121.49529260583222, 47.41925857029855, 1576.7], [-121.49526360444725, 47.41918480955064, 1576.22], [-121.49515363387764, 47.419108701869845, 1574.78], [-121.49515254423022, 47.41901868022978, 1576.7], [-121.49513519369066, 47.41897735744715, 1576.7], [-121.49513443931937, 47.41884115152061, 1578.14], [-121.49513930082321, 47.41883092559874, 1578.14], [-121.49522630497813, 47.41874408908188, 1574.3], [-121.49523317813873, 47.418663119897246, 1569.01], [-121.49529855698347, 47.41858223453164, 1563.24], [-121.49533594027162, 47.4185617826879, 1561.8], [-121.49539285339415, 47.41849556565285, 1559.4], [-121.4954077731818, 47.418484669178724, 1558.92], [-121.49540735408664, 47.41842532530427, 1556.51], [-121.4954561367631, 47.41837210021913, 1554.11], [-121.49551078677177, 47.41824796423316, 1549.3], [-121.49554012343287, 47.418200271204114, 1547.38], [-121.49566090665758, 47.418097173795104, 1543.53], [-121.49588721804321, 47.41795174777508, 1538.25], [-121.49592468515038, 47.41790388710797, 1532.96], [-121.49593968875706, 47.41790547966957, 1532.48], [-121.49605276063085, 47.41781344637275, 1528.63], [-121.49613968096673, 47.41775929927826, 1526.71], [-121.49622048251331, 47.41765779443085, 1520.94], [-121.49626121856272, 47.41758923046291, 1516.14], [-121.49625602178276, 47.41757422685623, 1516.14], [-121.4962730370462, 47.417511781677604, 1512.77], [-121.49628007784486, 47.41744774393737, 1508.93], [-121.49623146280646, 47.417388232424855, 1504.6], [-121.49616532959044, 47.41729519329965, 1499.79], [-121.49612291716039, 47.41720458492637, 1494.99], [-121.4960449654609, 47.41718237288296, 1491.14], [-121.49600607343018, 47.41715840063989, 1490.66], [-121.49598721414804, 47.417060332372785, 1486.82], [-121.49597774259746, 47.41697517223656, 1483.45], [-121.49596366100013, 47.4168904311955, 1478.65], [-121.49599190801382, 47.41685044951737, 1476.24], [-121.49597715586424, 47.41682714782655, 1474.32], [-121.49600774981081, 47.41675657220185, 1470.47], [-121.4959603920579, 47.41664375178516, 1463.74], [-121.49592191912234, 47.41659304127097, 1461.34], [-121.49581739678979, 47.416514083743095, 1455.09], [-121.49574279785156, 47.41647183895111, 1451.73], [-121.49578864686191, 47.41640285588801, 1450.77], [-121.49573525413871, 47.4162981659174, 1446.44], [-121.49566191248596, 47.416186183691025, 1441.63], [-121.49562436155975, 47.416138742119074, 1438.27], [-121.49557381868362, 47.416121223941445, 1435.87], [-121.49558773264289, 47.41609448567033, 1432.98], [-121.49561706930399, 47.41605534218252, 1434.91], [-121.49558295495808, 47.41600655950606, 1433.46], [-121.49549913592637, 47.41596858948469, 1431.06], [-121.4954350143671, 47.41591142490506, 1425.77], [-121.4954334218055, 47.41585861891508, 1424.81], [-121.49531934410334, 47.41581520065665, 1422.41], [-121.49526569992304, 47.415755270048976, 1418.08], [-121.49525262415409, 47.41571545600891, 1416.64], [-121.49515531025827, 47.41565275937319, 1412.79], [-121.49509982205927, 47.41557916626334, 1407.03], [-121.49511423893273, 47.41553457453847, 1404.62], [-121.49499203078449, 47.41554044187069, 1406.07], [-121.49495900608599, 47.41551999002695, 1407.51], [-121.49495037272573, 47.41548051126301, 1406.55], [-121.49493218399584, 47.4154588021338, 1405.58], [-121.49489555507898, 47.41538688540459, 1401.26], [-121.49481693282723, 47.41528538055718, 1396.45], [-121.49471316486597, 47.4151736497879, 1390.2], [-121.49466035887599, 47.41516828536987, 1388.76], [-121.4946305193007, 47.41515780799091, 1387.8], [-121.49461199529469, 47.415070133283734, 1381.07], [-121.49462741799653, 47.415023781359196, 1378.67], [-121.49455893784761, 47.41493317298591, 1374.34], [-121.49454854428768, 47.414875170215964, 1367.61], [-121.49453412741423, 47.414840552955866, 1366.65], [-121.49451560340822, 47.41483577527106, 1365.21], [-121.4944856800139, 47.414794033393264, 1362.81], [-121.49440010078251, 47.41473318077624, 1357.04], [-121.4944407530129, 47.41466671228409, 1355.6], [-121.49438308551908, 47.414611894637346, 1354.15], [-121.49436322040856, 47.4145470187068, 1350.79], [-121.49437596090138, 47.41442405618727, 1346.46], [-121.4944074768573, 47.41439564153552, 1344.06], [-121.49447252042592, 47.414383152499795, 1344.06], [-121.49455977603793, 47.414339231327176, 1343.1], [-121.4945990871638, 47.414287347346544, 1342.62], [-121.4947029389441, 47.41421937011182, 1340.22], [-121.49472096003592, 47.414224902167916, 1339.73], [-121.49478876963258, 47.4142034444958, 1337.81], [-121.4948223810643, 47.414213083684444, 1336.85], [-121.49486747570336, 47.41411669179797, 1329.16], [-121.49498448707163, 47.41404083557427, 1324.83], [-121.49501407518983, 47.41400705650449, 1321.95], [-121.49505103938282, 47.413980569690466, 1321.95], [-121.495022457093, 47.41390245035291, 1319.07], [-121.49494945071638, 47.41380924358964, 1311.86], [-121.49489890784025, 47.41371997632086, 1301.76], [-121.49486646987498, 47.413677060976624, 1297.44], [-121.49486412294209, 47.41362953558564, 1295.03], [-121.49487879127264, 47.413529958575964, 1290.71], [-121.49480452761054, 47.413447983562946, 1286.38], [-121.49479874409735, 47.41339920088649, 1285.9], [-121.49477284401655, 47.413347736001015, 1282.06], [-121.49473235942423, 47.41332544013858, 1281.09], [-121.49469346739352, 47.4132240191102, 1278.21], [-121.49457804858685, 47.413108767941594, 1277.25], [-121.49455918930471, 47.41302754729986, 1274.85], [-121.49454602971673, 47.41292076185346, 1271.48], [-121.49452356621623, 47.41286426782608, 1269.56], [-121.4945404138416, 47.41282470524311, 1267.16], [-121.49453496560454, 47.412785310298204, 1267.16], [-121.49450210854411, 47.41272655315697, 1264.27], [-121.49459321983159, 47.41268439218402, 1260.91], [-121.49461803026497, 47.41265622898936, 1259.46], [-121.49464443325996, 47.4126026686281, 1256.58], [-121.49464434944093, 47.41251130588353, 1253.22], [-121.49461107328534, 47.41243779659271, 1251.77], [-121.49457754567266, 47.412382643669844, 1250.33], [-121.49456069804728, 47.4123243894428, 1247.45], [-121.49456547573209, 47.412271331995726, 1246.49], [-121.49453798308969, 47.41214987821877, 1244.08], [-121.49448811076581, 47.4120603594929, 1242.64], [-121.49448802694678, 47.41202373057604, 1242.64], [-121.49447562173009, 47.411956591531634, 1241.68], [-121.49449741467834, 47.41188350133598, 1238.8], [-121.494554663077, 47.41180186159909, 1233.03], [-121.49452541023493, 47.41177369840443, 1230.14], [-121.49444092065096, 47.4117165338248, 1224.38], [-121.49446816183627, 47.41169457323849, 1218.13], [-121.4944246597588, 47.41166079416871, 1215.72], [-121.49439842440188, 47.411606060341, 1215.24], [-121.49438585154712, 47.411612179130316, 1214.76], [-121.49433681741357, 47.41160321049392, 1214.76], [-121.49423782713711, 47.41147035732865, 1203.71], [-121.49421536363661, 47.41137145087123, 1195.06], [-121.49422558955848, 47.41130959242582, 1188.81], [-121.49419113993645, 47.41122929379344, 1184.0], [-121.49419533088803, 47.411181181669235, 1179.67], [-121.49423179216683, 47.41110507398844, 1177.27], [-121.49425769224763, 47.411143127828836, 1177.27], [-121.49421184323728, 47.4111173953861, 1179.67], [-121.49422039277852, 47.4110864661634, 1178.23], [-121.49427370168269, 47.411044305190444, 1176.79], [-121.4942023716867, 47.41099728271365, 1174.39], [-121.4941743761301, 47.410962749272585, 1173.91], [-121.49414730258286, 47.4109049141407, 1171.02], [-121.49408007971942, 47.4108203407377, 1169.58], [-121.49403339251876, 47.41077390499413, 1165.26], [-121.49402643553913, 47.410722356289625, 1163.81], [-121.49397262372077, 47.41065940819681, 1162.37], [-121.4939105976373, 47.41059604100883, 1158.05], [-121.49381998926401, 47.41053485311568, 1155.16], [-121.49385494180024, 47.41050501354039, 1154.2], [-121.49381035007536, 47.41042387671769, 1149.39], [-121.49381118826568, 47.410407196730375, 1148.43], [-121.49374245665967, 47.410345422104, 1140.74], [-121.49366542696953, 47.41029663942754, 1133.53], [-121.49360792711377, 47.41028096526861, 1123.92], [-121.49362393654883, 47.410228829830885, 1122.0], [-121.49368629790843, 47.41013688035309, 1116.23], [-121.49374186992645, 47.41007963195443, 1117.67], [-121.49381160736084, 47.41003914736211, 1118.15], [-121.49384672753513, 47.40997125394642, 1111.42], [-121.49390707723796, 47.40994753316045, 1111.9], [-121.49397497065365, 47.40991258062422, 1114.31], [-121.4940623100847, 47.4098567571491, 1123.44], [-121.49407756514847, 47.409834461286664, 1132.57], [-121.49410329759121, 47.409767573699355, 1134.49], [-121.49419432505965, 47.40970999002457, 1130.65], [-121.49416364729404, 47.40963782183826, 1112.38], [-121.49418845772743, 47.40955341607332, 1109.02], [-121.49419290013611, 47.40946255624294, 1109.02], [-121.49422047659755, 47.40938426926732, 1108.06], [-121.49424755014479, 47.409330708906054, 1108.06], [-121.49429298005998, 47.40927522070706, 1105.65], [-121.49429524317384, 47.409215960651636, 1101.81], [-121.49433413520455, 47.40912132896483, 1095.56], [-121.49449506774545, 47.40899140946567, 1091.71], [-121.49451417848468, 47.408853359520435, 1086.43], [-121.49456103332341, 47.408773647621274, 1084.02], [-121.4945615362376, 47.40872276946902, 1075.37], [-121.49457167834044, 47.4086272995919, 1065.28], [-121.4945427607745, 47.408484388142824, 1059.03], [-121.4945544116199, 47.4084079451859, 1058.55], [-121.49455273523927, 47.40838606841862, 1056.63], [-121.49457176215947, 47.4083093740046, 1049.9], [-121.49460227228701, 47.40824625827372, 1042.21], [-121.49462666362524, 47.40818129852414, 1036.92], [-121.49465901777148, 47.40816721692681, 1032.59], [-121.49470310658216, 47.4080868344754, 1025.38], [-121.4947061240673, 47.408037800341845, 1020.58], [-121.49473688565195, 47.40801282227039, 1020.58], [-121.49469279684126, 47.40802438929677, 1010.48], [-121.49464887566864, 47.408055402338505, 1008.56], [-121.49466949515045, 47.40805892273784, 1009.52], [-121.49467276409268, 47.40800586529076, 1012.89], [-121.49465566501021, 47.408003099262714, 1011.93], [-121.49468148127198, 47.40795213729143, 1016.73], [-121.49461970664561, 47.40795540623367, 1010.96], [-121.49459145963192, 47.40787393413484, 1009.04], [-121.4946527313441, 47.40781785920262, 1005.68], [-121.4946408290416, 47.4077464453876, 999.91], [-121.49464812129736, 47.4076877720654, 997.99], [-121.49452465586364, 47.40760303102434, 997.51], [-121.49449355900288, 47.407544357702136, 993.66], [-121.49453580379486, 47.40749917924404, 991.74], [-121.49450747296214, 47.407488618046045, 987.41], [-121.49445810355246, 47.407443188130856, 987.41], [-121.4944352209568, 47.407408989965916, 982.6], [-121.49435458704829, 47.407321063801646, 976.36], [-121.49427596479654, 47.407223246991634, 970.59], [-121.49423556402326, 47.40711210295558, 968.18], [-121.49420589208603, 47.40705535747111, 967.7], [-121.49417705833912, 47.40702065639198, 966.26], [-121.49416322819889, 47.40696064196527, 963.86], [-121.49416523985565, 47.4069382622838, 962.9], [-121.49412232451141, 47.406850419938564, 958.09], [-121.49402878247201, 47.40675788372755, 955.21], [-121.49395678192377, 47.40665688179433, 952.32], [-121.49389668367803, 47.40656325593591, 948.0], [-121.49387799203396, 47.4064826220274, 947.52], [-121.49386592209339, 47.40638698451221, 945.59], [-121.49383775889874, 47.4062751699239, 943.67], [-121.49386692792177, 47.40625471808016, 939.83], [-121.49381630122662, 47.406188920140266, 937.42], [-121.4937758166343, 47.40610753186047, 935.02], [-121.49376508779824, 47.40603603422642, 929.73], [-121.49372200481594, 47.405975768342614, 926.85], [-121.49359996430576, 47.405840400606394, 922.52], [-121.49363282136619, 47.40577753633261, 918.68], [-121.49363743141294, 47.40571643225849, 914.35], [-121.4936256967485, 47.40567217580974, 912.91], [-121.4936013892293, 47.40552834235132, 909.06], [-121.4936066698283, 47.40551769733429, 908.1], [-121.49347960017622, 47.40541795268655, 905.22], [-121.49345981888473, 47.405378641560674, 900.41], [-121.4934801030904, 47.40536372177303, 896.57], [-121.49348370730877, 47.405307395383716, 892.72], [-121.49347549304366, 47.40525961853564, 894.16], [-121.49348655715585, 47.40527160465717, 892.24], [-121.49344196543097, 47.40527328103781, 879.74], [-121.49344774894416, 47.40523623302579, 880.22], [-121.49347214028239, 47.40520027466118, 878.3], [-121.49321230128407, 47.40526992827654, 884.07], [-121.49313594214618, 47.40528300404549, 886.95], [-121.4930952899158, 47.40525785833597, 888.4], [-121.49296377785504, 47.40525986999273, 896.09], [-121.49288557469845, 47.40524595603347, 900.89], [-121.49278800934553, 47.40521192550659, 904.26], [-121.49279437959194, 47.405218882486224, 907.14], [-121.49289043620229, 47.405188204720616, 911.95], [-121.49294072762132, 47.405168171972036, 911.47], [-121.49308581836522, 47.40512676537037, 914.35], [-121.49318623356521, 47.405076725408435, 913.87], [-121.49324163794518, 47.40503045730293, 909.54], [-121.49318497627974, 47.404937418177724, 907.62], [-121.49313719943166, 47.40490355528891, 908.1], [-121.49309855885804, 47.40490464493632, 906.66], [-121.49303653277457, 47.40491654723883, 903.78], [-121.49293343536556, 47.40482811816037, 901.85], [-121.49281692691147, 47.404792830348015, 898.97], [-121.49275741539896, 47.40482032299042, 898.49], [-121.49269253946841, 47.40477120503783, 898.01], [-121.49262967519462, 47.40454941987991, 895.12], [-121.49255717173219, 47.40458378568292, 887.91], [-121.49253311567008, 47.404668694362044, 880.22], [-121.49248408153653, 47.404681937769055, 875.9], [-121.49235181510448, 47.40460264496505, 869.17], [-121.4922886993736, 47.40455796942115, 864.84], [-121.49223044514656, 47.4045034032315, 862.92], [-121.49220060557127, 47.40445294417441, 860.04], [-121.4921177085489, 47.40442059002817, 857.15], [-121.4920558501035, 47.404410699382424, 857.63], [-121.49202609434724, 47.404435593634844, 860.52], [-121.4919208176434, 47.404440036043525, 872.05], [-121.49189751595259, 47.40443433634937, 871.57], [-121.49185761809349, 47.40437834523618, 870.61], [-121.49185460060835, 47.404316486790776, 870.61], [-121.49183473549783, 47.40434288978577, 863.4], [-121.49177405051887, 47.40429385565221, 865.32], [-121.49160389788449, 47.4042066000402, 866.29], [-121.49143533781171, 47.40422839298844, 866.29], [-121.49136543273926, 47.40418958477676, 865.8], [-121.49134062230587, 47.40414365194738, 865.8], [-121.49131044745445, 47.40397651679814, 865.8], [-121.49128530174494, 47.403975343331695, 865.8], [-121.49126350879669, 47.40380602888763, 867.25], [-121.49124012328684, 47.40376244299114, 867.25], [-121.49115060456097, 47.40369748324156, 860.04], [-121.4910320006311, 47.40375506691635, 851.38], [-121.49094181135297, 47.40371215157211, 849.94], [-121.49073855020106, 47.40381516516209, 844.18], [-121.49057828821242, 47.40386470220983, 849.94], [-121.49053285829723, 47.40381566807628, 853.31], [-121.49044870398939, 47.40371667779982, 858.11], [-121.49034912697971, 47.40365104749799, 861.0], [-121.49030780419707, 47.403633780777454, 860.04], [-121.49024192243814, 47.4036917835474, 859.56], [-121.49010546505451, 47.40375565364957, 863.88], [-121.49006481282413, 47.40370620042086, 866.29], [-121.48993204347789, 47.40355943329632, 867.73], [-121.48983749561012, 47.40344485267997, 867.25], [-121.4896775688976, 47.40332624875009, 866.29], [-121.4896677620709, 47.40330277942121, 865.8], [-121.48950305767357, 47.40316204726696, 866.29], [-121.48943030275404, 47.403088537976146, 865.8], [-121.48929786868393, 47.403028942644596, 865.32], [-121.48917507380247, 47.402933053672314, 864.84], [-121.48908262141049, 47.402914613485336, 861.96], [-121.48901992477477, 47.402893071994185, 861.0], [-121.48896787315607, 47.402898939326406, 859.08], [-121.4888210222125, 47.40281310863793, 857.63], [-121.48880082182586, 47.40278377197683, 858.11], [-121.48873284459114, 47.402740605175495, 858.59], [-121.48853511549532, 47.40274630486965, 855.23], [-121.48848943412304, 47.40272367373109, 855.23], [-121.48848054930568, 47.40270473062992, 854.75], [-121.4882821496576, 47.40270615555346, 852.35], [-121.48816832341254, 47.402696181088686, 850.9], [-121.48802926763892, 47.40277740173042, 848.02], [-121.48775140754879, 47.40286918357015, 836.48], [-121.48750590160489, 47.403012262657285, 823.99], [-121.48737606592476, 47.40301578305662, 825.91], [-121.48737329989672, 47.40299683995545, 826.39], [-121.48721748031676, 47.402916373685, 828.79], [-121.48708621971309, 47.40289625711739, 835.04], [-121.48704590275884, 47.40273356437683, 836.0], [-121.4870291389525, 47.402698108926415, 835.52], [-121.48698664270341, 47.40267346613109, 834.08], [-121.48690299130976, 47.40266692824662, 831.2], [-121.48676033131778, 47.4026298802346, 830.24], [-121.48669889196754, 47.40259970538318, 828.79], [-121.48661918006837, 47.40248244255781, 828.79], [-121.48651532828808, 47.4023793451488, 827.83], [-121.48642430081964, 47.40243365988135, 826.39], [-121.48636830970645, 47.402431229129434, 825.43], [-121.48622774519026, 47.402450339868665, 822.06], [-121.48615398444235, 47.402493339031935, 819.18], [-121.48607796058059, 47.402511863037944, 818.22], [-121.48601476103067, 47.40254354663193, 817.26], [-121.48593471385539, 47.402525609359145, 815.82], [-121.48586791008711, 47.40250448696315, 814.37], [-121.48569331504405, 47.402366772294044, 811.01], [-121.4856096636504, 47.40237473510206, 810.05], [-121.48542341776192, 47.40242946892977, 809.57], [-121.48539206944406, 47.40242469124496, 807.64], [-121.48527028039098, 47.40248378366232, 804.28], [-121.48519962094724, 47.40250549279153, 800.92], [-121.48515628650784, 47.402461571618915, 799.47], [-121.4849756564945, 47.4023724719882, 793.22], [-121.48491916246712, 47.402360485866666, 793.22], [-121.48475730791688, 47.402423517778516, 792.26], [-121.48471858352423, 47.40244212560356, 792.26], [-121.48455832153559, 47.40244849584997, 791.78], [-121.48444793187082, 47.40229083225131, 786.02], [-121.48438833653927, 47.40219879895449, 785.05], [-121.48425556719303, 47.4020754173398, 782.65], [-121.48416462354362, 47.40206703543663, 777.84], [-121.48411047644913, 47.402053624391556, 777.36], [-121.48402229882777, 47.401987574994564, 779.77], [-121.48388667963445, 47.40203199908137, 783.61], [-121.48384845815599, 47.402023784816265, 785.05], [-121.4836854301393, 47.40192814730108, 793.71], [-121.48363270796835, 47.401913898065686, 796.11], [-121.48339265026152, 47.402074160054326, 793.71], [-121.48325778543949, 47.402030071243644, 791.78], [-121.48314119316638, 47.401967123150826, 787.94], [-121.48309282958508, 47.40194843150675, 786.98], [-121.48292686790228, 47.40196142345667, 785.05], [-121.48290691897273, 47.40198992192745, 784.57], [-121.48277884349227, 47.40184558555484, 779.77], [-121.4826893247664, 47.40178833715618, 775.44], [-121.48258279077709, 47.40170929580927, 771.11], [-121.48247147910297, 47.40167853422463, 768.23], [-121.4823801163584, 47.401729160919785, 767.27], [-121.48231046274304, 47.4017527140677, 766.31], [-121.48208985105157, 47.40186167880893, 766.31], [-121.48203511722386, 47.40185782313347, 765.83], [-121.48193688131869, 47.40165674127638, 765.35], [-121.48180746473372, 47.40155347622931, 765.83], [-121.48167419247329, 47.401505280286074, 769.67], [-121.48153354413807, 47.401517098769546, 770.63], [-121.48150688968599, 47.401506789028645, 769.67], [-121.48136992938817, 47.40135071799159, 766.79], [-121.48122978396714, 47.401312161237, 759.58], [-121.48102493025362, 47.401210656389594, 755.25], [-121.48093440569937, 47.40114745683968, 752.85], [-121.48081731051207, 47.4011757876724, 749.97], [-121.48065419867635, 47.40116120316088, 744.68], [-121.48043861612678, 47.40105601027608, 737.95], [-121.48023527115583, 47.40091586485505, 734.1], [-121.48009185679257, 47.40079793147743, 736.03], [-121.48006696254015, 47.400772450491786, 736.03], [-121.47996118292212, 47.40064127370715, 735.07], [-121.47985934279859, 47.40062015131116, 737.47], [-121.47979865781963, 47.400591569021344, 737.47], [-121.47955683991313, 47.400435246527195, 734.1], [-121.47954426705837, 47.40039451047778, 731.7], [-121.47956471890211, 47.400351176038384, 726.41], [-121.47975272499025, 47.40027414634824, 714.4], [-121.47994106635451, 47.400239361450076, 707.19], [-121.48018925450742, 47.40023173391819, 702.86], [-121.4803456608206, 47.40024900063872, 696.61], [-121.48047683760524, 47.4002552870661, 693.73], [-121.48055948317051, 47.400306249037385, 692.29], [-121.48076844401658, 47.40033726207912, 692.77], [-121.48080767132342, 47.40034916438162, 692.29], [-121.48099995218217, 47.400385374203324, 693.25], [-121.4810832682997, 47.40040423348546, 694.69], [-121.48128300905228, 47.40047556348145, 693.73], [-121.4815322868526, 47.40050640888512, 692.77], [-121.48177552968264, 47.400499787181616, 686.52], [-121.48180067539215, 47.4005074147135, 685.56], [-121.4820053614676, 47.40053180605173, 684.12], [-121.48218926042318, 47.40049517713487, 684.6], [-121.48232974112034, 47.400477323681116, 686.52], [-121.48248841054738, 47.40046391263604, 690.36], [-121.48261380381882, 47.40044429898262, 694.21], [-121.48285620845854, 47.40039769560099, 691.81], [-121.48298721760511, 47.40039543248713, 695.17], [-121.48313909769058, 47.40036282688379, 698.53], [-121.48320623673499, 47.4003313947469, 707.67], [-121.4833405148238, 47.40025193430483, 712.95], [-121.48356171324849, 47.40019544027746, 711.51], [-121.48383705876768, 47.40018026903272, 704.3], [-121.48403001017869, 47.40014565177262, 699.02], [-121.48418289609253, 47.40012335591018, 697.09], [-121.48432890884578, 47.40010483190417, 692.29], [-121.48443410173059, 47.40013584494591, 684.6], [-121.48449160158634, 47.40013500675559, 683.15], [-121.48457324132323, 47.40011983551085, 687.0], [-121.48465831764042, 47.400081949308515, 690.84], [-121.48490549996495, 47.40005135536194, 688.44], [-121.48506299592555, 47.400021348148584, 687.0], [-121.48535938002169, 47.39995697513223, 678.83], [-121.48544982075691, 47.39994524046779, 677.87], [-121.48552509024739, 47.39994163624942, 675.94], [-121.48584502749145, 47.399888494983315, 662.01], [-121.4859876036644, 47.399892434477806, 656.72], [-121.48605792783201, 47.39987541921437, 662.01], [-121.48613495752215, 47.39981087855995, 670.66], [-121.48628457449377, 47.39971767179668, 681.23], [-121.48671749979258, 47.399592865258455, 680.27], [-121.48691598325968, 47.399555649608374, 678.83], [-121.48706886917353, 47.399492198601365, 676.42], [-121.48728696629405, 47.39946252666414, 673.54], [-121.48750632070005, 47.399425311014056, 666.81], [-121.48754915222526, 47.39941466599703, 665.37], [-121.48762056604028, 47.39933998323977, 660.08], [-121.48755761794746, 47.39924065768719, 657.68], [-121.48742920719087, 47.39918315783143, 659.6], [-121.48745301179588, 47.39906815811992, 655.28], [-121.48738469928503, 47.39882114343345, 651.91], [-121.48733767680824, 47.39854068495333, 663.45], [-121.48728981614113, 47.398332227021456, 680.27], [-121.48733449168503, 47.39805386401713, 697.57], [-121.48723156191409, 47.39795428700745, 696.61], [-121.48693920113146, 47.398159224539995, 681.23], [-121.48673778399825, 47.39835284650326, 665.37], [-121.48661591112614, 47.39846767857671, 649.51], [-121.48657450452447, 47.39846080541611, 647.59], [-121.48657861165702, 47.39837061613798, 644.22], [-121.48656846955419, 47.39830356091261, 645.66], [-121.48642899468541, 47.3980899900198, 644.22], [-121.48633847013116, 47.39801446907222, 643.26], [-121.48629748262465, 47.397840209305286, 633.65], [-121.48634098470211, 47.39787030033767, 624.03], [-121.48640996776521, 47.397857727482915, 620.67], [-121.48657609708607, 47.39785613492131, 610.09], [-121.48654785007238, 47.397853285074234, 606.73], [-121.48654080927372, 47.39781933836639, 603.85], [-121.4865796174854, 47.397803496569395, 600.48], [-121.48655321449041, 47.39779260009527, 599.52], [-121.48663125000894, 47.397787403315306, 586.06], [-121.48668330162764, 47.397799808532, 576.45], [-121.48666025139391, 47.39777239970863, 574.04]]}}