{"type": "Feature", "properties": {}, "geometry": {"type": "LineString", "coordinates": [[-121.66569728404284, 47.46878589503467, 335.64], [-121.66532831266522, 47.46886300854385, 338.04], [-121.66484543122351, 47.469049505889416, 338.52], [-121.66441661305726, 47.46901790611446, 341.41], [-121.66399986483157, 47.4692127853632, 351.02], [-121.66354808025062, 47.469319654628634, 370.24], [-121.66329477913678, 47.469349494203925, 378.42], [-121.66273285634816, 47.46946943923831, 396.68], [-121.6623936407268, 47.46951235458255, 404.85], [-121.66211645118892, 47.46959927491844, 411.1], [-121.66200840845704, 47.46958184055984, 415.43], [-121.6615788359195, 47.46984528377652, 473.11], [-121.66124272160232, 47.469953494146466, 494.74], [-121.66087525896728, 47.47011886909604, 503.39], [-121.66063989512622, 47.470093220472336, 499.06], [-121.66060938499868, 47.47003924101591, 501.46], [-121.66082723066211, 47.469875207170844, 521.17], [-121.660937955603, 47.46960740536451, 527.9], [-121.6608740016818, 47.46948427520692, 529.82], [-121.66076252236962, 47.46942937374115, 530.79], [-121.66061290539801, 47.469441862776875, 534.15], [-121.66026371531188, 47.46954973787069, 530.3], [-121.65997730568051, 47.469672448933125, 520.69], [-121.66024100035429, 47.46949181891978, 521.17], [-121.6603477858007, 47.4693354126066, 524.06], [-121.66055507026613, 47.468869630247355, 533.67], [-121.66070787236094, 47.46857911348343, 547.13], [-121.66074768640101, 47.46838264167309, 550.49], [-121.6608827188611, 47.4680557474494, 562.03], [-121.66103267110884, 47.467784341424704, 572.6], [-121.66096645407379, 47.4677275121212, 575.01], [-121.66077652014792, 47.46774394065142, 573.08], [-121.66056772693992, 47.46785407885909, 564.91], [-121.66032984852791, 47.467911494895816, 563.47], [-121.65988082997501, 47.468164041638374, 575.01], [-121.65932485833764, 47.46854189783335, 575.49], [-121.65875036269426, 47.468714229762554, 573.08], [-121.65862957946956, 47.46877332217991, 579.81], [-121.65882932022214, 47.46875219978392, 600.96], [-121.65895521640778, 47.46849571354687, 612.02], [-121.65940473787487, 47.46772851794958, 637.97], [-121.65966608561575, 47.467336831614375, 634.13], [-121.65962032042444, 47.46708998456597, 630.28], [-121.65969089604914, 47.46698529459536, 627.4], [-121.66029196232557, 47.466737776994705, 642.78], [-121.6607999894768, 47.46633787639439, 648.55], [-121.66092479601502, 47.46621013619006, 655.28], [-121.66107550263405, 47.46587703935802, 662.49], [-121.6613301448524, 47.46557788923383, 668.73], [-121.66169341653585, 47.46522677130997, 658.64], [-121.66186801157892, 47.46510858647525, 655.28], [-121.66185703128576, 47.46494472026825, 652.39], [-121.66179349645972, 47.46481035836041, 643.74], [-121.66167162358761, 47.464793007820845, 636.53], [-121.66136174462736, 47.464904990047216, 631.24], [-121.66088975965977, 47.46503968723118, 634.13], [-121.66049430146813, 47.46531939134002, 643.26], [-121.66057309135795, 47.465167846530676, 645.18], [-121.66086151264608, 47.46505376882851, 645.66], [-121.66105488315225, 47.46481345966458, 649.51], [-121.66128764860332, 47.46457256376743, 658.64], [-121.66137406602502, 47.46418037451804, 673.54], [-121.66151161305606, 47.464122623205185, 678.35], [-121.66178343817592, 47.46393461711705, 687.96], [-121.66212181560695, 47.46378709562123, 699.02], [-121.6623473726213, 47.46365373954177, 707.19], [-121.6627031005919, 47.463353583589196, 713.44], [-121.66286654770374, 47.46314210817218, 718.72], [-121.66292597539723, 47.46298737823963, 712.95], [-121.66283017024398, 47.46295510791242, 710.07], [-121.66230512782931, 47.463069101795554, 713.44], [-121.66202852502465, 47.46323171071708, 711.99], [-121.66188402101398, 47.46335584670305, 709.11], [-121.66152477264404, 47.463436564430594, 710.07], [-121.6610523685813, 47.46364602819085, 714.4], [-121.66083427146077, 47.463714173063636, 720.16], [-121.66029129177332, 47.464063949882984, 728.34], [-121.65976381860673, 47.4642529617995, 732.66], [-121.65915017947555, 47.46443501673639, 746.12], [-121.65890911594033, 47.46452461928129, 747.56], [-121.65850603021681, 47.464578514918685, 750.45], [-121.65831810794771, 47.4647313170135, 748.52], [-121.6580268368125, 47.46491689234972, 744.68], [-121.65777118876576, 47.464970871806145, 744.2], [-121.65732468478382, 47.4651147890836, 745.64], [-121.65709175169468, 47.46515485458076, 747.56], [-121.65681757964194, 47.46514798142016, 751.89], [-121.65668657049537, 47.46518754400313, 754.77], [-121.65651306509972, 47.46514638885856, 759.1], [-121.65638264268637, 47.46522559784353, 762.94], [-121.65624585002661, 47.4654031265527, 768.71], [-121.65611919946969, 47.4656415078789, 771.11], [-121.65575877763331, 47.46617811731994, 779.29], [-121.65553892031312, 47.46634894050658, 779.77], [-121.65488563477993, 47.466581370681524, 805.72], [-121.6546641010791, 47.46669301763177, 813.41], [-121.65450593456626, 47.46682746335864, 823.03], [-121.65375038981438, 47.467248905450106, 842.25], [-121.65353011339903, 47.46735284104943, 845.14], [-121.65331587195396, 47.46753053739667, 842.25], [-121.65340421721339, 47.46754000894725, 844.18], [-121.65359138511121, 47.467237170785666, 842.73], [-121.65360043756664, 47.467077327892184, 843.21], [-121.6537819057703, 47.46683827601373, 850.9], [-121.65393495932221, 47.466571563854814, 861.0], [-121.65411282330751, 47.466012155637145, 869.65], [-121.65412170812488, 47.465835213661194, 870.61], [-121.65421843528748, 47.465680819004774, 873.5], [-121.6543931979686, 47.46530547738075, 870.61], [-121.6544346883893, 47.46513297781348, 871.09], [-121.65441054850817, 47.46478395536542, 886.95], [-121.65502360090613, 47.46433803811669, 933.1], [-121.65532099083066, 47.46405657380819, 931.65], [-121.65536692366004, 47.46389471925795, 938.86], [-121.65568719618022, 47.46364393271506, 964.82], [-121.65619195438921, 47.46318527497351, 997.51], [-121.656413404271, 47.463066251948476, 995.1], [-121.65718680247664, 47.46254841797054, 935.5], [-121.65732988156378, 47.462367033585906, 924.93], [-121.65746977552772, 47.46199864894152, 908.1], [-121.65726299397647, 47.46226167306304, 898.49], [-121.65704774670303, 47.46245613321662, 890.32], [-121.65689653716981, 47.46252159588039, 889.84], [-121.6564572416246, 47.46277766302228, 889.36], [-121.6558697540313, 47.462954269722104, 898.97], [-121.65559826418757, 47.46300489641726, 906.18], [-121.65513751097023, 47.463237745687366, 919.16], [-121.65409765206277, 47.46399865485728, 920.12], [-121.65400411002338, 47.4640232976526, 920.12], [-121.65369481779635, 47.46375968679786, 920.12], [-121.65370135568082, 47.46369196102023, 920.12], [-121.65392003953457, 47.46375256218016, 921.56], [-121.6538321133703, 47.463944256305695, 922.04], [-121.65363765321672, 47.46384928934276, 934.54], [-121.65349130518734, 47.463898826390505, 940.31], [-121.65322434157133, 47.46421189047396, 945.11], [-121.65301420725882, 47.46450106613338, 949.92], [-121.65296483784914, 47.464622436091304, 952.8], [-121.65252327919006, 47.46504991315305, 955.21], [-121.65226930752397, 47.46520112268627, 948.96], [-121.65213502943516, 47.46537580154836, 950.4], [-121.65195733308792, 47.46550706215203, 953.28], [-121.65184224955738, 47.465538661926985, 958.57], [-121.65186077356339, 47.465614853426814, 966.26], [-121.65174325928092, 47.46583831496537, 979.72], [-121.65155827067792, 47.46601534076035, 980.68], [-121.6510468069464, 47.46637693606317, 972.51], [-121.65063341148198, 47.466621017083526, 982.12], [-121.65020677261055, 47.46682142838836, 988.37], [-121.65010996162891, 47.466812962666154, 987.89], [-121.65023476816714, 47.466587740927935, 988.85], [-121.65067029185593, 47.46628263965249, 987.89], [-121.65071521885693, 47.4661093018949, 995.1], [-121.65066962130368, 47.46597535908222, 1010.96], [-121.65057557635009, 47.46608482673764, 1015.29], [-121.64993016980588, 47.46638288721442, 1007.6], [-121.64964325726032, 47.46640468016267, 1010.48], [-121.64944452233613, 47.46633536182344, 1014.81], [-121.64923212490976, 47.466323962435126, 1019.13], [-121.6488984413445, 47.466389425098896, 1023.94], [-121.64862334728241, 47.466472908854485, 1022.98], [-121.64847926236689, 47.46641197241843, 1025.38], [-121.64813049137592, 47.46608407236636, 1048.94], [-121.64802194572985, 47.46606655418873, 1055.67], [-121.64769915863872, 47.46583697386086, 1098.92], [-121.64750545285642, 47.465813839808106, 1113.82], [-121.64720370434225, 47.46588969603181, 1123.44], [-121.6468468029052, 47.46590830385685, 1139.3], [-121.64646366611123, 47.466058507561684, 1165.26], [-121.64644145406783, 47.465967228636146, 1176.31], [-121.64655167609453, 47.465935461223125, 1186.4], [-121.64668905548751, 47.46578961610794, 1184.0], [-121.6468518320471, 47.46572884730995, 1175.35], [-121.64673943072557, 47.46563874185085, 1183.52], [-121.64619008079171, 47.4656724371016, 1220.53], [-121.64609989151359, 47.46562977321446, 1231.11], [-121.64615110494196, 47.46545341797173, 1275.81], [-121.64629510603845, 47.46523490175605, 1330.6], [-121.64660783484578, 47.46521822176874, 1349.83], [-121.64678930304945, 47.46514161117375, 1352.71], [-121.64707026444376, 47.465147813782096, 1324.83], [-121.64725231938064, 47.4649437982589, 1253.7], [-121.64740084670484, 47.464841455221176, 1206.11], [-121.64765322580934, 47.46505510993302, 1200.34], [-121.64791180752218, 47.46507438831031, 1196.5], [-121.64818556047976, 47.465007081627846, 1194.09], [-121.64805706590414, 47.464980678632855, 1191.21], [-121.64833802729845, 47.46485134586692, 1190.25], [-121.64828253909945, 47.46472494676709, 1188.81], [-121.64833819493651, 47.46455965563655, 1193.61], [-121.64827633649111, 47.464434346184134, 1196.5], [-121.64859736338258, 47.46413226239383, 1208.03], [-121.648672465235, 47.46400988660753, 1214.76], [-121.64870968088508, 47.4635536596179, 1227.26], [-121.64877405390143, 47.46334654279053, 1220.05], [-121.64899273775518, 47.46308653615415, 1193.61], [-121.64897195063531, 47.46291504241526, 1190.25], [-121.64878604002297, 47.46271555311978, 1196.5], [-121.64875217713416, 47.46250743046403, 1195.54], [-121.64878620766103, 47.462326884269714, 1197.94], [-121.64851002395153, 47.46225622482598, 1201.3], [-121.64837071672082, 47.46238639578223, 1207.55], [-121.64820559322834, 47.462412212044, 1207.55], [-121.64820718578994, 47.46230257675052, 1212.84], [-121.64795371703804, 47.46236560866237, 1209.96], [-121.64783243089914, 47.46244054287672, 1209.48], [-121.64760796353221, 47.462400142103434, 1215.72], [-121.64738986641169, 47.462241891771555, 1229.66], [-121.64729380980134, 47.46222705580294, 1232.55], [-121.64728903211653, 47.46209713630378, 1237.83], [-121.64715383201838, 47.46203552931547, 1240.72], [-121.64682827889919, 47.4619890935719, 1243.12], [-121.64662350900471, 47.46192446909845, 1246.49], [-121.64646760560572, 47.46193025261164, 1245.04], [-121.64627968333662, 47.462026476860046, 1242.16], [-121.64605731144547, 47.462009377777576, 1242.64], [-121.64588992483914, 47.46191977523267, 1243.12], [-121.64556009694934, 47.46201817877591, 1247.45], [-121.64524652995169, 47.461998062208295, 1258.98], [-121.64510169066489, 47.46203410439193, 1265.71], [-121.64473531767726, 47.46202957816422, 1278.69], [-121.64463263936341, 47.46199772693217, 1287.82], [-121.64436123333871, 47.46201038360596, 1295.51], [-121.64419929496944, 47.46193771250546, 1301.28], [-121.64416207931936, 47.461845595389605, 1303.2], [-121.64385597221553, 47.46174819767475, 1309.45], [-121.64346772246063, 47.461776277050376, 1315.7], [-121.64296606555581, 47.46193829923868, 1334.45], [-121.64276448078454, 47.46195137500763, 1339.73], [-121.64245476946235, 47.46201633475721, 1348.87], [-121.6421982832253, 47.46229796670377, 1358.48], [-121.64150275290012, 47.46239326894283, 1395.49], [-121.64107913151383, 47.46253525838256, 1414.24], [-121.64054897613823, 47.46256124228239, 1433.46], [-121.6402465570718, 47.462503826245666, 1439.71], [-121.63977012969553, 47.46250835247338, 1456.05], [-121.63962059654295, 47.46251874603331, 1458.94], [-121.63985570892692, 47.46253081597388, 1452.21], [-121.6399875562638, 47.46249804273248, 1447.88], [-121.64048552513123, 47.4625538662076, 1435.87], [-121.64075575768948, 47.46254757978022, 1423.85], [-121.64087310433388, 47.462579095736146, 1419.52], [-121.64133721031249, 47.46246334165335, 1404.14], [-121.64145363494754, 47.46239201165736, 1399.34], [-121.64200943894684, 47.462335266172886, 1374.34], [-121.64219467900693, 47.46228866279125, 1358.96], [-121.64234161376953, 47.462089508771896, 1352.71], [-121.64259290322661, 47.461998062208295, 1342.14], [-121.64297142997384, 47.46194802224636, 1332.04], [-121.64341248571873, 47.46179454959929, 1316.18], [-121.64387784898281, 47.46174140833318, 1308.01], [-121.64418881759048, 47.461878284811974, 1299.84], [-121.64431102573872, 47.46202144771814, 1291.67], [-121.64458218030632, 47.46200904250145, 1282.54], [-121.64493924938142, 47.462114403024316, 1264.75], [-121.64519565179944, 47.4621616769582, 1254.66], [-121.64551726542413, 47.462088922038674, 1243.12], [-121.64566369727254, 47.46196864172816, 1240.72], [-121.6459125559777, 47.461993200704455, 1235.43], [-121.64608648046851, 47.462066458538175, 1234.47], [-121.64646056480706, 47.46205531060696, 1229.18], [-121.64655041880906, 47.4621738307178, 1226.3], [-121.64670607075095, 47.462258990854025, 1222.93], [-121.64676734246314, 47.462195036932826, 1221.97], [-121.64688921533525, 47.462221859022975, 1217.65], [-121.64707076735795, 47.46237901970744, 1209.96], [-121.6473684925586, 47.462412463501096, 1204.67], [-121.64749396964908, 47.46247666887939, 1198.9], [-121.64768306538463, 47.46249753981829, 1196.5], [-121.6478378791362, 47.46242185123265, 1194.09], [-121.6480971314013, 47.46251371689141, 1184.48], [-121.64837557822466, 47.46235705912113, 1178.23], [-121.6484111174941, 47.46217114850879, 1171.5], [-121.64851010777056, 47.46214843355119, 1163.81], [-121.64902559481561, 47.46220953762531, 1144.59], [-121.64892878383398, 47.46208028867841, 1137.38], [-121.64895912632346, 47.462023962289095, 1134.97], [-121.64920915849507, 47.462045503780246, 1127.28], [-121.64939129725099, 47.46197593398392, 1123.92], [-121.64981215260923, 47.462063357234, 1118.15], [-121.65008858777583, 47.46224767528474, 1108.54], [-121.65027081035078, 47.46230551041663, 1105.65], [-121.65044632740319, 47.46222345158458, 1102.77], [-121.65078453719616, 47.462164694443345, 1091.23], [-121.65089509449899, 47.46210635639727, 1087.87], [-121.6509828530252, 47.46194249019027, 1086.91], [-121.65121989324689, 47.461912063881755, 1076.81], [-121.65127873420715, 47.46183645911515, 1071.05], [-121.65143212303519, 47.4617922026664, 1065.76], [-121.65161996148527, 47.46186881326139, 1061.91], [-121.65179179050028, 47.4618543125689, 1058.07], [-121.65165273472667, 47.461632024496794, 1048.45], [-121.65159238502383, 47.46143253520131, 1038.36], [-121.65170721709728, 47.461236817762256, 1032.59], [-121.65182263590395, 47.46119214221835, 1026.34], [-121.65171886794269, 47.46110756881535, 1017.21], [-121.65243384428322, 47.46117152273655, 1003.27], [-121.65286358445883, 47.46126447804272, 994.62], [-121.65308168157935, 47.46138936839998, 994.62], [-121.65354436263442, 47.461484586820006, 982.6], [-121.6538823209703, 47.461518198251724, 976.84], [-121.65407828986645, 47.46161676943302, 968.67], [-121.65435363538563, 47.461654068902135, 961.94], [-121.65453602559865, 47.461460111662745, 952.32], [-121.65451976470649, 47.46136212721467, 943.67], [-121.65462043136358, 47.46128777973354, 935.98], [-121.65456343442202, 47.46118099428713, 931.65], [-121.65473752655089, 47.46110639534891, 922.52], [-121.65491580963135, 47.461156602948904, 921.08], [-121.65517874993384, 47.46097857132554, 910.03], [-121.65528981015086, 47.460990557447076, 903.3], [-121.65554763749242, 47.46080406010151, 886.95], [-121.655676048249, 47.46079048141837, 883.59], [-121.65585475042462, 47.460859045386314, 873.98], [-121.65625758469105, 47.46091310866177, 861.48], [-121.65636034682393, 47.46087606064975, 856.19], [-121.65670190937817, 47.46097312308848, 839.37], [-121.65705906227231, 47.46104260906577, 828.79], [-121.65725151076913, 47.461033472791314, 821.58], [-121.65767680853605, 47.46110379695892, 814.37], [-121.65783455595374, 47.46120932511985, 805.24], [-121.65839186869562, 47.4613450281322, 786.98], [-121.65857962332666, 47.461365815252066, 782.17], [-121.65879654698074, 47.4612136837095, 766.31], [-121.6590435616672, 47.46123606339097, 759.1], [-121.65918353945017, 47.46120823547244, 750.93], [-121.65954245254397, 47.4612622987479, 740.83], [-121.65983422659338, 47.46123790740967, 729.78], [-121.66027612052858, 47.46142951771617, 721.13], [-121.66045851074159, 47.46145843528211, 718.24], [-121.66092965751886, 47.46165130287409, 708.63], [-121.66134623810649, 47.46164015494287, 698.53], [-121.66154044680297, 47.4617060367018, 694.69], [-121.66168277151883, 47.46180293150246, 693.25], [-121.66195794939995, 47.46188490651548, 693.25], [-121.66250629350543, 47.46213041245937, 678.35], [-121.66288373060524, 47.46226913295686, 662.49], [-121.66325261816382, 47.46232311241329, 646.62], [-121.66335496120155, 47.46218925341964, 644.22], [-121.66351505555212, 47.46222076937556, 640.86], [-121.66377648711205, 47.46249728836119, 628.84], [-121.66389299556613, 47.46249536052346, 624.99], [-121.66417102329433, 47.46233216486871, 610.09], [-121.66419256478548, 47.462404165416956, 608.17], [-121.66438325308263, 47.46228371746838, 598.56], [-121.6643985081464, 47.46212110854685, 591.83], [-121.66449691168964, 47.46210333891213, 588.95], [-121.66479648090899, 47.46215723454952, 577.41], [-121.66490770876408, 47.462231665849686, 568.28], [-121.66512588970363, 47.46203343383968, 550.49], [-121.66517249308527, 47.462103171274066, 546.17], [-121.66558865457773, 47.46231447905302, 536.07], [-121.66577942669392, 47.46238782070577, 526.46], [-121.66591739282012, 47.462570713832974, 516.85], [-121.66607975028455, 47.462582532316446, 516.37], [-121.66630639694631, 47.46269568800926, 509.16], [-121.66651141829789, 47.46270004659891, 503.87], [-121.66664242744446, 47.46261010877788, 496.18], [-121.66673907078803, 47.46246200054884, 489.93], [-121.6670445073396, 47.46240567415953, 477.91], [-121.66717593558133, 47.462471053004265, 475.99], [-121.66761975735426, 47.46245076879859, 459.17], [-121.66809132322669, 47.46256115846336, 447.63], [-121.66822685860097, 47.462535090744495, 438.5], [-121.66837588883936, 47.46263508684933, 430.81], [-121.66860370896757, 47.46256962418556, 419.27], [-121.66891752742231, 47.46269082650542, 405.33], [-121.669104360044, 47.46256618760526, 399.57], [-121.66919664479792, 47.46274447068572, 392.84], [-121.66937191039324, 47.462538946419954, 384.18], [-121.66978723369539, 47.462381115183234, 374.09], [-121.66988488286734, 47.462414810433984, 371.69], [-121.66992268525064, 47.46227986179292, 368.32], [-121.66983752511442, 47.4620445817709, 364.96], [-121.66973585262895, 47.46193637140095, 364.96], [-121.66987650096416, 47.46190493926406, 367.84], [-121.67008286342025, 47.46193033643067, 361.59], [-121.67044621892273, 47.46209847740829, 341.41], [-121.67060505598783, 47.462085485458374, 339.48], [-121.67119321413338, 47.46187945827842, 340.92], [-121.67139580473304, 47.461833944544196, 339.96], [-121.67152304202318, 47.46169941499829, 340.92], [-121.67175270617008, 47.46161148883402, 341.41], [-121.6719921771437, 47.461594976484776, 340.92], [-121.67221857234836, 47.46177242137492, 337.56], [-121.67236818931997, 47.461989764124155, 332.27], [-121.67280983179808, 47.462174417451024, 329.39], [-121.67311686091125, 47.46226762421429, 322.66], [-121.67331936769187, 47.46249720454216, 315.45], [-121.67355506680906, 47.46259242296219, 311.6], [-121.67361851781607, 47.46275410987437, 313.53], [-121.67348616756499, 47.46332039125264, 302.95], [-121.67354291304946, 47.46343379840255, 300.07], [-121.67357903905213, 47.46379246003926, 297.18], [-121.67354500852525, 47.46398474089801, 295.74], [-121.67356437072158, 47.46443233452737, 293.34], [-121.67333613149822, 47.46486785821617, 279.4], [-121.67292868718505, 47.4651993624866, 263.06], [-121.67277798056602, 47.46540103107691, 256.33], [-121.67264487594366, 47.4659644626081, 264.5], [-121.67258745990694, 47.466096729040146, 266.9], [-121.67242300696671, 47.46630376204848, 264.98], [-121.67236894369125, 47.46683735400438, 260.17], [-121.67241889983416, 47.46715192683041, 256.81], [-121.67255728505552, 47.46739827096462, 257.29], [-121.67271268554032, 47.467463901266456, 258.25], [-121.67309154756367, 47.46747714467347, 257.77], [-121.67344132438302, 47.46755249798298, 253.93], [-121.6740573104471, 47.467498602345586, 250.08], [-121.67422017082572, 47.46737798675895, 248.16], [-121.67428596876562, 47.467434983700514, 249.6]]}}