{"type": "Feature", "properties": {}, "geometry": {"type": "LineString", "coordinates": [[-157.805494, 21.263677, 69.5], [-157.805494, 21.263661, 69.5], [-157.805498, 21.263646, 69.5], [-157.805505, 21.263634, 69.6], [-157.805515, 21.263627, 69.6], [-157.805528, 21.263622, 69.7], [-157.805538, 21.263623, 69.7], [-157.805552, 21.263618, 69.7], [-157.805564, 21.263596, 69.8], [-157.805587, 21.263565, 69.9], [-157.805599, 21.263546, 70.0], [-157.805632, 21.263513, 70.1], [-157.805656, 21.263498, 70.2], [-157.805692, 21.263485, 70.4], [-157.805708, 21.263482, 70.4], [-157.805727, 21.26349, 70.5], [-157.805751, 21.263521, 70.6], [-157.805759, 21.263529, 70.7], [-157.805801, 21.263546, 70.8], [-157.805826, 21.263555, 70.9], [-157.805863, 21.263563, 71.1], [-157.805891, 21.263577, 71.2], [-157.805905, 21.263587, 71.3], [-157.805921, 21.263605, 71.4], [-157.80593, 21.263611, 71.4], [-157.805953, 21.26362, 71.5], [-157.805972, 21.263625, 71.6], [-157.806043, 21.263631, 71.9], [-157.806076, 21.263632, 72.1], [-157.806102, 21.263627, 72.2], [-157.806141, 21.263622, 72.4], [-157.806169, 21.263625, 72.5], [-157.806213, 21.263628, 72.7], [-157.806235, 21.263634, 72.8], [-157.806272, 21.263653, 73.0], [-157.806278, 21.26366, 73.1], [-157.806296, 21.263667, 73.1], [-157.806328, 21.263676, 73.3], [-157.806344, 21.263684, 73.4], [-157.806379, 21.263704, 73.5], [-157.806397, 21.263709, 73.6], [-157.806465, 21.263743, 74.0], [-157.806482, 21.26375, 74.1], [-157.806573, 21.263795, 74.6], [-157.806602, 21.263804, 74.7], [-157.806649, 21.263814, 75.0], [-157.806704, 21.26383, 75.2], [-157.80674, 21.263843, 75.4], [-157.806767, 21.263858, 75.5], [-157.806788, 21.263866, 75.6], [-157.806838, 21.263897, 75.9], [-157.806869, 21.263914, 76.0], [-157.806883, 21.26392, 76.1], [-157.806926, 21.26393, 76.2], [-157.806962, 21.263936, 76.4], [-157.806987, 21.263938, 76.5], [-157.807007, 21.263946, 76.6], [-157.80707, 21.263969, 76.9], [-157.807111, 21.263986, 77.1], [-157.807161, 21.264001, 77.4], [-157.807178, 21.264004, 77.6], [-157.807216, 21.264006, 77.8], [-157.807249, 21.264003, 78.1], [-157.807261, 21.263998, 78.2], [-157.807281, 21.263996, 78.3], [-157.807297, 21.26399, 78.4], [-157.807311, 21.263981, 78.5], [-157.807328, 21.263954, 78.8], [-157.807358, 21.263926, 79.1], [-157.807375, 21.263905, 79.2], [-157.807394, 21.263872, 79.4], [-157.807411, 21.263848, 79.6], [-157.807407, 21.263842, 79.6], [-157.807411, 21.263833, 79.6], [-157.807418, 21.263828, 79.7], [-157.807432, 21.26383, 79.7], [-157.807462, 21.26379, 79.8], [-157.807483, 21.263771, 79.9], [-157.807503, 21.263744, 79.9], [-157.807523, 21.263719, 79.9], [-157.80755, 21.263673, 80.0], [-157.807557, 21.263659, 80.0], [-157.807569, 21.263628, 80.0], [-157.807584, 21.263599, 80.0], [-157.807603, 21.263575, 80.0], [-157.807634, 21.26354, 80.1], [-157.807652, 21.263506, 80.1], [-157.807683, 21.263475, 80.2], [-157.807692, 21.263463, 80.2], [-157.807712, 21.263421, 80.4], [-157.807739, 21.263386, 80.6], [-157.807748, 21.263377, 80.6], [-157.807781, 21.263362, 80.9], [-157.807808, 21.263346, 81.1], [-157.807852, 21.263328, 81.6], [-157.807877, 21.263313, 82.0], [-157.807899, 21.26329, 82.4], [-157.80794, 21.263253, 83.1], [-157.807963, 21.26323, 83.5], [-157.807976, 21.26322, 83.7], [-157.80801, 21.26319, 84.2], [-157.808023, 21.263176, 84.4], [-157.80804, 21.263152, 84.7], [-157.808054, 21.263128, 84.9], [-157.808064, 21.263104, 85.1], [-157.808068, 21.263088, 85.2], [-157.80807, 21.263056, 85.4], [-157.80808, 21.263023, 85.6], [-157.808086, 21.263011, 85.7], [-157.808104, 21.262983, 85.9], [-157.808128, 21.26296, 86.1], [-157.80816, 21.262941, 86.3], [-157.808175, 21.262918, 86.4], [-157.808192, 21.262887, 86.6], [-157.808218, 21.262853, 86.9], [-157.808242, 21.262833, 87.1], [-157.80827, 21.2628, 87.5], [-157.808295, 21.262774, 87.7], [-157.808317, 21.262747, 88.0], [-157.80834, 21.262724, 88.2], [-157.808357, 21.262711, 88.3], [-157.808393, 21.262681, 88.7], [-157.808409, 21.262665, 88.8], [-157.808429, 21.262624, 89.1], [-157.808437, 21.262612, 89.2], [-157.808459, 21.262593, 89.4], [-157.808487, 21.262576, 89.6], [-157.808547, 21.26255, 90.0], [-157.808584, 21.262537, 90.3], [-157.808635, 21.262522, 90.7], [-157.808667, 21.262514, 90.9], [-157.808721, 21.262496, 91.3], [-157.808812, 21.262461, 92.1], [-157.808828, 21.262456, 92.2], [-157.80887, 21.262459, 92.7], [-157.808909, 21.262467, 93.1], [-157.808948, 21.262473, 93.4], [-157.808983, 21.262482, 93.8], [-157.809011, 21.262486, 94.0], [-157.809022, 21.262486, 94.2], [-157.809043, 21.26248, 94.4], [-157.809073, 21.262474, 94.7], [-157.809105, 21.262471, 95.0], [-157.809157, 21.262471, 95.6], [-157.809185, 21.26247, 95.9], [-157.80923, 21.262473, 96.3], [-157.80928, 21.262471, 96.8], [-157.809324, 21.262472, 97.3], [-157.809378, 21.262476, 97.8], [-157.809419, 21.262481, 98.2], [-157.809451, 21.262489, 98.5], [-157.809464, 21.262494, 98.7], [-157.809491, 21.262509, 99.0], [-157.809522, 21.262531, 99.3], [-157.809542, 21.262547, 99.6], [-157.809584, 21.262573, 100.0], [-157.809595, 21.262574, 100.1], [-157.809613, 21.262571, 100.3], [-157.809638, 21.262557, 100.6], [-157.80968, 21.262527, 101.1], [-157.809744, 21.2625, 101.8], [-157.80978, 21.262491, 102.2], [-157.809846, 21.26248, 102.8], [-157.809888, 21.262476, 103.3], [-157.809913, 21.262464, 103.5], [-157.809942, 21.262444, 103.9], [-157.809959, 21.262429, 104.1], [-157.809986, 21.262409, 104.4], [-157.810013, 21.262395, 104.7], [-157.81005, 21.262386, 105.1], [-157.810137, 21.26238, 106.0], [-157.810194, 21.262367, 106.6], [-157.81022, 21.262351, 106.9], [-157.810228, 21.262343, 107.0], [-157.810255, 21.262321, 107.3], [-157.810267, 21.262292, 107.7], [-157.810275, 21.262277, 107.8], [-157.810283, 21.262267, 107.9], [-157.81029, 21.262247, 108.2], [-157.81031, 21.262227, 108.4], [-157.810334, 21.262206, 108.7], [-157.810371, 21.262177, 109.2], [-157.810392, 21.262156, 109.4], [-157.810422, 21.26211, 110.0], [-157.810426, 21.262096, 110.1], [-157.810438, 21.262068, 110.4], [-157.810446, 21.262056, 110.5], [-157.810465, 21.262039, 110.8], [-157.810506, 21.262013, 111.2], [-157.810516, 21.261998, 111.4], [-157.81052, 21.261986, 111.5], [-157.810523, 21.261956, 111.7], [-157.810521, 21.261925, 112.0], [-157.810525, 21.261895, 112.3], [-157.810531, 21.261863, 112.5], [-157.810532, 21.261848, 112.7], [-157.81054, 21.261822, 112.9], [-157.81054, 21.261802, 113.1], [-157.810547, 21.261784, 113.2], [-157.81057, 21.26175, 113.6], [-157.810583, 21.261768, 113.9], [-157.810596, 21.261776, 114.0], [-157.810609, 21.261794, 113.3], [-157.810611, 21.261809, 113.4], [-157.810616, 21.261826, 112.7], [-157.810621, 21.261853, 112.9], [-157.810623, 21.261874, 114.0], [-157.810633, 21.261905, 114.1], [-157.810654, 21.261927, 114.3], [-157.810667, 21.261935, 116.4], [-157.810703, 21.261948, 117.0], [-157.810738, 21.261956, 119.4], [-157.810778, 21.261959, 121.8], [-157.81079, 21.261969, 122.0], [-157.810789, 21.261979, 122.1], [-157.810776, 21.261997, 122.3], [-157.810762, 21.262012, 122.4], [-157.810759, 21.26202, 122.6], [-157.810736, 21.262058, 120.7], [-157.810725, 21.262086, 120.9], [-157.810723, 21.262102, 121.3], [-157.810728, 21.262121, 121.4], [-157.810739, 21.262128, 121.5], [-157.810753, 21.262143, 125.1], [-157.810797, 21.262158, 127.6], [-157.810849, 21.262181, 132.3], [-157.81088, 21.262196, 134.9], [-157.810896, 21.2622, 135.0], [-157.810929, 21.262204, 137.4], [-157.810942, 21.262201, 137.5], [-157.810977, 21.262197, 139.6], [-157.811007, 21.26219, 139.8], [-157.811027, 21.262184, 141.4], [-157.811044, 21.262177, 140.4], [-157.811033, 21.262157, 140.6], [-157.811019, 21.26215, 140.8], [-157.810977, 21.262138, 138.4], [-157.810888, 21.262121, 133.9], [-157.810849, 21.262112, 131.5], [-157.810834, 21.262103, 129.2], [-157.810826, 21.262091, 128.8], [-157.810832, 21.262071, 128.9], [-157.810845, 21.262058, 131.4], [-157.81086, 21.262048, 131.5], [-157.810949, 21.261984, 138.6], [-157.81099, 21.261945, 142.1], [-157.811005, 21.261923, 141.7], [-157.811038, 21.261883, 143.6], [-157.811056, 21.261858, 144.7], [-157.81107, 21.261832, 144.9], [-157.811074, 21.261814, 144.7], [-157.81107, 21.261785, 144.9], [-157.811059, 21.261772, 145.2], [-157.811043, 21.261759, 143.6], [-157.811027, 21.261751, 143.8], [-157.811014, 21.261741, 143.9], [-157.811009, 21.261732, 144.3], [-157.811013, 21.261725, 144.4], [-157.81103, 21.261715, 144.7], [-157.811053, 21.261723, 146.6], [-157.811068, 21.261748, 146.4], [-157.811076, 21.261776, 146.6], [-157.811086, 21.261795, 146.6], [-157.811089, 21.261793, 146.7], [-157.811084, 21.261773, 147.1], [-157.811077, 21.26176, 147.3], [-157.811058, 21.261731, 147.8], [-157.811028, 21.26171, 146.3], [-157.811016, 21.261704, 146.4], [-157.810999, 21.261703, 144.7], [-157.810976, 21.261705, 144.8], [-157.810936, 21.261718, 143.1], [-157.810917, 21.261732, 141.2], [-157.81091, 21.26174, 141.3], [-157.810897, 21.261745, 140.9], [-157.810872, 21.261744, 138.7], [-157.810868, 21.261736, 139.3], [-157.810909, 21.261679, 142.6], [-157.810936, 21.261651, 145.1], [-157.810962, 21.261635, 145.2], [-157.810983, 21.261624, 147.3], [-157.811021, 21.261591, 149.2], [-157.811041, 21.261577, 149.3], [-157.811062, 21.261556, 151.3], [-157.811066, 21.261547, 151.4], [-157.811053, 21.261487, 152.5], [-157.81104, 21.261475, 150.8], [-157.811015, 21.261462, 151.1], [-157.810975, 21.261466, 149.3], [-157.810942, 21.261473, 147.4], [-157.81093, 21.261473, 147.5], [-157.810904, 21.261468, 145.3], [-157.810883, 21.26146, 145.8], [-157.810869, 21.261449, 143.7], [-157.810863, 21.261419, 144.7], [-157.810865, 21.261399, 144.9], [-157.810869, 21.261386, 145.0], [-157.810881, 21.261363, 147.9], [-157.810891, 21.26135, 148.0], [-157.810906, 21.261321, 149.2], [-157.810923, 21.261296, 152.7], [-157.810933, 21.261273, 152.9], [-157.810942, 21.261261, 153.0], [-157.810979, 21.261201, 158.7], [-157.810982, 21.261189, 158.8], [-157.810981, 21.261178, 160.2], [-157.81097, 21.261158, 160.5], [-157.810952, 21.261138, 160.3], [-157.810929, 21.26112, 160.5], [-157.81089, 21.261103, 159.6], [-157.810862, 21.261101, 161.7], [-157.810807, 21.261108, 159.6], [-157.8108, 21.261113, 159.7], [-157.810779, 21.261118, 161.0], [-157.810748, 21.261139, 161.2], [-157.810721, 21.26117, 161.3], [-157.810702, 21.261188, 161.5], [-157.810673, 21.261211, 161.6], [-157.810622, 21.261243, 161.9], [-157.810608, 21.261254, 162.0], [-157.810601, 21.261267, 162.0], [-157.810606, 21.261277, 162.1], [-157.810613, 21.261266, 162.1], [-157.810605, 21.26126, 162.2], [-157.810576, 21.261259, 162.3], [-157.810552, 21.261261, 162.4], [-157.810479, 21.261277, 162.7], [-157.810448, 21.261286, 162.9], [-157.810421, 21.261297, 163.0], [-157.810397, 21.261309, 163.1], [-157.810368, 21.261327, 163.2], [-157.810341, 21.261351, 163.4], [-157.810321, 21.261364, 163.5], [-157.810313, 21.261374, 163.6], [-157.8103, 21.261378, 163.6], [-157.810298, 21.261372, 163.6], [-157.810337, 21.261341, 163.9], [-157.810351, 21.261332, 163.9], [-157.810385, 21.261313, 164.1], [-157.810411, 21.261297, 164.3], [-157.810439, 21.261283, 164.4], [-157.810464, 21.261265, 164.5], [-157.810527, 21.261206, 165.0], [-157.810539, 21.261194, 165.1], [-157.810558, 21.261164, 165.3], [-157.810567, 21.261153, 165.3], [-157.8106, 21.261119, 165.6], [-157.81063, 21.261098, 165.8], [-157.81065, 21.261081, 165.9], [-157.810702, 21.261027, 166.4], [-157.810697, 21.261017, 166.4], [-157.810689, 21.261015, 166.5], [-157.810673, 21.261021, 166.6], [-157.810632, 21.261052, 166.9], [-157.810605, 21.261079, 167.1], [-157.81059, 21.261091, 167.3], [-157.810558, 21.26112, 167.5], [-157.810539, 21.261139, 167.7], [-157.810496, 21.261188, 168.2], [-157.810476, 21.261206, 168.4], [-157.810461, 21.261216, 168.5], [-157.810433, 21.261224, 168.7], [-157.810422, 21.261221, 168.8], [-157.810421, 21.261208, 168.9], [-157.810453, 21.261185, 169.2], [-157.81047, 21.261176, 169.4], [-157.8105, 21.261163, 169.6], [-157.810519, 21.261149, 169.8], [-157.810545, 21.26112, 170.2], [-157.810566, 21.261101, 170.4], [-157.810576, 21.26109, 170.6], [-157.810578, 21.261075, 170.7], [-157.810575, 21.261068, 170.8], [-157.810564, 21.261062, 170.9], [-157.810555, 21.261066, 171.0], [-157.810549, 21.261083, 171.1], [-157.810544, 21.261086, 171.2], [-157.810592, 21.2611, 171.7], [-157.810621, 21.261073, 172.2], [-157.810651, 21.26104, 172.6], [-157.810667, 21.261018, 172.9], [-157.810668, 21.261013, 173.0], [-157.810693, 21.26098, 173.4], [-157.810701, 21.260959, 173.7], [-157.81071, 21.260929, 174.1], [-157.81072, 21.260908, 174.4], [-157.810749, 21.260876, 174.9], [-157.81078, 21.260853, 175.3], [-157.810797, 21.260826, 175.7], [-157.810805, 21.260809, 175.9], [-157.810814, 21.260796, 176.1], [-157.810827, 21.260791, 176.3], [-157.810848, 21.260769, 176.6], [-157.810875, 21.260758, 176.9], [-157.810893, 21.260747, 177.2], [-157.810905, 21.260742, 177.3], [-157.810949, 21.260735, 177.8], [-157.810973, 21.260737, 178.1], [-157.810985, 21.260742, 178.3], [-157.811019, 21.260743, 178.6], [-157.811045, 21.260734, 179.0], [-157.811078, 21.260721, 179.4], [-157.81109, 21.260715, 179.5], [-157.811108, 21.2607, 179.8], [-157.811108, 21.260694, 179.9], [-157.811125, 21.260669, 180.2], [-157.811132, 21.260651, 180.5], [-157.811144, 21.260637, 180.7], [-157.811163, 21.260624, 181.0], [-157.811183, 21.260604, 181.3], [-157.811182, 21.260586, 181.8], [-157.811179, 21.260577, 182.0], [-157.811181, 21.26056, 182.2], [-157.811177, 21.260533, 182.6], [-157.811185, 21.260513, 182.9], [-157.811184, 21.260485, 183.3], [-157.81119, 21.260455, 183.7], [-157.811218, 21.260387, 184.7], [-157.81123, 21.260363, 185.0], [-157.811252, 21.260326, 185.6], [-157.811274, 21.260295, 186.1], [-157.811297, 21.260267, 186.6], [-157.811314, 21.260242, 187.0], [-157.811352, 21.260175, 188.1], [-157.811505, 21.260141, 190.2], [-157.811494, 21.260167, 190.6], [-157.811468, 21.260194, 191.1], [-157.811429, 21.260206, 191.6], [-157.811404, 21.260211, 191.9], [-157.811386, 21.260202, 192.2], [-157.811376, 21.260194, 192.4], [-157.811381, 21.26019, 192.5], [-157.811378, 21.260161, 192.9], [-157.811384, 21.260152, 193.1], [-157.811392, 21.260157, 193.3], [-157.811375, 21.260163, 193.5], [-157.811364, 21.260179, 193.8], [-157.811357, 21.260163, 194.1], [-157.811375, 21.260166, 194.4], [-157.811371, 21.260172, 194.7], [-157.811365, 21.26017, 194.8], [-157.811368, 21.260162, 195.1], [-157.811375, 21.260178, 195.3], [-157.811373, 21.260183, 195.4], [-157.811384, 21.260185, 195.6], [-157.811369, 21.260192, 195.8], [-157.811365, 21.260187, 196.0], [-157.811375, 21.260183, 196.1], [-157.811377, 21.260173, 196.2], [-157.811397, 21.260174, 196.9], [-157.811408, 21.260178, 197.0], [-157.811421, 21.260177, 197.1], [-157.811435, 21.260164, 197.4], [-157.811439, 21.260146, 197.6], [-157.811433, 21.26012, 198.0], [-157.811416, 21.260094, 199.3], [-157.811379, 21.260062, 200.2], [-157.811331, 21.260033, 201.1], [-157.811309, 21.260016, 201.5], [-157.81128, 21.259996, 201.9], [-157.811251, 21.259958, 202.4], [-157.811245, 21.259945, 202.5], [-157.811224, 21.259893, 202.7], [-157.811209, 21.259861, 202.9], [-157.811183, 21.25981, 203.0], [-157.811162, 21.259775, 203.1], [-157.811149, 21.259747, 203.1], [-157.811141, 21.259723, 203.2], [-157.811129, 21.259698, 203.4], [-157.81112, 21.25967, 203.5], [-157.811096, 21.259633, 203.8], [-157.811075, 21.259594, 204.0], [-157.811072, 21.259584, 204.1], [-157.811072, 21.259561, 204.2], [-157.811077, 21.259541, 204.3], [-157.81109, 21.259523, 204.5], [-157.811096, 21.259506, 204.6], [-157.811105, 21.259488, 204.7], [-157.811111, 21.259482, 204.8], [-157.811119, 21.259461, 204.9], [-157.811124, 21.259432, 205.1], [-157.81112, 21.259418, 205.2], [-157.811113, 21.259416, 205.2], [-157.811102, 21.259407, 205.3], [-157.811091, 21.259413, 205.4], [-157.811079, 21.259423, 205.7], [-157.811064, 21.259429, 205.8], [-157.811054, 21.259428, 205.9], [-157.811058, 21.259448, 206.1], [-157.811064, 21.259446, 206.4], [-157.811076, 21.259455, 206.6], [-157.811085, 21.25949, 207.0], [-157.811087, 21.25952, 207.2], [-157.811093, 21.259573, 205.7], [-157.811094, 21.259594, 205.3], [-157.811091, 21.259618, 204.9], [-157.811096, 21.259639, 204.5], [-157.811107, 21.259651, 204.3], [-157.81111, 21.259664, 204.1], [-157.811128, 21.259697, 203.5], [-157.811162, 21.25975, 205.2], [-157.811183, 21.259776, 206.1], [-157.811191, 21.259781, 206.4], [-157.811215, 21.259759, 207.3], [-157.811216, 21.25975, 207.6], [-157.811231, 21.259733, 208.3], [-157.811269, 21.259718, 209.5], [-157.811289, 21.259705, 210.3], [-157.811315, 21.259702, 211.1], [-157.811325, 21.259705, 211.5], [-157.811343, 21.259697, 215.7], [-157.811367, 21.259689, 216.1], [-157.811379, 21.259683, 216.3], [-157.811392, 21.259672, 216.5], [-157.8114, 21.259658, 216.8], [-157.811412, 21.259648, 217.0], [-157.811418, 21.259639, 217.1], [-157.811437, 21.259624, 217.4], [-157.811431, 21.259618, 217.5], [-157.811421, 21.25962, 217.6], [-157.811406, 21.259631, 217.8], [-157.811418, 21.259642, 218.0], [-157.81143, 21.259662, 218.2], [-157.811438, 21.259669, 218.4], [-157.811459, 21.259673, 218.6], [-157.811496, 21.259687, 218.9], [-157.811513, 21.259696, 219.1], [-157.811525, 21.259706, 219.2], [-157.811539, 21.259714, 219.6], [-157.811549, 21.259723, 220.0], [-157.811554, 21.259734, 220.4], [-157.81156, 21.259757, 221.1], [-157.811568, 21.259764, 221.4], [-157.811602, 21.259772, 222.4], [-157.811629, 21.259791, 223.3], [-157.81167, 21.259829, 218.3], [-157.811679, 21.259841, 218.2], [-157.811689, 21.259849, 218.2], [-157.811703, 21.259851, 218.2], [-157.811718, 21.259857, 218.2], [-157.811767, 21.259838, 218.0], [-157.81176, 21.259843, 218.0], [-157.811754, 21.25984, 218.0], [-157.811761, 21.259836, 218.0], [-157.811753, 21.259832, 218.0], [-157.811749, 21.259821, 218.0], [-157.811753, 21.25982, 218.0], [-157.811765, 21.259833, 218.0], [-157.811769, 21.259842, 218.0], [-157.811768, 21.259854, 218.0], [-157.81175, 21.259854, 218.0], [-157.81174, 21.259861, 218.0], [-157.811731, 21.259863, 217.9], [-157.81172, 21.259859, 217.9], [-157.811684, 21.259836, 217.9], [-157.81166, 21.259828, 217.9], [-157.81164, 21.259829, 223.3], [-157.811609, 21.259821, 222.7], [-157.811562, 21.259804, 221.8], [-157.811549, 21.259797, 219.5], [-157.811536, 21.259782, 220.0], [-157.811552, 21.259771, 220.4], [-157.811571, 21.259766, 220.8], [-157.811605, 21.259763, 221.5], [-157.811631, 21.259755, 222.0], [-157.811652, 21.259758, 222.4], [-157.811665, 21.259757, 222.6], [-157.81169, 21.259749, 223.1], [-157.811722, 21.259729, 223.7], [-157.811739, 21.259726, 224.0], [-157.811753, 21.25973, 223.1], [-157.811768, 21.259731, 223.0], [-157.81179, 21.259719, 222.9], [-157.811789, 21.259722, 222.8], [-157.811768, 21.259726, 222.7], [-157.81177, 21.259735, 222.6], [-157.811761, 21.259749, 222.6], [-157.811765, 21.259757, 222.5], [-157.811752, 21.259761, 222.4], [-157.811727, 21.259762, 222.3], [-157.811712, 21.259777, 222.2], [-157.811679, 21.259821, 220.2], [-157.811645, 21.259865, 217.6], [-157.811601, 21.259925, 213.4], [-157.811568, 21.259969, 210.2], [-157.811552, 21.259993, 208.5], [-157.811538, 21.260009, 207.2], [-157.811516, 21.260026, 205.3], [-157.811514, 21.260038, 203.9], [-157.811507, 21.260044, 203.4], [-157.811508, 21.260056, 202.2], [-157.811504, 21.260074, 201.0], [-157.811483, 21.26012, 198.1], [-157.811476, 21.260138, 197.9], [-157.811457, 21.260172, 194.0], [-157.811462, 21.260167, 193.9], [-157.811461, 21.260152, 193.8], [-157.811455, 21.260153, 193.7], [-157.811429, 21.260175, 193.4], [-157.811409, 21.260198, 193.1], [-157.811409, 21.260207, 193.0], [-157.811417, 21.26021, 192.9], [-157.81144, 21.260201, 192.7], [-157.81145, 21.260194, 192.6], [-157.811448, 21.260175, 192.3], [-157.81145, 21.260166, 192.2], [-157.811469, 21.260129, 191.8], [-157.811478, 21.260122, 191.7], [-157.811504, 21.260116, 191.5], [-157.811519, 21.260108, 191.3], [-157.811552, 21.260102, 191.0], [-157.811569, 21.260105, 190.9], [-157.811608, 21.260128, 190.5], [-157.811632, 21.260144, 190.2], [-157.811514, 21.260102, 189.1], [-157.811668, 21.260166, 187.6], [-157.8114, 21.260458, 184.0], [-157.811299, 21.260555, 182.8], [-157.811219, 21.260601, 181.9], [-157.811173, 21.26061, 181.0], [-157.811161, 21.260608, 180.6], [-157.811149, 21.260616, 180.1], [-157.811146, 21.260625, 179.8], [-157.811131, 21.260655, 178.7], [-157.811114, 21.260677, 177.9], [-157.811102, 21.260687, 177.4], [-157.811085, 21.260698, 176.7], [-157.811077, 21.260726, 175.8], [-157.811054, 21.260745, 174.8], [-157.811019, 21.260768, 173.5], [-157.811007, 21.260774, 173.1], [-157.810989, 21.260775, 172.6], [-157.810955, 21.260782, 171.6], [-157.810942, 21.260782, 171.3], [-157.810923, 21.26079, 170.8], [-157.810907, 21.2608, 170.3], [-157.810887, 21.260817, 169.7], [-157.810839, 21.260839, 168.6], [-157.810816, 21.260842, 168.1], [-157.8108, 21.260847, 167.8], [-157.810788, 21.260856, 167.5], [-157.810769, 21.260879, 167.0], [-157.810741, 21.260915, 166.2], [-157.810732, 21.260935, 165.9], [-157.810722, 21.260951, 165.6], [-157.810715, 21.260974, 165.2], [-157.810705, 21.260988, 165.0], [-157.810688, 21.260999, 164.7], [-157.810666, 21.26102, 164.3], [-157.810656, 21.261027, 164.2], [-157.810635, 21.26105, 163.8], [-157.810608, 21.261077, 163.3], [-157.810588, 21.261092, 163.0], [-157.810573, 21.261106, 162.8], [-157.810543, 21.26113, 162.3], [-157.810527, 21.261139, 162.1], [-157.810488, 21.261151, 161.6], [-157.810423, 21.261163, 160.9], [-157.810412, 21.261168, 160.7], [-157.81041, 21.261179, 160.6], [-157.810432, 21.261184, 160.3], [-157.810457, 21.261178, 160.0], [-157.810471, 21.261169, 159.8], [-157.810534, 21.261138, 161.0], [-157.810579, 21.261108, 154.7], [-157.810594, 21.261097, 157.3], [-157.81063, 21.261075, 153.3], [-157.810659, 21.261052, 155.4], [-157.810687, 21.261033, 151.7], [-157.810713, 21.261003, 151.0], [-157.810734, 21.260986, 150.2], [-157.810743, 21.260986, 149.9], [-157.810741, 21.261003, 149.1], [-157.810734, 21.261015, 148.7], [-157.810722, 21.261028, 144.4], [-157.810696, 21.261052, 146.9], [-157.81067, 21.26107, 142.6], [-157.810653, 21.261085, 145.5], [-157.810615, 21.261114, 144.6], [-157.8106, 21.261127, 144.8], [-157.810579, 21.261149, 145.0], [-157.810565, 21.261167, 145.1], [-157.810547, 21.2612, 145.4], [-157.810541, 21.261208, 145.4], [-157.810512, 21.26123, 145.7], [-157.810502, 21.261232, 145.7], [-157.810459, 21.261257, 146.1], [-157.810416, 21.261284, 146.4], [-157.810389, 21.2613, 146.6], [-157.810369, 21.261307, 146.7], [-157.810346, 21.261313, 146.9], [-157.810302, 21.261327, 147.2], [-157.81029, 21.261334, 147.3], [-157.810288, 21.261343, 147.3], [-157.810293, 21.261353, 147.4], [-157.810306, 21.261356, 147.5], [-157.810323, 21.261354, 147.6], [-157.810356, 21.261341, 147.9], [-157.810387, 21.261323, 147.9], [-157.810426, 21.261305, 147.5], [-157.810487, 21.261282, 146.8], [-157.81052, 21.261268, 146.4], [-157.810545, 21.26125, 146.1], [-157.81059, 21.261227, 145.6], [-157.810628, 21.261211, 145.2], [-157.810653, 21.261202, 145.0], [-157.810671, 21.261187, 144.7], [-157.810673, 21.261179, 144.7], [-157.810686, 21.261161, 144.4], [-157.81071, 21.261132, 144.0], [-157.810734, 21.261111, 143.7], [-157.810774, 21.261086, 143.2], [-157.810806, 21.261067, 142.8], [-157.810847, 21.261039, 142.3], [-157.810868, 21.261035, 142.1], [-157.810894, 21.261041, 141.8], [-157.810937, 21.261054, 141.4], [-157.810958, 21.26107, 141.1], [-157.810969, 21.261086, 140.9], [-157.810996, 21.261131, 140.4], [-157.811013, 21.261166, 140.0], [-157.811015, 21.261179, 139.9], [-157.811013, 21.261208, 139.6], [-157.811003, 21.261236, 139.3], [-157.811001, 21.261248, 139.2], [-157.810979, 21.261277, 138.8], [-157.810962, 21.261302, 138.5], [-157.810951, 21.261333, 138.1], [-157.810944, 21.261362, 137.7], [-157.810946, 21.261397, 137.3], [-157.810944, 21.261415, 137.1], [-157.810949, 21.261433, 136.9], [-157.810964, 21.261438, 136.7], [-157.810993, 21.26144, 136.4], [-157.811034, 21.261449, 136.0], [-157.811073, 21.261456, 135.6], [-157.811087, 21.261457, 135.4], [-157.811098, 21.261462, 135.3], [-157.811117, 21.261477, 135.0], [-157.811122, 21.261486, 134.9], [-157.811122, 21.261498, 134.8], [-157.811104, 21.261524, 134.5], [-157.811074, 21.261552, 134.1], [-157.811049, 21.261571, 133.8], [-157.81102, 21.261584, 133.6], [-157.811002, 21.261587, 133.4], [-157.810984, 21.261594, 133.2], [-157.81097, 21.261602, 133.1], [-157.810937, 21.261626, 132.7], [-157.810901, 21.261663, 132.2], [-157.810892, 21.261677, 132.1], [-157.810883, 21.261713, 131.3], [-157.810882, 21.261729, 131.1], [-157.810899, 21.261737, 130.8], [-157.810913, 21.261735, 130.7], [-157.810948, 21.261717, 132.6], [-157.810974, 21.261699, 134.8], [-157.811005, 21.261685, 134.6], [-157.811033, 21.261675, 136.1], [-157.811051, 21.26167, 137.8], [-157.811066, 21.261669, 137.7], [-157.81108, 21.261673, 137.5], [-157.81109, 21.261683, 137.4], [-157.8111, 21.261699, 139.3], [-157.811105, 21.261711, 138.6], [-157.811114, 21.261742, 138.0], [-157.811114, 21.261753, 137.9], [-157.811107, 21.261765, 137.7], [-157.811092, 21.261768, 135.5], [-157.811075, 21.261762, 135.4], [-157.81106, 21.261753, 135.3], [-157.811044, 21.261739, 133.8], [-157.811017, 21.261707, 133.6], [-157.811009, 21.2617, 134.0], [-157.810993, 21.261698, 132.0], [-157.81098, 21.261701, 131.4], [-157.810956, 21.26171, 129.2], [-157.810948, 21.261717, 129.1], [-157.810946, 21.261727, 128.9], [-157.810958, 21.261745, 128.3], [-157.810976, 21.261755, 130.1], [-157.810993, 21.26177, 129.9], [-157.811002, 21.261782, 129.4], [-157.811013, 21.261809, 131.1], [-157.811013, 21.261842, 131.2], [-157.811007, 21.261874, 129.6], [-157.81098, 21.261906, 129.8], [-157.810954, 21.261939, 126.5], [-157.810946, 21.261943, 126.8], [-157.810931, 21.261965, 126.7], [-157.810922, 21.261974, 126.5], [-157.810892, 21.262022, 122.3], [-157.810848, 21.262057, 119.0], [-157.810839, 21.262066, 118.9], [-157.810832, 21.262078, 116.5], [-157.81083, 21.262089, 116.3], [-157.810834, 21.2621, 116.2], [-157.810842, 21.262111, 119.0], [-157.810854, 21.26212, 118.8], [-157.81088, 21.262132, 121.3], [-157.810926, 21.262146, 120.9], [-157.810958, 21.26215, 120.6], [-157.810985, 21.262151, 120.4], [-157.811004, 21.262149, 120.3], [-157.811013, 21.262153, 120.2], [-157.810967, 21.262164, 119.8], [-157.810934, 21.262161, 119.5], [-157.810898, 21.262155, 119.3], [-157.810863, 21.262147, 119.0], [-157.810823, 21.262136, 118.7], [-157.810791, 21.262121, 118.4], [-157.810738, 21.262103, 118.0], [-157.810707, 21.262085, 117.7], [-157.810696, 21.262075, 117.6], [-157.810695, 21.262053, 117.4], [-157.810699, 21.262035, 117.2], [-157.810707, 21.262017, 117.0], [-157.810727, 21.261991, 116.8], [-157.810737, 21.261975, 116.6], [-157.810754, 21.261959, 116.4], [-157.810767, 21.261951, 116.3], [-157.810805, 21.261924, 115.9], [-157.810816, 21.26191, 115.7], [-157.810804, 21.261893, 115.5], [-157.810753, 21.261881, 115.1], [-157.810731, 21.261884, 114.9], [-157.810675, 21.261883, 114.5], [-157.810658, 21.261885, 114.4], [-157.810641, 21.261882, 114.2], [-157.81063, 21.261877, 114.1], [-157.810619, 21.261859, 114.0], [-157.810619, 21.261848, 113.9], [-157.810632, 21.261796, 113.5], [-157.810633, 21.261787, 113.4], [-157.810622, 21.261759, 113.2], [-157.810603, 21.261749, 113.0], [-157.810579, 21.261744, 112.9], [-157.810562, 21.261744, 112.7], [-157.810549, 21.261748, 112.6], [-157.810542, 21.261758, 112.6], [-157.810533, 21.261765, 112.5], [-157.810524, 21.261767, 112.4], [-157.810507, 21.261779, 112.3], [-157.810493, 21.261793, 112.1], [-157.810501, 21.261826, 111.9], [-157.810522, 21.261859, 111.6], [-157.810548, 21.261903, 111.1], [-157.810562, 21.261935, 110.8], [-157.810573, 21.261978, 110.5], [-157.810571, 21.261994, 110.3], [-157.810566, 21.262012, 110.2], [-157.810547, 21.262036, 109.9], [-157.81054, 21.26204, 109.8], [-157.810521, 21.262061, 109.6], [-157.810503, 21.262075, 109.4], [-157.81048, 21.262096, 109.2], [-157.810469, 21.262113, 109.0], [-157.810444, 21.262127, 108.7], [-157.810427, 21.262147, 108.5], [-157.810386, 21.262187, 108.0], [-157.810374, 21.262196, 107.9], [-157.810339, 21.262229, 107.5], [-157.810316, 21.262257, 107.2], [-157.810293, 21.2623, 106.8], [-157.810281, 21.262317, 106.6], [-157.810271, 21.262324, 106.4], [-157.810245, 21.262337, 106.2], [-157.810233, 21.262341, 106.1], [-157.810218, 21.262342, 105.9], [-157.81017, 21.262335, 105.5], [-157.810154, 21.262335, 105.4], [-157.810116, 21.26233, 105.0], [-157.810097, 21.262331, 104.8], [-157.810082, 21.262334, 104.7], [-157.810069, 21.262341, 104.6], [-157.810057, 21.262354, 104.4], [-157.810052, 21.262367, 104.3], [-157.810041, 21.26241, 103.9], [-157.810034, 21.262448, 103.5], [-157.810024, 21.262474, 103.3], [-157.810012, 21.262489, 103.1], [-157.810002, 21.262498, 103.0], [-157.809983, 21.262504, 102.8], [-157.809948, 21.26251, 102.5], [-157.80989, 21.262516, 102.0], [-157.809848, 21.262517, 101.6], [-157.809811, 21.262515, 101.3], [-157.809758, 21.262518, 100.8], [-157.809743, 21.262518, 100.6], [-157.809683, 21.262522, 100.1], [-157.809639, 21.262521, 99.8], [-157.809633, 21.262519, 99.7], [-157.809603, 21.262517, 99.5], [-157.809572, 21.262512, 99.2], [-157.809517, 21.262501, 98.8], [-157.809453, 21.262482, 98.2], [-157.80943, 21.262469, 97.9], [-157.809416, 21.262465, 97.8], [-157.809372, 21.262457, 97.4], [-157.809342, 21.262456, 97.2], [-157.809302, 21.26246, 96.8], [-157.809248, 21.262462, 96.3], [-157.809234, 21.26246, 96.2], [-157.809188, 21.262464, 95.7], [-157.809155, 21.262472, 95.4], [-157.809107, 21.262486, 95.0], [-157.809059, 21.262494, 94.5], [-157.80902, 21.262496, 94.1], [-157.808976, 21.262489, 93.8], [-157.808959, 21.262482, 93.6], [-157.808943, 21.262469, 93.4], [-157.808927, 21.262462, 93.3], [-157.808911, 21.262458, 93.1], [-157.808878, 21.262455, 92.9], [-157.808814, 21.26246, 92.0], [-157.808803, 21.262462, 91.9], [-157.808786, 21.262461, 91.8], [-157.808775, 21.262453, 91.7], [-157.808757, 21.262453, 91.5], [-157.808728, 21.262464, 91.3], [-157.808677, 21.262487, 90.9], [-157.808649, 21.262498, 90.7], [-157.808613, 21.262515, 90.4], [-157.8086, 21.262523, 90.3], [-157.80856, 21.262553, 90.0], [-157.808527, 21.26258, 89.7], [-157.808494, 21.262604, 89.4], [-157.808469, 21.262624, 89.2], [-157.808442, 21.262638, 89.0], [-157.808413, 21.262655, 88.8], [-157.808387, 21.262672, 88.6], [-157.808364, 21.262695, 88.4], [-157.808351, 21.262714, 88.2], [-157.808343, 21.262729, 88.1], [-157.808318, 21.262765, 87.8], [-157.8083, 21.262796, 87.5], [-157.80829, 21.26281, 87.4], [-157.808268, 21.262852, 87.0], [-157.808257, 21.262864, 86.9], [-157.808245, 21.262872, 86.8], [-157.80821, 21.262906, 86.5], [-157.808185, 21.262934, 86.3], [-157.808169, 21.262949, 86.2], [-157.80814, 21.262971, 86.0], [-157.808128, 21.262982, 85.9], [-157.80811, 21.263003, 85.7], [-157.808098, 21.263029, 85.6], [-157.808097, 21.263041, 85.5], [-157.808108, 21.263098, 85.1], [-157.808096, 21.263155, 84.7], [-157.808091, 21.263173, 84.5], [-157.80808, 21.263198, 84.2], [-157.808067, 21.263215, 84.0], [-157.808054, 21.263227, 83.8], [-157.808019, 21.263255, 83.2], [-157.807979, 21.263277, 82.7], [-157.807945, 21.263292, 82.2], [-157.807918, 21.263302, 81.9], [-157.807868, 21.263328, 81.3], [-157.807861, 21.263329, 81.2], [-157.807822, 21.263353, 80.8], [-157.807758, 21.263397, 80.4], [-157.807729, 21.263427, 80.3], [-157.807717, 21.263444, 80.2], [-157.807708, 21.263478, 80.1], [-157.807708, 21.263484, 80.1], [-157.807697, 21.263509, 80.1], [-157.807689, 21.263531, 80.1], [-157.807666, 21.263567, 80.0], [-157.807625, 21.263621, 80.0], [-157.807587, 21.263661, 80.0], [-157.807541, 21.263728, 79.9], [-157.807529, 21.263747, 79.9], [-157.807506, 21.263779, 79.8], [-157.807485, 21.263803, 79.8], [-157.807467, 21.263828, 79.7], [-157.807459, 21.263837, 79.6], [-157.807431, 21.26386, 79.5], [-157.807386, 21.263899, 79.2], [-157.807354, 21.263935, 78.9], [-157.807321, 21.263966, 78.6], [-157.807302, 21.263977, 78.4], [-157.807257, 21.264001, 78.0], [-157.807225, 21.264011, 77.8], [-157.807185, 21.264017, 77.5], [-157.80714, 21.264014, 77.2], [-157.80711, 21.264013, 77.1], [-157.807099, 21.264006, 77.0], [-157.807089, 21.263992, 76.9], [-157.807076, 21.263983, 76.8], [-157.807071, 21.26397, 76.8], [-157.80702, 21.263945, 76.5], [-157.806972, 21.263924, 76.3], [-157.806922, 21.263906, 76.1], [-157.806907, 21.263899, 76.0], [-157.80688, 21.263889, 75.9], [-157.806821, 21.263871, 75.6], [-157.806767, 21.263861, 75.4], [-157.806736, 21.263851, 75.3], [-157.806683, 21.263829, 75.0], [-157.806647, 21.263807, 74.8], [-157.806628, 21.263791, 74.7], [-157.806585, 21.263764, 74.4], [-157.806546, 21.263746, 74.2], [-157.806511, 21.263735, 74.0], [-157.80647, 21.26372, 73.8], [-157.806452, 21.263712, 73.7], [-157.806377, 21.263684, 73.4], [-157.806346, 21.263676, 73.3], [-157.806298, 21.263668, 73.1], [-157.806265, 21.263659, 72.9], [-157.806234, 21.263647, 72.8], [-157.806195, 21.263634, 72.6], [-157.806173, 21.263625, 72.5], [-157.806128, 21.26361, 72.2], [-157.806056, 21.263588, 71.9], [-157.806025, 21.263581, 71.8], [-157.805994, 21.263576, 71.7], [-157.805961, 21.263573, 71.5], [-157.805906, 21.263571, 71.3], [-157.805869, 21.263564, 71.1], [-157.805856, 21.263555, 71.1], [-157.805827, 21.263547, 70.9], [-157.805807, 21.263537, 70.8], [-157.805789, 21.26353, 70.7], [-157.805775, 21.263527, 70.7], [-157.805741, 21.263524, 70.5], [-157.805709, 21.263525, 70.4], [-157.805644, 21.263534, 70.2], [-157.805595, 21.263539, 70.0], [-157.805585, 21.263535, 70.0], [-157.805585, 21.263527, 69.9], [-157.80559, 21.263522, 69.9], [-157.805567, 21.263519, 69.8], [-157.805552, 21.263513, 69.8], [-157.805528, 21.263516, 69.7], [-157.805488, 21.263529, 69.6], [-157.805461, 21.263534, 69.5], [-157.805408, 21.263541, 69.3], [-157.805393, 21.263539, 69.3], [-157.805359, 21.263543, 69.2], [-157.80533, 21.263545, 69.1], [-157.805281, 21.26354, 69.0], [-157.805264, 21.263536, 68.9], [-157.805231, 21.263526, 68.8], [-157.80521, 21.263518, 68.7], [-157.805194, 21.26351, 68.7], [-157.805177, 21.263505, 68.7], [-157.805109, 21.263494, 67.6], [-157.805079, 21.263487, 67.6], [-157.805063, 21.263487, 67.5], [-157.805033, 21.263484, 67.5], [-157.804997, 21.263471, 67.0], [-157.804978, 21.263463, 67.0], [-157.804946, 21.263452, 67.0], [-157.804924, 21.263441, 67.0], [-157.804931, 21.263438, 67.0], [-157.804921, 21.263435, 67.0], [-157.804881, 21.263419, 66.9], [-157.804849, 21.263408, 66.9], [-157.804797, 21.263386, 66.8], [-157.804766, 21.263372, 66.8], [-157.804739, 21.263356, 66.8], [-157.804713, 21.263344, 66.8], [-157.804685, 21.263335, 66.8], [-157.804657, 21.263329, 66.7], [-157.804632, 21.263322, 66.7], [-157.804617, 21.26332, 66.7], [-157.804578, 21.263312, 66.7], [-157.80456, 21.26331, 66.7], [-157.804549, 21.263313, 66.7], [-157.804562, 21.263326, 66.6], [-157.804567, 21.263334, 66.6], [-157.804569, 21.26335, 66.6], [-157.804581, 21.263345, 66.6], [-157.804601, 21.263341, 66.6], [-157.804599, 21.263345, 66.6]]}}