{"type": "Feature", "properties": {}, "geometry": {"type": "LineString", "coordinates": [[-123.789707, 42.70949, 140.0], [-123.789754, 42.709549, 140.4], [-123.789815, 42.709568, 140.5], [-123.789885, 42.709612, 141.0], [-123.789997, 42.709716, 141.5], [-123.790138, 42.709694, 141.7], [-123.790292, 42.709708, 142.1], [-123.790387, 42.709687, 142.5], [-123.790416, 42.709661, 142.7], [-123.790412, 42.709614, 142.9], [-123.790353, 42.709513, 143.3], [-123.79037, 42.709489, 143.4], [-123.790592, 42.709375, 144.3], [-123.79068, 42.709301, 144.8], [-123.79078, 42.709242, 145.2], [-123.79086, 42.70921, 145.4], [-123.790905, 42.709173, 145.6], [-123.790915, 42.709124, 145.7], [-123.790966, 42.709099, 145.8], [-123.791046, 42.709106, 145.8], [-123.791076, 42.709137, 145.9], [-123.791184, 42.709157, 146.0], [-123.791246, 42.709196, 146.2], [-123.791328, 42.709198, 146.5], [-123.791346, 42.709159, 146.7], [-123.791412, 42.709108, 147.0], [-123.791408, 42.709031, 147.5], [-123.791451, 42.708969, 147.9], [-123.791534, 42.708903, 148.4], [-123.791725, 42.708828, 149.6], [-123.791902, 42.708798, 151.6], [-123.792182, 42.708794, 155.4], [-123.792293, 42.70877, 156.7], [-123.792452, 42.708659, 157.8], [-123.792564, 42.708644, 157.7], [-123.792658, 42.708579, 157.1], [-123.792725, 42.708508, 156.2], [-123.792805, 42.708401, 155.1], [-123.792904, 42.708349, 154.5], [-123.793016, 42.708316, 154.4], [-123.793296, 42.708207, 154.6], [-123.793401, 42.708129, 154.9], [-123.793499, 42.708071, 155.2], [-123.793566, 42.708051, 155.2], [-123.793668, 42.708048, 155.2], [-123.793724, 42.70803, 155.0], [-123.793737, 42.707967, 154.7], [-123.793917, 42.707885, 154.5], [-123.794306, 42.707752, 155.6], [-123.794456, 42.707684, 156.4], [-123.794485, 42.707649, 156.7], [-123.794559, 42.707618, 157.2], [-123.794654, 42.707546, 157.9], [-123.79471, 42.707533, 158.3], [-123.794794, 42.707541, 158.8], [-123.794885, 42.707572, 159.5], [-123.794945, 42.707557, 160.0], [-123.795023, 42.707509, 160.6], [-123.795302, 42.707421, 162.0], [-123.795433, 42.707356, 162.6], [-123.79557, 42.707252, 162.9], [-123.795632, 42.707225, 162.9], [-123.795825, 42.707184, 163.0], [-123.796123, 42.707133, 163.1], [-123.796149, 42.707145, 163.1], [-123.796066, 42.70719, 163.1], [-123.796037, 42.707176, 163.0], [-123.796176, 42.707131, 163.0], [-123.796278, 42.707062, 163.0], [-123.796378, 42.70703, 162.9], [-123.796537, 42.70694, 162.7], [-123.7966, 42.70686, 162.7], [-123.796813, 42.706762, 162.7], [-123.796884, 42.706683, 162.8], [-123.796991, 42.706636, 162.7], [-123.797169, 42.706619, 162.7], [-123.797249, 42.706584, 162.7], [-123.797485, 42.706459, 162.9], [-123.79764, 42.706442, 162.9], [-123.797734, 42.706486, 162.9], [-123.797802, 42.706479, 162.9], [-123.797818, 42.706453, 162.9], [-123.797762, 42.706278, 162.8], [-123.797811, 42.706232, 162.7], [-123.797904, 42.706177, 162.5], [-123.797913, 42.706157, 162.4], [-123.79805, 42.706143, 162.2], [-123.798164, 42.706165, 162.0], [-123.798295, 42.706211, 161.6], [-123.798344, 42.706255, 161.5], [-123.798408, 42.706272, 161.2], [-123.798409, 42.706196, 161.1], [-123.798451, 42.706219, 161.0], [-123.798537, 42.706311, 160.8], [-123.79861, 42.706314, 160.8], [-123.798632, 42.706261, 160.8], [-123.798608, 42.706185, 160.9], [-123.798504, 42.706085, 161.2], [-123.798463, 42.705998, 161.4], [-123.798492, 42.705934, 161.4], [-123.79859, 42.705811, 161.5], [-123.798647, 42.705791, 161.4], [-123.798804, 42.705774, 161.2], [-123.79892, 42.70571, 161.0], [-123.798958, 42.705626, 160.9], [-123.799062, 42.705527, 160.9], [-123.799172, 42.705438, 161.2], [-123.799248, 42.705337, 162.0], [-123.79941, 42.705195, 163.4], [-123.799477, 42.705127, 163.7], [-123.79955, 42.705075, 163.7], [-123.799629, 42.704967, 163.6], [-123.79972, 42.704955, 163.6], [-123.799769, 42.70493, 163.6], [-123.799918, 42.7049, 163.7], [-123.800038, 42.704906, 163.8], [-123.800072, 42.704873, 164.0], [-123.800154, 42.704755, 164.8], [-123.800196, 42.704718, 165.2], [-123.800482, 42.704637, 166.6], [-123.800484, 42.704533, 167.1], [-123.800678, 42.704394, 167.9], [-123.80075, 42.704358, 168.1], [-123.800896, 42.704305, 168.4], [-123.800972, 42.704286, 168.6], [-123.801073, 42.704291, 168.7], [-123.801213, 42.704281, 169.0], [-123.801323, 42.704223, 169.4], [-123.801459, 42.704116, 169.9], [-123.801511, 42.70406, 170.1], [-123.801638, 42.703984, 170.3], [-123.801778, 42.703938, 170.4], [-123.801985, 42.703908, 170.4], [-123.802033, 42.70386, 170.4], [-123.802125, 42.703864, 170.5], [-123.802238, 42.703837, 170.5], [-123.802275, 42.703801, 170.5], [-123.802257, 42.703753, 170.5], [-123.802274, 42.703712, 170.5], [-123.802388, 42.703683, 170.5], [-123.802473, 42.703677, 170.4], [-123.802699, 42.703548, 170.5], [-123.80275, 42.703528, 170.4], [-123.802825, 42.703526, 170.4], [-123.802924, 42.703505, 170.4], [-123.803053, 42.703513, 170.5], [-123.803131, 42.703539, 170.7], [-123.803215, 42.703541, 170.9], [-123.803282, 42.70358, 171.0], [-123.803337, 42.703577, 171.0], [-123.803466, 42.703623, 170.6], [-123.803636, 42.703538, 170.2], [-123.803712, 42.70348, 170.1], [-123.803894, 42.703492, 170.1], [-123.804017, 42.703522, 170.0], [-123.804145, 42.703588, 169.8], [-123.804188, 42.703641, 169.7], [-123.804239, 42.703653, 169.6], [-123.80427, 42.703613, 169.5], [-123.804271, 42.703527, 169.5], [-123.804403, 42.703311, 169.6], [-123.804515, 42.703213, 169.4], [-123.804596, 42.703178, 169.3], [-123.804833, 42.703107, 169.1], [-123.805025, 42.703076, 169.0], [-123.805193, 42.703017, 169.0], [-123.805338, 42.702976, 168.9], [-123.805431, 42.702941, 168.8], [-123.805688, 42.702859, 168.8], [-123.805874, 42.70278, 168.8], [-123.806175, 42.702719, 168.7], [-123.806387, 42.702668, 168.6], [-123.806469, 42.702637, 168.6], [-123.806547, 42.702558, 168.5], [-123.806595, 42.702528, 168.5], [-123.80683, 42.702437, 168.3], [-123.80696, 42.702361, 168.1], [-123.807085, 42.702339, 167.9], [-123.807191, 42.70235, 167.8], [-123.807418, 42.70236, 167.7], [-123.807604, 42.702426, 167.7], [-123.807734, 42.702465, 167.7], [-123.807796, 42.702501, 167.7], [-123.807861, 42.702513, 167.7], [-123.807883, 42.702481, 167.7], [-123.807849, 42.702453, 167.6], [-123.807786, 42.702329, 167.5], [-123.80785, 42.702332, 167.4], [-123.807898, 42.702291, 167.4], [-123.807943, 42.702216, 167.3], [-123.807981, 42.702093, 167.4], [-123.808013, 42.702066, 167.4], [-123.808081, 42.702062, 167.4], [-123.808272, 42.702106, 167.5], [-123.80849, 42.702135, 167.4], [-123.808589, 42.702132, 167.4], [-123.808674, 42.702142, 167.5], [-123.808784, 42.702172, 167.6], [-123.808943, 42.702244, 167.7], [-123.809033, 42.702251, 167.8], [-123.809119, 42.702236, 167.8], [-123.809245, 42.702189, 167.8], [-123.809404, 42.702147, 167.9], [-123.809532, 42.70214, 168.0], [-123.809635, 42.702159, 168.0], [-123.8098, 42.702171, 168.2], [-123.810059, 42.702223, 168.6], [-123.810184, 42.702243, 168.8], [-123.810368, 42.70226, 169.0], [-123.810428, 42.702281, 169.1], [-123.810599, 42.702412, 169.3], [-123.81061, 42.702483, 169.5], [-123.810637, 42.702521, 169.6], [-123.810735, 42.702541, 169.9], [-123.810895, 42.702606, 170.1], [-123.811004, 42.702607, 170.2], [-123.811065, 42.702627, 170.3], [-123.811246, 42.702632, 170.6], [-123.811348, 42.702627, 170.8], [-123.811401, 42.702637, 170.8], [-123.811625, 42.70274, 171.2], [-123.811764, 42.702772, 171.5], [-123.811889, 42.702778, 171.7], [-123.811993, 42.702772, 171.9], [-123.812113, 42.702811, 172.0], [-123.812198, 42.702871, 172.2], [-123.812264, 42.702964, 172.4], [-123.812343, 42.703037, 172.4], [-123.812429, 42.703054, 172.2], [-123.81249, 42.703106, 171.9], [-123.81257, 42.703142, 171.6], [-123.812641, 42.703207, 171.6], [-123.812814, 42.703239, 171.8], [-123.812976, 42.703356, 172.6], [-123.813139, 42.703442, 173.7], [-123.813154, 42.703515, 174.2], [-123.81319, 42.703549, 174.4], [-123.813425, 42.703656, 174.6], [-123.81351, 42.70375, 174.5], [-123.813565, 42.703774, 174.5], [-123.813695, 42.703883, 174.7], [-123.813782, 42.703918, 175.0], [-123.813858, 42.703984, 175.8], [-123.813884, 42.704045, 176.5], [-123.813945, 42.704045, 176.8], [-123.81401, 42.704075, 177.0], [-123.814136, 42.704104, 176.6], [-123.814247, 42.704165, 175.6], [-123.814309, 42.704254, 174.4], [-123.814455, 42.7043, 173.3], [-123.814534, 42.704279, 172.8], [-123.814648, 42.704281, 172.1], [-123.814702, 42.70432, 171.7], [-123.814722, 42.704395, 171.6], [-123.81477, 42.704421, 171.8], [-123.814872, 42.704427, 172.1], [-123.814954, 42.704557, 172.9], [-123.814996, 42.704641, 173.2], [-123.815001, 42.704683, 173.3], [-123.81498, 42.704789, 173.2], [-123.815024, 42.704799, 173.2], [-123.815082, 42.704761, 173.1], [-123.815249, 42.7047, 173.2], [-123.815317, 42.704707, 173.2], [-123.81552, 42.704776, 173.1], [-123.815621, 42.704802, 173.1], [-123.815668, 42.704837, 173.0], [-123.815775, 42.70489, 172.9], [-123.815918, 42.704947, 172.7], [-123.815958, 42.705011, 172.7], [-123.816128, 42.705065, 172.5], [-123.816206, 42.705102, 172.5], [-123.816386, 42.70521, 172.4], [-123.816485, 42.705309, 172.4], [-123.816612, 42.705375, 172.5], [-123.816669, 42.705392, 172.5], [-123.816757, 42.70539, 172.4], [-123.816913, 42.705473, 172.3], [-123.817067, 42.705488, 172.2], [-123.817222, 42.705495, 172.0], [-123.81729, 42.705513, 171.9], [-123.817367, 42.705572, 171.9], [-123.817503, 42.705616, 171.8], [-123.817707, 42.705658, 171.8], [-123.817873, 42.705703, 171.7], [-123.817964, 42.705737, 171.4], [-123.818055, 42.705754, 171.1], [-123.818212, 42.705798, 170.5], [-123.818254, 42.70584, 170.3], [-123.818245, 42.70594, 170.0], [-123.818271, 42.706044, 169.9], [-123.818313, 42.706096, 169.8], [-123.818393, 42.706099, 169.7], [-123.818434, 42.706039, 169.6], [-123.818638, 42.70591, 168.8], [-123.818697, 42.705904, 168.5], [-123.818802, 42.705923, 168.0], [-123.819017, 42.705991, 167.2], [-123.819169, 42.70606, 166.9], [-123.819378, 42.706077, 166.7], [-123.81941, 42.706092, 166.6], [-123.819541, 42.706108, 166.3], [-123.819621, 42.706107, 166.1], [-123.819723, 42.706164, 166.0], [-123.819765, 42.706253, 166.0], [-123.819856, 42.706258, 165.6], [-123.819875, 42.706228, 165.2], [-123.819949, 42.706193, 164.5], [-123.820077, 42.706219, 163.6], [-123.82012, 42.706256, 163.3], [-123.82018, 42.706337, 162.7], [-123.820238, 42.706383, 162.4], [-123.820355, 42.706397, 162.1], [-123.820375, 42.706466, 161.8], [-123.82043, 42.706491, 161.6], [-123.820499, 42.706493, 161.5], [-123.820562, 42.706472, 161.4], [-123.820845, 42.706315, 160.7], [-123.820932, 42.7063, 160.5], [-123.821082, 42.706329, 160.3], [-123.821141, 42.706368, 160.1], [-123.821164, 42.706439, 159.9], [-123.821215, 42.706456, 159.8], [-123.821302, 42.706434, 159.7], [-123.821358, 42.706442, 159.6], [-123.821423, 42.706489, 159.4], [-123.821775, 42.706633, 158.6], [-123.821917, 42.706679, 158.2], [-123.822013, 42.706701, 158.0], [-123.822093, 42.706738, 157.7], [-123.822189, 42.706822, 157.3], [-123.822282, 42.706863, 157.0], [-123.82235, 42.706914, 156.8], [-123.822525, 42.706931, 156.5], [-123.822771, 42.706936, 156.1], [-123.822961, 42.706924, 155.8], [-123.82314, 42.706982, 155.4], [-123.8232, 42.707039, 155.0], [-123.823246, 42.707055, 154.8], [-123.823308, 42.707029, 154.5], [-123.823355, 42.70704, 154.2], [-123.823444, 42.7071, 153.7], [-123.823694, 42.707215, 152.7], [-123.823841, 42.707294, 152.3], [-123.823889, 42.707394, 152.0], [-123.823878, 42.707466, 151.9], [-123.823964, 42.707461, 151.7], [-123.82397, 42.707538, 151.6], [-123.824075, 42.707502, 151.5], [-123.824161, 42.707433, 151.4], [-123.824245, 42.707424, 151.4], [-123.82427, 42.707439, 151.4], [-123.824477, 42.707662, 151.4], [-123.824507, 42.70774, 151.4], [-123.824568, 42.7078, 151.4], [-123.824613, 42.707875, 151.3], [-123.824835, 42.708061, 150.6], [-123.825018, 42.708142, 150.1], [-123.825166, 42.708182, 149.8], [-123.825233, 42.708259, 149.5], [-123.825378, 42.708306, 149.2], [-123.825431, 42.7083, 149.1], [-123.825586, 42.708438, 148.8], [-123.82563, 42.70851, 148.6], [-123.825695, 42.708514, 148.5], [-123.825803, 42.708486, 148.3], [-123.825901, 42.708491, 148.1], [-123.825949, 42.708514, 148.0], [-123.825965, 42.708494, 147.9], [-123.825997, 42.708542, 147.7], [-123.826078, 42.708608, 147.3], [-123.826155, 42.708649, 147.1], [-123.826266, 42.708683, 146.8], [-123.826263, 42.708694, 146.8], [-123.826382, 42.708722, 146.5], [-123.826514, 42.708775, 146.1], [-123.826658, 42.708852, 145.6], [-123.826737, 42.708934, 145.2], [-123.826764, 42.709, 144.8], [-123.826832, 42.709036, 144.6], [-123.826865, 42.709076, 144.3], [-123.827036, 42.709025, 143.7], [-123.827146, 42.709058, 143.3], [-123.827178, 42.7091, 143.1], [-123.827253, 42.709136, 142.9], [-123.827357, 42.709246, 143.0], [-123.827507, 42.709296, 143.4], [-123.82767, 42.709307, 142.8], [-123.827748, 42.709348, 142.1], [-123.827872, 42.709435, 140.5], [-123.82797, 42.709515, 139.5], [-123.828024, 42.709619, 138.9], [-123.828142, 42.709693, 139.0], [-123.828249, 42.709732, 139.0], [-123.828407, 42.709755, 138.7], [-123.828463, 42.709786, 138.4], [-123.828559, 42.709901, 137.7], [-123.828615, 42.709935, 137.4], [-123.828817, 42.709986, 136.5], [-123.828881, 42.710015, 136.2], [-123.829103, 42.710162, 135.6], [-123.82917, 42.710213, 135.9], [-123.829224, 42.710211, 136.1], [-123.829231, 42.710234, 136.3], [-123.82919, 42.710291, 136.9], [-123.829237, 42.71033, 137.4], [-123.829271, 42.71042, 138.1], [-123.829238, 42.710512, 139.1], [-123.829155, 42.710648, 140.9], [-123.829098, 42.710814, 142.8], [-123.829118, 42.710862, 143.1], [-123.829114, 42.711033, 143.9], [-123.829209, 42.711072, 143.9], [-123.829239, 42.711098, 143.9], [-123.829327, 42.711257, 143.5], [-123.829353, 42.711352, 143.0], [-123.829386, 42.711413, 142.2], [-123.829467, 42.711475, 140.7], [-123.829495, 42.711471, 140.3], [-123.829523, 42.711383, 138.6], [-123.829506, 42.711289, 137.2], [-123.829519, 42.711265, 136.9], [-123.829638, 42.711217, 135.7], [-123.829723, 42.711086, 134.0], [-123.829724, 42.71104, 133.5], [-123.829689, 42.710941, 132.5], [-123.829631, 42.710886, 132.0], [-123.82962, 42.710836, 131.8], [-123.829639, 42.710789, 131.6], [-123.829732, 42.710673, 131.5], [-123.829817, 42.710599, 131.7], [-123.829937, 42.710573, 132.0], [-123.830002, 42.710574, 132.1], [-123.83024, 42.710609, 132.1], [-123.830412, 42.710613, 131.2], [-123.830517, 42.710603, 130.6], [-123.830626, 42.710626, 130.0], [-123.830711, 42.710697, 129.8], [-123.830882, 42.710723, 130.1], [-123.830972, 42.710773, 130.5], [-123.831072, 42.710763, 130.9], [-123.831197, 42.710795, 131.5], [-123.831238, 42.710793, 131.6], [-123.831541, 42.710847, 132.3], [-123.831675, 42.710899, 132.4], [-123.831758, 42.710897, 132.4], [-123.831883, 42.710845, 132.4], [-123.831928, 42.710807, 132.3], [-123.83203, 42.710759, 132.3], [-123.832076, 42.710712, 132.2], [-123.832189, 42.710688, 132.1], [-123.832337, 42.710701, 132.2], [-123.832467, 42.710773, 132.7], [-123.832637, 42.710785, 133.9], [-123.832761, 42.710736, 134.8], [-123.832811, 42.710674, 135.0], [-123.832947, 42.710604, 134.5], [-123.833113, 42.71059, 133.8], [-123.83317, 42.710602, 133.7], [-123.833212, 42.710633, 133.6], [-123.833292, 42.710649, 133.6], [-123.833427, 42.710632, 133.5], [-123.833508, 42.710653, 133.4], [-123.833575, 42.710696, 133.2], [-123.833655, 42.710725, 133.1], [-123.833801, 42.710802, 133.2], [-123.833883, 42.710792, 133.4], [-123.833932, 42.710728, 133.7], [-123.834027, 42.710644, 133.7], [-123.83411, 42.710611, 133.7], [-123.834191, 42.710555, 133.6], [-123.83422, 42.71051, 133.7], [-123.834274, 42.710491, 133.8], [-123.834366, 42.710499, 133.9], [-123.834415, 42.710482, 133.8], [-123.834505, 42.710392, 133.5], [-123.834584, 42.710389, 133.1], [-123.834665, 42.71044, 132.7], [-123.834738, 42.710411, 132.5], [-123.834817, 42.710423, 132.3], [-123.834882, 42.710404, 132.2], [-123.834991, 42.710347, 132.2], [-123.835068, 42.710285, 132.3], [-123.835217, 42.710217, 132.4], [-123.835264, 42.710171, 132.3], [-123.835334, 42.710007, 131.7], [-123.835409, 42.709952, 131.9], [-123.835533, 42.70993, 132.6], [-123.835689, 42.709879, 133.2], [-123.835805, 42.709824, 133.2], [-123.835944, 42.709778, 133.1], [-123.836061, 42.709703, 133.2], [-123.836117, 42.709691, 133.2], [-123.836202, 42.709703, 133.1], [-123.836366, 42.709707, 132.4], [-123.836437, 42.70974, 131.9], [-123.836608, 42.709768, 131.7], [-123.836716, 42.709817, 132.0], [-123.836775, 42.709866, 132.3], [-123.836864, 42.709869, 132.4], [-123.836928, 42.70983, 132.4], [-123.837023, 42.709795, 132.3], [-123.837104, 42.709744, 132.2], [-123.837283, 42.709769, 132.0], [-123.837416, 42.709778, 132.0], [-123.837527, 42.7098, 132.0], [-123.837591, 42.709845, 132.0], [-123.837742, 42.709863, 132.0], [-123.837856, 42.709836, 132.1], [-123.838019, 42.709823, 132.1], [-123.838114, 42.709852, 132.1], [-123.838202, 42.709849, 132.1], [-123.838253, 42.709824, 132.1], [-123.838451, 42.709756, 132.1], [-123.838596, 42.709752, 132.1], [-123.838688, 42.709796, 132.2], [-123.838956, 42.709708, 132.3], [-123.839133, 42.709705, 132.4], [-123.839222, 42.709692, 132.4], [-123.839332, 42.709779, 132.5], [-123.839432, 42.709809, 132.5], [-123.839505, 42.709703, 132.5], [-123.839566, 42.709684, 132.4], [-123.839743, 42.709681, 132.4], [-123.839966, 42.709694, 132.7], [-123.840069, 42.70969, 132.9], [-123.840156, 42.709663, 133.0], [-123.84026, 42.709615, 132.9], [-123.840306, 42.709606, 132.9], [-123.840416, 42.709655, 133.0], [-123.840567, 42.709664, 132.9], [-123.840668, 42.709691, 132.7], [-123.840816, 42.709684, 132.5], [-123.840907, 42.709693, 132.4], [-123.841095, 42.709729, 132.4], [-123.841315, 42.709715, 132.8], [-123.841504, 42.709731, 132.7], [-123.841708, 42.709815, 132.7], [-123.841812, 42.709872, 132.7], [-123.841923, 42.709908, 132.8], [-123.842001, 42.709948, 132.8], [-123.8421, 42.71004, 132.8], [-123.842419, 42.710134, 132.8], [-123.842545, 42.710214, 132.8], [-123.842635, 42.710285, 132.9], [-123.842689, 42.710288, 132.9], [-123.842816, 42.710344, 133.1], [-123.842847, 42.710428, 133.3], [-123.842937, 42.71043, 133.6], [-123.843004, 42.710457, 133.8], [-123.843102, 42.710464, 134.2], [-123.843158, 42.710484, 134.4], [-123.843299, 42.710497, 134.7], [-123.843379, 42.71048, 134.6], [-123.843405, 42.710458, 134.6], [-123.84348, 42.710445, 134.5], [-123.843585, 42.710473, 134.5], [-123.843687, 42.710513, 134.7], [-123.843838, 42.710597, 135.1], [-123.843894, 42.710647, 135.2], [-123.843962, 42.710673, 135.3], [-123.844061, 42.710733, 135.5], [-123.84409, 42.710774, 135.6], [-123.844215, 42.710851, 136.2], [-123.844242, 42.71091, 136.5], [-123.844198, 42.71101, 136.9], [-123.844242, 42.711033, 137.0], [-123.844381, 42.711015, 137.4], [-123.844511, 42.711015, 137.8], [-123.844579, 42.711028, 138.2], [-123.844694, 42.711129, 139.6], [-123.844709, 42.711245, 141.6], [-123.844835, 42.711263, 143.6], [-123.844922, 42.711315, 144.9], [-123.84505, 42.71142, 147.0], [-123.845058, 42.711534, 148.5], [-123.845011, 42.711609, 149.7], [-123.845007, 42.711652, 150.4], [-123.845109, 42.711721, 152.0], [-123.845163, 42.711722, 152.7], [-123.845172, 42.711688, 153.3], [-123.845237, 42.711698, 155.2], [-123.845359, 42.711695, 155.7], [-123.845458, 42.711743, 155.8], [-123.845418, 42.711773, 155.8], [-123.845511, 42.711864, 155.8], [-123.845587, 42.711961, 156.1], [-123.845569, 42.71209, 156.0], [-123.845597, 42.712157, 155.7], [-123.845602, 42.712257, 154.9], [-123.84563, 42.712314, 154.6], [-123.845631, 42.712393, 154.8], [-123.845703, 42.712494, 155.9], [-123.845779, 42.712494, 156.5], [-123.845915, 42.712436, 157.2], [-123.846041, 42.712452, 157.6], [-123.846078, 42.712472, 157.7], [-123.846127, 42.712542, 158.2], [-123.846162, 42.712652, 159.1], [-123.846224, 42.712697, 159.5], [-123.846282, 42.71276, 159.8], [-123.846348, 42.712791, 159.9], [-123.846462, 42.712816, 159.9], [-123.846534, 42.712848, 160.0], [-123.846603, 42.712919, 160.3], [-123.846611, 42.712952, 160.5], [-123.846669, 42.713008, 161.1], [-123.846729, 42.713092, 161.9], [-123.846801, 42.713126, 162.3], [-123.846847, 42.713182, 162.7], [-123.846879, 42.713287, 163.0], [-123.846986, 42.713397, 163.1], [-123.847106, 42.71342, 163.5], [-123.847133, 42.713451, 163.9], [-123.847199, 42.713465, 164.4], [-123.847265, 42.71355, 165.8], [-123.847353, 42.713614, 167.0], [-123.847361, 42.713646, 167.4], [-123.847452, 42.713745, 168.3], [-123.847647, 42.71381, 168.4], [-123.847742, 42.713829, 168.1], [-123.847807, 42.713858, 167.7], [-123.847974, 42.713905, 166.7], [-123.848057, 42.713916, 166.3], [-123.848121, 42.713941, 166.0], [-123.848194, 42.713995, 165.6], [-123.848227, 42.714064, 165.4], [-123.848335, 42.714179, 164.8], [-123.848354, 42.714241, 164.5], [-123.848426, 42.7143, 164.1], [-123.848666, 42.714456, 162.9], [-123.848811, 42.714514, 161.8], [-123.848948, 42.714637, 160.4], [-123.849017, 42.71468, 159.9], [-123.849087, 42.714693, 159.6], [-123.849128, 42.714728, 159.3], [-123.849142, 42.714794, 159.2], [-123.849214, 42.71481, 159.4], [-123.84933, 42.714856, 160.1], [-123.849396, 42.714939, 161.1], [-123.849443, 42.715048, 162.3], [-123.849478, 42.715071, 162.5], [-123.849666, 42.715101, 162.3], [-123.84971, 42.715091, 162.1], [-123.84981, 42.715118, 161.4], [-123.84987, 42.715161, 160.7], [-123.850032, 42.715153, 159.5], [-123.850164, 42.715205, 158.2], [-123.85027, 42.715301, 157.0], [-123.850331, 42.71537, 156.4], [-123.850405, 42.715425, 155.9], [-123.850572, 42.715455, 154.7], [-123.850635, 42.715441, 154.2], [-123.850733, 42.715447, 153.7], [-123.850963, 42.715505, 153.2], [-123.851058, 42.715511, 153.4], [-123.851112, 42.715562, 153.5], [-123.851147, 42.715668, 153.9], [-123.851137, 42.715778, 154.4], [-123.851153, 42.715842, 154.6], [-123.851247, 42.715878, 154.9], [-123.851276, 42.715903, 155.1], [-123.85131, 42.715866, 155.3], [-123.851398, 42.715822, 155.5], [-123.851488, 42.715799, 155.6], [-123.851549, 42.715757, 155.7], [-123.851749, 42.715733, 155.9], [-123.851766, 42.715752, 155.8], [-123.851879, 42.715773, 155.7], [-123.85197, 42.715815, 155.7], [-123.852096, 42.715936, 155.6], [-123.852146, 42.716011, 155.7], [-123.852799, 42.716338, 157.8], [-123.852589, 42.716275, 157.4], [-123.852502, 42.716207, 157.1], [-123.852403, 42.716147, 156.9], [-123.852357, 42.716085, 156.7], [-123.852297, 42.71606, 156.6], [-123.852066, 42.715891, 155.9], [-123.852008, 42.715862, 155.8], [-123.851757, 42.715798, 155.6], [-123.851675, 42.715761, 155.7], [-123.851567, 42.715758, 155.7], [-123.851504, 42.715814, 155.8], [-123.851299, 42.715885, 155.7], [-123.85124, 42.715921, 155.7], [-123.851193, 42.71587, 155.4], [-123.851186, 42.71576, 155.1], [-123.85117, 42.715692, 154.8], [-123.851087, 42.715602, 154.3], [-123.8509, 42.715529, 153.7], [-123.850859, 42.715482, 153.5], [-123.850597, 42.71546, 153.2], [-123.850469, 42.715444, 153.6], [-123.850413, 42.715393, 154.1], [-123.850393, 42.715346, 154.6], [-123.850287, 42.715187, 156.2], [-123.850209, 42.715154, 156.7], [-123.850112, 42.715156, 157.5], [-123.850035, 42.715122, 158.2], [-123.849928, 42.715137, 159.2], [-123.849872, 42.715098, 159.8], [-123.849742, 42.715088, 160.8], [-123.849612, 42.715035, 162.0], [-123.849567, 42.714994, 162.4], [-123.849568, 42.714933, 162.6], [-123.849604, 42.714897, 162.6], [-123.849593, 42.714867, 162.4], [-123.849535, 42.714826, 162.0], [-123.849391, 42.714774, 160.7], [-123.849389, 42.71468, 159.7], [-123.849357, 42.714643, 159.4], [-123.84922, 42.714613, 159.3], [-123.84908, 42.71453, 160.0], [-123.848877, 42.714483, 161.3], [-123.848773, 42.714445, 162.2], [-123.848582, 42.714338, 163.5], [-123.848507, 42.714245, 164.0], [-123.848454, 42.7142, 164.3], [-123.848419, 42.714125, 164.7], [-123.848324, 42.713988, 165.4], [-123.848275, 42.713958, 165.5], [-123.848174, 42.713928, 165.9], [-123.847985, 42.713904, 166.8], [-123.847857, 42.713856, 167.6], [-123.847709, 42.713757, 168.4], [-123.847661, 42.713736, 168.5], [-123.847556, 42.713658, 168.2], [-123.847401, 42.71351, 166.4], [-123.847277, 42.713481, 165.0], [-123.847119, 42.713425, 163.5], [-123.847069, 42.713356, 163.1], [-123.847066, 42.713311, 163.0], [-123.847022, 42.713172, 163.0], [-123.846984, 42.713136, 162.7], [-123.846887, 42.71309, 162.3], [-123.846874, 42.713071, 161.7], [-123.84675, 42.713009, 160.7], [-123.846694, 42.712957, 160.2], [-123.846569, 42.712891, 159.9], [-123.846479, 42.712795, 159.9], [-123.846425, 42.712779, 159.8], [-123.846486, 42.71275, 159.7], [-123.846502, 42.712705, 159.4], [-123.846448, 42.712644, 158.9], [-123.846337, 42.712581, 158.2], [-123.846315, 42.712541, 157.9], [-123.846202, 42.712451, 157.3], [-123.846044, 42.712452, 156.8], [-123.84599, 42.712498, 156.3], [-123.845872, 42.71254, 155.2], [-123.845802, 42.712514, 154.7], [-123.845772, 42.712383, 155.0], [-123.845791, 42.712322, 155.5], [-123.845719, 42.712238, 156.0], [-123.845714, 42.712152, 156.1], [-123.845661, 42.712013, 155.9], [-123.845569, 42.711953, 155.8], [-123.84551, 42.711874, 155.8], [-123.845469, 42.711842, 155.8], [-123.845389, 42.711811, 155.7], [-123.845296, 42.711758, 155.1], [-123.845212, 42.711669, 153.6], [-123.845223, 42.711576, 152.0], [-123.845177, 42.711448, 149.9], [-123.844974, 42.711318, 147.2], [-123.844935, 42.711282, 146.6], [-123.844829, 42.711224, 145.2], [-123.844806, 42.711119, 143.4], [-123.844745, 42.711037, 141.7], [-123.844653, 42.710983, 140.2], [-123.844593, 42.710976, 139.6], [-123.844478, 42.710991, 138.5], [-123.844455, 42.710962, 138.2], [-123.84448, 42.710921, 137.9], [-123.84445, 42.710839, 137.5], [-123.84434, 42.710767, 137.1], [-123.844224, 42.71071, 136.7], [-123.844025, 42.710589, 135.9], [-123.843929, 42.710557, 135.6], [-123.843789, 42.710542, 135.3], [-123.843656, 42.710547, 135.1], [-123.843451, 42.710538, 134.8], [-123.843291, 42.710478, 134.5], [-123.843193, 42.710476, 134.5], [-123.843038, 42.710443, 134.7], [-123.842965, 42.710404, 134.6], [-123.842964, 42.710357, 134.5], [-123.84291, 42.710311, 134.2], [-123.842786, 42.710276, 133.7], [-123.842696, 42.710166, 133.2], [-123.842606, 42.710089, 133.0], [-123.842528, 42.710057, 132.9], [-123.842312, 42.710026, 132.8], [-123.842235, 42.709997, 132.8], [-123.842132, 42.709912, 132.8], [-123.842057, 42.709902, 132.8], [-123.841989, 42.709851, 132.8], [-123.841956, 42.709776, 132.8], [-123.841856, 42.709733, 132.8], [-123.841763, 42.709679, 132.8], [-123.841601, 42.709659, 132.7], [-123.841522, 42.709708, 132.7], [-123.841348, 42.709714, 132.7], [-123.841283, 42.709705, 132.8], [-123.841174, 42.709644, 132.8], [-123.84105, 42.70965, 132.6], [-123.840843, 42.709708, 132.4], [-123.840742, 42.709707, 132.4], [-123.840617, 42.709679, 132.6], [-123.840541, 42.709689, 132.7], [-123.840375, 42.709654, 133.0], [-123.840283, 42.709611, 132.9], [-123.840082, 42.709624, 133.0], [-123.840047, 42.709643, 133.0], [-123.8399, 42.709645, 132.7], [-123.839628, 42.709668, 132.4], [-123.839583, 42.709694, 132.4], [-123.839545, 42.709775, 132.5], [-123.839452, 42.709781, 132.5], [-123.839317, 42.709713, 132.5], [-123.839187, 42.709697, 132.5], [-123.839033, 42.709648, 132.4], [-123.838921, 42.709664, 132.3], [-123.838842, 42.709692, 132.3], [-123.83879, 42.70966, 132.3], [-123.838732, 42.709665, 132.3], [-123.838657, 42.709699, 132.2], [-123.838563, 42.709784, 132.1], [-123.838439, 42.709862, 132.1], [-123.838391, 42.709874, 132.1], [-123.838336, 42.709858, 132.1], [-123.838249, 42.709797, 132.1], [-123.838168, 42.709786, 132.1], [-123.838081, 42.70979, 132.1], [-123.837997, 42.709811, 132.1], [-123.837835, 42.709783, 132.1], [-123.837774, 42.709737, 132.1], [-123.837643, 42.709701, 132.0], [-123.837477, 42.709674, 132.0], [-123.837398, 42.709653, 132.0], [-123.837329, 42.709696, 132.0], [-123.837247, 42.709717, 132.0], [-123.83712, 42.70977, 132.2], [-123.837068, 42.709756, 132.3], [-123.837018, 42.709715, 132.4], [-123.836858, 42.709679, 132.4], [-123.836719, 42.709664, 132.1], [-123.836615, 42.709667, 131.8], [-123.836529, 42.709691, 131.7], [-123.836444, 42.709697, 131.8], [-123.836256, 42.709671, 132.6], [-123.836208, 42.70968, 132.8], [-123.835995, 42.709775, 133.2], [-123.835865, 42.709877, 133.1], [-123.835678, 42.709954, 133.2], [-123.8355, 42.70999, 132.4], [-123.835408, 42.710046, 131.9], [-123.835374, 42.710099, 131.7], [-123.835331, 42.710122, 131.8], [-123.835248, 42.710137, 132.0], [-123.835147, 42.71014, 132.3], [-123.835041, 42.710209, 132.4], [-123.834989, 42.710279, 132.3], [-123.8349, 42.71032, 132.2], [-123.834811, 42.710346, 132.2], [-123.834752, 42.710334, 132.3], [-123.834658, 42.710371, 132.4], [-123.834613, 42.710366, 132.5], [-123.834543, 42.710395, 132.8], [-123.834466, 42.710501, 133.5], [-123.834402, 42.710524, 133.7], [-123.834281, 42.710525, 133.9], [-123.834184, 42.710561, 133.7], [-123.834093, 42.710555, 133.6], [-123.834042, 42.710576, 133.6], [-123.833938, 42.710699, 133.8], [-123.833845, 42.710716, 133.7], [-123.833707, 42.710649, 133.3], [-123.833517, 42.710603, 133.1], [-123.833414, 42.710615, 133.2], [-123.833356, 42.710643, 133.4], [-123.833286, 42.710632, 133.5], [-123.833172, 42.710592, 133.6], [-123.833164, 42.710613, 133.6], [-123.83297, 42.710618, 134.1], [-123.83287, 42.710612, 134.5], [-123.832752, 42.710667, 135.0], [-123.832655, 42.71069, 134.9], [-123.832474, 42.710654, 133.6], [-123.832333, 42.71065, 132.6], [-123.832172, 42.710679, 132.2], [-123.832103, 42.710719, 132.1], [-123.831988, 42.71073, 132.2], [-123.831862, 42.710794, 132.3], [-123.831808, 42.71081, 132.3], [-123.831654, 42.710798, 132.4], [-123.831378, 42.710802, 132.4], [-123.831265, 42.710776, 132.2], [-123.831197, 42.710723, 131.9], [-123.831029, 42.710714, 131.5], [-123.830947, 42.710668, 131.1], [-123.830832, 42.710662, 130.5], [-123.830752, 42.710647, 130.2], [-123.830708, 42.710619, 130.0], [-123.830617, 42.710603, 129.8], [-123.830538, 42.710574, 129.8], [-123.830344, 42.710558, 130.4], [-123.830181, 42.71053, 131.5], [-123.830049, 42.710495, 132.2], [-123.829992, 42.71049, 132.3], [-123.829915, 42.710516, 132.3], [-123.82985, 42.7106, 132.0], [-123.829695, 42.710684, 131.6], [-123.829649, 42.710722, 131.5], [-123.829638, 42.71077, 131.5], [-123.829654, 42.710813, 131.6], [-123.82972, 42.710859, 131.7], [-123.829787, 42.71095, 132.2], [-123.829795, 42.711026, 132.9], [-123.829752, 42.711097, 133.7], [-123.829743, 42.711148, 134.3], [-123.829683, 42.711178, 134.8], [-123.829654, 42.711156, 135.2], [-123.829609, 42.711165, 135.6], [-123.829535, 42.711232, 136.6], [-123.829602, 42.711343, 138.3], [-123.829589, 42.711439, 140.1], [-123.829541, 42.71144, 140.9], [-123.829428, 42.711348, 142.8], [-123.829406, 42.711265, 143.4], [-123.829346, 42.711179, 143.7], [-123.829281, 42.711117, 143.8], [-123.829175, 42.711074, 143.9], [-123.829155, 42.711025, 143.9], [-123.829193, 42.710927, 143.5], [-123.829182, 42.710848, 143.0], [-123.829192, 42.710759, 142.2], [-123.829221, 42.71072, 141.7], [-123.829306, 42.710546, 139.4], [-123.829293, 42.710476, 138.6], [-123.829269, 42.710446, 138.2], [-123.8293, 42.710355, 137.5], [-123.829263, 42.710271, 136.7], [-123.829121, 42.710131, 135.6], [-123.829107, 42.710087, 135.6], [-123.829063, 42.710039, 135.7], [-123.828815, 42.709945, 136.7], [-123.828757, 42.709868, 137.3], [-123.828663, 42.709767, 138.0], [-123.828448, 42.709709, 138.8], [-123.828347, 42.709655, 139.0], [-123.828228, 42.709514, 138.9], [-123.828104, 42.709454, 139.2], [-123.827942, 42.7094, 140.4], [-123.827809, 42.709369, 141.7], [-123.827659, 42.709369, 142.9], [-123.827493, 42.709295, 143.3], [-123.82739, 42.709193, 142.9], [-123.82732, 42.709168, 142.9], [-123.827266, 42.709075, 143.1], [-123.827176, 42.709058, 143.4], [-123.827105, 42.709084, 143.6], [-123.827055, 42.709073, 143.8], [-123.827017, 42.70902, 144.1], [-123.826974, 42.708998, 144.3], [-123.826884, 42.70889, 144.9], [-123.826795, 42.708855, 145.2], [-123.826637, 42.708825, 145.8], [-123.826581, 42.708832, 145.9], [-123.826528, 42.708808, 146.1], [-123.826498, 42.708764, 146.3], [-123.826421, 42.708703, 146.5], [-123.826273, 42.708639, 146.9], [-123.826115, 42.708543, 147.4], [-123.826001, 42.708528, 147.8], [-123.825867, 42.708567, 148.2], [-123.825761, 42.708563, 148.4], [-123.825738, 42.708536, 148.4], [-123.825728, 42.708462, 148.6], [-123.825661, 42.708374, 148.8], [-123.825546, 42.70828, 149.0], [-123.825488, 42.708295, 149.1], [-123.825374, 42.708263, 149.3], [-123.8253, 42.708172, 149.7], [-123.825143, 42.708151, 150.0], [-123.825056, 42.708106, 150.2], [-123.824968, 42.708043, 150.5], [-123.824907, 42.707959, 150.9], [-123.824836, 42.707919, 151.1], [-123.824801, 42.707849, 151.3], [-123.824738, 42.707759, 151.4], [-123.824708, 42.707666, 151.4], [-123.824673, 42.707634, 151.4], [-123.824506, 42.707546, 151.4], [-123.824426, 42.70749, 151.4], [-123.824383, 42.707479, 151.4], [-123.824292, 42.707491, 151.4], [-123.824143, 42.707582, 151.4], [-123.824065, 42.707614, 151.5], [-123.82403, 42.707578, 151.6], [-123.824047, 42.707482, 151.7], [-123.824037, 42.707378, 152.0], [-123.824012, 42.707344, 152.1], [-123.823863, 42.707254, 152.4], [-123.823802, 42.707186, 152.7], [-123.823668, 42.707112, 153.2], [-123.823531, 42.707086, 153.8], [-123.823474, 42.707093, 154.0], [-123.823429, 42.707133, 154.3], [-123.823379, 42.707138, 154.6], [-123.823346, 42.707112, 154.8], [-123.823356, 42.707057, 155.1], [-123.823299, 42.707005, 155.4], [-123.823208, 42.706963, 155.7], [-123.823107, 42.706945, 155.9], [-123.822901, 42.706954, 156.2], [-123.822741, 42.706983, 156.4], [-123.822547, 42.706975, 156.8], [-123.822433, 42.706948, 157.0], [-123.822391, 42.706916, 157.2], [-123.822244, 42.706757, 157.9], [-123.822096, 42.706704, 158.3], [-123.821888, 42.706577, 158.9], [-123.821788, 42.706536, 159.2], [-123.821616, 42.706488, 159.5], [-123.82152, 42.706437, 159.7], [-123.821463, 42.706423, 159.8], [-123.821342, 42.706456, 160.0], [-123.821299, 42.706435, 160.1], [-123.821284, 42.706377, 160.3], [-123.821245, 42.706349, 160.4], [-123.821088, 42.706317, 160.6], [-123.82106, 42.706325, 160.7], [-123.820883, 42.706442, 161.1], [-123.820757, 42.706501, 161.4], [-123.820638, 42.706518, 161.7], [-123.820553, 42.706499, 161.8], [-123.820507, 42.706473, 162.0], [-123.820441, 42.706387, 162.3], [-123.820354, 42.706371, 162.7], [-123.820264, 42.706336, 163.2], [-123.820161, 42.706238, 164.0], [-123.820034, 42.7062, 165.1], [-123.819964, 42.706199, 165.6], [-123.819848, 42.706232, 166.0], [-123.819772, 42.706179, 166.0], [-123.8197, 42.706149, 166.0], [-123.819577, 42.706133, 166.3], [-123.819437, 42.706104, 166.7], [-123.819269, 42.706099, 166.8], [-123.819116, 42.706039, 167.1], [-123.819053, 42.706025, 167.2], [-123.818949, 42.70597, 167.6], [-123.818852, 42.70596, 168.0], [-123.818815, 42.70597, 168.2], [-123.818735, 42.706039, 168.7], [-123.818637, 42.706074, 169.1], [-123.818573, 42.706129, 169.4], [-123.818429, 42.706096, 169.7], [-123.81836, 42.706022, 169.8], [-123.818337, 42.705932, 169.9], [-123.818337, 42.705839, 170.1], [-123.818302, 42.705813, 170.3], [-123.818067, 42.705743, 171.1], [-123.817983, 42.705684, 171.4], [-123.817778, 42.705631, 171.8], [-123.81754, 42.705622, 171.8], [-123.81744, 42.705563, 171.8], [-123.817364, 42.705539, 171.9], [-123.817222, 42.705477, 172.0], [-123.817104, 42.705459, 172.1], [-123.816935, 42.705384, 172.3], [-123.816816, 42.705404, 172.3], [-123.81662, 42.705334, 172.5], [-123.816585, 42.705304, 172.5], [-123.816527, 42.705207, 172.4], [-123.816445, 42.705123, 172.4], [-123.816308, 42.705074, 172.4], [-123.816176, 42.705047, 172.5], [-123.816149, 42.705016, 172.5], [-123.816138, 42.704954, 172.5], [-123.816081, 42.704911, 172.6], [-123.815826, 42.704816, 172.8], [-123.815627, 42.704796, 173.0], [-123.815513, 42.704774, 173.1], [-123.815423, 42.704815, 173.1], [-123.815285, 42.704863, 173.2], [-123.815241, 42.704867, 173.2], [-123.815202, 42.704838, 173.2], [-123.815185, 42.704753, 173.2], [-123.815056, 42.704624, 173.2], [-123.815042, 42.704573, 173.2], [-123.814978, 42.704483, 173.3], [-123.814859, 42.704446, 173.1], [-123.814805, 42.704407, 172.8], [-123.814764, 42.704335, 172.5], [-123.814627, 42.704306, 171.9], [-123.814574, 42.704325, 171.7], [-123.814462, 42.704305, 171.6], [-123.814376, 42.704232, 172.1], [-123.81434, 42.704135, 172.9], [-123.814214, 42.704045, 173.9], [-123.81416, 42.704028, 174.3], [-123.814009, 42.704039, 175.5], [-123.813956, 42.704031, 175.9], [-123.813905, 42.703951, 176.7], [-123.813818, 42.703882, 177.0], [-123.813704, 42.703759, 176.1], [-123.813659, 42.703743, 175.8], [-123.813613, 42.703696, 175.3], [-123.813586, 42.703638, 174.9], [-123.813485, 42.703588, 174.6], [-123.813415, 42.703518, 174.5], [-123.813309, 42.703463, 174.6], [-123.813238, 42.703409, 174.6], [-123.813112, 42.703384, 174.6], [-123.81305, 42.703318, 174.5], [-123.812977, 42.703287, 174.4], [-123.812834, 42.703262, 173.8], [-123.812776, 42.7032, 173.3], [-123.812745, 42.70314, 172.8], [-123.812647, 42.703064, 172.2], [-123.812563, 42.703046, 172.0], [-123.812455, 42.702977, 171.6], [-123.812425, 42.702915, 171.6], [-123.812343, 42.702873, 171.6], [-123.812229, 42.702792, 171.9], [-123.812136, 42.70276, 172.3], [-123.812041, 42.702768, 172.4], [-123.811989, 42.702738, 172.4], [-123.811847, 42.702706, 172.2], [-123.811729, 42.702712, 172.0], [-123.811684, 42.7027, 172.0], [-123.81153, 42.702626, 171.7], [-123.811297, 42.702569, 171.3], [-123.811172, 42.702569, 171.1], [-123.811121, 42.702556, 171.0], [-123.810914, 42.702533, 170.8], [-123.810751, 42.702525, 170.5], [-123.81073, 42.702486, 170.4], [-123.81073, 42.70241, 170.3], [-123.810669, 42.702342, 170.2], [-123.81058, 42.702312, 170.1], [-123.810434, 42.702192, 169.7], [-123.810367, 42.702151, 169.5], [-123.810268, 42.702124, 169.3], [-123.809879, 42.702118, 169.0], [-123.809766, 42.702125, 168.8], [-123.809645, 42.702156, 168.7], [-123.809643, 42.702171, 168.7], [-123.809386, 42.702228, 168.3], [-123.809314, 42.702232, 168.2], [-123.809232, 42.702215, 168.1], [-123.80913, 42.702166, 168.0], [-123.808996, 42.702076, 167.9], [-123.808865, 42.702032, 167.9], [-123.808723, 42.702013, 167.8], [-123.808639, 42.702013, 167.8], [-123.808499, 42.701997, 167.7], [-123.80837, 42.701966, 167.6], [-123.808275, 42.701932, 167.6], [-123.808159, 42.701938, 167.5], [-123.808085, 42.701978, 167.4], [-123.808053, 42.70202, 167.4], [-123.808028, 42.70215, 167.5], [-123.807992, 42.702253, 167.5], [-123.808028, 42.702395, 167.4], [-123.807989, 42.702396, 167.3], [-123.807881, 42.702314, 167.4], [-123.807791, 42.702295, 167.4], [-123.807716, 42.702312, 167.5], [-123.80763, 42.70231, 167.6], [-123.807376, 42.702276, 167.7], [-123.807312, 42.702254, 167.7], [-123.807223, 42.702204, 167.7], [-123.807097, 42.702259, 167.7], [-123.807015, 42.702334, 167.7], [-123.806796, 42.702457, 167.9], [-123.806733, 42.702528, 168.0], [-123.806727, 42.70257, 168.1], [-123.806655, 42.702612, 168.2], [-123.80649, 42.702646, 168.4], [-123.806035, 42.702665, 168.6], [-123.805778, 42.70273, 168.7], [-123.805677, 42.702772, 168.8], [-123.805551, 42.702842, 168.8], [-123.805172, 42.702982, 168.8], [-123.805084, 42.702992, 168.9], [-123.804919, 42.703027, 169.0], [-123.804711, 42.703116, 169.1], [-123.804631, 42.703176, 169.1], [-123.804537, 42.703341, 169.3], [-123.804456, 42.703459, 169.5], [-123.804441, 42.703511, 169.6], [-123.804393, 42.703571, 169.7], [-123.804391, 42.7036, 169.7], [-123.804341, 42.703599, 169.7], [-123.804285, 42.703518, 169.6], [-123.804203, 42.703427, 169.5], [-123.804144, 42.703402, 169.6], [-123.803989, 42.703411, 169.9], [-123.80393, 42.703406, 170.0], [-123.803807, 42.703433, 170.1], [-123.803743, 42.70348, 170.1], [-123.803609, 42.703514, 170.1], [-123.80353, 42.703489, 170.1], [-123.803467, 42.703488, 170.2], [-123.803393, 42.703462, 170.3], [-123.803252, 42.703477, 170.7], [-123.803167, 42.70346, 171.0], [-123.803026, 42.703448, 170.9], [-123.802835, 42.703486, 170.5], [-123.802768, 42.703528, 170.4], [-123.80253, 42.703635, 170.4], [-123.802465, 42.703636, 170.5], [-123.802407, 42.703656, 170.5], [-123.802348, 42.703746, 170.4], [-123.80234, 42.703791, 170.4], [-123.802305, 42.70382, 170.5], [-123.802133, 42.703826, 170.5], [-123.802084, 42.70385, 170.5], [-123.802023, 42.703839, 170.5], [-123.801936, 42.703849, 170.5], [-123.801773, 42.703889, 170.4], [-123.801653, 42.703942, 170.4], [-123.801537, 42.704074, 170.3], [-123.801467, 42.70412, 170.3], [-123.801383, 42.704144, 170.1], [-123.801281, 42.704132, 170.0], [-123.801049, 42.704141, 169.4], [-123.80096, 42.704167, 169.1], [-123.800854, 42.704214, 168.8], [-123.800784, 42.704263, 168.7], [-123.800662, 42.704378, 168.3], [-123.800621, 42.704443, 168.1], [-123.800615, 42.70451, 167.9], [-123.800588, 42.704564, 167.6], [-123.800458, 42.704584, 167.2], [-123.800339, 42.704615, 166.8], [-123.800274, 42.704668, 166.5], [-123.800189, 42.704767, 165.8], [-123.800111, 42.704775, 165.4], [-123.800007, 42.704754, 164.8], [-123.799943, 42.704765, 164.4], [-123.799706, 42.704834, 163.7], [-123.799688, 42.704917, 163.6], [-123.799559, 42.705008, 163.6], [-123.799416, 42.705156, 163.7], [-123.799337, 42.7052, 163.6], [-123.799278, 42.70526, 163.3], [-123.799242, 42.705373, 162.3], [-123.79928, 42.705437, 161.7], [-123.799238, 42.705476, 161.4], [-123.799126, 42.705527, 161.0], [-123.798936, 42.705686, 160.9], [-123.798884, 42.7057, 161.0], [-123.798759, 42.705703, 161.2], [-123.798712, 42.705687, 161.3], [-123.798671, 42.705719, 161.4], [-123.798573, 42.705831, 161.5], [-123.798515, 42.705915, 161.4], [-123.79852, 42.705997, 161.3], [-123.79857, 42.706138, 161.0], [-123.798629, 42.706227, 160.8], [-123.798586, 42.706257, 160.8], [-123.798541, 42.706242, 160.8], [-123.798497, 42.706186, 160.8], [-123.798428, 42.706156, 160.9], [-123.798421, 42.706115, 161.0], [-123.798334, 42.706007, 161.1], [-123.798214, 42.705924, 161.4], [-123.798162, 42.705918, 161.6], [-123.798109, 42.705944, 161.7], [-123.797948, 42.706104, 162.2], [-123.797937, 42.706139, 162.3], [-123.798026, 42.706306, 162.7], [-123.798024, 42.706344, 162.8], [-123.797981, 42.706372, 162.8], [-123.797926, 42.706368, 162.9], [-123.797861, 42.706303, 162.9], [-123.797803, 42.70628, 162.9], [-123.797651, 42.706264, 162.9], [-123.797442, 42.70635, 162.8], [-123.797286, 42.706459, 162.7], [-123.797184, 42.706485, 162.7], [-123.797076, 42.706535, 162.7], [-123.797044, 42.706571, 162.7], [-123.797014, 42.706662, 162.8], [-123.796977, 42.706701, 162.8], [-123.796823, 42.706814, 162.6], [-123.796745, 42.706888, 162.7], [-123.79666, 42.706928, 162.7], [-123.796545, 42.706965, 162.8], [-123.796516, 42.707014, 162.9], [-123.796466, 42.707049, 163.0], [-123.796274, 42.707081, 163.0], [-123.796011, 42.707145, 163.1], [-123.795855, 42.70716, 163.1], [-123.795717, 42.707228, 163.0], [-123.79566, 42.707241, 163.0], [-123.795524, 42.707309, 162.9], [-123.795244, 42.707392, 162.5], [-123.795097, 42.707447, 161.9], [-123.795022, 42.707487, 161.5], [-123.794955, 42.707493, 161.2], [-123.794813, 42.707472, 160.5], [-123.794648, 42.707532, 159.3], [-123.79454, 42.70754, 158.6], [-123.794239, 42.707708, 156.5], [-123.794038, 42.707769, 155.5], [-123.793855, 42.70789, 154.8], [-123.793859, 42.707951, 154.6], [-123.793716, 42.707948, 154.5], [-123.793652, 42.70796, 154.6], [-123.793485, 42.708099, 155.2], [-123.793253, 42.70821, 154.9], [-123.793153, 42.708242, 154.7], [-123.793036, 42.708225, 154.5], [-123.792976, 42.708241, 154.4], [-123.792904, 42.708286, 154.4], [-123.792864, 42.708363, 154.4], [-123.792788, 42.708447, 154.6], [-123.792754, 42.708505, 155.0], [-123.79262, 42.708604, 156.3], [-123.792527, 42.708632, 157.0], [-123.792454, 42.708673, 157.5], [-123.792348, 42.708706, 157.8], [-123.792162, 42.708707, 157.4], [-123.79207, 42.708718, 156.7], [-123.791953, 42.708762, 155.2], [-123.791658, 42.708831, 151.1], [-123.791553, 42.708911, 149.6], [-123.79153, 42.709029, 148.6], [-123.791448, 42.70914, 147.9], [-123.791398, 42.709163, 147.6], [-123.791341, 42.709158, 147.4], [-123.791285, 42.709095, 147.0], [-123.791205, 42.709037, 146.6], [-123.791166, 42.709026, 146.5], [-123.791115, 42.709049, 146.3], [-123.791056, 42.709115, 146.0], [-123.790843, 42.70925, 145.7], [-123.790758, 42.709331, 145.5], [-123.790564, 42.709466, 144.7], [-123.790552, 42.709508, 144.5], [-123.790619, 42.70963, 143.9], [-123.790611, 42.709684, 143.6], [-123.790426, 42.709699, 143.1], [-123.790279, 42.709675, 142.6], [-123.790247, 42.709634, 142.4], [-123.79018, 42.709618, 142.1], [-123.790129, 42.709587, 141.9], [-123.790036, 42.709492, 141.6], [-123.789941, 42.709466, 141.4], [-123.789766, 42.709523, 140.7], [-123.789715, 42.709509, 140.6], [-123.789735, 42.70947, 140.4], [-123.789774, 42.7095, 140.3], [-123.789839, 42.709489, 139.7], [-123.789878, 42.709436, 139.2], [-123.789769, 42.709365, 135.7], [-123.789684, 42.709336, 134.7], [-123.789667, 42.709309, 134.7], [-123.789588, 42.70926, 133.0], [-123.789581, 42.709209, 131.5], [-123.789493, 42.709198, 130.4], [-123.789423, 42.709228, 130.3], [-123.789339, 42.70924, 129.8], [-123.789302, 42.709188, 128.2], [-123.789284, 42.709228, 129.6], [-123.789299, 42.709204, 128.2], [-123.789235, 42.709163, 126.7], [-123.78926, 42.709092, 126.6], [-123.789251, 42.70881, 126.6], [-123.789304, 42.708741, 126.6], [-123.789383, 42.708717, 126.6], [-123.78945, 42.708629, 126.6], [-123.789473, 42.708575, 126.6], [-123.789554, 42.708533, 126.6], [-123.789546, 42.708406, 126.9], [-123.789593, 42.708391, 127.2]]}}