{"type": "Feature", "properties": {}, "geometry": {"type": "LineString", "coordinates": [[-122.047184, 37.81558, 284.3], [-122.047087, 37.815557, 285.9], [-122.047047, 37.815525, 285.5], [-122.047012, 37.815534, 284.2], [-122.047011, 37.815505, 281.5], [-122.046909, 37.815494, 280.6], [-122.046831, 37.815452, 280.6], [-122.046755, 37.815402, 282.6], [-122.046655, 37.815366, 282.3], [-122.046521, 37.8153, 284.2], [-122.04645, 37.815248, 286.9], [-122.04641, 37.815237, 289.3], [-122.046357, 37.815259, 292.2], [-122.046352, 37.815274, 291.7], [-122.046359, 37.815299, 292.3], [-122.046395, 37.815348, 294.1], [-122.046469, 37.815486, 295.9], [-122.046503, 37.815632, 298.3], [-122.046493, 37.815706, 300.4], [-122.046447, 37.815723, 302.4], [-122.046393, 37.815709, 303.0], [-122.046373, 37.815698, 302.7], [-122.046244, 37.815603, 306.9], [-122.046164, 37.815529, 312.3], [-122.046135, 37.815527, 312.8], [-122.046117, 37.815546, 313.0], [-122.046101, 37.815587, 313.6], [-122.046109, 37.815593, 313.9], [-122.046106, 37.815643, 315.5], [-122.046074, 37.815687, 315.6], [-122.046053, 37.815755, 316.7], [-122.046019, 37.815874, 323.2], [-122.04599, 37.815901, 324.4], [-122.045952, 37.815907, 324.8], [-122.045781, 37.815775, 327.6], [-122.045693, 37.815723, 327.4], [-122.045637, 37.815679, 328.3], [-122.045619, 37.815653, 330.8], [-122.045609, 37.815609, 328.9], [-122.045622, 37.815515, 330.4], [-122.045609, 37.815479, 329.8], [-122.045609, 37.815459, 330.5], [-122.045588, 37.815448, 331.0], [-122.045542, 37.815511, 332.9], [-122.045497, 37.815545, 335.5], [-122.045478, 37.815554, 336.7], [-122.045425, 37.815595, 340.1], [-122.045308, 37.815655, 340.9], [-122.045311, 37.815713, 343.0], [-122.045335, 37.81576, 344.5], [-122.045285, 37.815833, 343.5], [-122.045276, 37.815869, 345.6], [-122.045291, 37.815903, 345.0], [-122.045386, 37.815983, 351.4], [-122.045455, 37.816086, 352.9], [-122.04551, 37.816138, 355.8], [-122.045568, 37.816206, 357.4], [-122.045571, 37.816274, 356.2], [-122.045568, 37.81631, 358.5], [-122.045661, 37.816403, 359.8], [-122.045676, 37.816414, 361.0], [-122.045705, 37.816461, 363.0], [-122.045676, 37.816519, 362.2], [-122.045671, 37.816562, 363.2], [-122.045664, 37.816583, 360.6], [-122.045586, 37.816703, 355.0], [-122.045543, 37.816718, 352.7], [-122.045529, 37.81688, 357.0], [-122.045556, 37.816965, 360.1], [-122.045586, 37.816975, 358.9], [-122.04558, 37.817001, 356.2], [-122.045586, 37.817033, 358.8], [-122.045567, 37.817065, 356.4], [-122.04553, 37.817092, 358.4], [-122.045489, 37.817129, 361.3], [-122.045419, 37.817156, 361.5], [-122.045395, 37.817191, 361.8], [-122.045355, 37.817272, 365.7], [-122.045263, 37.817324, 366.3], [-122.045256, 37.817333, 366.9], [-122.045199, 37.817487, 368.7], [-122.045175, 37.817543, 372.6], [-122.045231, 37.817641, 376.5], [-122.045216, 37.817671, 377.2], [-122.045109, 37.817711, 379.4], [-122.045091, 37.817727, 381.7], [-122.045079, 37.817778, 385.0], [-122.04508, 37.817794, 385.3], [-122.04516, 37.817869, 384.6], [-122.045256, 37.817888, 385.2], [-122.04533, 37.817897, 386.4], [-122.045345, 37.817919, 385.8], [-122.045338, 37.818028, 386.0], [-122.045248, 37.818144, 388.6], [-122.045244, 37.818166, 389.1], [-122.045283, 37.818197, 388.6], [-122.045344, 37.818211, 390.4], [-122.045368, 37.818226, 391.4], [-122.045444, 37.818306, 396.0], [-122.045446, 37.818315, 396.0], [-122.045523, 37.818463, 402.3], [-122.045526, 37.818477, 404.8], [-122.045495, 37.818526, 405.5], [-122.045439, 37.818549, 410.0], [-122.045389, 37.818615, 411.0], [-122.045386, 37.818631, 410.6], [-122.045391, 37.818719, 412.8], [-122.045409, 37.818776, 415.3], [-122.045445, 37.818809, 416.6], [-122.0455, 37.818848, 414.6], [-122.045591, 37.818876, 404.1], [-122.045637, 37.818892, 409.6], [-122.045669, 37.818943, 414.7], [-122.045674, 37.818967, 413.5], [-122.045665, 37.819025, 414.8], [-122.045654, 37.819072, 395.9], [-122.045675, 37.819166, 408.0], [-122.045658, 37.819244, 409.6], [-122.045666, 37.819307, 411.3], [-122.045731, 37.819415, 409.3], [-122.04578, 37.819472, 407.6], [-122.045895, 37.819551, 406.5], [-122.045923, 37.819575, 408.4], [-122.045943, 37.81962, 409.9], [-122.045937, 37.819635, 410.6], [-122.045946, 37.819701, 413.7], [-122.045951, 37.819716, 413.4], [-122.04604, 37.819866, 416.6], [-122.046127, 37.819999, 389.2], [-122.046151, 37.82006, 405.1], [-122.046182, 37.820088, 403.2], [-122.046195, 37.820132, 402.5], [-122.046248, 37.820178, 409.5], [-122.04634, 37.820234, 413.2], [-122.046425, 37.820267, 413.0], [-122.046453, 37.820271, 413.9], [-122.046662, 37.82033, 400.6], [-122.046755, 37.820372, 414.5], [-122.046819, 37.820449, 402.4], [-122.046906, 37.820632, 428.6], [-122.046918, 37.820671, 439.9], [-122.046944, 37.820714, 440.9], [-122.046975, 37.820734, 443.9], [-122.04699, 37.820783, 449.5], [-122.046962, 37.820783, 447.8], [-122.046901, 37.820821, 448.7], [-122.046803, 37.820824, 446.6], [-122.046784, 37.820829, 446.7], [-122.046748, 37.820859, 447.4], [-122.046746, 37.820892, 446.0], [-122.046723, 37.82091, 448.1], [-122.04665, 37.8209, 448.7], [-122.046636, 37.820894, 448.5], [-122.046592, 37.820892, 447.4], [-122.046578, 37.820903, 446.7], [-122.046558, 37.82096, 443.9], [-122.046536, 37.820986, 443.0], [-122.046464, 37.821031, 442.7], [-122.046424, 37.821073, 442.6], [-122.046396, 37.821083, 442.8], [-122.04637, 37.821081, 444.0], [-122.046313, 37.821046, 444.9], [-122.046249, 37.821042, 447.1], [-122.04622, 37.821045, 447.4], [-122.046171, 37.821057, 449.0], [-122.046133, 37.821055, 449.7], [-122.045986, 37.821142, 447.5], [-122.045954, 37.821156, 448.2], [-122.045825, 37.821232, 451.0], [-122.045685, 37.821228, 454.2], [-122.04558, 37.821237, 450.1], [-122.045459, 37.821197, 452.4], [-122.045405, 37.821168, 451.8], [-122.045312, 37.821197, 452.0], [-122.045243, 37.821173, 454.4], [-122.045158, 37.821165, 455.8], [-122.045062, 37.821109, 458.3], [-122.045004, 37.821118, 458.3], [-122.044974, 37.821134, 458.3], [-122.044796, 37.821194, 456.2], [-122.044765, 37.821197, 456.5], [-122.044678, 37.82118, 452.9], [-122.044651, 37.821171, 452.0], [-122.044575, 37.821137, 451.8], [-122.044457, 37.821129, 447.7], [-122.044389, 37.821106, 449.3], [-122.044258, 37.821044, 410.4], [-122.044141, 37.820964, 444.1], [-122.04412, 37.820954, 449.9], [-122.043936, 37.820853, 453.8], [-122.04379, 37.820793, 459.9], [-122.043721, 37.820793, 458.0], [-122.043685, 37.820798, 459.1], [-122.043618, 37.820795, 455.2], [-122.043543, 37.820804, 454.2], [-122.043481, 37.820767, 456.2], [-122.043459, 37.82075, 457.7], [-122.043412, 37.820726, 458.9], [-122.043318, 37.820731, 457.1], [-122.043265, 37.820707, 454.7], [-122.043171, 37.8207, 456.8], [-122.043108, 37.820722, 455.8], [-122.043057, 37.820729, 455.0], [-122.042981, 37.820722, 455.4], [-122.042922, 37.820674, 457.8], [-122.042845, 37.820668, 459.8], [-122.042818, 37.820659, 460.3], [-122.04267, 37.820578, 465.2], [-122.042589, 37.820468, 461.5], [-122.042472, 37.820413, 464.0], [-122.04245, 37.820401, 464.3], [-122.042295, 37.820304, 469.8], [-122.042182, 37.820279, 462.7], [-122.04215, 37.82026, 466.3], [-122.042122, 37.820221, 471.7], [-122.042033, 37.820154, 475.0], [-122.04195, 37.820122, 474.9], [-122.04194, 37.820115, 475.7], [-122.041906, 37.820068, 479.3], [-122.041851, 37.820037, 479.6], [-122.041823, 37.819992, 478.3], [-122.041804, 37.819982, 477.7], [-122.041698, 37.819965, 478.6], [-122.041481, 37.819775, 476.3], [-122.04141, 37.819726, 473.6], [-122.041401, 37.819714, 473.8], [-122.041344, 37.819666, 473.6], [-122.041311, 37.819613, 480.0], [-122.041253, 37.819608, 477.9], [-122.041212, 37.819595, 477.7], [-122.041136, 37.819491, 477.6], [-122.041006, 37.819356, 481.2], [-122.040975, 37.819319, 465.0], [-122.040866, 37.819269, 469.2], [-122.040838, 37.819276, 474.4], [-122.040813, 37.819259, 475.9], [-122.040774, 37.81927, 467.1], [-122.040745, 37.81927, 472.7], [-122.040722, 37.81937, 473.6], [-122.040683, 37.819394, 473.4], [-122.040654, 37.819393, 475.0], [-122.040637, 37.819384, 474.7], [-122.040579, 37.819317, 474.9], [-122.04057, 37.819295, 474.6], [-122.040576, 37.819251, 470.5], [-122.040569, 37.819238, 470.5], [-122.040552, 37.819236, 468.3], [-122.040525, 37.819257, 465.7], [-122.040517, 37.819294, 466.1], [-122.040529, 37.819359, 464.9], [-122.040526, 37.819373, 464.8], [-122.040506, 37.81939, 463.7], [-122.04048, 37.819393, 464.3], [-122.040455, 37.819383, 463.3], [-122.040416, 37.819345, 463.3], [-122.040351, 37.819253, 459.8], [-122.040389, 37.819236, 468.5], [-122.040324, 37.819358, 462.2], [-122.040302, 37.819369, 460.9], [-122.040278, 37.81937, 459.9], [-122.040233, 37.819281, 459.4], [-122.040219, 37.81926, 458.6], [-122.040182, 37.819231, 462.7], [-122.040154, 37.819242, 457.0], [-122.040129, 37.819267, 457.2], [-122.040102, 37.819315, 455.2], [-122.040073, 37.819432, 453.1], [-122.040061, 37.819374, 449.2], [-122.040043, 37.819332, 448.0], [-122.040021, 37.81933, 447.4], [-122.04, 37.819313, 446.4], [-122.039903, 37.819274, 443.4], [-122.039847, 37.819282, 443.4], [-122.039822, 37.819263, 439.9], [-122.039825, 37.819227, 439.4], [-122.039852, 37.81912, 441.7], [-122.039841, 37.819078, 443.1], [-122.039883, 37.818995, 444.0], [-122.039887, 37.818949, 446.2], [-122.039937, 37.818876, 451.2], [-122.03995, 37.81883, 444.6], [-122.039973, 37.818813, 444.7], [-122.039986, 37.818764, 429.9], [-122.040053, 37.818726, 437.4], [-122.040101, 37.818673, 435.5], [-122.040109, 37.818643, 434.6], [-122.0401, 37.818627, 434.6], [-122.040069, 37.818603, 434.2], [-122.039993, 37.818562, 431.6], [-122.04, 37.818529, 433.6], [-122.040043, 37.818468, 429.7], [-122.04003, 37.818383, 429.0], [-122.040061, 37.818309, 426.7], [-122.04009, 37.818285, 426.6], [-122.040109, 37.818278, 426.8], [-122.040171, 37.818267, 426.8], [-122.04021, 37.818242, 428.2], [-122.040221, 37.818179, 424.2], [-122.040219, 37.817989, 415.3], [-122.040224, 37.81798, 415.7], [-122.04026, 37.817957, 416.9], [-122.040256, 37.817925, 415.2], [-122.040242, 37.817909, 415.4], [-122.040271, 37.817855, 415.2], [-122.04026, 37.817806, 412.8], [-122.040266, 37.8177, 410.6], [-122.04028, 37.817655, 408.7], [-122.040271, 37.817629, 409.6], [-122.040284, 37.81761, 409.0], [-122.040293, 37.817558, 407.3], [-122.040329, 37.817507, 407.1], [-122.040336, 37.817492, 406.8], [-122.040371, 37.81745, 406.2], [-122.040482, 37.817416, 404.3], [-122.040511, 37.817413, 403.4], [-122.0406, 37.817445, 403.6], [-122.040676, 37.81739, 407.3], [-122.040697, 37.817343, 407.6], [-122.04075, 37.817293, 407.8], [-122.040821, 37.817257, 408.0], [-122.040878, 37.817175, 408.1], [-122.040939, 37.817115, 409.9], [-122.041035, 37.817061, 410.8], [-122.041084, 37.817071, 409.4], [-122.041198, 37.817194, 406.2], [-122.041261, 37.817201, 405.7], [-122.041369, 37.817165, 406.7], [-122.041426, 37.817122, 407.2], [-122.041474, 37.817101, 408.3], [-122.041506, 37.817091, 408.9], [-122.041627, 37.817059, 407.9], [-122.041668, 37.817026, 408.4], [-122.041678, 37.817012, 406.8], [-122.041696, 37.816961, 403.5], [-122.041694, 37.816929, 403.8], [-122.041723, 37.816889, 402.0], [-122.041737, 37.816846, 401.8], [-122.041864, 37.816819, 401.4], [-122.041924, 37.816817, 401.3], [-122.041964, 37.816809, 399.7], [-122.04197, 37.816792, 397.3], [-122.041964, 37.816773, 396.2], [-122.041901, 37.816721, 393.1], [-122.04189, 37.816683, 390.6], [-122.041894, 37.816671, 390.8], [-122.041924, 37.816666, 390.0], [-122.041972, 37.816677, 390.6], [-122.042003, 37.816667, 389.0], [-122.04201, 37.81664, 388.5], [-122.042039, 37.816613, 386.2], [-122.042092, 37.8166, 386.0], [-122.042115, 37.81662, 385.0], [-122.042121, 37.816662, 382.1], [-122.042152, 37.816689, 379.7], [-122.042222, 37.816724, 380.2], [-122.042255, 37.816737, 379.8], [-122.042353, 37.816712, 379.2], [-122.042497, 37.81677, 379.1], [-122.042529, 37.816802, 375.6], [-122.042586, 37.816895, 375.7], [-122.042645, 37.816946, 374.4], [-122.042673, 37.817006, 371.5], [-122.042676, 37.817032, 371.3], [-122.042704, 37.817124, 371.7], [-122.042662, 37.817158, 370.1], [-122.042656, 37.817176, 368.5], [-122.04268, 37.817202, 369.0], [-122.042767, 37.817308, 364.2], [-122.04288, 37.817378, 364.4], [-122.043005, 37.817394, 354.9], [-122.043117, 37.8174, 356.4], [-122.043197, 37.817387, 355.9], [-122.043211, 37.817387, 356.6], [-122.04326, 37.8174, 354.6], [-122.043359, 37.817404, 353.3], [-122.043451, 37.817389, 354.0], [-122.043466, 37.817391, 354.7], [-122.04352, 37.817355, 349.9], [-122.043587, 37.817339, 343.4], [-122.043592, 37.81738, 345.2], [-122.043669, 37.81747, 345.9], [-122.04371, 37.817492, 347.5], [-122.043741, 37.817536, 343.2], [-122.043788, 37.817556, 342.6], [-122.043777, 37.817546, 341.9], [-122.043739, 37.817544, 339.5], [-122.043688, 37.817562, 343.1], [-122.043656, 37.817595, 343.0], [-122.043645, 37.81762, 343.9], [-122.043653, 37.817641, 350.6], [-122.04364, 37.81766, 345.4], [-122.043642, 37.817714, 346.7], [-122.043687, 37.817802, 352.8], [-122.043665, 37.817854, 349.1], [-122.043628, 37.817908, 350.7], [-122.043583, 37.81794, 352.0], [-122.043572, 37.81796, 352.7], [-122.043576, 37.818004, 353.5], [-122.043603, 37.818035, 356.2], [-122.043591, 37.818087, 354.5], [-122.043536, 37.818165, 354.0], [-122.043537, 37.818184, 355.1], [-122.043562, 37.818251, 354.6], [-122.043604, 37.81831, 361.5], [-122.043624, 37.81836, 363.6], [-122.043689, 37.81844, 365.8], [-122.043732, 37.818475, 369.1], [-122.0438, 37.818526, 370.2], [-122.043823, 37.818575, 374.6], [-122.043881, 37.818599, 374.8], [-122.043942, 37.818652, 377.1], [-122.044, 37.818745, 380.4], [-122.044016, 37.8188, 376.6], [-122.044036, 37.818818, 377.6], [-122.044092, 37.818835, 379.0], [-122.04412, 37.818886, 380.9], [-122.044112, 37.818942, 381.0], [-122.044161, 37.819057, 380.6], [-122.04418, 37.819088, 382.6], [-122.044182, 37.819153, 377.6], [-122.044128, 37.819204, 378.6], [-122.044079, 37.819217, 379.7], [-122.044063, 37.819241, 380.2], [-122.044063, 37.819274, 380.9], [-122.044072, 37.819299, 381.3], [-122.044094, 37.819317, 381.6], [-122.044154, 37.819334, 380.7], [-122.044189, 37.819356, 382.9], [-122.044234, 37.819434, 385.0], [-122.044277, 37.819441, 384.2], [-122.044354, 37.819462, 387.3], [-122.04439, 37.819494, 390.8], [-122.044472, 37.81952, 394.7], [-122.044538, 37.819474, 388.2], [-122.044584, 37.819422, 389.9], [-122.04459, 37.819408, 389.3], [-122.044597, 37.819297, 390.3], [-122.044619, 37.819282, 389.3], [-122.044661, 37.819289, 372.4], [-122.044747, 37.819329, 391.7], [-122.044846, 37.819332, 376.0], [-122.044857, 37.819322, 379.0], [-122.04486, 37.819283, 386.3], [-122.044883, 37.819271, 389.7], [-122.044864, 37.81925, 400.9], [-122.044863, 37.819229, 394.7], [-122.044888, 37.819182, 388.3], [-122.044864, 37.819142, 389.2], [-122.044838, 37.819075, 393.7], [-122.044852, 37.819026, 394.8], [-122.0449, 37.818982, 395.6], [-122.044916, 37.818852, 397.6], [-122.044997, 37.818795, 399.4], [-122.045043, 37.81873, 401.2], [-122.045072, 37.818764, 403.2], [-122.045117, 37.818794, 403.3], [-122.045149, 37.818874, 404.3], [-122.045256, 37.818966, 406.1], [-122.045354, 37.818986, 410.1], [-122.045407, 37.819008, 414.0], [-122.045427, 37.819008, 413.6], [-122.04544, 37.818988, 415.7], [-122.045469, 37.818994, 414.9], [-122.045579, 37.819073, 419.5], [-122.045607, 37.819121, 420.9], [-122.04563, 37.819135, 419.4], [-122.045659, 37.819133, 419.7], [-122.045681, 37.819119, 419.3], [-122.045726, 37.819057, 420.2], [-122.045723, 37.819043, 418.7], [-122.045683, 37.818919, 418.6], [-122.045661, 37.818888, 420.2], [-122.04564, 37.818876, 420.0], [-122.045522, 37.81884, 418.2], [-122.045468, 37.818779, 416.5], [-122.04545, 37.818764, 415.4], [-122.045427, 37.818728, 415.1], [-122.045435, 37.818607, 413.0], [-122.045443, 37.818587, 412.9], [-122.045483, 37.818542, 412.3], [-122.045564, 37.818511, 410.5], [-122.045565, 37.818475, 409.0], [-122.04555, 37.818455, 408.8], [-122.045393, 37.818292, 401.8], [-122.045261, 37.81819, 399.5], [-122.045241, 37.818164, 399.1], [-122.045238, 37.818135, 398.5], [-122.045253, 37.818109, 398.5], [-122.0453, 37.818069, 397.1], [-122.045321, 37.818044, 397.0], [-122.045342, 37.817992, 394.4], [-122.045338, 37.817963, 394.4], [-122.045324, 37.817942, 393.2], [-122.045208, 37.817903, 390.8], [-122.045131, 37.81786, 388.6], [-122.045052, 37.817788, 384.9], [-122.045046, 37.817763, 383.8], [-122.045053, 37.817748, 383.7], [-122.045143, 37.817697, 381.6], [-122.045216, 37.81768, 380.1], [-122.045253, 37.817648, 378.7], [-122.045262, 37.817608, 377.9], [-122.045237, 37.817563, 376.7], [-122.045204, 37.817525, 376.2], [-122.045204, 37.817503, 374.5], [-122.045294, 37.817346, 370.0], [-122.04533, 37.817298, 369.6], [-122.045388, 37.817265, 365.0], [-122.045445, 37.817189, 364.2], [-122.045501, 37.817138, 364.3], [-122.045529, 37.817119, 363.9], [-122.045575, 37.817078, 366.1], [-122.045609, 37.817005, 366.4], [-122.045593, 37.816909, 360.4], [-122.045596, 37.816875, 359.3], [-122.045598, 37.816729, 358.4], [-122.045676, 37.816589, 358.4], [-122.045695, 37.816526, 357.3], [-122.045692, 37.816463, 358.0], [-122.045656, 37.81642, 357.3], [-122.045602, 37.816393, 356.0], [-122.045577, 37.816366, 354.8], [-122.045537, 37.816304, 353.8], [-122.045452, 37.816219, 354.0], [-122.045382, 37.816076, 352.2], [-122.045357, 37.816038, 352.1], [-122.045301, 37.815968, 351.3], [-122.045262, 37.815938, 351.5], [-122.045231, 37.815879, 350.8], [-122.045312, 37.815865, 345.6], [-122.045341, 37.815835, 344.9], [-122.045374, 37.815759, 344.6], [-122.045354, 37.815734, 344.6], [-122.04535, 37.815695, 344.3], [-122.045355, 37.815673, 344.5], [-122.045383, 37.815634, 345.7], [-122.045546, 37.815556, 344.0], [-122.045563, 37.815536, 343.7], [-122.045602, 37.815474, 342.1], [-122.045619, 37.815461, 341.1], [-122.045638, 37.815463, 340.1], [-122.04565, 37.815498, 338.5], [-122.045631, 37.815588, 334.7], [-122.045631, 37.815629, 333.2], [-122.045647, 37.815666, 332.3], [-122.045785, 37.815788, 331.5], [-122.04588, 37.815843, 327.3], [-122.045959, 37.815912, 326.3], [-122.046037, 37.815951, 324.9], [-122.046079, 37.815892, 324.1], [-122.046082, 37.81573, 324.2], [-122.0461, 37.815674, 324.1], [-122.046136, 37.815627, 326.5], [-122.04617, 37.815572, 326.6], [-122.046169, 37.815537, 325.7], [-122.046181, 37.815505, 326.7], [-122.046205, 37.815491, 323.9], [-122.046217, 37.815495, 322.4], [-122.046292, 37.815543, 318.2], [-122.046307, 37.815589, 316.2], [-122.046334, 37.815621, 316.5], [-122.046436, 37.815675, 316.2], [-122.046512, 37.815743, 314.2], [-122.046525, 37.815745, 313.4], [-122.046571, 37.815723, 315.8], [-122.046587, 37.815683, 314.9], [-122.046544, 37.815578, 312.5], [-122.046493, 37.815498, 309.0], [-122.046467, 37.815495, 308.1], [-122.046447, 37.815441, 305.5], [-122.046391, 37.815356, 302.3], [-122.046379, 37.815302, 301.5], [-122.046384, 37.815259, 300.5], [-122.046398, 37.815238, 302.5], [-122.046443, 37.815241, 300.4], [-122.046607, 37.81529, 298.4], [-122.046639, 37.815298, 298.5], [-122.046735, 37.815332, 296.7], [-122.046884, 37.815415, 296.6], [-122.047024, 37.815471, 294.6], [-122.047043, 37.815454, 294.5], [-122.04711, 37.815485, 294.7], [-122.047275, 37.815548, 297.3], [-122.047302, 37.815547, 300.0], [-122.047306, 37.815505, 299.1], [-122.047268, 37.815437, 297.3], [-122.047203, 37.815409, 295.9], [-122.047096, 37.815328, 295.4], [-122.047054, 37.815287, 295.2], [-122.046869, 37.815134, 295.2], [-122.04657, 37.814854, 293.7], [-122.046507, 37.814784, 293.3], [-122.046439, 37.814719, 293.8], [-122.046273, 37.814507, 293.3], [-122.046193, 37.814423, 293.7], [-122.045899, 37.814185, 291.0], [-122.045817, 37.814103, 290.4], [-122.045725, 37.814019, 291.6], [-122.04563, 37.813942, 293.0], [-122.045343, 37.81365, 293.7], [-122.04531, 37.813635, 293.3], [-122.045243, 37.813545, 293.1], [-122.045192, 37.813498, 293.2], [-122.045132, 37.813454, 292.4], [-122.044966, 37.813316, 289.8], [-122.044905, 37.813242, 288.6], [-122.044539, 37.812904, 287.1], [-122.044485, 37.812841, 287.4], [-122.044455, 37.812776, 287.2], [-122.044403, 37.812675, 287.4], [-122.044147, 37.812504, 287.8], [-122.04415, 37.812455, 286.7], [-122.044028, 37.812364, 287.3], [-122.043981, 37.812318, 286.9], [-122.043947, 37.812274, 286.3], [-122.043904, 37.812178, 285.1], [-122.043876, 37.812156, 284.5], [-122.043791, 37.812081, 285.5], [-122.043617, 37.811895, 285.5], [-122.043528, 37.811831, 285.2], [-122.043496, 37.811755, 284.1], [-122.043355, 37.811627, 282.8], [-122.04326, 37.811561, 283.6], [-122.043191, 37.811452, 283.3], [-122.043069, 37.81136, 280.5], [-122.043043, 37.811288, 280.2], [-122.042931, 37.811193, 279.0], [-122.042842, 37.811083, 277.3], [-122.04243, 37.810662, 276.7], [-122.042312, 37.810562, 273.2], [-122.042064, 37.810365, 274.5], [-122.041975, 37.810281, 275.6], [-122.041833, 37.810181, 275.7], [-122.041595, 37.810042, 274.7], [-122.041453, 37.809976, 275.4], [-122.04134, 37.809897, 275.7], [-122.041207, 37.809829, 274.6], [-122.041067, 37.809764, 274.1], [-122.040798, 37.809646, 272.2], [-122.040639, 37.809596, 272.2], [-122.040536, 37.809537, 270.6], [-122.039919, 37.809261, 263.5], [-122.039802, 37.809206, 262.9]]}}