{"type": "Feature", "properties": {}, "geometry": {"type": "LineString", "coordinates": [[-110.838594, 43.585277, 1978.1], [-110.838585, 43.585275, 1978.1], [-110.83858, 43.585288, 1978.2], [-110.838581, 43.585295, 1978.2], [-110.838586, 43.585296, 1978.2], [-110.838581, 43.585303, 1978.2], [-110.838576, 43.585304, 1978.3], [-110.838577, 43.585313, 1978.3], [-110.838572, 43.585314, 1978.3], [-110.838571, 43.585319, 1978.3], [-110.838579, 43.585328, 1978.3], [-110.838582, 43.585339, 1978.4], [-110.838582, 43.585345, 1978.4], [-110.83859, 43.585363, 1978.4], [-110.8386, 43.585378, 1978.5], [-110.838598, 43.58538, 1978.5], [-110.838605, 43.585395, 1978.5], [-110.838608, 43.585404, 1978.6], [-110.838614, 43.58541, 1978.6], [-110.838608, 43.585422, 1978.6], [-110.838604, 43.585424, 1978.6], [-110.838591, 43.585426, 1978.7], [-110.838583, 43.585432, 1978.7], [-110.838575, 43.585443, 1978.7], [-110.838569, 43.585454, 1978.8], [-110.838569, 43.585466, 1978.8], [-110.838565, 43.585478, 1978.8], [-110.838567, 43.585488, 1978.9], [-110.838563, 43.585505, 1978.9], [-110.838567, 43.585512, 1978.9], [-110.838582, 43.585514, 1978.9], [-110.838611, 43.585515, 1979.0], [-110.838624, 43.585517, 1979.0], [-110.838654, 43.58552, 1979.1], [-110.838674, 43.585526, 1979.1], [-110.8387, 43.585535, 1979.1], [-110.838719, 43.585533, 1979.2], [-110.838731, 43.585537, 1979.2], [-110.838754, 43.585546, 1979.2], [-110.838761, 43.585546, 1979.2], [-110.838769, 43.585542, 1979.2], [-110.838792, 43.585547, 1979.3], [-110.838805, 43.585552, 1979.3], [-110.838825, 43.585563, 1979.3], [-110.83885, 43.585571, 1979.3], [-110.838858, 43.585576, 1979.3], [-110.838878, 43.585582, 1979.3], [-110.83891, 43.585588, 1979.4], [-110.838931, 43.585594, 1979.4], [-110.838945, 43.585595, 1979.4], [-110.838954, 43.585597, 1979.4], [-110.83896, 43.585594, 1979.4], [-110.838973, 43.585592, 1979.4], [-110.83899, 43.585592, 1979.4], [-110.839004, 43.585598, 1979.4], [-110.839007, 43.585601, 1979.4], [-110.839003, 43.585606, 1979.4], [-110.838996, 43.585603, 1979.4], [-110.838998, 43.585594, 1979.5], [-110.839, 43.585604, 1979.5], [-110.839007, 43.585612, 1980.2], [-110.839028, 43.585627, 1980.6], [-110.839044, 43.585641, 1980.6], [-110.839054, 43.585646, 1981.8], [-110.839059, 43.585651, 1981.8], [-110.839076, 43.585656, 1981.8], [-110.839102, 43.58566, 1982.5], [-110.839149, 43.585664, 1983.1], [-110.839168, 43.585665, 1983.1], [-110.83918, 43.585667, 1983.8], [-110.839206, 43.585669, 1983.8], [-110.83923, 43.585673, 1984.4], [-110.839272, 43.585677, 1985.5], [-110.839295, 43.58568, 1985.5], [-110.839318, 43.585686, 1986.1], [-110.839345, 43.585691, 1986.1], [-110.839369, 43.5857, 1986.7], [-110.839397, 43.585703, 1987.2], [-110.839456, 43.585699, 1987.9], [-110.839468, 43.585696, 1987.9], [-110.839513, 43.585681, 1988.5], [-110.839525, 43.585678, 1989.1], [-110.839544, 43.585679, 1989.1], [-110.839552, 43.585681, 1989.1], [-110.839558, 43.585686, 1989.1], [-110.839565, 43.585698, 1989.7], [-110.839573, 43.585718, 1990.2], [-110.839574, 43.585726, 1990.2], [-110.839577, 43.585732, 1990.2], [-110.839586, 43.585743, 1990.7], [-110.839596, 43.585762, 1990.7], [-110.839602, 43.585768, 1990.7], [-110.839617, 43.585779, 1992.0], [-110.839618, 43.585789, 1992.0], [-110.839626, 43.585794, 1992.0], [-110.83965, 43.585799, 1992.8], [-110.839665, 43.585801, 1993.2], [-110.839674, 43.585806, 1993.2], [-110.839685, 43.585809, 1993.2], [-110.839694, 43.58581, 1994.1], [-110.839705, 43.585809, 1994.1], [-110.839747, 43.585809, 1994.9], [-110.839764, 43.585812, 1995.0], [-110.839793, 43.585813, 1995.9], [-110.839803, 43.585812, 1995.9], [-110.839821, 43.585813, 1996.8], [-110.83983, 43.585816, 1996.8], [-110.839846, 43.585824, 1996.9], [-110.839852, 43.585828, 1996.9], [-110.839854, 43.585832, 1997.2], [-110.839869, 43.585837, 1998.2], [-110.83988, 43.585837, 1998.2], [-110.839912, 43.585834, 1999.2], [-110.839932, 43.585835, 1999.2], [-110.839926, 43.58584, 1999.2], [-110.839927, 43.585842, 1999.2], [-110.839949, 43.585842, 2000.1], [-110.840002, 43.58584, 2001.1], [-110.840022, 43.585838, 2001.1], [-110.840028, 43.585836, 2001.1], [-110.840037, 43.585836, 2002.0], [-110.84005, 43.585834, 2002.0], [-110.840117, 43.585834, 2002.9], [-110.84013, 43.585835, 2003.7], [-110.840146, 43.585833, 2003.8], [-110.840149, 43.585826, 2003.7], [-110.840158, 43.585826, 2003.8], [-110.840155, 43.585821, 2003.8], [-110.840158, 43.585817, 2003.8], [-110.840155, 43.585813, 2004.1], [-110.840173, 43.585813, 2005.1], [-110.840185, 43.585815, 2005.1], [-110.840203, 43.585814, 2005.1], [-110.840211, 43.585812, 2005.9], [-110.840221, 43.585817, 2005.9], [-110.840242, 43.585818, 2006.0], [-110.840248, 43.585817, 2006.0], [-110.840267, 43.585817, 2006.7], [-110.840282, 43.585816, 2006.7], [-110.840304, 43.585821, 2007.5], [-110.840316, 43.585827, 2007.5], [-110.840358, 43.585842, 2008.6], [-110.840373, 43.585852, 2008.6], [-110.840377, 43.585857, 2008.6], [-110.840398, 43.585872, 2009.8], [-110.84041, 43.585876, 2009.8], [-110.840423, 43.585882, 2010.7], [-110.840431, 43.585883, 2010.7], [-110.840437, 43.585881, 2010.7], [-110.840436, 43.585874, 2010.7], [-110.84044, 43.585866, 2010.7], [-110.840447, 43.58586, 2010.4], [-110.840467, 43.585848, 2011.2], [-110.840506, 43.585835, 2011.2], [-110.840525, 43.585832, 2012.0], [-110.840545, 43.585831, 2011.7], [-110.840562, 43.585831, 2012.5], [-110.840591, 43.585829, 2012.5], [-110.840617, 43.585828, 2013.3], [-110.840643, 43.585824, 2014.1], [-110.840666, 43.585817, 2014.1], [-110.840692, 43.585813, 2014.9], [-110.840704, 43.58581, 2014.9], [-110.840719, 43.585808, 2014.9], [-110.840733, 43.585804, 2015.6], [-110.840777, 43.585788, 2016.0], [-110.840815, 43.585767, 2016.1], [-110.840824, 43.585759, 2016.2], [-110.84085, 43.585728, 2016.5], [-110.840865, 43.585711, 2016.7], [-110.840889, 43.585689, 2017.0], [-110.840929, 43.585662, 2017.4], [-110.840948, 43.585651, 2017.6], [-110.84096, 43.585646, 2017.8], [-110.840979, 43.585636, 2017.9], [-110.841009, 43.585623, 2018.2], [-110.84103, 43.585613, 2018.5], [-110.84105, 43.585605, 2018.7], [-110.841062, 43.585602, 2018.8], [-110.841085, 43.585594, 2019.0], [-110.84111, 43.585587, 2019.2], [-110.841123, 43.585582, 2019.4], [-110.841148, 43.585574, 2019.6], [-110.841159, 43.585569, 2019.7], [-110.841182, 43.585564, 2020.0], [-110.841206, 43.585558, 2020.2], [-110.841216, 43.58555, 2020.3], [-110.841229, 43.585544, 2020.5], [-110.841267, 43.585519, 2021.0], [-110.841293, 43.585511, 2021.3], [-110.841307, 43.585508, 2021.5], [-110.841345, 43.585496, 2021.9], [-110.841384, 43.585482, 2022.3], [-110.84141, 43.585472, 2022.5], [-110.841422, 43.585469, 2022.6], [-110.84146, 43.585457, 2022.9], [-110.841486, 43.585446, 2023.1], [-110.841515, 43.585436, 2023.3], [-110.841552, 43.585426, 2023.5], [-110.841572, 43.585417, 2023.6], [-110.84158, 43.585412, 2023.7], [-110.841602, 43.585403, 2023.8], [-110.841623, 43.585397, 2023.9], [-110.841648, 43.585389, 2024.1], [-110.841661, 43.585387, 2024.2], [-110.8417, 43.585376, 2024.4], [-110.841723, 43.585369, 2024.5], [-110.841739, 43.585361, 2024.6], [-110.841784, 43.585345, 2024.9], [-110.841807, 43.585334, 2025.1], [-110.84182, 43.58533, 2025.1], [-110.841835, 43.585324, 2025.2], [-110.841869, 43.585309, 2025.5], [-110.841902, 43.585295, 2025.7], [-110.841916, 43.585283, 2025.8], [-110.841931, 43.585272, 2026.0], [-110.841945, 43.585264, 2026.1], [-110.84197, 43.585251, 2026.2], [-110.842024, 43.585229, 2026.6], [-110.842059, 43.585219, 2026.7], [-110.842088, 43.585209, 2026.9], [-110.842103, 43.585205, 2027.0], [-110.842129, 43.585196, 2027.1], [-110.84218, 43.585173, 2027.4], [-110.842234, 43.585152, 2027.8], [-110.842271, 43.585143, 2028.0], [-110.842301, 43.585134, 2028.2], [-110.842313, 43.585129, 2028.3], [-110.842326, 43.585126, 2028.4], [-110.842355, 43.585114, 2028.6], [-110.842401, 43.585096, 2029.0], [-110.842433, 43.585089, 2029.2], [-110.842447, 43.585085, 2029.3], [-110.842468, 43.585081, 2029.5], [-110.842478, 43.58508, 2029.6], [-110.842496, 43.585076, 2029.7], [-110.842513, 43.585071, 2029.9], [-110.842528, 43.585068, 2030.0], [-110.842542, 43.585064, 2030.1], [-110.842578, 43.585048, 2030.5], [-110.842613, 43.585031, 2030.9], [-110.842633, 43.585022, 2031.1], [-110.842667, 43.58501, 2031.3], [-110.842702, 43.584994, 2031.6], [-110.842739, 43.584981, 2031.8], [-110.842748, 43.584977, 2031.9], [-110.842773, 43.584969, 2032.0], [-110.842786, 43.584966, 2032.1], [-110.842815, 43.584956, 2032.2], [-110.842843, 43.584949, 2032.3], [-110.842889, 43.584933, 2032.5], [-110.842912, 43.584922, 2032.6], [-110.842921, 43.584914, 2032.6], [-110.842931, 43.584907, 2032.7], [-110.842944, 43.584892, 2032.8], [-110.842958, 43.58488, 2032.8], [-110.842977, 43.584865, 2032.9], [-110.842993, 43.584854, 2032.9], [-110.843006, 43.584847, 2032.9], [-110.843045, 43.58483, 2033.0], [-110.843068, 43.584822, 2033.1], [-110.843092, 43.584815, 2033.1], [-110.843119, 43.584809, 2033.1], [-110.843134, 43.584805, 2033.2], [-110.843151, 43.584799, 2033.2], [-110.843175, 43.584788, 2033.2], [-110.843185, 43.584782, 2033.2], [-110.843211, 43.584769, 2033.2], [-110.843247, 43.584754, 2033.3], [-110.843264, 43.584748, 2033.3], [-110.843295, 43.584739, 2033.3], [-110.843307, 43.584734, 2033.4], [-110.84332, 43.58473, 2033.4], [-110.843365, 43.584713, 2033.4], [-110.843379, 43.584706, 2033.5], [-110.843394, 43.584697, 2033.5], [-110.843418, 43.584687, 2033.5], [-110.843454, 43.584677, 2033.6], [-110.843511, 43.584665, 2033.9], [-110.843528, 43.58466, 2033.9], [-110.843553, 43.584649, 2034.0], [-110.843564, 43.584646, 2034.1], [-110.843588, 43.584637, 2034.2], [-110.843611, 43.584624, 2034.3], [-110.843637, 43.584612, 2034.4], [-110.843659, 43.584599, 2034.6], [-110.843673, 43.584592, 2034.7], [-110.843703, 43.58458, 2034.9], [-110.843729, 43.584564, 2035.1], [-110.843744, 43.584552, 2035.2], [-110.843774, 43.584524, 2035.5], [-110.843809, 43.584497, 2035.8], [-110.843866, 43.584454, 2036.0], [-110.843883, 43.584443, 2036.1], [-110.843914, 43.584422, 2036.2], [-110.843934, 43.584406, 2036.3], [-110.843964, 43.584385, 2036.4], [-110.843997, 43.584361, 2036.8], [-110.844016, 43.584344, 2037.2], [-110.844036, 43.584329, 2037.5], [-110.844045, 43.584324, 2037.6], [-110.844058, 43.584314, 2037.8], [-110.844077, 43.584305, 2038.1], [-110.844119, 43.584281, 2038.8], [-110.844144, 43.584263, 2039.2], [-110.844153, 43.584255, 2039.3], [-110.84417, 43.584242, 2039.7], [-110.844178, 43.584238, 2039.8], [-110.844223, 43.584206, 2040.6], [-110.844233, 43.584201, 2040.7], [-110.844257, 43.584184, 2041.2], [-110.844275, 43.584173, 2041.4], [-110.844286, 43.584165, 2041.6], [-110.844308, 43.584152, 2042.0], [-110.844324, 43.584145, 2042.2], [-110.844336, 43.584141, 2042.4], [-110.844371, 43.584128, 2042.8], [-110.844401, 43.584118, 2043.1], [-110.844425, 43.584105, 2043.3], [-110.844447, 43.584088, 2043.6], [-110.844459, 43.58408, 2043.8], [-110.84448, 43.584068, 2044.0], [-110.844491, 43.584063, 2044.1], [-110.844519, 43.584044, 2044.5], [-110.844527, 43.584037, 2044.6], [-110.844551, 43.584022, 2045.0], [-110.844576, 43.584009, 2045.3], [-110.844591, 43.584003, 2045.5], [-110.844602, 43.583997, 2045.6], [-110.844617, 43.583991, 2045.8], [-110.844652, 43.583971, 2046.3], [-110.84469, 43.583945, 2046.8], [-110.84471, 43.583933, 2047.1], [-110.844755, 43.583913, 2047.7], [-110.84478, 43.583899, 2047.9], [-110.844794, 43.58389, 2048.1], [-110.844815, 43.583874, 2048.2], [-110.844825, 43.583864, 2048.4], [-110.844841, 43.583845, 2048.5], [-110.84486, 43.583827, 2048.7], [-110.844881, 43.58381, 2048.9], [-110.844891, 43.583803, 2049.0], [-110.844906, 43.58379, 2049.2], [-110.844917, 43.583782, 2049.3], [-110.844929, 43.58377, 2049.5], [-110.844947, 43.583756, 2049.8], [-110.844969, 43.583741, 2050.1], [-110.844994, 43.583729, 2050.4], [-110.845027, 43.583705, 2050.8], [-110.845049, 43.583691, 2051.1], [-110.845059, 43.583686, 2051.2], [-110.845074, 43.583682, 2051.4], [-110.845103, 43.583673, 2051.7], [-110.845122, 43.583665, 2051.9], [-110.845143, 43.58365, 2052.2], [-110.845154, 43.583644, 2052.3], [-110.845177, 43.583633, 2052.6], [-110.845189, 43.583629, 2052.7], [-110.845206, 43.583618, 2052.9], [-110.84524, 43.583584, 2053.4], [-110.845257, 43.583568, 2053.8], [-110.845273, 43.583549, 2054.1], [-110.845293, 43.583532, 2054.5], [-110.845313, 43.583519, 2054.8], [-110.845321, 43.583512, 2054.9], [-110.845338, 43.5835, 2055.2], [-110.845359, 43.583487, 2055.5], [-110.845369, 43.58348, 2055.7], [-110.84539, 43.58347, 2056.0], [-110.845415, 43.58346, 2056.2], [-110.845436, 43.583453, 2056.3], [-110.845447, 43.583448, 2056.4], [-110.845459, 43.583439, 2056.5], [-110.845495, 43.583417, 2056.8], [-110.845519, 43.583406, 2057.0], [-110.84553, 43.583402, 2057.1], [-110.845544, 43.583394, 2057.2], [-110.845554, 43.58339, 2057.2], [-110.845572, 43.583378, 2057.3], [-110.845598, 43.583352, 2057.5], [-110.845622, 43.583337, 2057.7], [-110.845648, 43.583316, 2057.8], [-110.845664, 43.583298, 2057.9], [-110.845683, 43.583282, 2058.0], [-110.845704, 43.583267, 2058.2], [-110.845723, 43.583256, 2058.3], [-110.845743, 43.58324, 2058.4], [-110.845752, 43.583234, 2058.4], [-110.845777, 43.583212, 2058.6], [-110.845785, 43.583204, 2058.6], [-110.845807, 43.583186, 2058.8], [-110.845832, 43.583163, 2058.9], [-110.845843, 43.583154, 2059.0], [-110.845865, 43.583138, 2059.0], [-110.845883, 43.583126, 2059.1], [-110.845913, 43.583092, 2059.2], [-110.845928, 43.583079, 2059.3], [-110.845951, 43.583064, 2059.4], [-110.845983, 43.583041, 2059.5], [-110.846008, 43.583025, 2059.8], [-110.846037, 43.583004, 2060.2], [-110.846064, 43.58298, 2060.6], [-110.84609, 43.582956, 2061.0], [-110.846101, 43.582945, 2061.2], [-110.846113, 43.582936, 2061.4], [-110.846145, 43.582916, 2061.8], [-110.846163, 43.5829, 2062.1], [-110.846177, 43.58289, 2062.2], [-110.846209, 43.582861, 2062.8], [-110.84623, 43.582835, 2063.2], [-110.846244, 43.582823, 2063.3], [-110.846241, 43.582818, 2063.3], [-110.846251, 43.582805, 2063.4], [-110.846268, 43.582785, 2063.6], [-110.846278, 43.582776, 2063.7], [-110.846296, 43.582763, 2063.8], [-110.846313, 43.582748, 2063.9], [-110.846332, 43.58274, 2064.3], [-110.846341, 43.582734, 2064.5], [-110.846358, 43.582725, 2064.9], [-110.84637, 43.58272, 2065.2], [-110.846395, 43.582703, 2065.8], [-110.846412, 43.582688, 2066.4], [-110.846428, 43.582671, 2066.8], [-110.846442, 43.582652, 2066.8], [-110.846447, 43.582643, 2066.8], [-110.846454, 43.582635, 2066.9], [-110.846464, 43.582618, 2066.9], [-110.84647, 43.58261, 2066.9], [-110.846477, 43.582604, 2066.9], [-110.846483, 43.582596, 2066.9], [-110.846492, 43.582588, 2066.9], [-110.8465, 43.582579, 2066.8], [-110.846512, 43.582559, 2066.8], [-110.846516, 43.58255, 2066.8], [-110.846519, 43.582538, 2066.9], [-110.846523, 43.582528, 2067.0], [-110.846538, 43.582502, 2067.1], [-110.846545, 43.582486, 2067.2], [-110.846562, 43.582461, 2067.4], [-110.846566, 43.582453, 2067.4], [-110.846579, 43.582436, 2067.6], [-110.846584, 43.582423, 2067.7], [-110.846593, 43.582405, 2067.8], [-110.8466, 43.582394, 2067.9], [-110.84661, 43.582371, 2068.1], [-110.846621, 43.582349, 2068.4], [-110.846633, 43.582328, 2068.8], [-110.846653, 43.582298, 2069.3], [-110.846659, 43.582291, 2069.4], [-110.846673, 43.582271, 2069.8], [-110.846685, 43.582247, 2070.1], [-110.846693, 43.582235, 2070.3], [-110.846714, 43.582219, 2070.6], [-110.846726, 43.582212, 2070.7], [-110.846737, 43.582207, 2070.8], [-110.846749, 43.582203, 2070.9], [-110.84676, 43.582198, 2071.0], [-110.846783, 43.582183, 2071.2], [-110.846798, 43.582171, 2071.4], [-110.846806, 43.582166, 2071.5], [-110.846825, 43.582152, 2071.7], [-110.846847, 43.582133, 2072.2], [-110.846856, 43.582127, 2072.3], [-110.846868, 43.582114, 2072.6], [-110.846884, 43.5821, 2072.9], [-110.846901, 43.582091, 2073.2], [-110.846924, 43.58208, 2073.5], [-110.846935, 43.582076, 2073.6], [-110.846946, 43.582074, 2073.8], [-110.846945, 43.582078, 2073.9], [-110.846937, 43.58208, 2074.7], [-110.846941, 43.58207, 2074.9], [-110.846951, 43.582066, 2075.0], [-110.846968, 43.582062, 2075.2], [-110.846991, 43.582062, 2075.5], [-110.847012, 43.582064, 2075.5], [-110.847031, 43.582068, 2075.5], [-110.847051, 43.582069, 2075.5], [-110.847071, 43.582069, 2075.4], [-110.847089, 43.58207, 2075.3], [-110.847118, 43.582077, 2075.2], [-110.847147, 43.582085, 2075.0], [-110.847163, 43.582088, 2074.9], [-110.847179, 43.58209, 2074.9], [-110.847211, 43.582088, 2075.0], [-110.847255, 43.582088, 2075.1], [-110.847265, 43.582089, 2075.1], [-110.84728, 43.582088, 2075.1], [-110.847314, 43.582094, 2075.2], [-110.847345, 43.582099, 2075.4], [-110.84736, 43.582099, 2075.6], [-110.847376, 43.582097, 2075.8], [-110.847398, 43.582098, 2076.1], [-110.847426, 43.582097, 2076.5], [-110.847477, 43.5821, 2077.2], [-110.847502, 43.582101, 2077.5], [-110.847529, 43.582101, 2077.9], [-110.847557, 43.582103, 2078.2], [-110.84757, 43.582103, 2078.3], [-110.847594, 43.582108, 2078.6], [-110.847611, 43.582115, 2078.8], [-110.847636, 43.582129, 2079.2], [-110.847653, 43.582134, 2079.4], [-110.847682, 43.582134, 2079.7], [-110.847737, 43.582138, 2080.4], [-110.847766, 43.582138, 2080.6], [-110.847784, 43.582135, 2080.8], [-110.847804, 43.582129, 2081.0], [-110.847842, 43.582114, 2081.3], [-110.847865, 43.582109, 2081.5], [-110.847878, 43.582104, 2081.6], [-110.84789, 43.582098, 2081.8], [-110.847903, 43.582085, 2081.9], [-110.847907, 43.582078, 2082.0], [-110.847916, 43.582069, 2082.2], [-110.84796, 43.582039, 2082.8], [-110.84797, 43.582035, 2083.0], [-110.847999, 43.58202, 2083.4], [-110.848015, 43.582011, 2083.6], [-110.848032, 43.581998, 2083.9], [-110.848044, 43.581992, 2084.0], [-110.848065, 43.581979, 2084.4], [-110.848096, 43.581964, 2084.8], [-110.84811, 43.581958, 2084.9], [-110.848125, 43.581953, 2085.1], [-110.848142, 43.581944, 2085.4], [-110.848175, 43.581929, 2085.9], [-110.848188, 43.581922, 2086.1], [-110.848206, 43.581914, 2086.3], [-110.848236, 43.581902, 2086.8], [-110.848275, 43.58189, 2087.3], [-110.848309, 43.58188, 2087.7], [-110.848332, 43.58187, 2088.1], [-110.848343, 43.581866, 2088.2], [-110.848358, 43.581859, 2088.4], [-110.848394, 43.581839, 2088.7], [-110.848415, 43.581826, 2088.9], [-110.848428, 43.58182, 2089.0], [-110.848458, 43.581803, 2089.2], [-110.848477, 43.581794, 2089.4], [-110.848486, 43.581791, 2089.5], [-110.848499, 43.581781, 2089.6], [-110.848504, 43.581774, 2089.6], [-110.848513, 43.581757, 2089.7], [-110.848537, 43.58173, 2089.9], [-110.848546, 43.581721, 2090.0], [-110.848561, 43.581704, 2090.1], [-110.848579, 43.581685, 2090.2], [-110.848588, 43.581679, 2090.3], [-110.848609, 43.581663, 2090.6], [-110.848634, 43.581649, 2090.9], [-110.848655, 43.581634, 2091.2], [-110.848682, 43.581612, 2091.6], [-110.848691, 43.581601, 2091.7], [-110.848709, 43.581582, 2092.0], [-110.84873, 43.581564, 2092.4], [-110.848753, 43.581549, 2092.7], [-110.848819, 43.581501, 2093.9], [-110.848834, 43.581488, 2094.2], [-110.848857, 43.581477, 2094.6], [-110.848869, 43.581472, 2094.8], [-110.848894, 43.581464, 2095.1], [-110.848918, 43.58146, 2095.4], [-110.848932, 43.581455, 2095.6], [-110.848955, 43.581444, 2095.9], [-110.848972, 43.581434, 2096.1], [-110.848999, 43.581421, 2096.4], [-110.849024, 43.581412, 2096.7], [-110.849055, 43.581395, 2097.2], [-110.849087, 43.581374, 2097.8], [-110.849113, 43.581361, 2098.3], [-110.84914, 43.581351, 2098.7], [-110.849153, 43.581344, 2098.9], [-110.849205, 43.581329, 2099.6], [-110.849239, 43.581317, 2100.1], [-110.849269, 43.581308, 2100.4], [-110.849299, 43.581297, 2100.6], [-110.849335, 43.581277, 2100.9], [-110.84936, 43.581259, 2101.3], [-110.849378, 43.581243, 2101.6], [-110.849392, 43.581226, 2101.9], [-110.849402, 43.58121, 2102.1], [-110.849411, 43.581202, 2102.1], [-110.84943, 43.581188, 2102.1], [-110.849442, 43.581181, 2102.1], [-110.849455, 43.581176, 2102.1], [-110.849469, 43.581172, 2102.1], [-110.849494, 43.58116, 2102.2], [-110.849528, 43.581141, 2102.4], [-110.849581, 43.581116, 2102.7], [-110.849603, 43.581101, 2102.8], [-110.849614, 43.581092, 2102.9], [-110.849627, 43.581083, 2103.0], [-110.849642, 43.581071, 2103.1], [-110.849703, 43.581027, 2103.7], [-110.849713, 43.581019, 2103.8], [-110.849735, 43.581007, 2104.1], [-110.849766, 43.580992, 2104.5], [-110.849811, 43.580977, 2104.9], [-110.849829, 43.580972, 2105.1], [-110.849853, 43.580961, 2105.4], [-110.849865, 43.580954, 2105.5], [-110.84991, 43.580919, 2106.2], [-110.84993, 43.580901, 2106.6], [-110.849957, 43.580883, 2107.1], [-110.849983, 43.580869, 2107.6], [-110.850009, 43.580859, 2108.0], [-110.850022, 43.580855, 2108.1], [-110.850046, 43.580844, 2108.5], [-110.850071, 43.58083, 2109.0], [-110.850122, 43.580807, 2109.7], [-110.850124, 43.580804, 2109.7], [-110.850133, 43.5808, 2109.8], [-110.850148, 43.580789, 2110.0], [-110.850166, 43.58077, 2110.3], [-110.850204, 43.58074, 2110.8], [-110.850217, 43.580732, 2111.0], [-110.850239, 43.580722, 2111.3], [-110.850255, 43.580709, 2111.5], [-110.850275, 43.580694, 2111.8], [-110.850283, 43.580689, 2111.9], [-110.850305, 43.580672, 2112.3], [-110.850325, 43.58066, 2112.6], [-110.85036, 43.580636, 2113.4], [-110.850375, 43.580627, 2113.7], [-110.850405, 43.580605, 2114.2], [-110.850462, 43.580582, 2114.6], [-110.850479, 43.58057, 2114.7], [-110.850498, 43.580555, 2114.9], [-110.850526, 43.580534, 2115.4], [-110.850534, 43.580526, 2115.5], [-110.850554, 43.580511, 2115.8], [-110.850568, 43.580493, 2116.1], [-110.850574, 43.580484, 2116.3], [-110.850597, 43.580458, 2116.7], [-110.850604, 43.580447, 2116.9], [-110.850612, 43.580437, 2117.1], [-110.85063, 43.580409, 2117.3], [-110.850638, 43.5804, 2117.4], [-110.850654, 43.580384, 2117.5], [-110.850675, 43.580366, 2117.6], [-110.850689, 43.580357, 2117.6], [-110.850701, 43.580351, 2117.7], [-110.850714, 43.580343, 2117.7], [-110.850728, 43.580337, 2117.7], [-110.850755, 43.580331, 2117.8], [-110.850777, 43.580325, 2117.8], [-110.850822, 43.580316, 2117.9], [-110.850839, 43.580311, 2117.9], [-110.850857, 43.580307, 2118.0], [-110.850886, 43.580304, 2118.0], [-110.850926, 43.580297, 2118.0], [-110.850952, 43.58029, 2118.1], [-110.850962, 43.580286, 2118.1], [-110.850985, 43.580279, 2118.1], [-110.851, 43.580273, 2118.1], [-110.851035, 43.580266, 2118.2], [-110.851055, 43.580263, 2118.2], [-110.851109, 43.58026, 2118.3], [-110.851127, 43.580255, 2118.3], [-110.851164, 43.58024, 2118.4], [-110.851218, 43.580216, 2118.4], [-110.851228, 43.58021, 2118.4], [-110.851259, 43.580186, 2118.5], [-110.851271, 43.580174, 2118.5], [-110.851297, 43.58015, 2118.6], [-110.851319, 43.580129, 2118.7], [-110.851336, 43.580116, 2118.7], [-110.851356, 43.580104, 2118.8], [-110.851381, 43.58009, 2118.9], [-110.851396, 43.580076, 2118.9], [-110.851414, 43.580061, 2119.0], [-110.851442, 43.580044, 2119.1], [-110.851465, 43.580033, 2119.2], [-110.851506, 43.580009, 2119.4], [-110.85152, 43.58, 2119.5], [-110.851529, 43.579992, 2119.6], [-110.851539, 43.579981, 2119.7], [-110.851558, 43.579967, 2119.8], [-110.851572, 43.579959, 2119.9], [-110.851609, 43.579939, 2120.2], [-110.851637, 43.579929, 2120.4], [-110.851659, 43.579922, 2120.6], [-110.851688, 43.579916, 2120.8], [-110.851709, 43.579913, 2121.0], [-110.851768, 43.579898, 2121.5], [-110.85182, 43.579886, 2122.1], [-110.85184, 43.579882, 2122.3], [-110.851863, 43.579876, 2122.6], [-110.85189, 43.579866, 2122.9], [-110.851926, 43.579847, 2123.5], [-110.851934, 43.579841, 2123.6], [-110.851964, 43.579823, 2124.1], [-110.851981, 43.579811, 2124.4], [-110.852012, 43.579785, 2125.0], [-110.852043, 43.579756, 2125.7], [-110.852051, 43.579746, 2125.9], [-110.852061, 43.579737, 2126.2], [-110.852071, 43.579726, 2126.4], [-110.852068, 43.57972, 2126.6], [-110.852056, 43.579721, 2126.7], [-110.852044, 43.579745, 2127.3], [-110.852042, 43.579744, 2127.3], [-110.852041, 43.579726, 2127.1], [-110.852041, 43.579708, 2127.1], [-110.852045, 43.579684, 2126.8], [-110.85205, 43.579671, 2126.4], [-110.852062, 43.57965, 2128.5], [-110.852067, 43.579638, 2127.8], [-110.852079, 43.579622, 2127.8], [-110.85212, 43.579582, 2127.9], [-110.852139, 43.579567, 2129.4], [-110.852156, 43.579556, 2129.3], [-110.852173, 43.579546, 2128.7], [-110.852181, 43.57954, 2130.1], [-110.852191, 43.579535, 2130.1], [-110.852209, 43.579514, 2129.4], [-110.852222, 43.579489, 2128.7], [-110.852232, 43.579466, 2130.2], [-110.852244, 43.579455, 2129.7], [-110.852252, 43.57945, 2129.7], [-110.852262, 43.579446, 2129.7], [-110.852265, 43.57944, 2129.7], [-110.852268, 43.579428, 2131.2], [-110.852272, 43.579421, 2130.7], [-110.852279, 43.579415, 2130.7], [-110.852287, 43.579405, 2130.7], [-110.85229, 43.579392, 2130.3], [-110.852295, 43.57938, 2130.3], [-110.852294, 43.579353, 2130.0], [-110.852295, 43.579344, 2130.0], [-110.852299, 43.579326, 2129.7], [-110.852307, 43.579305, 2129.7], [-110.852328, 43.579265, 2130.7], [-110.852339, 43.57925, 2130.6], [-110.852346, 43.579239, 2130.5], [-110.852367, 43.579211, 2131.8], [-110.852374, 43.5792, 2131.7], [-110.852381, 43.579183, 2131.7], [-110.852383, 43.579174, 2131.7], [-110.852389, 43.579155, 2131.7], [-110.852392, 43.579139, 2131.7], [-110.852398, 43.579121, 2132.9], [-110.852404, 43.579111, 2132.9], [-110.852413, 43.57909, 2132.9], [-110.852415, 43.57908, 2132.9], [-110.852421, 43.579072, 2132.9], [-110.852425, 43.579063, 2132.9], [-110.852435, 43.579049, 2133.0], [-110.852442, 43.579044, 2134.2], [-110.852455, 43.579039, 2134.2], [-110.852462, 43.579034, 2134.2], [-110.852478, 43.57903, 2134.2], [-110.852484, 43.579026, 2135.6], [-110.852491, 43.579017, 2135.7], [-110.852487, 43.579008, 2135.7], [-110.852485, 43.578997, 2135.7], [-110.852478, 43.578991, 2134.5], [-110.85247, 43.578973, 2134.5], [-110.85247, 43.578962, 2134.5], [-110.852477, 43.578955, 2134.7], [-110.852491, 43.578947, 2136.0], [-110.852508, 43.578933, 2136.0], [-110.852518, 43.578928, 2136.2], [-110.852525, 43.578928, 2137.7], [-110.852551, 43.578922, 2137.7], [-110.852561, 43.578921, 2137.7], [-110.852577, 43.578915, 2139.3], [-110.85259, 43.578897, 2139.5], [-110.852576, 43.578892, 2139.5], [-110.852564, 43.578893, 2137.9], [-110.852538, 43.578886, 2137.9], [-110.85252, 43.578877, 2136.5], [-110.852506, 43.578867, 2136.7], [-110.852501, 43.578862, 2136.7], [-110.852485, 43.578842, 2136.7], [-110.852481, 43.578839, 2136.7], [-110.852485, 43.578837, 2136.7], [-110.852493, 43.578839, 2136.7], [-110.8525, 43.578831, 2137.0], [-110.85249, 43.578826, 2137.0], [-110.852474, 43.578822, 2135.6], [-110.852477, 43.578814, 2135.6], [-110.852477, 43.578802, 2135.9], [-110.852473, 43.578795, 2135.9], [-110.85247, 43.57878, 2135.9], [-110.852465, 43.578772, 2136.1], [-110.85247, 43.578764, 2136.1], [-110.852458, 43.578756, 2136.1], [-110.852448, 43.578747, 2136.1], [-110.852447, 43.578741, 2136.4], [-110.852443, 43.578733, 2136.4], [-110.852435, 43.578728, 2135.1], [-110.852425, 43.578714, 2135.1], [-110.852428, 43.578704, 2135.3], [-110.85243, 43.578686, 2135.3], [-110.852429, 43.578679, 2135.6], [-110.852431, 43.578665, 2135.5], [-110.852429, 43.578656, 2135.5], [-110.852421, 43.578641, 2135.8], [-110.852412, 43.578629, 2135.8], [-110.852394, 43.578603, 2134.7], [-110.852384, 43.578593, 2134.7], [-110.852375, 43.578579, 2135.0], [-110.85236, 43.578568, 2135.0], [-110.852353, 43.578561, 2135.0], [-110.852351, 43.578543, 2133.9], [-110.852358, 43.578529, 2135.3], [-110.852358, 43.578522, 2135.5], [-110.852369, 43.57851, 2135.5], [-110.852372, 43.578503, 2135.5], [-110.852371, 43.578495, 2135.5], [-110.852364, 43.578486, 2135.5], [-110.852355, 43.578471, 2135.5], [-110.852355, 43.578456, 2135.4], [-110.852352, 43.578448, 2135.4], [-110.852353, 43.57844, 2135.4], [-110.852358, 43.578423, 2135.1], [-110.852356, 43.578416, 2135.1], [-110.852355, 43.578401, 2134.6], [-110.852358, 43.578395, 2134.6], [-110.852365, 43.578388, 2134.6], [-110.852379, 43.578377, 2134.6], [-110.852383, 43.578368, 2134.2], [-110.852391, 43.578362, 2134.2], [-110.852396, 43.578355, 2135.2], [-110.852406, 43.578349, 2135.2], [-110.852423, 43.578335, 2134.8], [-110.852437, 43.578326, 2134.8], [-110.852446, 43.578324, 2135.6], [-110.852465, 43.578314, 2135.6], [-110.852489, 43.578309, 2136.3], [-110.8525, 43.578306, 2135.7], [-110.85251, 43.578298, 2135.7], [-110.852512, 43.578291, 2135.7], [-110.852508, 43.578286, 2135.7], [-110.852517, 43.578275, 2135.4], [-110.852512, 43.57827, 2135.3], [-110.852504, 43.578267, 2135.3], [-110.852502, 43.578259, 2135.3], [-110.852493, 43.578259, 2135.3], [-110.852496, 43.578262, 2135.3], [-110.852496, 43.578271, 2135.3], [-110.852498, 43.578277, 2135.5], [-110.852503, 43.578284, 2135.5], [-110.852523, 43.578292, 2136.1], [-110.852534, 43.578292, 2136.1], [-110.852554, 43.578282, 2136.1], [-110.852563, 43.578281, 2136.1], [-110.852578, 43.578272, 2136.8], [-110.852616, 43.578241, 2139.2], [-110.852627, 43.578227, 2139.2], [-110.852637, 43.578218, 2139.2], [-110.852632, 43.578214, 2140.5], [-110.852631, 43.578197, 2140.4], [-110.852635, 43.578196, 2140.4], [-110.852639, 43.578178, 2142.2], [-110.852636, 43.578164, 2142.2], [-110.852631, 43.578149, 2144.3], [-110.852631, 43.578141, 2144.3], [-110.852634, 43.578122, 2144.3], [-110.852632, 43.578113, 2146.2], [-110.852635, 43.578108, 2146.2], [-110.852636, 43.578095, 2146.2], [-110.852641, 43.578082, 2147.6], [-110.85264, 43.578077, 2147.6], [-110.852648, 43.578063, 2147.6], [-110.85265, 43.578057, 2148.6], [-110.852645, 43.578048, 2148.6], [-110.852635, 43.578042, 2148.6], [-110.852632, 43.578031, 2148.6], [-110.852609, 43.577999, 2149.3], [-110.852604, 43.577995, 2148.5], [-110.852601, 43.577981, 2148.5], [-110.852597, 43.577971, 2148.5], [-110.852595, 43.577961, 2149.0], [-110.852597, 43.57795, 2149.0], [-110.852597, 43.57794, 2149.0], [-110.852595, 43.577918, 2149.4], [-110.852595, 43.577907, 2149.4], [-110.852597, 43.577887, 2149.7], [-110.8526, 43.577877, 2149.7], [-110.852612, 43.577856, 2151.3], [-110.852623, 43.577846, 2151.3], [-110.852628, 43.57784, 2151.7], [-110.852645, 43.577829, 2151.7], [-110.852661, 43.577827, 2152.9], [-110.852677, 43.577815, 2152.9], [-110.852687, 43.577806, 2153.3], [-110.852697, 43.577802, 2154.6], [-110.852709, 43.577801, 2154.6], [-110.852738, 43.577801, 2155.8], [-110.852754, 43.577805, 2155.8], [-110.852762, 43.577808, 2155.8], [-110.852798, 43.577816, 2156.6], [-110.852818, 43.577819, 2156.6], [-110.852829, 43.577823, 2157.7], [-110.852851, 43.577833, 2157.7], [-110.852861, 43.577836, 2157.7], [-110.852876, 43.577838, 2158.9], [-110.852881, 43.577842, 2158.5], [-110.852895, 43.577845, 2158.5], [-110.852898, 43.577837, 2158.9], [-110.852899, 43.577827, 2158.9], [-110.852896, 43.577799, 2159.3], [-110.852892, 43.577789, 2159.3], [-110.852869, 43.577742, 2160.2], [-110.852861, 43.577733, 2159.0], [-110.852853, 43.577722, 2159.0], [-110.852848, 43.577709, 2159.4], [-110.852845, 43.577688, 2159.4], [-110.852844, 43.577672, 2159.8], [-110.852844, 43.57765, 2160.3], [-110.852846, 43.577633, 2160.3], [-110.852854, 43.577612, 2160.7], [-110.852855, 43.577604, 2160.7], [-110.852865, 43.577587, 2161.1], [-110.852878, 43.577574, 2162.3], [-110.852892, 43.577566, 2162.3], [-110.852898, 43.577561, 2162.7], [-110.852905, 43.577558, 2162.7], [-110.85292, 43.577548, 2163.9], [-110.852926, 43.577542, 2163.9], [-110.852934, 43.577528, 2164.3], [-110.852942, 43.57752, 2164.2], [-110.852955, 43.57751, 2165.5], [-110.852962, 43.577506, 2165.5], [-110.852972, 43.577498, 2165.8], [-110.852982, 43.577488, 2165.8], [-110.85299, 43.577482, 2165.8], [-110.853004, 43.577469, 2167.0], [-110.85301, 43.577462, 2167.3], [-110.853026, 43.577449, 2167.3], [-110.853043, 43.577433, 2168.9], [-110.853065, 43.577418, 2168.9], [-110.853087, 43.577401, 2170.4], [-110.853094, 43.577393, 2170.4], [-110.853114, 43.577376, 2170.4], [-110.853118, 43.57737, 2170.7], [-110.853124, 43.577354, 2172.0], [-110.853124, 43.577349, 2172.0], [-110.853118, 43.577342, 2171.0], [-110.853108, 43.577334, 2171.0], [-110.853103, 43.577328, 2171.0], [-110.853092, 43.577305, 2171.2], [-110.853086, 43.57729, 2171.2], [-110.853088, 43.577273, 2171.3], [-110.853092, 43.577262, 2171.3], [-110.853092, 43.577251, 2171.3], [-110.853094, 43.577229, 2171.4], [-110.853096, 43.577221, 2171.4], [-110.853101, 43.577212, 2171.4], [-110.853109, 43.577203, 2171.4], [-110.853113, 43.577193, 2171.4], [-110.85312, 43.577184, 2171.4], [-110.853129, 43.577175, 2172.6], [-110.853154, 43.577159, 2172.6], [-110.853162, 43.577147, 2172.4], [-110.85317, 43.577122, 2173.5], [-110.853177, 43.577098, 2173.5], [-110.853179, 43.577086, 2173.3], [-110.853179, 43.577073, 2173.3], [-110.853186, 43.577042, 2173.0], [-110.853201, 43.577008, 2172.7], [-110.853211, 43.576977, 2173.6], [-110.853213, 43.576954, 2173.3], [-110.853219, 43.576932, 2172.9], [-110.853227, 43.576915, 2172.9], [-110.853232, 43.576908, 2172.6], [-110.853235, 43.576899, 2172.6], [-110.853245, 43.576883, 2172.6], [-110.853252, 43.576876, 2172.2], [-110.85327, 43.576864, 2173.3], [-110.853281, 43.57686, 2173.3], [-110.8533, 43.576849, 2174.5], [-110.853325, 43.57683, 2174.0], [-110.853332, 43.576824, 2174.0], [-110.853348, 43.576813, 2174.6], [-110.853344, 43.57681, 2174.6], [-110.853338, 43.576815, 2173.4], [-110.853325, 43.576821, 2173.9], [-110.853302, 43.576824, 2173.9], [-110.853296, 43.576828, 2173.9], [-110.853292, 43.576822, 2172.7], [-110.853291, 43.576815, 2172.2], [-110.853294, 43.576806, 2172.2], [-110.853302, 43.5768, 2173.3], [-110.853338, 43.576797, 2173.3], [-110.853353, 43.576797, 2174.5], [-110.853378, 43.576793, 2174.5], [-110.853404, 43.576792, 2175.7], [-110.853457, 43.576784, 2176.3], [-110.853476, 43.576788, 2178.0], [-110.853484, 43.576791, 2178.0], [-110.85349, 43.576797, 2178.0], [-110.853517, 43.576808, 2179.2], [-110.853531, 43.57681, 2179.2], [-110.853533, 43.576807, 2179.2], [-110.853528, 43.576799, 2179.2], [-110.853533, 43.576794, 2179.2], [-110.85353, 43.57679, 2179.2], [-110.85356, 43.576803, 2180.4], [-110.853592, 43.576818, 2181.0], [-110.853608, 43.576828, 2182.2], [-110.853616, 43.576836, 2182.2], [-110.85362, 43.576838, 2182.2], [-110.853637, 43.576831, 2182.2], [-110.853666, 43.576823, 2183.4], [-110.853701, 43.576808, 2183.9], [-110.853727, 43.576789, 2185.1], [-110.853754, 43.57678, 2184.4], [-110.853775, 43.576775, 2185.7], [-110.853791, 43.576769, 2185.7], [-110.853795, 43.576762, 2185.7], [-110.853783, 43.576766, 2185.7], [-110.853786, 43.576758, 2185.7], [-110.853778, 43.57676, 2185.7], [-110.853774, 43.576756, 2185.7], [-110.853779, 43.576746, 2185.0], [-110.853771, 43.576755, 2185.7], [-110.853773, 43.576756, 2185.7], [-110.853809, 43.576733, 2185.0], [-110.853826, 43.576726, 2186.3], [-110.853827, 43.576731, 2186.3], [-110.853836, 43.576734, 2186.3], [-110.853865, 43.576725, 2187.7], [-110.853892, 43.576713, 2186.9], [-110.853904, 43.576707, 2188.4], [-110.853938, 43.576694, 2188.4], [-110.853949, 43.576688, 2189.1], [-110.85399, 43.57666, 2189.7], [-110.854009, 43.57665, 2189.7], [-110.854022, 43.576638, 2189.7], [-110.854028, 43.576631, 2191.3], [-110.854039, 43.576615, 2190.3], [-110.854051, 43.576605, 2190.3], [-110.854062, 43.576592, 2189.4], [-110.854074, 43.576576, 2190.8], [-110.854096, 43.576562, 2189.9], [-110.854122, 43.576539, 2191.2], [-110.854138, 43.576524, 2190.3], [-110.854161, 43.576516, 2191.6], [-110.854183, 43.576515, 2191.6], [-110.854222, 43.576519, 2193.0], [-110.854224, 43.576521, 2193.0], [-110.854206, 43.576521, 2193.0], [-110.854195, 43.576523, 2191.6], [-110.854193, 43.576521, 2191.6], [-110.854189, 43.576526, 2191.6], [-110.854207, 43.576534, 2192.9], [-110.854236, 43.57654, 2193.8], [-110.854246, 43.576545, 2195.4], [-110.854261, 43.576549, 2195.4], [-110.854269, 43.576549, 2195.4], [-110.854278, 43.576553, 2195.4], [-110.854288, 43.576555, 2197.2], [-110.854304, 43.576564, 2197.2], [-110.854313, 43.576575, 2198.4], [-110.854348, 43.57659, 2200.5], [-110.854347, 43.576595, 2200.5], [-110.85434, 43.576599, 2201.9], [-110.854347, 43.576615, 2201.9], [-110.854361, 43.576627, 2201.9], [-110.854364, 43.576627, 2201.9], [-110.85437, 43.576619, 2204.0], [-110.854369, 43.576617, 2204.0], [-110.854384, 43.576612, 2204.0], [-110.854408, 43.576611, 2204.0], [-110.854416, 43.576607, 2206.0], [-110.854435, 43.576602, 2206.0], [-110.854453, 43.5766, 2206.0], [-110.854461, 43.5766, 2207.8], [-110.854474, 43.576604, 2207.8], [-110.854487, 43.576601, 2207.8], [-110.854493, 43.576597, 2206.7], [-110.854508, 43.576594, 2208.4], [-110.854521, 43.576594, 2208.4], [-110.854539, 43.576588, 2208.3], [-110.854553, 43.576587, 2209.9], [-110.854571, 43.576596, 2209.8], [-110.854585, 43.576599, 2212.2], [-110.854618, 43.576603, 2212.2], [-110.854641, 43.576604, 2213.5], [-110.85466, 43.576598, 2213.5], [-110.854672, 43.576591, 2214.0], [-110.854681, 43.576583, 2214.0], [-110.854682, 43.576571, 2214.0], [-110.854694, 43.576561, 2213.1], [-110.85471, 43.576551, 2213.1], [-110.854736, 43.576547, 2214.4], [-110.854763, 43.576539, 2215.8], [-110.854763, 43.576533, 2214.9], [-110.854766, 43.576528, 2214.9], [-110.854778, 43.576515, 2214.9], [-110.85481, 43.5765, 2215.2], [-110.85483, 43.576493, 2215.2], [-110.854851, 43.576487, 2216.5], [-110.854866, 43.57648, 2216.5], [-110.854876, 43.576468, 2215.4], [-110.854884, 43.57646, 2216.6], [-110.854885, 43.576457, 2216.6], [-110.854893, 43.576452, 2216.6], [-110.854896, 43.576447, 2216.6], [-110.854867, 43.576447, 2215.4], [-110.854869, 43.576442, 2214.3], [-110.854886, 43.576432, 2215.5], [-110.854908, 43.576426, 2215.5], [-110.854929, 43.576417, 2216.7], [-110.85494, 43.576408, 2215.6], [-110.854946, 43.576397, 2215.6], [-110.854955, 43.576385, 2215.6], [-110.854961, 43.576381, 2215.6], [-110.854978, 43.576367, 2215.7], [-110.854989, 43.576357, 2215.7], [-110.855011, 43.576344, 2214.7], [-110.855033, 43.576325, 2215.9], [-110.855042, 43.576316, 2214.8], [-110.855058, 43.576303, 2216.1], [-110.855063, 43.576294, 2216.1], [-110.855074, 43.576283, 2214.9], [-110.855086, 43.576277, 2214.9], [-110.85509, 43.576278, 2214.9], [-110.855111, 43.576273, 2216.1], [-110.855119, 43.576273, 2216.1], [-110.855122, 43.576278, 2216.1], [-110.855111, 43.576288, 2217.2], [-110.855109, 43.576292, 2217.2], [-110.855116, 43.576297, 2217.2], [-110.855121, 43.576297, 2217.2], [-110.855146, 43.576304, 2218.4], [-110.855157, 43.576305, 2218.4], [-110.855178, 43.576305, 2218.3], [-110.855198, 43.576303, 2219.5], [-110.855206, 43.576303, 2219.5], [-110.85523, 43.5763, 2220.7], [-110.855241, 43.576302, 2220.7], [-110.855243, 43.576304, 2220.7], [-110.855254, 43.576303, 2220.7], [-110.855252, 43.576308, 2220.7], [-110.855243, 43.576315, 2220.7], [-110.855232, 43.57632, 2221.9], [-110.855216, 43.576321, 2220.6], [-110.855206, 43.576326, 2220.6], [-110.855192, 43.576338, 2220.6], [-110.855181, 43.576351, 2220.4], [-110.855179, 43.576371, 2220.4], [-110.855185, 43.576375, 2221.7], [-110.855193, 43.576375, 2221.7], [-110.855197, 43.576377, 2221.7], [-110.855187, 43.57638, 2221.6], [-110.855173, 43.576387, 2221.4], [-110.855158, 43.576385, 2221.4], [-110.855163, 43.576388, 2221.4], [-110.855167, 43.576395, 2221.4], [-110.855164, 43.576412, 2222.6], [-110.855175, 43.576426, 2222.6], [-110.855175, 43.57644, 2222.6], [-110.85517, 43.576447, 2223.8], [-110.855148, 43.576469, 2223.8], [-110.855141, 43.576475, 2225.0], [-110.855126, 43.576501, 2223.8], [-110.855121, 43.576512, 2224.9], [-110.855117, 43.576527, 2224.9], [-110.855117, 43.576531, 2224.9], [-110.855113, 43.576536, 2226.0], [-110.855111, 43.576545, 2226.0], [-110.855112, 43.576556, 2226.0], [-110.855109, 43.576565, 2226.0], [-110.855104, 43.576571, 2227.0], [-110.855115, 43.576567, 2227.0], [-110.855123, 43.576559, 2226.0], [-110.855121, 43.576556, 2226.0], [-110.855128, 43.576545, 2225.9], [-110.85514, 43.576538, 2225.9], [-110.855176, 43.576526, 2226.1], [-110.855213, 43.576506, 2227.4], [-110.855215, 43.576502, 2226.3], [-110.855214, 43.576489, 2226.2], [-110.855219, 43.576489, 2226.2], [-110.855238, 43.57648, 2227.5], [-110.855245, 43.57648, 2227.5], [-110.855249, 43.576485, 2227.5], [-110.855249, 43.576497, 2227.5], [-110.855244, 43.576506, 2228.7], [-110.85524, 43.576508, 2228.7], [-110.855229, 43.576518, 2228.7], [-110.855223, 43.576522, 2227.4], [-110.855215, 43.576531, 2227.4], [-110.855218, 43.576538, 2228.5], [-110.855216, 43.576557, 2228.5], [-110.855213, 43.576568, 2229.6], [-110.855204, 43.576583, 2229.6], [-110.855183, 43.576604, 2229.4], [-110.855177, 43.576612, 2229.4], [-110.855173, 43.576634, 2230.8], [-110.855176, 43.576651, 2230.7], [-110.855184, 43.57666, 2232.3], [-110.855201, 43.576665, 2233.9], [-110.855208, 43.576663, 2233.9], [-110.855209, 43.576659, 2232.3], [-110.855206, 43.576652, 2232.3], [-110.855205, 43.576655, 2232.3], [-110.855199, 43.576655, 2232.3], [-110.855194, 43.576651, 2232.3], [-110.855196, 43.576647, 2232.3], [-110.855215, 43.576644, 2232.2], [-110.855224, 43.576645, 2232.2], [-110.855232, 43.576644, 2233.9], [-110.855245, 43.57664, 2233.9], [-110.855249, 43.576631, 2233.8], [-110.855253, 43.576629, 2232.3], [-110.855264, 43.576618, 2232.3], [-110.855279, 43.576607, 2233.9], [-110.855284, 43.576602, 2233.9], [-110.855297, 43.576596, 2232.4], [-110.855302, 43.576595, 2232.4], [-110.855313, 43.576598, 2235.5], [-110.855321, 43.576595, 2234.0], [-110.855323, 43.576592, 2234.0], [-110.855345, 43.576585, 2233.9], [-110.855348, 43.576588, 2233.9], [-110.855358, 43.576578, 2235.5], [-110.855363, 43.576575, 2235.5], [-110.855371, 43.576565, 2234.0], [-110.855372, 43.57657, 2235.4], [-110.855378, 43.576578, 2235.4], [-110.855377, 43.576585, 2235.4], [-110.85537, 43.576611, 2237.0], [-110.855372, 43.576623, 2237.0], [-110.855367, 43.576635, 2238.6], [-110.85537, 43.576639, 2238.6], [-110.85536, 43.576645, 2238.6], [-110.855364, 43.576649, 2238.6], [-110.855351, 43.576649, 2237.0], [-110.855346, 43.576647, 2237.0], [-110.855352, 43.576642, 2237.0], [-110.855368, 43.576639, 2238.6], [-110.855371, 43.576631, 2238.6], [-110.855374, 43.576629, 2236.9], [-110.855384, 43.576646, 2238.6], [-110.85539, 43.576648, 2238.6], [-110.855403, 43.57666, 2240.0], [-110.855391, 43.576668, 2240.2], [-110.855387, 43.576668, 2240.2], [-110.855398, 43.576661, 2240.2], [-110.8554, 43.576657, 2240.0], [-110.855427, 43.576658, 2240.0], [-110.85546, 43.576662, 2243.0], [-110.855471, 43.576664, 2243.0], [-110.855486, 43.576664, 2244.3], [-110.855532, 43.576659, 2244.0], [-110.855556, 43.576654, 2244.0], [-110.85557, 43.576652, 2245.1], [-110.855581, 43.576653, 2245.1], [-110.855593, 43.576651, 2245.1], [-110.855606, 43.576645, 2245.1], [-110.855615, 43.576643, 2246.1], [-110.855631, 43.576637, 2246.1], [-110.855653, 43.576625, 2244.8], [-110.85566, 43.57662, 2245.8], [-110.855677, 43.576616, 2245.8], [-110.855686, 43.576615, 2245.8], [-110.855702, 43.576615, 2246.7], [-110.855711, 43.576618, 2246.7], [-110.855715, 43.576615, 2246.7], [-110.855703, 43.576609, 2246.6], [-110.855689, 43.57661, 2245.7], [-110.855684, 43.576613, 2245.7], [-110.855681, 43.576607, 2245.7], [-110.855686, 43.576601, 2245.7], [-110.855685, 43.576599, 2245.7], [-110.855675, 43.576596, 2244.5], [-110.855718, 43.576596, 2245.4], [-110.855726, 43.576594, 2245.4], [-110.855736, 43.576594, 2245.4], [-110.855754, 43.576592, 2246.2], [-110.855768, 43.576595, 2246.2], [-110.85578, 43.576594, 2246.2], [-110.855791, 43.576595, 2247.0], [-110.855817, 43.576595, 2247.0], [-110.855829, 43.576599, 2248.9], [-110.855842, 43.576599, 2248.9], [-110.855851, 43.576601, 2248.9], [-110.855892, 43.576605, 2249.5], [-110.855903, 43.576604, 2249.5], [-110.855918, 43.576613, 2250.1], [-110.855938, 43.576618, 2250.1], [-110.855946, 43.576621, 2250.1], [-110.855978, 43.57664, 2251.8], [-110.855982, 43.576645, 2251.8], [-110.855991, 43.576647, 2251.8], [-110.855997, 43.576655, 2251.8], [-110.856002, 43.576658, 2252.2], [-110.856011, 43.576658, 2252.2], [-110.856016, 43.57666, 2252.2], [-110.856029, 43.576657, 2252.2], [-110.856035, 43.576665, 2253.3], [-110.856036, 43.576677, 2253.3], [-110.856034, 43.576683, 2253.3], [-110.856033, 43.576704, 2254.3], [-110.856036, 43.576709, 2254.3], [-110.856047, 43.576717, 2254.5], [-110.856057, 43.576739, 2255.6], [-110.856058, 43.576747, 2255.6], [-110.856063, 43.576749, 2255.6], [-110.85608, 43.576745, 2255.6], [-110.856091, 43.576744, 2255.7], [-110.856094, 43.576747, 2255.7], [-110.856101, 43.576743, 2255.7], [-110.856119, 43.576724, 2255.7], [-110.856131, 43.576721, 2254.8], [-110.856136, 43.576718, 2254.8], [-110.856161, 43.57671, 2254.8], [-110.856165, 43.576713, 2254.8], [-110.856174, 43.576715, 2255.0], [-110.85619, 43.576722, 2255.0], [-110.856198, 43.576728, 2256.0], [-110.856217, 43.576734, 2256.2], [-110.856232, 43.576742, 2256.2], [-110.856243, 43.576754, 2257.4], [-110.85625, 43.576758, 2257.4], [-110.856262, 43.576771, 2257.6], [-110.856269, 43.576783, 2257.6], [-110.856274, 43.576796, 2259.0], [-110.856282, 43.576808, 2259.0], [-110.856291, 43.576818, 2260.5], [-110.85631, 43.576832, 2260.8], [-110.85633, 43.576843, 2260.7], [-110.856344, 43.576854, 2262.7], [-110.856353, 43.576866, 2262.7], [-110.856356, 43.576873, 2262.7], [-110.856357, 43.576889, 2264.2], [-110.856352, 43.576905, 2264.2], [-110.856356, 43.576923, 2265.5], [-110.856366, 43.576947, 2266.5], [-110.856372, 43.57697, 2266.5], [-110.856371, 43.576978, 2267.4], [-110.856372, 43.57699, 2267.4], [-110.856379, 43.577012, 2268.1], [-110.856384, 43.577021, 2268.1], [-110.856396, 43.577037, 2268.7], [-110.856409, 43.577052, 2268.7], [-110.856416, 43.577057, 2268.7], [-110.856432, 43.577061, 2268.8], [-110.856442, 43.577072, 2269.2], [-110.856445, 43.577084, 2269.2], [-110.856452, 43.577092, 2269.1], [-110.856457, 43.577094, 2269.1], [-110.856458, 43.577099, 2269.4], [-110.856455, 43.577104, 2269.4], [-110.856456, 43.577122, 2269.4], [-110.856462, 43.57713, 2269.6], [-110.856463, 43.577135, 2269.6], [-110.856462, 43.577146, 2269.6], [-110.856463, 43.577151, 2269.6], [-110.856469, 43.577155, 2269.6], [-110.856476, 43.577154, 2269.7], [-110.856482, 43.577158, 2270.0], [-110.856492, 43.577171, 2270.0], [-110.856496, 43.577179, 2270.0], [-110.856508, 43.577188, 2270.0], [-110.856513, 43.577208, 2270.3], [-110.856512, 43.577212, 2270.3], [-110.856514, 43.57722, 2270.7], [-110.856513, 43.577235, 2270.6], [-110.85651, 43.577248, 2270.6], [-110.85649, 43.577254, 2270.9], [-110.856485, 43.577258, 2270.9], [-110.856479, 43.577271, 2270.9], [-110.856468, 43.577289, 2271.0], [-110.856466, 43.577297, 2271.0], [-110.856473, 43.577327, 2271.4], [-110.856484, 43.577356, 2271.6], [-110.856495, 43.577373, 2271.6], [-110.856507, 43.577382, 2271.9], [-110.856513, 43.577392, 2271.9], [-110.856519, 43.577397, 2272.0], [-110.856527, 43.577401, 2272.0], [-110.856533, 43.577407, 2272.3], [-110.856546, 43.577438, 2272.6], [-110.85656, 43.577456, 2272.7], [-110.85657, 43.577475, 2272.9], [-110.856586, 43.577494, 2272.9], [-110.856591, 43.577505, 2273.1], [-110.856593, 43.577517, 2273.1], [-110.856593, 43.577527, 2273.1], [-110.856595, 43.577531, 2273.3], [-110.856595, 43.57754, 2273.3], [-110.856599, 43.577554, 2273.3], [-110.856624, 43.577568, 2273.6], [-110.85664, 43.577572, 2273.6], [-110.856645, 43.577571, 2273.7], [-110.856655, 43.577565, 2273.7], [-110.85667, 43.577552, 2273.6], [-110.856678, 43.577549, 2273.5], [-110.856672, 43.577555, 2273.5], [-110.856666, 43.577558, 2273.5], [-110.856672, 43.577561, 2273.5], [-110.856685, 43.577578, 2273.7], [-110.856689, 43.577593, 2274.0], [-110.8567, 43.577607, 2274.0], [-110.856708, 43.577611, 2274.0], [-110.856731, 43.577629, 2274.4], [-110.856754, 43.577639, 2274.4], [-110.856766, 43.577645, 2274.4], [-110.856782, 43.577651, 2274.7], [-110.856795, 43.577657, 2274.8], [-110.856807, 43.577666, 2274.8], [-110.856817, 43.577675, 2275.1], [-110.856838, 43.577685, 2275.1], [-110.856846, 43.577698, 2275.3], [-110.856877, 43.577728, 2275.7], [-110.856896, 43.577749, 2275.8], [-110.856905, 43.577758, 2276.1], [-110.856912, 43.577779, 2276.1], [-110.856922, 43.577791, 2276.2], [-110.856945, 43.577806, 2276.6], [-110.856952, 43.577815, 2276.7], [-110.856961, 43.577822, 2276.7], [-110.856987, 43.577837, 2277.1], [-110.856981, 43.577836, 2276.7], [-110.856995, 43.577856, 2277.1], [-110.857016, 43.577882, 2277.2], [-110.857049, 43.577911, 2277.6], [-110.857057, 43.577919, 2277.6], [-110.857076, 43.577943, 2278.1], [-110.857087, 43.577956, 2278.1], [-110.857096, 43.577969, 2278.1], [-110.857109, 43.577986, 2278.1], [-110.857116, 43.577997, 2278.6], [-110.857131, 43.578017, 2278.6], [-110.857153, 43.578041, 2278.5], [-110.85716, 43.578046, 2278.9], [-110.857168, 43.578054, 2278.9], [-110.857189, 43.578083, 2278.9], [-110.857198, 43.57809, 2278.9], [-110.857213, 43.578091, 2279.3], [-110.857224, 43.578093, 2279.3], [-110.857249, 43.578101, 2279.7], [-110.857261, 43.578106, 2279.7], [-110.857285, 43.578113, 2279.7], [-110.857295, 43.578115, 2280.3], [-110.857306, 43.578119, 2280.3], [-110.857327, 43.578125, 2280.4], [-110.857338, 43.578131, 2281.1], [-110.857345, 43.578133, 2281.1], [-110.857367, 43.578143, 2281.1], [-110.857391, 43.578152, 2281.8], [-110.857418, 43.578161, 2282.8], [-110.857431, 43.578166, 2282.8], [-110.857447, 43.57817, 2282.8], [-110.857451, 43.578173, 2282.8], [-110.857464, 43.578178, 2283.5], [-110.857482, 43.578182, 2283.5], [-110.857488, 43.578186, 2283.9], [-110.857502, 43.578206, 2284.7], [-110.857511, 43.578222, 2285.1], [-110.857531, 43.578248, 2285.5], [-110.857543, 43.578262, 2285.5], [-110.85757, 43.578287, 2286.5], [-110.857577, 43.578299, 2286.5], [-110.857579, 43.578306, 2286.5], [-110.857579, 43.578314, 2286.9], [-110.857581, 43.578322, 2286.9], [-110.857582, 43.578348, 2287.4], [-110.857586, 43.578355, 2287.4], [-110.857624, 43.578394, 2288.1], [-110.857631, 43.578403, 2288.8], [-110.857636, 43.578416, 2288.8], [-110.857643, 43.578431, 2288.8], [-110.857646, 43.578447, 2289.2], [-110.857656, 43.578472, 2289.7], [-110.857669, 43.578492, 2289.7], [-110.857673, 43.578505, 2290.4], [-110.857674, 43.578521, 2290.4], [-110.85767, 43.57854, 2290.9], [-110.857669, 43.578549, 2290.9], [-110.857664, 43.578558, 2291.6], [-110.857661, 43.578567, 2291.6], [-110.857653, 43.578583, 2291.6], [-110.857643, 43.578606, 2292.4], [-110.857641, 43.578627, 2293.3], [-110.857642, 43.57864, 2293.3], [-110.857646, 43.578649, 2293.3], [-110.857655, 43.578658, 2294.1], [-110.857674, 43.578666, 2294.0], [-110.857686, 43.578667, 2294.0], [-110.857709, 43.578675, 2294.0], [-110.857724, 43.578683, 2294.7], [-110.857743, 43.578697, 2294.7], [-110.85775, 43.578703, 2294.7], [-110.857758, 43.578716, 2295.4], [-110.857764, 43.578735, 2295.4], [-110.857765, 43.578744, 2296.1], [-110.857769, 43.578758, 2296.1], [-110.857776, 43.578773, 2296.1], [-110.857779, 43.578784, 2296.9], [-110.857789, 43.578803, 2296.9], [-110.857793, 43.578813, 2297.6], [-110.857796, 43.578814, 2297.6], [-110.857785, 43.578818, 2297.6], [-110.857785, 43.578826, 2297.6], [-110.857783, 43.57883, 2297.6], [-110.857802, 43.578841, 2298.2], [-110.857829, 43.578863, 2298.2], [-110.857847, 43.578884, 2298.9], [-110.857855, 43.578901, 2299.6], [-110.857859, 43.578918, 2299.6], [-110.85786, 43.578933, 2300.4], [-110.857858, 43.578939, 2300.3], [-110.857858, 43.578951, 2300.3], [-110.857861, 43.578963, 2301.1], [-110.857888, 43.57899, 2301.0], [-110.857891, 43.578988, 2301.0], [-110.857885, 43.578986, 2301.1], [-110.857897, 43.578978, 2301.0], [-110.857911, 43.578967, 2301.0], [-110.857927, 43.578962, 2301.0], [-110.857946, 43.578959, 2300.2], [-110.857966, 43.578955, 2300.2], [-110.857987, 43.578954, 2300.3], [-110.858008, 43.578954, 2300.3], [-110.858029, 43.578956, 2300.4], [-110.858063, 43.578963, 2301.2], [-110.858091, 43.578972, 2301.2], [-110.858102, 43.578977, 2301.3], [-110.858112, 43.578984, 2301.3], [-110.858121, 43.578992, 2301.8], [-110.85813, 43.579013, 2301.8], [-110.858133, 43.579028, 2302.5], [-110.858129, 43.579049, 2302.5], [-110.858123, 43.579066, 2303.2], [-110.858115, 43.579082, 2303.2], [-110.85811, 43.579098, 2304.3], [-110.858106, 43.579105, 2304.3], [-110.858089, 43.579116, 2304.3], [-110.858078, 43.579122, 2305.7], [-110.858079, 43.579131, 2305.7], [-110.858072, 43.579152, 2307.4], [-110.858072, 43.579168, 2307.4], [-110.858073, 43.579183, 2309.1], [-110.858077, 43.579201, 2309.1], [-110.858084, 43.579217, 2310.8], [-110.85809, 43.579224, 2310.8], [-110.858097, 43.579238, 2310.8], [-110.858099, 43.579251, 2312.4], [-110.858098, 43.579256, 2312.4], [-110.858091, 43.579269, 2312.4], [-110.858084, 43.579275, 2313.8], [-110.858075, 43.57929, 2313.8], [-110.858073, 43.579296, 2313.8], [-110.858069, 43.579327, 2315.2], [-110.858064, 43.579354, 2316.5], [-110.858064, 43.57937, 2317.8], [-110.858066, 43.57939, 2317.8], [-110.85807, 43.579404, 2319.2], [-110.858077, 43.579417, 2319.2], [-110.858095, 43.57943, 2320.6], [-110.858113, 43.57944, 2320.3], [-110.858123, 43.579449, 2320.3], [-110.858128, 43.579456, 2320.3], [-110.858146, 43.579475, 2321.7], [-110.85815, 43.579482, 2321.7], [-110.858154, 43.579493, 2323.4], [-110.858163, 43.579507, 2323.4], [-110.858164, 43.579512, 2323.4], [-110.858175, 43.579533, 2325.1], [-110.858182, 43.57954, 2325.1], [-110.858191, 43.579544, 2325.0], [-110.858202, 43.579546, 2325.0], [-110.858214, 43.579551, 2325.0], [-110.858242, 43.579565, 2326.7], [-110.858253, 43.579569, 2326.7], [-110.858261, 43.57957, 2326.7], [-110.858276, 43.579562, 2326.5], [-110.858302, 43.579564, 2326.5], [-110.858312, 43.579568, 2326.5], [-110.858335, 43.579575, 2326.4], [-110.858341, 43.579578, 2326.4], [-110.858346, 43.579585, 2328.3], [-110.858335, 43.579592, 2328.3], [-110.85833, 43.579592, 2328.3], [-110.858324, 43.579618, 2330.2], [-110.85831, 43.579622, 2330.1], [-110.8583, 43.579622, 2330.1], [-110.8583, 43.579634, 2330.1], [-110.85829, 43.579646, 2332.0], [-110.858279, 43.579652, 2332.0], [-110.85827, 43.579654, 2331.8], [-110.858249, 43.579664, 2331.8], [-110.858243, 43.579674, 2331.8], [-110.858228, 43.579689, 2333.3], [-110.858213, 43.579691, 2333.3], [-110.85821, 43.579695, 2333.3], [-110.858202, 43.579699, 2333.3], [-110.858192, 43.579702, 2333.3], [-110.85817, 43.579705, 2332.9], [-110.858155, 43.57971, 2334.7], [-110.858149, 43.579717, 2334.7], [-110.858142, 43.579722, 2334.1], [-110.858127, 43.57972, 2334.1], [-110.858119, 43.57972, 2334.1], [-110.858102, 43.579728, 2334.1], [-110.858095, 43.57973, 2333.5], [-110.858097, 43.579733, 2333.5], [-110.858096, 43.579741, 2334.9], [-110.858093, 43.579745, 2334.9], [-110.858095, 43.579752, 2334.9], [-110.858109, 43.579763, 2335.6], [-110.858117, 43.579766, 2335.6], [-110.858116, 43.57977, 2337.0], [-110.858122, 43.579779, 2337.0], [-110.858129, 43.579784, 2337.0], [-110.858134, 43.57979, 2337.0], [-110.858139, 43.579804, 2338.2], [-110.858144, 43.57981, 2338.2], [-110.858149, 43.579821, 2339.0], [-110.858157, 43.57982, 2339.0], [-110.858167, 43.579821, 2339.0], [-110.858191, 43.579826, 2339.8], [-110.858193, 43.57983, 2339.7], [-110.858204, 43.579836, 2340.9], [-110.858213, 43.579837, 2340.9], [-110.858226, 43.579844, 2340.9], [-110.858243, 43.579847, 2341.4], [-110.858255, 43.579848, 2341.4], [-110.858267, 43.579847, 2341.4], [-110.858284, 43.579844, 2341.8], [-110.858292, 43.579848, 2341.8], [-110.858288, 43.579849, 2341.8], [-110.858283, 43.579845, 2341.7], [-110.858274, 43.579849, 2341.7], [-110.85827, 43.579853, 2341.3], [-110.858268, 43.57985, 2341.3], [-110.858279, 43.579848, 2341.7], [-110.85828, 43.579852, 2341.7], [-110.858272, 43.579861, 2341.3], [-110.858271, 43.579871, 2342.3], [-110.858264, 43.579877, 2342.3], [-110.858255, 43.57988, 2342.3], [-110.858249, 43.579884, 2342.3], [-110.858245, 43.579894, 2343.3], [-110.858253, 43.579902, 2343.3], [-110.858258, 43.579904, 2343.3], [-110.85826, 43.579911, 2343.3], [-110.858273, 43.579918, 2343.3], [-110.858288, 43.579924, 2343.8], [-110.858318, 43.579931, 2345.3], [-110.858353, 43.579956, 2345.9], [-110.858371, 43.579938, 2345.0], [-110.85839, 43.579928, 2345.0], [-110.858399, 43.579916, 2343.8], [-110.858388, 43.57991, 2343.8], [-110.858382, 43.579905, 2343.8], [-110.858363, 43.579897, 2343.8], [-110.858347, 43.579894, 2343.5], [-110.858297, 43.579898, 2343.1], [-110.858275, 43.579898, 2343.1], [-110.858254, 43.579893, 2341.6], [-110.858239, 43.579891, 2341.6], [-110.858233, 43.579889, 2341.6], [-110.85823, 43.579882, 2341.0], [-110.858235, 43.579873, 2341.6], [-110.858241, 43.579859, 2340.5], [-110.858238, 43.579846, 2340.5], [-110.858226, 43.579838, 2340.0], [-110.858215, 43.579836, 2340.0], [-110.85825, 43.579828, 2339.4], [-110.858259, 43.579827, 2339.4], [-110.858311, 43.579816, 2339.7], [-110.858327, 43.579812, 2340.0], [-110.858362, 43.579802, 2340.1], [-110.858403, 43.579791, 2338.8], [-110.858483, 43.579751, 2337.0], [-110.858512, 43.579729, 2334.6], [-110.858541, 43.579703, 2331.8], [-110.858564, 43.579669, 2329.6], [-110.85857, 43.579615, 2327.5], [-110.858543, 43.579553, 2322.9], [-110.858501, 43.579499, 2318.7], [-110.85845, 43.57946, 2317.2], [-110.858401, 43.579425, 2314.8], [-110.858356, 43.579398, 2315.2], [-110.858311, 43.579373, 2314.4], [-110.858262, 43.579349, 2313.7], [-110.858218, 43.579327, 2312.8], [-110.858174, 43.579309, 2313.2], [-110.858136, 43.579294, 2312.2], [-110.858127, 43.579288, 2312.2], [-110.858124, 43.579279, 2312.2], [-110.858128, 43.579272, 2312.2], [-110.858121, 43.579275, 2312.1], [-110.858109, 43.57927, 2310.7], [-110.858075, 43.579268, 2311.1], [-110.858058, 43.579269, 2311.4], [-110.858047, 43.579271, 2311.4], [-110.858035, 43.579258, 2311.4], [-110.85803, 43.579249, 2311.4], [-110.858021, 43.579229, 2309.8], [-110.85802, 43.579202, 2308.0], [-110.858016, 43.579167, 2306.4], [-110.858015, 43.579127, 2304.6], [-110.85802, 43.579085, 2301.9], [-110.858017, 43.579039, 2301.0], [-110.857995, 43.578996, 2300.3], [-110.857971, 43.578955, 2298.8], [-110.857966, 43.578917, 2298.1], [-110.857959, 43.578887, 2297.4], [-110.85794, 43.578862, 2296.7], [-110.857905, 43.578841, 2296.7], [-110.857855, 43.578823, 2296.0], [-110.857796, 43.578806, 2296.1], [-110.857736, 43.578787, 2295.4], [-110.857689, 43.578766, 2294.7], [-110.857657, 43.57874, 2294.2], [-110.857622, 43.578715, 2293.8], [-110.857586, 43.57869, 2293.3], [-110.857546, 43.578665, 2292.8], [-110.857505, 43.57864, 2292.4], [-110.85747, 43.578617, 2291.9], [-110.857438, 43.578593, 2291.5], [-110.857409, 43.578567, 2291.1], [-110.857377, 43.578533, 2290.7], [-110.857367, 43.578521, 2290.5], [-110.857342, 43.578494, 2290.1], [-110.857318, 43.578464, 2289.8], [-110.85729, 43.578437, 2289.4], [-110.857231, 43.578389, 2288.6], [-110.857195, 43.578362, 2288.2], [-110.857152, 43.578335, 2287.7], [-110.857106, 43.578312, 2287.2], [-110.857057, 43.578295, 2286.8], [-110.857007, 43.578283, 2286.3], [-110.85695, 43.578275, 2285.8], [-110.856894, 43.578269, 2285.4], [-110.856843, 43.578267, 2285.0], [-110.85679, 43.578262, 2284.6], [-110.856738, 43.57825, 2284.3], [-110.85669, 43.578238, 2284.0], [-110.856644, 43.578222, 2283.8], [-110.856592, 43.578207, 2283.6], [-110.85653, 43.578196, 2283.3], [-110.856466, 43.578192, 2283.1], [-110.856395, 43.578194, 2282.9], [-110.856325, 43.578198, 2282.6], [-110.856257, 43.578199, 2282.4], [-110.856182, 43.578197, 2282.2], [-110.856113, 43.5782, 2282.0], [-110.856058, 43.578209, 2281.8], [-110.856012, 43.578223, 2281.6], [-110.855956, 43.578238, 2281.4], [-110.855914, 43.578259, 2281.3], [-110.85588, 43.57828, 2281.1], [-110.855847, 43.578299, 2281.0], [-110.855822, 43.578323, 2280.9], [-110.855802, 43.578352, 2280.8], [-110.855793, 43.578381, 2280.7], [-110.855792, 43.578415, 2280.7], [-110.855789, 43.57843, 2280.7], [-110.855785, 43.578433, 2280.7], [-110.855796, 43.578439, 2280.7], [-110.855794, 43.578443, 2280.7], [-110.855806, 43.578454, 2280.7], [-110.855796, 43.578456, 2280.7], [-110.855791, 43.578452, 2280.7], [-110.855774, 43.578435, 2279.7], [-110.855764, 43.578426, 2279.1], [-110.855749, 43.578381, 2278.3], [-110.855741, 43.578328, 2274.4], [-110.855745, 43.578276, 2273.0], [-110.855755, 43.578227, 2271.8], [-110.855761, 43.578183, 2269.5], [-110.855765, 43.578137, 2268.3], [-110.855774, 43.57809, 2266.1], [-110.855784, 43.578046, 2265.0], [-110.855791, 43.578011, 2265.1], [-110.855806, 43.577969, 2264.1], [-110.85581, 43.577954, 2263.4], [-110.855815, 43.577926, 2263.0], [-110.855816, 43.577908, 2263.0], [-110.855823, 43.577877, 2263.0], [-110.855827, 43.577865, 2263.5], [-110.855838, 43.577851, 2264.4], [-110.855849, 43.577844, 2264.4], [-110.855858, 43.577845, 2264.4], [-110.855861, 43.577838, 2265.0], [-110.855869, 43.5778, 2265.9], [-110.855853, 43.577769, 2266.7], [-110.855844, 43.577759, 2266.8], [-110.855816, 43.57774, 2267.0], [-110.855777, 43.577722, 2266.5], [-110.85574, 43.577707, 2267.0], [-110.855698, 43.577689, 2266.4], [-110.85565, 43.577668, 2267.3], [-110.855629, 43.577671, 2267.3], [-110.85562, 43.57767, 2267.5], [-110.855606, 43.577672, 2266.7], [-110.855588, 43.577672, 2266.7], [-110.855559, 43.577671, 2265.6], [-110.855535, 43.577671, 2265.6], [-110.855515, 43.577674, 2264.1], [-110.855496, 43.577678, 2264.1], [-110.855489, 43.577686, 2264.1], [-110.855499, 43.577703, 2262.1], [-110.855538, 43.57775, 2259.5], [-110.855559, 43.577776, 2259.5], [-110.855576, 43.577801, 2258.9], [-110.855583, 43.57783, 2257.4], [-110.85558, 43.57784, 2257.4], [-110.85555, 43.577872, 2255.1], [-110.855538, 43.577883, 2254.5], [-110.855519, 43.577898, 2253.6], [-110.855505, 43.57791, 2253.3], [-110.855498, 43.57792, 2253.4], [-110.85549, 43.577928, 2253.4], [-110.85548, 43.57794, 2252.4], [-110.855448, 43.577968, 2252.7], [-110.855436, 43.577978, 2251.5], [-110.855412, 43.578001, 2252.0], [-110.855388, 43.578026, 2250.5], [-110.855382, 43.578034, 2251.0], [-110.855378, 43.578047, 2251.1], [-110.855371, 43.57806, 2251.8], [-110.855334, 43.578092, 2250.7], [-110.855269, 43.578129, 2247.7], [-110.855225, 43.578159, 2247.0], [-110.855179, 43.578192, 2246.2], [-110.855137, 43.578229, 2245.3], [-110.855093, 43.578266, 2244.5], [-110.855051, 43.578304, 2243.5], [-110.85501, 43.578349, 2243.4], [-110.854975, 43.578397, 2244.2], [-110.854948, 43.578442, 2243.5], [-110.854923, 43.578477, 2241.8], [-110.854904, 43.578506, 2242.2], [-110.854883, 43.578541, 2240.2], [-110.85488, 43.578553, 2240.3], [-110.854902, 43.578582, 2242.5], [-110.854912, 43.578585, 2242.5], [-110.854922, 43.578582, 2242.5], [-110.854933, 43.578569, 2245.2], [-110.854925, 43.57857, 2243.5], [-110.854909, 43.578588, 2243.4], [-110.854893, 43.578618, 2243.5], [-110.85488, 43.578654, 2241.0], [-110.85487, 43.578691, 2240.5], [-110.85486, 43.57873, 2239.7], [-110.854849, 43.578767, 2238.9], [-110.854838, 43.578799, 2235.9], [-110.854825, 43.578826, 2234.8], [-110.854786, 43.578885, 2229.8], [-110.854776, 43.578927, 2228.3], [-110.854775, 43.578976, 2226.4], [-110.854773, 43.579023, 2226.1], [-110.854768, 43.579067, 2226.4], [-110.854769, 43.57911, 2226.8], [-110.854778, 43.57915, 2227.2], [-110.854786, 43.579181, 2227.1], [-110.854796, 43.579208, 2227.1], [-110.854802, 43.579247, 2228.8], [-110.854802, 43.57926, 2228.8], [-110.854795, 43.57929, 2225.3], [-110.854789, 43.579322, 2224.2], [-110.854785, 43.579355, 2223.1], [-110.854784, 43.579395, 2221.9], [-110.854784, 43.579434, 2220.0], [-110.854782, 43.579455, 2220.0], [-110.854779, 43.579459, 2219.7], [-110.854777, 43.579456, 2220.2], [-110.854739, 43.579495, 2218.9], [-110.854694, 43.579529, 2218.6], [-110.85463, 43.57956, 2218.6], [-110.854569, 43.579574, 2216.0], [-110.854515, 43.579584, 2216.0], [-110.854467, 43.579594, 2214.4], [-110.85443, 43.579606, 2212.9], [-110.854392, 43.579622, 2213.1], [-110.854344, 43.579636, 2211.6], [-110.854284, 43.579657, 2211.9], [-110.854217, 43.579682, 2210.6], [-110.854153, 43.579719, 2209.4], [-110.854093, 43.579759, 2209.2], [-110.854035, 43.579796, 2208.7], [-110.853992, 43.579833, 2209.3], [-110.853955, 43.579873, 2208.7], [-110.853924, 43.579911, 2208.1], [-110.853893, 43.579948, 2207.4], [-110.853862, 43.579981, 2208.6], [-110.853828, 43.58001, 2208.0], [-110.85379, 43.580036, 2207.6], [-110.853751, 43.58006, 2207.4], [-110.85368, 43.580108, 2205.5], [-110.853647, 43.580131, 2207.0], [-110.853616, 43.580149, 2206.7], [-110.853578, 43.58017, 2204.7], [-110.853566, 43.580176, 2206.3], [-110.853553, 43.58018, 2206.3], [-110.853554, 43.580175, 2206.4], [-110.853567, 43.580141, 2203.3], [-110.85357, 43.580131, 2203.4], [-110.85354, 43.580112, 2201.3], [-110.853529, 43.580107, 2199.8], [-110.853483, 43.580089, 2197.8], [-110.853467, 43.580082, 2197.8], [-110.853409, 43.580083, 2194.2], [-110.853388, 43.580086, 2194.2], [-110.853341, 43.580078, 2191.4], [-110.853329, 43.580073, 2189.8], [-110.853289, 43.58007, 2188.3], [-110.853237, 43.580082, 2188.1], [-110.853189, 43.580107, 2186.6], [-110.853152, 43.580138, 2186.2], [-110.853116, 43.580165, 2185.7], [-110.853075, 43.580183, 2185.0], [-110.853019, 43.580199, 2183.3], [-110.852955, 43.580218, 2182.6], [-110.8529, 43.580236, 2180.3], [-110.852847, 43.580256, 2178.7], [-110.852813, 43.58027, 2178.0], [-110.852748, 43.580285, 2176.5], [-110.85271, 43.580286, 2174.9], [-110.852666, 43.580289, 2173.2], [-110.852656, 43.580293, 2173.2], [-110.852652, 43.5803, 2174.0], [-110.852653, 43.580313, 2174.0], [-110.852652, 43.580316, 2174.1], [-110.852635, 43.58032, 2172.1], [-110.852611, 43.580307, 2172.2], [-110.852582, 43.580287, 2169.5], [-110.852531, 43.580283, 2167.3], [-110.852512, 43.580285, 2165.2], [-110.852475, 43.580276, 2163.2], [-110.852449, 43.58025, 2163.0], [-110.852424, 43.58022, 2160.3], [-110.852392, 43.580195, 2157.1], [-110.852359, 43.58018, 2157.1], [-110.852329, 43.580163, 2153.7], [-110.852282, 43.580145, 2150.8], [-110.852231, 43.58013, 2147.9], [-110.852169, 43.58013, 2143.0], [-110.852105, 43.580137, 2140.9], [-110.851969, 43.580151, 2137.4], [-110.85187, 43.58016, 2136.2], [-110.851814, 43.580175, 2137.5], [-110.851799, 43.580194, 2137.5], [-110.8518, 43.58021, 2139.1], [-110.851769, 43.580225, 2138.7], [-110.85175, 43.580231, 2138.0], [-110.85169, 43.580247, 2138.8], [-110.851617, 43.580269, 2138.3], [-110.851537, 43.580297, 2137.2], [-110.851459, 43.580329, 2137.7], [-110.851394, 43.580363, 2136.4], [-110.851328, 43.580389, 2135.1], [-110.851259, 43.580407, 2133.9], [-110.851185, 43.580425, 2132.1], [-110.851101, 43.580445, 2129.6], [-110.851013, 43.580462, 2128.2], [-110.850918, 43.580467, 2125.0], [-110.850817, 43.580466, 2121.7], [-110.850719, 43.580479, 2118.6], [-110.850617, 43.580507, 2116.3], [-110.850516, 43.580544, 2115.2], [-110.850439, 43.580598, 2114.4], [-110.850377, 43.580655, 2113.2], [-110.850305, 43.580705, 2111.9], [-110.850233, 43.580754, 2110.9], [-110.850153, 43.580803, 2110.0], [-110.850069, 43.58085, 2108.8], [-110.849986, 43.580891, 2107.4], [-110.849903, 43.580935, 2106.0], [-110.849819, 43.580982, 2105.0], [-110.849736, 43.581027, 2103.9], [-110.849652, 43.581067, 2103.1], [-110.849574, 43.581109, 2102.7], [-110.849502, 43.581151, 2102.3], [-110.849439, 43.581197, 2102.1], [-110.849371, 43.581245, 2101.5], [-110.849298, 43.581291, 2100.6], [-110.84923, 43.581337, 2099.8], [-110.849161, 43.581381, 2098.6], [-110.848999, 43.581465, 2096.1], [-110.848913, 43.581505, 2094.9], [-110.848822, 43.581545, 2093.5], [-110.848651, 43.58163, 2091.2], [-110.848574, 43.581675, 2090.2], [-110.8485, 43.581724, 2089.8], [-110.848426, 43.581777, 2089.2], [-110.848352, 43.581831, 2088.5], [-110.848274, 43.581881, 2087.4], [-110.848193, 43.581926, 2086.1], [-110.848111, 43.581971, 2084.9], [-110.848033, 43.582016, 2083.7], [-110.847956, 43.582058, 2082.6], [-110.847882, 43.582094, 2081.7], [-110.847804, 43.582121, 2081.0], [-110.847718, 43.582141, 2080.1], [-110.847619, 43.582151, 2078.9], [-110.847504, 43.582158, 2077.5], [-110.847379, 43.582161, 2075.9], [-110.847247, 43.582157, 2075.1], [-110.84712, 43.582152, 2075.2], [-110.846997, 43.582154, 2075.5], [-110.846888, 43.582169, 2072.8], [-110.846791, 43.582199, 2071.1], [-110.846721, 43.582246, 2070.4], [-110.846664, 43.582305, 2069.3], [-110.846613, 43.582369, 2068.1], [-110.846565, 43.582441, 2067.5], [-110.846482, 43.582583, 2066.9], [-110.846442, 43.582654, 2066.8], [-110.846395, 43.582721, 2065.5], [-110.84634, 43.582788, 2063.8], [-110.846275, 43.582854, 2063.3], [-110.846208, 43.582919, 2062.2], [-110.846069, 43.583042, 2060.0], [-110.845993, 43.583101, 2059.3], [-110.845913, 43.583155, 2059.1], [-110.845838, 43.583207, 2058.8], [-110.84577, 43.583258, 2058.4], [-110.8457, 43.58331, 2058.0], [-110.845631, 43.583356, 2057.6], [-110.845563, 43.583401, 2057.2], [-110.845493, 43.583446, 2056.7], [-110.845421, 43.583492, 2056.1], [-110.845273, 43.583588, 2053.7], [-110.845201, 43.583637, 2052.7], [-110.845128, 43.583686, 2051.7], [-110.845054, 43.583732, 2050.8], [-110.844976, 43.583781, 2049.7], [-110.844892, 43.583831, 2048.8], [-110.844819, 43.583885, 2048.2], [-110.844758, 43.583944, 2047.4], [-110.844704, 43.584003, 2046.4], [-110.844648, 43.584047, 2045.5], [-110.844584, 43.58408, 2044.7], [-110.844516, 43.584112, 2043.9], [-110.844438, 43.584147, 2043.1], [-110.844358, 43.584184, 2042.1], [-110.844277, 43.584225, 2040.9], [-110.844199, 43.584274, 2039.6], [-110.844125, 43.584323, 2038.3], [-110.844046, 43.584369, 2037.1], [-110.843882, 43.584463, 2036.0], [-110.843802, 43.584508, 2035.7], [-110.843721, 43.584554, 2035.1], [-110.84364, 43.584598, 2034.5], [-110.843556, 43.584644, 2034.1], [-110.843473, 43.584692, 2033.7], [-110.843399, 43.58474, 2033.5], [-110.843341, 43.58478, 2033.3], [-110.843294, 43.584802, 2033.3], [-110.843251, 43.584814, 2033.2], [-110.843203, 43.58483, 2033.2], [-110.843155, 43.584843, 2033.1], [-110.843106, 43.584858, 2033.1], [-110.843065, 43.584872, 2033.0], [-110.843028, 43.584892, 2032.9], [-110.84299, 43.584915, 2032.8], [-110.842953, 43.584939, 2032.7], [-110.842915, 43.58496, 2032.5], [-110.842874, 43.58498, 2032.3], [-110.842829, 43.584999, 2032.1], [-110.842779, 43.585017, 2031.9], [-110.84272, 43.585036, 2031.5], [-110.842654, 43.585054, 2031.0], [-110.842586, 43.58507, 2030.4], [-110.84252, 43.585087, 2029.8], [-110.842459, 43.585106, 2029.3], [-110.842401, 43.585123, 2028.8], [-110.842342, 43.585139, 2028.4], [-110.842284, 43.585154, 2028.0], [-110.842224, 43.585169, 2027.6], [-110.842095, 43.585198, 2026.9], [-110.842028, 43.585214, 2026.6], [-110.841961, 43.585233, 2026.3], [-110.841898, 43.585255, 2025.8], [-110.841839, 43.585281, 2025.4], [-110.841781, 43.585307, 2025.0], [-110.841725, 43.585331, 2024.7], [-110.841675, 43.585359, 2024.3], [-110.841589, 43.585409, 2023.7], [-110.841549, 43.585433, 2023.5], [-110.841506, 43.585455, 2023.2], [-110.841458, 43.585474, 2022.9], [-110.841402, 43.585489, 2022.5], [-110.841338, 43.585499, 2021.8], [-110.841272, 43.585511, 2021.1], [-110.841203, 43.585525, 2020.4], [-110.841138, 43.58554, 2019.7], [-110.841084, 43.585556, 2019.2], [-110.841026, 43.585575, 2018.7], [-110.840903, 43.585625, 2017.6], [-110.840841, 43.585654, 2017.0], [-110.840779, 43.585684, 2016.5], [-110.840718, 43.585717, 2016.1], [-110.840667, 43.585752, 2016.0], [-110.840628, 43.585784, 2015.8], [-110.840602, 43.585807, 2015.7], [-110.840582, 43.585833, 2015.7], [-110.840578, 43.58584, 2015.6], [-110.840578, 43.585851, 2015.6], [-110.840582, 43.58586, 2015.6], [-110.840581, 43.585863, 2015.6], [-110.84059, 43.585869, 2015.6], [-110.840588, 43.585891, 2015.6], [-110.840589, 43.585894, 2014.6], [-110.840568, 43.585901, 2014.6], [-110.840523, 43.585919, 2013.7], [-110.840508, 43.585923, 2013.7], [-110.84047, 43.585902, 2012.8], [-110.840458, 43.585891, 2011.6], [-110.840422, 43.585871, 2011.6], [-110.840411, 43.585868, 2010.7], [-110.840391, 43.585878, 2010.6], [-110.840375, 43.585892, 2009.7], [-110.840341, 43.585903, 2010.1], [-110.840327, 43.585905, 2009.2], [-110.84028, 43.585898, 2008.3], [-110.840265, 43.585894, 2008.3], [-110.840191, 43.585869, 2006.3], [-110.840157, 43.585854, 2005.3], [-110.840116, 43.585841, 2004.4], [-110.84007, 43.585833, 2003.5], [-110.840019, 43.585829, 2002.3], [-110.839972, 43.58582, 2001.3], [-110.839933, 43.585813, 2000.3], [-110.839891, 43.585799, 1998.9], [-110.839878, 43.585794, 1998.9], [-110.839848, 43.585785, 1997.8], [-110.839842, 43.585786, 1997.8], [-110.839838, 43.585792, 1997.7], [-110.839824, 43.585795, 1997.6], [-110.839807, 43.585792, 1996.6], [-110.839793, 43.585788, 1996.5], [-110.83975, 43.585778, 1995.5], [-110.839735, 43.585774, 1995.5], [-110.839681, 43.585771, 1993.7], [-110.839662, 43.585769, 1993.7], [-110.839613, 43.585757, 1992.4], [-110.839564, 43.585732, 1991.1], [-110.839528, 43.585708, 1990.4], [-110.839505, 43.585686, 1989.4], [-110.839467, 43.585642, 1987.8], [-110.839474, 43.585657, 1988.2], [-110.839475, 43.585681, 1988.5], [-110.839441, 43.585704, 1988.5], [-110.839426, 43.585708, 1988.3], [-110.839379, 43.585712, 1987.6], [-110.839319, 43.585715, 1987.0], [-110.839251, 43.585713, 1985.9], [-110.839164, 43.585704, 1984.1], [-110.839077, 43.585691, 1982.8], [-110.83899, 43.58568, 1981.3], [-110.838895, 43.585671, 1979.3], [-110.838797, 43.585665, 1979.3], [-110.838705, 43.585659, 1979.2], [-110.838623, 43.585652, 1979.2], [-110.838498, 43.585643, 1979.1], [-110.838479, 43.585607, 1979.1], [-110.838504, 43.585585, 1979.0], [-110.838577, 43.585544, 1979.0], [-110.838581, 43.585526, 1978.9], [-110.838572, 43.585508, 1978.9], [-110.838566, 43.585489, 1978.9], [-110.838564, 43.585473, 1978.9], [-110.838567, 43.585458, 1978.9], [-110.838566, 43.585451, 1978.9], [-110.838577, 43.58544, 1978.8], [-110.838581, 43.585438, 1978.8], [-110.838596, 43.585423, 1978.8], [-110.838606, 43.585415, 1978.8], [-110.838609, 43.585398, 1978.8], [-110.838621, 43.585371, 1978.7], [-110.838617, 43.585364, 1978.7], [-110.83861, 43.585365, 1978.7], [-110.838606, 43.585359, 1978.7], [-110.838602, 43.585349, 1978.7], [-110.838592, 43.585341, 1978.7], [-110.838572, 43.585318, 1978.6], [-110.838543, 43.585317, 1978.6], [-110.83855, 43.585333, 1978.6], [-110.838561, 43.585347, 1978.6], [-110.838541, 43.585339, 1978.5], [-110.838526, 43.585335, 1978.5], [-110.838515, 43.585323, 1978.5], [-110.838512, 43.585315, 1978.5], [-110.838511, 43.585297, 1978.5], [-110.838506, 43.585274, 1978.4], [-110.838511, 43.585291, 1978.4], [-110.838493, 43.58529, 1978.3], [-110.838495, 43.585274, 1978.3], [-110.838493, 43.585278, 1978.3], [-110.838509, 43.585301, 1978.3], [-110.838502, 43.585299, 1978.3], [-110.838516, 43.5853, 1978.3], [-110.838519, 43.585303, 1978.2], [-110.838516, 43.585274, 1978.2], [-110.838502, 43.585293, 1978.2], [-110.838482, 43.585264, 1978.1], [-110.838479, 43.585286, 1978.1], [-110.838513, 43.585293, 1978.1], [-110.838511, 43.585284, 1978.0], [-110.838491, 43.585265, 1978.0], [-110.838482, 43.585262, 1978.0], [-110.838488, 43.585271, 1978.0], [-110.838473, 43.585255, 1978.0], [-110.83851, 43.585286, 1977.9], [-110.83851, 43.58528, 1977.9], [-110.838463, 43.585229, 1977.8], [-110.838514, 43.585294, 1977.7], [-110.838521, 43.585302, 1977.7], [-110.838517, 43.585305, 1977.7], [-110.838511, 43.585304, 1977.7], [-110.838507, 43.585299, 1977.7]]}}