{"type": "Feature", "properties": {}, "geometry": {"type": "LineString", "coordinates": [[-121.45688362419605, 47.78957742266357, 805.72], [-121.45672738552094, 47.78960726223886, 805.24], [-121.45666158758104, 47.789614805951715, 808.13], [-121.45665471442044, 47.789646154269576, 803.8], [-121.45670886151493, 47.78964975848794, 802.84], [-121.45676468499005, 47.78963693417609, 803.32], [-121.45686912350357, 47.789634335786104, 804.28], [-121.45695285871625, 47.789694517850876, 808.13], [-121.45698831416667, 47.789670964702964, 808.61], [-121.45704480819404, 47.78958664275706, 815.82], [-121.45708185620606, 47.78957096859813, 818.7], [-121.45707406103611, 47.78954582288861, 821.1], [-121.45721764303744, 47.789511708542705, 827.35], [-121.45730724558234, 47.789454543963075, 829.76], [-121.45743096247315, 47.78939411044121, 834.56], [-121.45749097689986, 47.789398385211825, 847.54], [-121.45754135213792, 47.78937206603587, 852.35], [-121.4576443657279, 47.789281122386456, 859.56], [-121.45767537876964, 47.78920467942953, 859.56], [-121.45777763798833, 47.78918808326125, 856.19], [-121.45781988278031, 47.789174085482955, 859.56], [-121.4578018616885, 47.7891097124666, 861.0], [-121.45775659941137, 47.789054391905665, 865.32], [-121.45778249949217, 47.78900183737278, 872.05], [-121.45764285698533, 47.78883629478514, 878.78], [-121.45764453336596, 47.788796396926045, 883.11], [-121.45770354196429, 47.788786171004176, 887.91], [-121.45772533491254, 47.788756331428885, 887.91], [-121.45780303515494, 47.7887072134763, 886.95], [-121.45777814090252, 47.788607720285654, 888.88], [-121.45784888416529, 47.7885536570102, 889.36], [-121.45786179229617, 47.78852691873908, 891.28], [-121.45792088471353, 47.788511076942086, 892.72], [-121.45792641676962, 47.78839305974543, 896.09], [-121.45794091746211, 47.788366405293345, 897.05], [-121.45792708732188, 47.78832022100687, 897.53], [-121.45797067321837, 47.78828803449869, 910.03], [-121.45789766684175, 47.78844527900219, 933.1], [-121.45785014145076, 47.788558853790164, 935.5], [-121.4579157717526, 47.78864451684058, 938.86], [-121.4580143429339, 47.78867167420685, 939.83], [-121.45807980559766, 47.788623897358775, 938.86], [-121.45814660936594, 47.78853463009, 941.27], [-121.45813479088247, 47.78846983797848, 940.79], [-121.45815482363105, 47.78841895982623, 940.31], [-121.45829832181334, 47.78842541389167, 941.27], [-121.45829991437495, 47.788349725306034, 938.86], [-121.45835808478296, 47.78827629983425, 936.46], [-121.4583320170641, 47.78818326070905, 935.5], [-121.45840594545007, 47.788099609315395, 933.1], [-121.45847006700933, 47.78806256130338, 937.42], [-121.45855539478362, 47.78804445639253, 941.75], [-121.45860166288912, 47.788050742819905, 942.23], [-121.45863862708211, 47.787979412823915, 949.44], [-121.45869738422334, 47.78796876780689, 952.8], [-121.45887658931315, 47.78796591795981, 962.42], [-121.45890408195555, 47.78784077614546, 982.12], [-121.45896451547742, 47.787848906591535, 985.01], [-121.45896853879094, 47.78783340007067, 993.66], [-121.45905160345137, 47.78780967928469, 993.66], [-121.45902268588543, 47.78779140673578, 991.74], [-121.45910927094519, 47.787756118923426, 988.85], [-121.45919350907207, 47.78775058686733, 985.97], [-121.45927757956088, 47.78772443532944, 983.09], [-121.45925980992615, 47.78771907091141, 1006.16], [-121.45929845049977, 47.78766140341759, 1008.56], [-121.45938042551279, 47.78770322911441, 1008.56], [-121.4594280347228, 47.7877436298877, 1008.56], [-121.45955678075552, 47.78774379752576, 1008.56], [-121.45961545407772, 47.78768009506166, 1009.04], [-121.459608245641, 47.78751773759723, 1008.56], [-121.45956818014383, 47.78755956329405, 1022.02], [-121.45963154733181, 47.78761270456016, 1027.79], [-121.45962115377188, 47.78757213614881, 1027.31], [-121.45964931696653, 47.787534752860665, 1027.31], [-121.45961998030543, 47.78744791634381, 1024.9], [-121.45960170775652, 47.78748010285199, 1037.88], [-121.45957672968507, 47.787440959364176, 1036.92], [-121.4595390111208, 47.787420339882374, 1036.44], [-121.4594695251435, 47.78745126910508, 1047.97], [-121.45950925536454, 47.787503488361835, 1054.22], [-121.45950003527105, 47.787403240799904, 1050.86], [-121.45942250266671, 47.78736443258822, 1056.63], [-121.45940431393683, 47.78745931573212, 1068.64], [-121.45935997366905, 47.78750474564731, 1081.14], [-121.45941018126905, 47.78761865571141, 1100.85], [-121.45941169001162, 47.78770155273378, 1111.9], [-121.4594766497612, 47.787740947678685, 1117.67], [-121.4595939964056, 47.7877489104867, 1122.48], [-121.45972014404833, 47.78780364431441, 1115.75], [-121.45980932749808, 47.787682358175516, 1109.98], [-121.45988912321627, 47.78750315308571, 1095.08], [-121.45998517982662, 47.787531735375524, 1109.5], [-121.46013035438955, 47.78745956718922, 1103.73], [-121.46019631996751, 47.78746426105499, 1106.13], [-121.46024728193879, 47.787394439801574, 1108.06], [-121.46030184812844, 47.787386141717434, 1117.67], [-121.46035649813712, 47.78735026717186, 1115.75], [-121.46040871739388, 47.78737222775817, 1116.71], [-121.46049370989203, 47.78734046034515, 1127.28], [-121.46052899770439, 47.78729997575283, 1126.8], [-121.46046261303127, 47.787101324647665, 1120.07], [-121.46048633381724, 47.78709076344967, 1127.76], [-121.46047686226666, 47.78705815784633, 1131.61], [-121.46050410345197, 47.78697609901428, 1136.42], [-121.46061868406832, 47.786968471482396, 1147.95], [-121.46068498492241, 47.78706402517855, 1167.18], [-121.46074533462524, 47.7870789449662, 1178.71], [-121.46079931408167, 47.78701105155051, 1180.16], [-121.4608929399401, 47.78696671128273, 1184.48], [-121.46093769930303, 47.78701943345368, 1190.73], [-121.46096980199218, 47.78709093108773, 1198.9], [-121.4610703010112, 47.78709872625768, 1206.59], [-121.46107935346663, 47.78720039874315, 1214.28], [-121.46122486330569, 47.78715178370476, 1212.84], [-121.46123894490302, 47.78701934963465, 1208.51], [-121.46133248694241, 47.78699998743832, 1217.17], [-121.46140859462321, 47.78692044317722, 1217.65], [-121.46143935620785, 47.78691256418824, 1223.9], [-121.46156785078347, 47.78666714206338, 1207.55], [-121.46156785078347, 47.786576282233, 1204.67], [-121.46160028874874, 47.78659229166806, 1212.84], [-121.46164001896977, 47.78651903383434, 1216.21], [-121.46167396567762, 47.78648843988776, 1223.9], [-121.461719898507, 47.786479303613305, 1231.59], [-121.46169274114072, 47.78642239049077, 1237.83], [-121.46162417717278, 47.786415349692106, 1241.2], [-121.46161168813705, 47.78632909990847, 1237.35], [-121.46168494597077, 47.786438232287765, 1233.51], [-121.46153558045626, 47.78636371716857, 1237.35], [-121.46150574088097, 47.78628249652684, 1238.32], [-121.46125336177647, 47.78621141798794, 1240.72], [-121.46107298322022, 47.78618685901165, 1245.53], [-121.4609273057431, 47.78611594811082, 1248.41], [-121.4607304148376, 47.78608183376491, 1252.25], [-121.46056579425931, 47.78608216904104, 1252.74], [-121.46032514981925, 47.78605291619897, 1252.74], [-121.4601759519428, 47.78597521595657, 1252.25], [-121.46003563888371, 47.78586784377694, 1251.77], [-121.45987629890442, 47.785782013088465, 1250.81], [-121.45967605523765, 47.78565586544573, 1251.77], [-121.45952518098056, 47.785596856847405, 1250.33], [-121.45941655151546, 47.785465847700834, 1249.37], [-121.45925897173584, 47.78534003533423, 1247.93], [-121.45906291902065, 47.78519385494292, 1245.53], [-121.45903249271214, 47.785110706463456, 1243.12], [-121.4589190017432, 47.78503267094493, 1239.76], [-121.45886661484838, 47.78505764901638, 1233.03], [-121.45882973447442, 47.78504683636129, 1229.18], [-121.45879059098661, 47.78500526212156, 1227.74], [-121.45870207808912, 47.78497911058366, 1223.42], [-121.45862395875156, 47.78493887744844, 1221.01], [-121.458495631814, 47.78489638119936, 1220.05], [-121.4583436679095, 47.78482597321272, 1221.01], [-121.45814878866076, 47.78474600985646, 1225.34], [-121.45797478035092, 47.78463394381106, 1225.82], [-121.45785290747881, 47.78461852110922, 1227.74], [-121.45774033851922, 47.78457812033594, 1227.74], [-121.45767831243575, 47.784528667107224, 1226.3], [-121.45756658166647, 47.784472927451134, 1224.38], [-121.45744814537466, 47.78442179784179, 1223.42], [-121.4573610574007, 47.78430277481675, 1219.09], [-121.45728880539536, 47.78425575233996, 1217.17], [-121.45716877654195, 47.784162713214755, 1220.05], [-121.45698387175798, 47.78410387225449, 1221.01], [-121.45685403607786, 47.784089371562004, 1221.97], [-121.4566205162555, 47.7839841786772, 1223.42], [-121.45655211992562, 47.7839133515954, 1221.49], [-121.45646184682846, 47.7838390879333, 1221.49], [-121.45637928508222, 47.783756693825126, 1225.34], [-121.4562061149627, 47.78360204771161, 1232.55], [-121.45612522959709, 47.78363616205752, 1236.87], [-121.45604803226888, 47.78357547707856, 1234.95], [-121.4560211263597, 47.78358452953398, 1240.72], [-121.45598785020411, 47.78353666886687, 1239.28], [-121.45588307641447, 47.78346844017506, 1240.72], [-121.45584753714502, 47.78339233249426, 1239.28], [-121.45574041642249, 47.78330935165286, 1239.76], [-121.45550203509629, 47.78310759924352, 1242.16], [-121.45538887940347, 47.78303526341915, 1241.68], [-121.45526801235974, 47.782902074977756, 1242.64], [-121.45510716363788, 47.78282982297242, 1244.08], [-121.45507598295808, 47.782739885151386, 1246.49], [-121.4549438841641, 47.78265464119613, 1246.97], [-121.45485788583755, 47.782537043094635, 1249.85], [-121.45474154502153, 47.78242631815374, 1255.62], [-121.45453191362321, 47.78232489712536, 1257.06], [-121.45439562387764, 47.78229212388396, 1257.06], [-121.45422798581421, 47.7821849193424, 1253.7], [-121.45403746515512, 47.78212347999215, 1253.7], [-121.45384442992508, 47.782086012884974, 1252.74], [-121.45335886627436, 47.78194067068398, 1252.25], [-121.45313188433647, 47.78190747834742, 1252.74], [-121.45310740917921, 47.781918458640575, 1253.22], [-121.45298168063164, 47.7818928938359, 1256.58], [-121.4528589695692, 47.78186204843223, 1259.46], [-121.45275201648474, 47.78182818554342, 1259.46], [-121.45257867872715, 47.78186297044158, 1263.31], [-121.45248614251614, 47.78189281001687, 1265.71], [-121.45239394158125, 47.78190311975777, 1270.52], [-121.45226762630045, 47.78186934068799, 1273.88], [-121.45218431018293, 47.78187478892505, 1279.65], [-121.45210317336023, 47.78187126852572, 1283.5], [-121.45204542204738, 47.78188434429467, 1287.34], [-121.4519426599145, 47.78183816000819, 1289.27], [-121.45193595439196, 47.78187772259116, 1290.71], [-121.451978366822, 47.781816283240914, 1288.78], [-121.45192807540298, 47.78175937011838, 1286.86], [-121.45188474096358, 47.781829526647925, 1280.61], [-121.45192572847009, 47.78178619220853, 1283.98], [-121.45187652669847, 47.78169918805361, 1283.98], [-121.45163965411484, 47.781471870839596, 1286.38], [-121.45151132717729, 47.78140800073743, 1287.34], [-121.45142407156527, 47.781309597194195, 1287.34], [-121.45136665552855, 47.781201135367155, 1287.34], [-121.45123179070652, 47.78112720698118, 1290.23], [-121.45080775022507, 47.781082866713405, 1297.44], [-121.45064162090421, 47.78103559277952, 1298.88], [-121.45056065171957, 47.78099577873945, 1302.24], [-121.4504724740982, 47.780917743220925, 1300.8], [-121.45015563815832, 47.78071817010641, 1300.32], [-121.45008900202811, 47.78064734302461, 1300.32], [-121.44990921020508, 47.78061104938388, 1295.03], [-121.4497612696141, 47.780636698007584, 1289.75], [-121.44971466623247, 47.780598644167185, 1286.38], [-121.44966621883214, 47.78061440214515, 1284.46], [-121.44962506368756, 47.780471658334136, 1281.09], [-121.4495540689677, 47.78046503663063, 1276.77], [-121.44948173314333, 47.780476016923785, 1276.77], [-121.44930772483349, 47.78036378324032, 1275.81], [-121.44917378202081, 47.78030435554683, 1274.36], [-121.44906339235604, 47.780213663354516, 1277.25], [-121.44888016395271, 47.78018885292113, 1276.77], [-121.44876373931766, 47.78014970943332, 1277.73], [-121.44867212511599, 47.78003973886371, 1280.61], [-121.44861848093569, 47.77994032949209, 1279.65], [-121.44855276681483, 47.77988123707473, 1278.21], [-121.44849367439747, 47.779743019491434, 1280.13], [-121.44846567884088, 47.77962961234152, 1281.57], [-121.44837968051434, 47.779559371992946, 1281.57], [-121.44829644821584, 47.77955417521298, 1283.5], [-121.44819594919682, 47.77947957627475, 1289.27], [-121.44809394143522, 47.77942283079028, 1293.59], [-121.44801984541118, 47.77941528707743, 1296.48], [-121.44792328588665, 47.779456442222, 1299.36], [-121.4479289855808, 47.77942626737058, 1303.2], [-121.44787198863924, 47.77938041836023, 1308.49], [-121.44774726592004, 47.77932275086641, 1312.82], [-121.44758231006563, 47.77932618744671, 1317.62], [-121.44755339249969, 47.77929215691984, 1320.03], [-121.44755825400352, 47.779367342591286, 1323.87], [-121.44766101613641, 47.77925075031817, 1327.24], [-121.44766244105995, 47.77918134815991, 1330.6], [-121.44762539304793, 47.7791178971529, 1332.52], [-121.44759764894843, 47.779049249365926, 1334.93], [-121.4475372992456, 47.779039442539215, 1338.29], [-121.44738458096981, 47.77905109338462, 1340.22], [-121.44724275916815, 47.779093254357576, 1343.58], [-121.44727377220988, 47.77910674922168, 1349.83], [-121.44732004031539, 47.779058972373605, 1355.6], [-121.44721467979252, 47.77904690243304, 1357.52], [-121.44704611971974, 47.779119573533535, 1359.44], [-121.44692558795214, 47.77912862598896, 1361.36], [-121.44693539477885, 47.779102893546224, 1366.65], [-121.44691871479154, 47.779037514701486, 1370.5], [-121.44695199094713, 47.778909439221025, 1372.9], [-121.44701510667801, 47.77884623967111, 1376.75], [-121.44689264707267, 47.77881296351552, 1377.23], [-121.44683875143528, 47.77885118499398, 1382.51], [-121.446782508865, 47.778818998485804, 1386.36], [-121.44664378836751, 47.778793098405, 1389.72], [-121.44655351527035, 47.77871531434357, 1391.17], [-121.44642451778054, 47.778729228302836, 1394.53], [-121.446383446455, 47.778764767572284, 1397.41], [-121.4464339055121, 47.778819082304835, 1403.66], [-121.44634312950075, 47.77883014641702, 1406.07], [-121.44628638401628, 47.778848838061094, 1408.95], [-121.44618739373982, 47.77889451943338, 1414.72], [-121.44609091803432, 47.77896920219064, 1416.64], [-121.4459241181612, 47.77908562682569, 1420.0], [-121.445825798437, 47.779164500534534, 1424.81], [-121.4457565639168, 47.779235327616334, 1424.81], [-121.44569319672883, 47.77920858934522, 1427.21], [-121.44558523781598, 47.77922778390348, 1431.06], [-121.445577358827, 47.77916735038161, 1435.39], [-121.44563184119761, 47.77914966456592, 1437.79], [-121.44551415927708, 47.77912166900933, 1437.79], [-121.44546520896256, 47.779121585190296, 1439.71], [-121.44537367857993, 47.7790576312691, 1442.11], [-121.44534090533853, 47.77902150526643, 1445.0], [-121.44524107687175, 47.7789971139282, 1450.29], [-121.44515356980264, 47.778950929641724, 1456.53], [-121.44507109187543, 47.778937350958586, 1462.78], [-121.44512314349413, 47.7788813598454, 1458.46], [-121.44503328949213, 47.77899434790015, 1463.74], [-121.44502717070282, 47.77896040119231, 1463.74], [-121.44493865780532, 47.77892083860934, 1458.94], [-121.44486431032419, 47.778905080631375, 1455.09], [-121.4447858557105, 47.77892008423805, 1454.13], [-121.44476297311485, 47.778894854709506, 1453.17], [-121.4447152800858, 47.77887457050383, 1452.69], [-121.4446634799242, 47.7788210939616, 1453.17], [-121.44453205168247, 47.778736939653754, 1452.69], [-121.44438830204308, 47.778722355142236, 1448.84], [-121.44425972364843, 47.77865865267813, 1447.88], [-121.44421622157097, 47.778669046238065, 1447.88], [-121.44410574808717, 47.7786532882601, 1448.36], [-121.44405386410654, 47.77860291302204, 1447.88], [-121.44401170313358, 47.77852864935994, 1445.48], [-121.44375286996365, 47.77844893746078, 1444.52], [-121.4436570648104, 47.77844985947013, 1444.04], [-121.44356151111424, 47.778398310765624, 1440.67], [-121.44339923746884, 47.77838020585477, 1438.27], [-121.44325330853462, 47.77831960469484, 1438.27], [-121.44316923804581, 47.77832178398967, 1439.71], [-121.44311257638037, 47.778312396258116, 1441.15], [-121.44296539016068, 47.77831248007715, 1442.6], [-121.44278559833765, 47.778272246941924, 1448.36], [-121.44266950897872, 47.77819974347949, 1450.29], [-121.44254386425018, 47.778159426525235, 1451.25], [-121.4424447901547, 47.77814316563308, 1453.65], [-121.44236407242715, 47.77812003158033, 1456.53], [-121.44226541742682, 47.77807166799903, 1458.94], [-121.44217086955905, 47.77804928831756, 1460.86], [-121.44201890565455, 47.77805180288851, 1461.34], [-121.44185738638043, 47.778010899201035, 1460.86], [-121.44180617295206, 47.777967900037766, 1459.42], [-121.44176200032234, 47.77788961306214, 1458.94], [-121.44168186932802, 47.77786589227617, 1458.46], [-121.44157349132001, 47.77785809710622, 1457.02], [-121.44151255488396, 47.77781551703811, 1458.94], [-121.44144139252603, 47.77773790061474, 1461.34], [-121.44137148745358, 47.77769012376666, 1463.74], [-121.441295966506, 47.777649806812406, 1466.63], [-121.44113335758448, 47.777606304734945, 1471.44], [-121.44098876975477, 47.777600856497884, 1473.84], [-121.44085449166596, 47.777476301416755, 1475.28], [-121.4407869335264, 47.77737597003579, 1474.8], [-121.44070512615144, 47.777335653081536, 1472.88], [-121.44058015197515, 47.77735736221075, 1470.95], [-121.44047303125262, 47.77732517570257, 1470.47], [-121.44046959467232, 47.77725510299206, 1474.32], [-121.44039038568735, 47.777307238429785, 1478.16], [-121.44026658497751, 47.77730782516301, 1478.16], [-121.4401478972286, 47.777280416339636, 1482.49], [-121.44007623195648, 47.777282763272524, 1483.93], [-121.4399750623852, 47.77732056565583, 1488.74], [-121.43979543820024, 47.777503626421094, 1494.99], [-121.43974045291543, 47.7775446139276, 1499.79], [-121.43979954533279, 47.777531035244465, 1498.83], [-121.43990213982761, 47.77743212878704, 1498.35], [-121.43985159695148, 47.777457777410746, 1497.39], [-121.43980516120791, 47.777415700256824, 1497.39], [-121.43970935605466, 47.777392817661166, 1498.83], [-121.43964598886669, 47.77736071497202, 1500.27], [-121.43961346708238, 47.777318553999066, 1502.2], [-121.43959167413414, 47.777259796857834, 1503.64], [-121.43952369689941, 47.77724705636501, 1505.08], [-121.43950601108372, 47.77717363089323, 1507.97], [-121.43945069052279, 47.777168937027454, 1509.89], [-121.43938355147839, 47.77720330283046, 1513.25], [-121.43937072716653, 47.77713792398572, 1521.42], [-121.43928305245936, 47.77718192897737, 1533.44], [-121.43925405107439, 47.77715510688722, 1535.84], [-121.43923846073449, 47.7771804202348, 1537.29], [-121.43913117237389, 47.77720145881176, 1544.98], [-121.43910443410277, 47.77724445797503, 1548.34], [-121.43906839191914, 47.77726725675166, 1551.71], [-121.4389617741108, 47.777231549844146, 1554.59], [-121.43893394619226, 47.7772010397166, 1556.99], [-121.4388748537749, 47.777223754674196, 1559.88], [-121.43882581964135, 47.777222665026784, 1563.24], [-121.43879145383835, 47.777200285345316, 1567.09], [-121.43869455903769, 47.77717907913029, 1573.33], [-121.43864426761866, 47.777130380272865, 1580.06], [-121.4386539068073, 47.77709199115634, 1581.99], [-121.43856732174754, 47.77706860564649, 1584.39], [-121.43855885602534, 47.776977410539985, 1589.2], [-121.43852264620364, 47.77700456790626, 1590.16], [-121.43840957432985, 47.77702929452062, 1593.52], [-121.43836171366274, 47.77702619321644, 1593.52], [-121.4383309520781, 47.77700699865818, 1593.52], [-121.43827403895557, 47.77699685655534, 1594.96], [-121.43824604339898, 47.77701982297003, 1597.37], [-121.43816054798663, 47.77693499810994, 1604.58], [-121.43810464069247, 47.776909014210105, 1609.38], [-121.43809047527611, 47.77687598951161, 1609.38], [-121.43809089437127, 47.77693432755768, 1610.83], [-121.4380048122257, 47.77691471390426, 1612.75], [-121.43796776421368, 47.776922257617116, 1613.23], [-121.43797237426043, 47.77690004557371, 1616.59], [-121.43781437538564, 47.776801474392414, 1628.61], [-121.43773826770484, 47.77677096426487, 1629.09], [-121.4376921672374, 47.776807928457856, 1631.49], [-121.43763584084809, 47.77678722515702, 1634.86], [-121.43756920471787, 47.77679049409926, 1642.07], [-121.43752017058432, 47.77682083658874, 1648.8], [-121.43739687278867, 47.77681061066687, 1656.01], [-121.43732688389719, 47.77677674777806, 1662.26], [-121.43732026219368, 47.77675939723849, 1663.7], [-121.43726267851889, 47.776764929294586, 1664.66], [-121.43718740902841, 47.77674690820277, 1666.1], [-121.43712840043008, 47.77676115743816, 1667.54], [-121.43713535740972, 47.77678471058607, 1675.23], [-121.43708322197199, 47.776806922629476, 1679.08], [-121.4370705652982, 47.77679745107889, 1679.56], [-121.43703485839069, 47.77684313245118, 1681.96], [-121.4370343554765, 47.77688931673765, 1682.93], [-121.43701256252825, 47.77693776413798, 1686.29], [-121.43692128360271, 47.777005322277546, 1698.31], [-121.43687543459237, 47.77701253071427, 1700.23], [-121.43684333190322, 47.77705184184015, 1701.19], [-121.43689152784646, 47.777076149359345, 1702.15], [-121.43687761388719, 47.77708570472896, 1703.59], [-121.43686202354729, 47.77719835750759, 1702.63], [-121.43683000467718, 47.77725460007787, 1704.55], [-121.43682522699237, 47.77732953429222, 1703.59], [-121.43686202354729, 47.77737798169255, 1705.04], [-121.43680385313928, 47.77741980738938, 1705.52], [-121.43678549677134, 47.77744805440307, 1708.88], [-121.43679345957935, 47.77753723785281, 1712.73], [-121.43671173602343, 47.777680065482855, 1724.26], [-121.4366715028882, 47.77769112959504, 1728.59], [-121.43665155395865, 47.77773220092058, 1733.88], [-121.43660419620574, 47.777722561731935, 1737.72], [-121.43651342019439, 47.77772281318903, 1741.08], [-121.43648718483746, 47.777775367721915, 1743.01], [-121.43642188981175, 47.777814427390695, 1744.45], [-121.43642365001142, 47.77786689810455, 1745.41], [-121.43649389036, 47.7779161836952, 1747.33], [-121.43648366443813, 47.77796186506748, 1748.78], [-121.43648844212294, 47.77801299467683, 1748.78], [-121.43636363558471, 47.777993297204375, 1753.1], [-121.43633714877069, 47.77800729498267, 1755.02], [-121.43632650375366, 47.778050880879164, 1759.83], [-121.43630680628121, 47.77805951423943, 1760.31], [-121.43638794310391, 47.778087090700865, 1762.71], [-121.43641627393663, 47.778121288865805, 1764.64], [-121.43641568720341, 47.77817023918033, 1768.0], [-121.43634402193129, 47.778223883360624, 1779.06], [-121.43633228726685, 47.77825062163174, 1784.34], [-121.43639490008354, 47.77834047563374, 1784.82], [-121.43647545017302, 47.77847391553223, 1788.19], [-121.43649959005415, 47.778531331568956, 1791.07], [-121.43649841658771, 47.778563015162945, 1794.44], [-121.43653906881809, 47.778634848073125, 1798.28], [-121.43660562112927, 47.77868966571987, 1799.73], [-121.43654334358871, 47.77873660437763, 1800.21], [-121.43649724312127, 47.77873677201569, 1800.21], [-121.43648190423846, 47.77871665544808, 1801.17], [-121.43643479794264, 47.778715901076794, 1802.13], [-121.43640294671059, 47.77869603596628, 1805.01], [-121.43629222176969, 47.77867608703673, 1805.01], [-121.43620823509991, 47.778834672644734, 1811.74], [-121.4361759647727, 47.77887700125575, 1814.63], [-121.43617328256369, 47.77892938815057, 1817.03], [-121.43619063310325, 47.778979847207665, 1820.39], [-121.43616506829858, 47.77902309782803, 1822.32], [-121.43610346131027, 47.77906224131584, 1825.2], [-121.43610941246152, 47.77910725213587, 1829.05], [-121.43614059314132, 47.77916911058128, 1831.45], [-121.436134474352, 47.77923373505473, 1833.85], [-121.4360929839313, 47.77925762347877, 1836.74], [-121.43609616905451, 47.77928402647376, 1838.66], [-121.4360533375293, 47.7793095074594, 1840.58], [-121.43602626398206, 47.77929609641433, 1848.75], [-121.43595577217638, 47.77934454381466, 1850.68], [-121.43591310828924, 47.77935426682234, 1853.56], [-121.43589382991195, 47.77937790378928, 1855.48], [-121.43584764562547, 47.779283775016665, 1859.33], [-121.43584471195936, 47.77924530208111, 1861.73], [-121.43581906333566, 47.77922040782869, 1861.25], [-121.4358376711607, 47.7792732976377, 1862.69], [-121.43586600199342, 47.779346304014325, 1860.29], [-121.43591461703181, 47.77936231344938, 1857.89], [-121.43600028008223, 47.779360972344875, 1853.56], [-121.43607722595334, 47.77934328652918, 1849.23], [-121.43613036721945, 47.77931780554354, 1847.79], [-121.43613195978105, 47.779252007603645, 1842.98], [-121.43614386208355, 47.77921445667744, 1841.06], [-121.43613405525684, 47.779159219935536, 1838.66], [-121.43610497005284, 47.77911412529647, 1836.74], [-121.43610597588122, 47.77904078364372, 1832.41], [-121.43613908439875, 47.77901723049581, 1829.05], [-121.4361326303333, 47.77894196100533, 1826.64], [-121.43616456538439, 47.77892402373254, 1824.72], [-121.43619163893163, 47.778838612139225, 1818.95], [-121.43621938303113, 47.778820004314184, 1817.99], [-121.43622608855367, 47.778778932988644, 1817.99], [-121.43620538525283, 47.77875437401235, 1818.47], [-121.43622147850692, 47.77868673205376, 1813.66], [-121.43616523593664, 47.7785671222955, 1812.22], [-121.43604570999742, 47.77855580672622, 1814.63], [-121.43597044050694, 47.77851230464876, 1815.11], [-121.43596448935568, 47.7784410584718, 1812.22], [-121.43601955845952, 47.778425216674805, 1809.82], [-121.4360641501844, 47.778450613841414, 1809.82], [-121.4361532498151, 47.778456564992666, 1804.53], [-121.4361365698278, 47.778503419831395, 1805.49], [-121.43619490787387, 47.77857013978064, 1808.38], [-121.4363120868802, 47.7786310762167, 1806.94], [-121.43648341298103, 47.77868698351085, 1803.57], [-121.43655507825315, 47.77873241342604, 1800.21], [-121.43661567941308, 47.77869285084307, 1796.84], [-121.43666043877602, 47.77862638235092, 1791.07], [-121.43664644099772, 47.77860777452588, 1787.71], [-121.4366609416902, 47.77855798602104, 1788.19], [-121.43665633164346, 47.778512220829725, 1785.79], [-121.43648852594197, 47.778478022664785, 1788.19], [-121.43645323812962, 47.778371488675475, 1786.27], [-121.43639079295099, 47.77832002379, 1782.9], [-121.43633555620909, 47.77825556695461, 1780.5], [-121.43637939356267, 47.778238635510206, 1780.5], [-121.43639381043613, 47.77819689363241, 1777.13], [-121.43643697723746, 47.77815724723041, 1774.25], [-121.43646312877536, 47.7780956402421, 1767.52], [-121.4363540802151, 47.77803931385279, 1764.64], [-121.43635391257703, 47.77799061499536, 1757.43], [-121.43633312545717, 47.77792716398835, 1754.06], [-121.4363710116595, 47.777973767369986, 1750.7], [-121.43647436052561, 47.77802833355963, 1751.66], [-121.43649816513062, 47.7780282497406, 1752.14], [-121.43649254925549, 47.7779814787209, 1753.58], [-121.43655222840607, 47.77789321728051, 1749.74], [-121.43650830723345, 47.77785952202976, 1745.41], [-121.43647477962077, 47.77779766358435, 1741.08], [-121.43651618622243, 47.777776289731264, 1738.2], [-121.43651702441275, 47.77773714624345, 1737.24], [-121.43648802302778, 47.77769708074629, 1736.28], [-121.43651157617569, 47.77764368802309, 1736.28], [-121.4365406613797, 47.77761619538069, 1733.88], [-121.4365972392261, 47.777633629739285, 1727.15], [-121.43662825226784, 47.77762843295932, 1726.18], [-121.43667812459171, 47.777660954743624, 1725.22], [-121.43671835772693, 47.77762508019805, 1723.3], [-121.43676026724279, 47.77756347320974, 1721.38], [-121.43678625114262, 47.777564814314246, 1720.9], [-121.4367494545877, 47.777533968910575, 1716.57], [-121.43674618564546, 47.77749231085181, 1713.69], [-121.43678314983845, 47.777469512075186, 1712.25], [-121.43681298941374, 47.777415281161666, 1711.76], [-121.43685112707317, 47.77717555873096, 1702.15], [-121.4368961378932, 47.77705636806786, 1704.07], [-121.43696310929954, 47.77705385349691, 1701.19], [-121.43698808737099, 47.77704069390893, 1699.75], [-121.4370034262538, 47.776997443288565, 1696.38], [-121.43700334243476, 47.77694480493665, 1694.94], [-121.43697157502174, 47.77691697701812, 1690.62], [-121.43700099550188, 47.776888059452176, 1681.48], [-121.4370311703533, 47.77688638307154, 1680.04], [-121.43709219060838, 47.776835169643164, 1676.68], [-121.43710065633059, 47.77677532285452, 1677.16], [-121.43721096217632, 47.77670558542013, 1675.72], [-121.43716318532825, 47.77670466341078, 1675.72], [-121.4372003171593, 47.776681780815125, 1677.16], [-121.43726284615695, 47.77672000229359, 1675.72], [-121.43731154501438, 47.776780519634485, 1670.43], [-121.43735328689218, 47.776794685050845, 1668.99], [-121.43734741955996, 47.7768331579864, 1667.06], [-121.43740818835795, 47.77687934227288, 1662.74], [-121.43747004680336, 47.77685654349625, 1662.26], [-121.43752737902105, 47.776892920956016, 1658.41], [-121.43754749558866, 47.77688588015735, 1658.41], [-121.43755730241537, 47.77692452073097, 1658.41], [-121.43761756829917, 47.77708377689123, 1654.57], [-121.43761388026178, 47.77713239192963, 1654.09], [-121.43762921914458, 47.7773532550782, 1648.32], [-121.43763567321002, 47.77727052569389, 1645.43], [-121.43782242201269, 47.77725242078304, 1643.03], [-121.43804068677127, 47.77722425758839, 1640.15], [-121.43808024935424, 47.77713448740542, 1638.7], [-121.43816716969013, 47.77713934890926, 1634.38], [-121.43825585022569, 47.77716156095266, 1623.32], [-121.43829960376024, 47.77715410105884, 1623.32], [-121.43837805837393, 47.77723314240575, 1622.36], [-121.43846313469112, 47.777226604521275, 1619.96], [-121.43851837143302, 47.77723917737603, 1615.15], [-121.43849473446608, 47.777206571772695, 1612.27], [-121.43867209553719, 47.77729382738471, 1605.06], [-121.43872967921197, 47.77726633474231, 1602.66], [-121.43879170529544, 47.777263736352324, 1597.37], [-121.43880092538893, 47.777315620332956, 1595.93], [-121.4388441760093, 47.77729198336601, 1586.79], [-121.43886362202466, 47.777357613667846, 1587.27], [-121.43897392787039, 47.77741335332394, 1579.1], [-121.43902815878391, 47.77741494588554, 1573.82], [-121.43905833363533, 47.777394745498896, 1572.37], [-121.43908616155386, 47.77740312740207, 1572.37], [-121.43912840634584, 47.77738116681576, 1567.57], [-121.4392329286784, 47.77735979296267, 1565.64], [-121.43947918899357, 47.777295587584376, 1562.28], [-121.43968102522194, 47.77741662226617, 1556.99], [-121.43965613096952, 47.777420142665505, 1551.22], [-121.4397456496954, 47.77744193561375, 1549.78], [-121.43989635631442, 47.77744662947953, 1549.78], [-121.43996693193913, 47.777466997504234, 1549.78], [-121.44006441347301, 47.777514858171344, 1549.78], [-121.44024009816349, 47.77746984735131, 1549.3], [-121.4402567781508, 47.77745995670557, 1549.78], [-121.44033774733543, 47.777455849573016, 1549.78], [-121.44037722609937, 47.77743145823479, 1549.3], [-121.44042315892875, 47.77744537219405, 1549.3], [-121.44072205759585, 47.77756925672293, 1545.94], [-121.44085583277047, 47.77758342213929, 1534.4], [-121.44089916720986, 47.777652740478516, 1533.44], [-121.44104132428765, 47.77778232470155, 1529.59], [-121.44123402424157, 47.77794401161373, 1528.63], [-121.44154599867761, 47.77812103740871, 1528.15], [-121.44164859317243, 47.77821055613458, 1527.19], [-121.44171732477844, 47.77819471433759, 1510.37], [-121.44172562286258, 47.77822078205645, 1508.93], [-121.44174900837243, 47.778144339099526, 1507.48], [-121.44180173054338, 47.77812212705612, 1499.79], [-121.44177004694939, 47.778016682714224, 1486.82], [-121.44170274026692, 47.77810586616397, 1483.45], [-121.44171522930264, 47.77803956530988, 1483.45], [-121.44163970835507, 47.778063118457794, 1485.85], [-121.44166787154973, 47.778076361864805, 1482.49], [-121.44168488681316, 47.778029423207045, 1479.13], [-121.44172369502485, 47.778054904192686, 1479.13], [-121.44177951849997, 47.77806177735329, 1479.13], [-121.44198814406991, 47.7781231328845, 1481.05], [-121.44214689731598, 47.77814609929919, 1480.09], [-121.44223373383284, 47.77814551256597, 1479.61], [-121.44231176935136, 47.77816470712423, 1478.16], [-121.44237312488258, 47.77819479815662, 1476.24], [-121.44246214069426, 47.77827392332256, 1473.84], [-121.44250371493399, 47.778292279690504, 1475.28], [-121.44260848872364, 47.778368974104524, 1475.76], [-121.44264260306954, 47.778221452608705, 1465.19], [-121.44278023391962, 47.77814358472824, 1457.98], [-121.44295013509691, 47.7781786210835, 1454.13], [-121.44304786808789, 47.778203934431076, 1453.65], [-121.44304015673697, 47.7782510407269, 1452.69], [-121.44309111870825, 47.77829144150019, 1451.25], [-121.44315389916301, 47.77832329273224, 1450.29], [-121.44320368766785, 47.77833066880703, 1449.81], [-121.44326898269355, 47.77832287363708, 1449.81], [-121.44334726966918, 47.77834868989885, 1452.21], [-121.44346444867551, 47.7783686388284, 1453.17], [-121.44355631433427, 47.778410045430064, 1447.4], [-121.44376720301807, 47.77843996882439, 1447.88], [-121.44389695487916, 47.77848154306412, 1447.88], [-121.44406467676163, 47.778481878340244, 1450.77], [-121.44411806948483, 47.7785465028137, 1451.25], [-121.444181939587, 47.77858656831086, 1449.81], [-121.44422175362706, 47.77862881310284, 1448.84], [-121.44432099536061, 47.778653455898166, 1449.32], [-121.44437304697931, 47.77869276702404, 1450.29], [-121.44446893595159, 47.77872269041836, 1452.69], [-121.4445720333606, 47.778808269649744, 1455.09], [-121.44462291151285, 47.77890482917428, 1453.17], [-121.44477093592286, 47.77897188439965, 1450.77], [-121.44484193064272, 47.77893718332052, 1452.69], [-121.4449208881706, 47.778909523040056, 1457.02], [-121.44506447017193, 47.77893014252186, 1464.71], [-121.44508123397827, 47.77894103899598, 1469.99], [-121.44508726894855, 47.77901077643037, 1467.59], [-121.44510495476425, 47.77902351692319, 1467.59], [-121.44509833306074, 47.778976913541555, 1469.03], [-121.4451679866761, 47.77900021523237, 1467.11], [-121.44523655064404, 47.77901127934456, 1465.19], [-121.44536445848644, 47.77908110059798, 1461.34], [-121.4454196114093, 47.779055535793304, 1461.34], [-121.44546269439161, 47.77911345474422, 1460.38], [-121.44547157920897, 47.77914673089981, 1457.98], [-121.44550477154553, 47.779151760041714, 1454.61], [-121.44559378735721, 47.779123513028026, 1453.65], [-121.44565254449844, 47.77913499623537, 1453.65], [-121.44565925002098, 47.77916081249714, 1450.77], [-121.44573334604502, 47.77918101288378, 1447.88], [-121.44576251506805, 47.779218731448054, 1444.04], [-121.44579956308007, 47.77920305728912, 1439.71], [-121.44587156362832, 47.77919408865273, 1437.79], [-121.44590249285102, 47.77914606034756, 1435.39], [-121.44595010206103, 47.779130386188626, 1434.42], [-121.44605797715485, 47.779116136953235, 1432.98], [-121.44612955860794, 47.77901345863938, 1430.1], [-121.44625143148005, 47.77896844781935, 1428.66], [-121.44630532711744, 47.778875241056085, 1420.97], [-121.44636961631477, 47.77883207425475, 1416.64], [-121.44645041786134, 47.778825368732214, 1414.72], [-121.44645729102194, 47.77873543091118, 1406.55], [-121.44650666043162, 47.77871623635292, 1406.07], [-121.44654538482428, 47.77864331379533, 1405.1], [-121.44661948084831, 47.77865563519299, 1403.66], [-121.44674336537719, 47.7786601614207, 1402.7], [-121.44687110558152, 47.77877281419933, 1394.05], [-121.44697831012309, 47.778753116726875, 1388.28], [-121.44699038006365, 47.77879779227078, 1384.44], [-121.44697638228536, 47.77891648001969, 1382.99], [-121.44693899899721, 47.77900876477361, 1380.11], [-121.44693556241691, 47.77905838564038, 1378.67], [-121.44699297845364, 47.7791057433933, 1377.23], [-121.4470779709518, 47.77912954799831, 1373.86], [-121.44715089350939, 47.77910264208913, 1370.02], [-121.44730361178517, 47.77902955189347, 1363.29], [-121.44742615520954, 47.77903533540666, 1360.4], [-121.44750561565161, 47.7790021430701, 1356.08], [-121.44768155179918, 47.77898403815925, 1350.79], [-121.44768306054175, 47.77905276976526, 1346.94], [-121.44765154458582, 47.77908713556826, 1345.98], [-121.44764852710068, 47.779159639030695, 1343.58], [-121.44762103445828, 47.779242703691125, 1339.73], [-121.44767543300986, 47.77930364012718, 1338.29], [-121.4477284066379, 47.77930925600231, 1336.85], [-121.44778674468398, 47.7793406881392, 1334.45], [-121.44787601195276, 47.77934697456658, 1329.16], [-121.44800970330834, 47.7793908957392, 1328.68], [-121.44806150346994, 47.779376562684774, 1328.2], [-121.44808379933238, 47.779349656775594, 1326.76], [-121.44815345294774, 47.77937178499997, 1321.95], [-121.44820424728096, 47.7793441247195, 1321.95], [-121.44827431999147, 47.77937773615122, 1319.07], [-121.44834858365357, 47.77945208363235, 1314.74], [-121.44836870022118, 47.7794873714447, 1312.34], [-121.44839652813971, 47.77946624904871, 1312.82], [-121.44846534356475, 47.77944806031883, 1311.86], [-121.44854488782585, 47.77954537421465, 1310.41], [-121.448571709916, 47.7796290256083, 1309.45], [-121.4486613124609, 47.77964444831014, 1313.3], [-121.44871931523085, 47.779703540727496, 1315.22], [-121.44874395802617, 47.77975643053651, 1315.22], [-121.4488011226058, 47.779784593731165, 1319.07], [-121.44883473403752, 47.779846116900444, 1322.91], [-121.44890388473868, 47.77992490679026, 1324.83], [-121.44908023998141, 47.780055748298764, 1310.9], [-121.44919389858842, 47.780088521540165, 1307.05], [-121.44926933571696, 47.78010092675686, 1307.53], [-121.44934418611228, 47.78010335750878, 1307.53], [-121.44954526796937, 47.780199917033315, 1309.45], [-121.44963445141912, 47.78022363781929, 1311.86], [-121.44968524575233, 47.78028658591211, 1316.18], [-121.449771579355, 47.78037367388606, 1313.3], [-121.44978792406619, 47.780454475432634, 1306.09], [-121.44982287660241, 47.78049227781594, 1308.01], [-121.44996704533696, 47.78053963556886, 1314.26], [-121.45013468340039, 47.78058674186468, 1323.39], [-121.45028874278069, 47.780672153458, 1323.87], [-121.45034565590322, 47.780751446262, 1322.43], [-121.45044305361807, 47.78082378208637, 1320.99], [-121.45048186182976, 47.78088144958019, 1318.59], [-121.4505797624588, 47.78092713095248, 1317.14], [-121.45063374191523, 47.7809779252857, 1314.26], [-121.45065545104444, 47.780984630808234, 1314.26], [-121.45080146379769, 47.78106710873544, 1315.22], [-121.4509566128254, 47.78109275735915, 1315.22], [-121.45107169635594, 47.78107775375247, 1318.1], [-121.45127160474658, 47.78113885782659, 1318.59], [-121.45136489532888, 47.78118998743594, 1317.14], [-121.45144603215158, 47.78127238154411, 1315.22], [-121.4515332877636, 47.78134941123426, 1310.9], [-121.4515880215913, 47.781423926353455, 1308.97], [-121.45168424583972, 47.78150221332908, 1309.45], [-121.45176555030048, 47.7815458830446, 1306.57], [-121.45192329771817, 47.781674126163125, 1306.09], [-121.45198347978294, 47.78175853192806, 1303.2], [-121.4520219527185, 47.78179750777781, 1301.76], [-121.45198188722134, 47.78179884888232, 1297.44], [-121.4520663768053, 47.78185131959617, 1295.51], [-121.45212387666106, 47.78186330571771, 1295.03], [-121.45220786333084, 47.78190513141453, 1292.63], [-121.45226226188242, 47.78183715417981, 1285.42], [-121.45238472148776, 47.781829023733735, 1283.98], [-121.452462002635, 47.78183891437948, 1281.57], [-121.45251522772014, 47.7818154450506, 1278.21], [-121.4525935985148, 47.78182131238282, 1275.81], [-121.45264732651412, 47.78180010616779, 1273.88], [-121.45271681249142, 47.78179071843624, 1272.92], [-121.45283550024033, 47.781790886074305, 1271.48], [-121.45296215079725, 47.7818083204329, 1266.19], [-121.45298821851611, 47.78182860463858, 1266.19], [-121.45329231396317, 47.781896917149425, 1264.27], [-121.45347830839455, 47.78195793740451, 1263.31], [-121.45358844660223, 47.78196263127029, 1262.83], [-121.45382045768201, 47.7820001821965, 1259.46], [-121.4540577493608, 47.78213513083756, 1261.39], [-121.45429168827832, 47.78217704035342, 1261.87], [-121.45439034327865, 47.782253148034215, 1261.39], [-121.45452034659684, 47.782275108620524, 1260.43], [-121.45466049201787, 47.782364627346396, 1259.46], [-121.45480826497078, 47.7824196126312, 1259.46], [-121.4548952691257, 47.78255154378712, 1259.46], [-121.45501890219748, 47.782638212665915, 1259.94], [-121.4551093429327, 47.78273502364755, 1258.5], [-121.45518939010799, 47.78278456069529, 1258.5], [-121.4552684314549, 47.78281272388995, 1257.54], [-121.45529877394438, 47.78284080326557, 1258.02], [-121.45540941506624, 47.782890843227506, 1257.54], [-121.45558015443385, 47.78308647684753, 1257.54], [-121.45570244640112, 47.78321010991931, 1258.02], [-121.45581652410328, 47.78329912573099, 1258.5], [-121.45585943944752, 47.783381352201104, 1258.98], [-121.45590872503817, 47.783377999439836, 1259.46], [-121.45599790848792, 47.783454190939665, 1258.98], [-121.45606513135135, 47.78353499248624, 1254.18], [-121.45607904531062, 47.783568603917956, 1250.81], [-121.45615330897272, 47.78359760530293, 1251.29], [-121.45631910301745, 47.78368854895234, 1248.41], [-121.45646134391427, 47.78377261944115, 1250.81], [-121.45648380741477, 47.783838752657175, 1246.97], [-121.4565579034388, 47.78387068770826, 1245.04], [-121.4566170796752, 47.78392123058438, 1239.28], [-121.45681866444647, 47.78402030467987, 1235.91], [-121.45695998333395, 47.78406757861376, 1233.03], [-121.45711337216198, 47.784103536978364, 1232.55], [-121.45723666995764, 47.78415114618838, 1230.14], [-121.45732074044645, 47.784190624952316, 1230.62], [-121.45735586062074, 47.78423144482076, 1230.14], [-121.45742031745613, 47.78432817198336, 1231.59], [-121.45753925666213, 47.784383576363325, 1235.43], [-121.45759013481438, 47.78442355804145, 1229.66], [-121.45774628967047, 47.78448164463043, 1226.78], [-121.45782658830285, 47.78450662270188, 1225.82], [-121.45804225467145, 47.78459379449487, 1224.86], [-121.45813152194023, 47.784650791436434, 1224.38], [-121.45830234512687, 47.784693371504545, 1224.86], [-121.45839102566242, 47.784775933250785, 1225.34], [-121.4584942907095, 47.7848095446825, 1223.9], [-121.45860166288912, 47.784858075901866, 1222.93], [-121.45868078805506, 47.78488305397332, 1219.09], [-121.4587030839175, 47.784943487495184, 1216.69], [-121.45870241336524, 47.7849842235446, 1214.76], [-121.45864709280431, 47.7849424816668, 1214.28], [-121.4587257988751, 47.78496620245278, 1213.32], [-121.45870241336524, 47.785011464729905, 1212.84], [-121.45883367396891, 47.78503166511655, 1218.13], [-121.4588687941432, 47.7850204333663, 1220.05], [-121.45899184048176, 47.785050105303526, 1221.97], [-121.4591122046113, 47.78504189103842, 1222.45], [-121.45905830897391, 47.78509863652289, 1226.78], [-121.4590590633452, 47.78512990102172, 1229.18], [-121.45911279134452, 47.78520290739834, 1230.62], [-121.45922284573317, 47.78526635840535, 1228.7], [-121.4592747297138, 47.785330060869455, 1228.7], [-121.45935268141329, 47.78540457598865, 1230.14], [-121.45938805304468, 47.785464422777295, 1228.7], [-121.45948846824467, 47.785536255687475, 1227.74], [-121.45966834388673, 47.78563658706844, 1231.11], [-121.45978049375117, 47.78572526760399, 1233.51], [-121.45986096002162, 47.78582727536559, 1235.91], [-121.45999381318688, 47.78588871471584, 1238.8], [-121.46007344126701, 47.78590992093086, 1240.72], [-121.46023496054113, 47.78599055483937, 1244.08], [-121.46041374653578, 47.786041013896465, 1246.49], [-121.46058230660856, 47.78604512102902, 1247.93], [-121.46074835211039, 47.78604059480131, 1249.85], [-121.46094700321555, 47.786097927019, 1248.89], [-121.46105060353875, 47.786143105477095, 1246.49], [-121.46119150333107, 47.78621627949178, 1244.08], [-121.46133944392204, 47.78624796308577, 1242.16], [-121.4614553656429, 47.786238826811314, 1236.87], [-121.46157338283956, 47.78631233610213, 1233.99], [-121.46157598122954, 47.78638324700296, 1231.11], [-121.46164387464523, 47.78637209907174, 1227.26], [-121.46174873225391, 47.78638727031648, 1228.7], [-121.46161378361285, 47.786434879526496, 1230.14], [-121.4616266079247, 47.7865088917315, 1228.7], [-121.46156986244023, 47.78652054257691, 1226.78], [-121.4615681860596, 47.78658214956522, 1221.01], [-121.46145662292838, 47.78666915372014, 1206.59], [-121.46146995015442, 47.78668080456555, 1203.23], [-121.46137531846762, 47.786702597513795, 1203.23], [-121.46131312474608, 47.786774849519134, 1198.42], [-121.46131622605026, 47.786839473992586, 1195.54], [-121.46129711531103, 47.78688959777355, 1193.13], [-121.46132552996278, 47.786898063495755, 1191.21], [-121.46120659075677, 47.786899991333485, 1186.4], [-121.46118245087564, 47.78686151839793, 1183.04], [-121.46108924411237, 47.786837965250015, 1180.16], [-121.46103920415044, 47.78680007904768, 1178.23], [-121.46091766655445, 47.78682053089142, 1173.43], [-121.46085589192808, 47.78681240044534, 1171.02], [-121.4608163293451, 47.786846766248345, 1168.62], [-121.46069009788334, 47.786899991333485, 1163.33], [-121.46065028384328, 47.78689546510577, 1158.53], [-121.46061885170639, 47.78696360997856, 1153.24], [-121.46057484671474, 47.78696218505502, 1147.47], [-121.46051701158285, 47.78697811067104, 1142.18], [-121.46049723029137, 47.786966040730476, 1140.74], [-121.46042372100055, 47.7869822178036, 1134.01], [-121.46041282452643, 47.78700493276119, 1127.76], [-121.46041173487902, 47.78709369711578, 1127.28], [-121.46042841486633, 47.7871495205909, 1125.84], [-121.46038566716015, 47.78717231936753, 1124.4], [-121.4604077115655, 47.78719645924866, 1122.48], [-121.46037301048636, 47.78725404292345, 1121.52], [-121.46021593362093, 47.787317829206586, 1119.59], [-121.4603107329458, 47.78739879839122, 1116.23], [-121.46014854311943, 47.787294276058674, 1112.38], [-121.46010705269873, 47.78733383864164, 1098.44], [-121.46004502661526, 47.787329563871026, 1087.87], [-121.46001904271543, 47.78729913756251, 1084.99], [-121.4599066413939, 47.78727633878589, 1082.1], [-121.45985006354749, 47.78730642981827, 1081.62], [-121.45987328141928, 47.78740315698087, 1079.7], [-121.4598273485899, 47.78742469847202, 1072.97], [-121.45987034775317, 47.787456046789885, 1072.97], [-121.45978393033147, 47.78733383864164, 1075.37], [-121.45973179489374, 47.78741128742695, 1074.41], [-121.45955887623131, 47.7873947750777, 1072.01], [-121.45958561450243, 47.78740659356117, 1072.97], [-121.45951461978257, 47.78743643313646, 1067.68], [-121.45949098281562, 47.78740785084665, 1066.72], [-121.45940355956554, 47.7874138019979, 1064.32], [-121.45933239720762, 47.78743777424097, 1064.8], [-121.45934354513884, 47.78747918084264, 1064.8], [-121.45940775051713, 47.78751111589372, 1062.39], [-121.45944077521563, 47.787587558850646, 1062.39], [-121.45946650765836, 47.787580182775855, 1061.91], [-121.45950892008841, 47.787620667368174, 1052.78], [-121.45957597531378, 47.78761379420757, 1049.9], [-121.45957882516086, 47.78763676062226, 1048.94], [-121.45954077132046, 47.78767473064363, 1044.13], [-121.45958720706403, 47.787679424509406, 1040.28], [-121.4594539348036, 47.78780699707568, 1032.59], [-121.45944463089108, 47.7877988666296, 1034.04], [-121.45930456928909, 47.78788955882192, 1038.36], [-121.45926039665937, 47.787791322916746, 1028.75], [-121.45913349464536, 47.78778025880456, 1022.5], [-121.4590812753886, 47.787802973762155, 1014.81], [-121.45910088904202, 47.78788327239454, 1013.85], [-121.45905202254653, 47.78790447860956, 1011.93], [-121.45894682966173, 47.787877740338445, 1013.37], [-121.4589226897806, 47.78792241588235, 1010.0], [-121.458968706429, 47.7880372479558, 1007.12], [-121.45885228179395, 47.788116708397865, 1004.72], [-121.45881079137325, 47.78810371644795, 1004.23], [-121.45873795263469, 47.788132801651955, 1002.31], [-121.45866209641099, 47.78808334842324, 997.51], [-121.45866368897259, 47.788132801651955, 996.06], [-121.45860032178462, 47.78820237144828, 994.62], [-121.45863183774054, 47.788211507722735, 990.78], [-121.45862395875156, 47.78817303478718, 989.81], [-121.45850518718362, 47.78819222934544, 982.12], [-121.45840854384005, 47.78821947053075, 972.51], [-121.45831768400967, 47.78823371976614, 964.34], [-121.45825875923038, 47.788203209638596, 962.9], [-121.45820922218263, 47.78823623433709, 960.01], [-121.45820863544941, 47.78827319853008, 957.13], [-121.45824526436627, 47.78832994401455, 942.23], [-121.45822531543672, 47.78838291764259, 942.71], [-121.45816186442971, 47.78840227983892, 940.79], [-121.45818457938731, 47.78846791014075, 937.42], [-121.4581454358995, 47.788528176024556, 933.1], [-121.45818449556828, 47.78854192234576, 930.21], [-121.45811635069549, 47.78856312856078, 928.77], [-121.4580917917192, 47.788622388616204, 929.25], [-121.45806228742003, 47.78857385739684, 926.85], [-121.45798098295927, 47.788552064448595, 924.93], [-121.45789867267013, 47.78854049742222, 918.68], [-121.45785374566913, 47.78849808499217, 916.27], [-121.45779666490853, 47.78852105140686, 914.83], [-121.45784041844308, 47.78855424374342, 913.39], [-121.45778249949217, 47.788595566526055, 906.66], [-121.45772592164576, 47.788601433858275, 905.22], [-121.45768644288182, 47.78864652849734, 900.89], [-121.45776389166713, 47.78869220986962, 901.85], [-121.45766431465745, 47.78872397728264, 899.45], [-121.45772097632289, 47.78878918848932, 890.8], [-121.45769281312823, 47.788823219016194, 884.07], [-121.45775550976396, 47.78884995728731, 878.78], [-121.45771217532456, 47.78888935223222, 876.86], [-121.4577479660511, 47.788914078846574, 872.53], [-121.4578018616885, 47.78898959979415, 870.13], [-121.45779381506145, 47.788996724411845, 872.05], [-121.45771116949618, 47.788976691663265, 872.53], [-121.45769541151822, 47.78902580961585, 871.57], [-121.45769583061337, 47.78907677158713, 868.21], [-121.45773715339601, 47.7891512028873, 860.52], [-121.45768635906279, 47.78919294476509, 859.08], [-121.45769071765244, 47.78921289369464, 856.67], [-121.45765073597431, 47.789249857887626, 852.35], [-121.45760823972523, 47.7893097884953, 852.83], [-121.45754772238433, 47.789261089637876, 851.38], [-121.45745309069753, 47.78925287537277, 853.79], [-121.4574580360204, 47.78932152315974, 839.85], [-121.45748117007315, 47.789325043559074, 837.45], [-121.45741042681038, 47.78936586342752, 838.89], [-121.45729458890855, 47.78936829417944, 837.45], [-121.45725645124912, 47.78936284594238, 832.16], [-121.45723080262542, 47.78944054618478, 827.83], [-121.4571509230882, 47.78949385508895, 828.31], [-121.45712175406516, 47.789541967213154, 829.76], [-121.45705117844045, 47.789559150114655, 831.68], [-121.45702511072159, 47.789626624435186, 827.83], [-121.4571020565927, 47.7896620798856, 818.22], [-121.45710834302008, 47.78967725113034, 809.57], [-121.45703382790089, 47.789671970531344, 806.2], [-121.45696610212326, 47.7896311506629, 805.72], [-121.45680449903011, 47.789621679112315, 803.8], [-121.45675898529589, 47.789650429040194, 803.32], [-121.45668153651059, 47.789643639698625, 799.95], [-121.45665002055466, 47.789663672447205, 800.92], [-121.45665680989623, 47.78979795053601, 798.51], [-121.45663686096668, 47.78987900353968, 795.15], [-121.45662437193096, 47.789874225854874, 786.98], [-121.45658522844315, 47.78992208652198, 782.65], [-121.45653770305216, 47.789927534759045, 779.29], [-121.45647098310292, 47.789957793429494, 775.92], [-121.45641281269491, 47.789967600256205, 771.6], [-121.45631306804717, 47.789955446496606, 769.19], [-121.45625690929592, 47.79001638293266, 762.94], [-121.45623025484383, 47.79005887918174, 760.54], [-121.45616060122848, 47.7901216596365, 757.66], [-121.45622036419809, 47.7902096696198, 756.21], [-121.45621449686587, 47.79026499018073, 753.81], [-121.45628465339541, 47.79034713283181, 750.45], [-121.45633368752897, 47.79042751528323, 736.99], [-121.4563237130642, 47.79047747142613, 737.47], [-121.45633142441511, 47.790540335699916, 736.03], [-121.4563408959657, 47.79051510617137, 730.74], [-121.45642823539674, 47.79060303233564, 732.66], [-121.4564284030348, 47.79061971232295, 734.1], [-121.45648187957704, 47.79065818525851, 735.55], [-121.45657357759774, 47.79079447500408, 735.07], [-121.45666284486651, 47.7908590156585, 731.22], [-121.45672604441643, 47.79088265262544, 729.3], [-121.45682117901742, 47.79097594320774, 727.37], [-121.45688001997769, 47.79107325710356, 724.97], [-121.45695839077234, 47.791142826899886, 724.01], [-121.45713868550956, 47.79122379608452, 721.13], [-121.45725963637233, 47.79131105169654, 720.65], [-121.45737673155963, 47.79137073084712, 719.68], [-121.45754327997565, 47.791440384462476, 718.72], [-121.45767856389284, 47.79148858040571, 718.72], [-121.4578726887703, 47.79159058816731, 718.72], [-121.45795080810785, 47.791597209870815, 719.2], [-121.45807318389416, 47.791628893464804, 717.76], [-121.4582284167409, 47.7916497644037, 718.24], [-121.45847098901868, 47.79172511771321, 716.32], [-121.45857282914221, 47.79180658981204, 714.4], [-121.4587527886033, 47.79186702333391, 713.44], [-121.45882478915155, 47.79191169887781, 713.44], [-121.45897205919027, 47.79194036498666, 712.95], [-121.45908823236823, 47.792059890925884, 712.47], [-121.45911471918225, 47.792146392166615, 711.99], [-121.45917288959026, 47.7922163810581, 711.51], [-121.45922385156155, 47.792326267808676, 711.03], [-121.4592194929719, 47.7923749666661, 711.51], [-121.45926131866872, 47.79241578653455, 716.32]]}}