{"type": "Feature", "properties": {}, "geometry": {"type": "LineString", "coordinates": [[-121.79122416302562, 48.693974213674664, 936.94], [-121.79148685187101, 48.69407068938017, 940.31], [-121.79170302115381, 48.69417076930404, 942.71], [-121.79213427007198, 48.69429205544293, 944.15], [-121.79240760393441, 48.69439045898616, 946.56], [-121.7926562950015, 48.69450856000185, 948.96], [-121.7928449716419, 48.69462481699884, 945.11], [-121.79304488003254, 48.694781474769115, 944.15], [-121.79312031716108, 48.694988675415516, 945.11], [-121.79324302822351, 48.69519352912903, 948.48], [-121.7933407612145, 48.69536594487727, 952.8], [-121.79343639872968, 48.695484548807144, 954.25], [-121.79345265962183, 48.695515813305974, 952.32], [-121.79343178868294, 48.69551765732467, 951.36], [-121.79350337013602, 48.69556367397308, 948.96], [-121.79346699267626, 48.69558747857809, 941.27], [-121.79346020333469, 48.695646319538355, 939.35], [-121.79339247755706, 48.695521261543036, 940.31], [-121.79342298768461, 48.69552721269429, 934.54], [-121.79343891330063, 48.69556543417275, 933.58], [-121.79340898990631, 48.695554956793785, 936.94], [-121.79349280893803, 48.695621592924, 935.5], [-121.79347143508494, 48.69562905281782, 935.02], [-121.79353756830096, 48.69589073583484, 936.94], [-121.79354804567993, 48.695962401106954, 937.9], [-121.79361761547625, 48.69615585543215, 936.46], [-121.79373135790229, 48.69626012630761, 936.94], [-121.79389053024352, 48.69640035554767, 935.02], [-121.79401466622949, 48.69656631723046, 932.14], [-121.79408406838775, 48.696648040786386, 929.25], [-121.79434332065284, 48.69677234441042, 929.73], [-121.79459553211927, 48.69680595584214, 931.17], [-121.79499073885381, 48.69676295667887, 934.06], [-121.7951003741473, 48.69675658643246, 935.5], [-121.7953836824745, 48.69672691449523, 938.38], [-121.79544503800571, 48.69671568274498, 938.86], [-121.7957790568471, 48.696665642783046, 940.31], [-121.79588533937931, 48.696688022464514, 940.79], [-121.79611098021269, 48.69680402800441, 940.31], [-121.7963520437479, 48.696936294436455, 942.23], [-121.79657265543938, 48.69704945012927, 943.67], [-121.79683651775122, 48.697156151756644, 944.15], [-121.7970777489245, 48.69714953005314, 944.63], [-121.7971618194133, 48.69713108986616, 944.63], [-121.79749248549342, 48.697092114016414, 945.11], [-121.79780152626336, 48.69712756946683, 946.56], [-121.79809371940792, 48.69718573987484, 947.52], [-121.79835741408169, 48.69725598022342, 948.48], [-121.79860794916749, 48.69734306819737, 948.0], [-121.79890735074878, 48.69744189083576, 946.56], [-121.79896619170904, 48.69747927412391, 946.07], [-121.79924011230469, 48.69760064408183, 945.11], [-121.79949391633272, 48.697709441185, 944.15], [-121.79973104037344, 48.697830978780985, 942.23], [-121.79997495375574, 48.69794053025544, 942.23], [-121.80009598843753, 48.697989732027054, 942.71], [-121.80031291209161, 48.69811604730785, 944.63], [-121.80053327232599, 48.698239931836724, 946.56], [-121.80083275772631, 48.69838485494256, 948.0], [-121.80103895254433, 48.69852541945875, 948.96], [-121.80125260725617, 48.69866397231817, 949.92], [-121.8014686089009, 48.698820881545544, 950.4], [-121.80172308348119, 48.698969995602965, 950.88], [-121.80198778398335, 48.69910737499595, 951.84], [-121.80218760855496, 48.69924592785537, 951.84], [-121.80235541425645, 48.69940057396889, 952.32], [-121.80244258604944, 48.6994672100991, 952.8], [-121.80253042839468, 48.69956259615719, 953.77], [-121.80271080695093, 48.699719589203596, 951.84], [-121.80280024185777, 48.69986493140459, 953.28], [-121.80291591212153, 48.69996861554682, 952.8], [-121.803186731413, 48.70017187669873, 954.25], [-121.80347272194922, 48.700301544740796, 952.8], [-121.80374798364937, 48.700428530573845, 951.36], [-121.80396649986506, 48.70053791441023, 951.84], [-121.8043270893395, 48.700644951313734, 953.77], [-121.80459128692746, 48.70073522441089, 955.69], [-121.80479622446, 48.70077294297516, 955.21], [-121.80498314090073, 48.70082784444094, 953.28], [-121.8051368650049, 48.70089607313275, 954.25], [-121.80522420443594, 48.70094091631472, 956.65], [-121.80524767376482, 48.70100671425462, 959.53], [-121.80526787415147, 48.70103529654443, 960.49], [-121.80533627048135, 48.70103965513408, 964.34], [-121.80530031211674, 48.7010299321264, 960.98], [-121.80528522469103, 48.700976287946105, 960.49], [-121.80530643090606, 48.70099456049502, 962.9], [-121.80530844256282, 48.70104292407632, 963.38], [-121.80526351556182, 48.7010283395648, 960.98], [-121.80523962713778, 48.70104334317148, 960.01], [-121.80528916418552, 48.70110293850303, 960.49], [-121.80535898543894, 48.701215675100684, 960.98], [-121.80542101152241, 48.701347187161446, 961.46], [-121.80549091659486, 48.70144718326628, 962.42], [-121.80560055188835, 48.70156587101519, 963.86], [-121.80583264678717, 48.70176452212036, 971.55], [-121.80596801452339, 48.70188580825925, 972.03], [-121.80605501867831, 48.701994605362415, 973.47], [-121.8063007760793, 48.70231932029128, 977.32], [-121.8063837569207, 48.702437756583095, 978.76], [-121.80645014159381, 48.70255837216973, 977.32], [-121.8065544962883, 48.70270094834268, 974.91], [-121.80671257898211, 48.702818881720304, 974.43], [-121.80701097473502, 48.70300034992397, 980.2], [-121.80708758533001, 48.7030609510839, 983.09], [-121.80717844516039, 48.70323110371828, 985.97], [-121.80717157199979, 48.70338507927954, 989.33], [-121.80715975351632, 48.70355640538037, 991.26], [-121.80717031471431, 48.70366017334163, 993.66], [-121.8072019983083, 48.703759498894215, 994.14], [-121.80725228972733, 48.7038897536695, 997.51], [-121.80731121450663, 48.703997964039445, 996.54], [-121.80732261389494, 48.70415126904845, 993.66], [-121.80739679373801, 48.704371713101864, 988.85], [-121.80750768631697, 48.7044976092875, 990.78], [-121.80760349147022, 48.7046133633703, 987.89], [-121.80781664326787, 48.7047809176147, 985.97], [-121.80805276148021, 48.70499901473522, 991.74], [-121.80815703235567, 48.705114517360926, 994.62], [-121.80826541036367, 48.70524259284139, 994.14], [-121.8083886243403, 48.70535717345774, 994.14], [-121.80868509225547, 48.705526990816, 997.51], [-121.80880193598568, 48.705564541742206, 999.91], [-121.80901257321239, 48.705671075731516, 1005.68], [-121.80919186212122, 48.70577392168343, 1007.12], [-121.8093091249466, 48.705884981900454, 1005.68], [-121.80945488624275, 48.70597969740629, 1004.23], [-121.80958799086511, 48.70607977733016, 1002.31], [-121.80965680629015, 48.706117160618305, 1001.35], [-121.80971581488848, 48.7061623390764, 1001.83], [-121.80985411629081, 48.70625386945903, 1002.79], [-121.80990692228079, 48.70629561133683, 1004.72], [-121.81003348901868, 48.70638261549175, 1008.56], [-121.81012124754488, 48.706416729837656, 1010.0], [-121.81031269021332, 48.70643198490143, 1010.0], [-121.81048393249512, 48.70648814365268, 1011.93], [-121.81067512370646, 48.70653089135885, 1011.93], [-121.81085877120495, 48.70658059604466, 1012.41], [-121.81102481670678, 48.706615129485726, 1011.93], [-121.81122648529708, 48.70663482695818, 1012.41], [-121.81125565432012, 48.706631222739816, 1011.93], [-121.81141172535717, 48.70665184222162, 1011.93], [-121.81157098151743, 48.70666852220893, 1011.93], [-121.81177508085966, 48.70666810311377, 1011.93], [-121.81191145442426, 48.706684447824955, 1012.41], [-121.81205654516816, 48.70672677643597, 1013.85], [-121.81224044412374, 48.70678821578622, 1015.77], [-121.81237991899252, 48.70685929432511, 1016.25], [-121.81269608438015, 48.70699876919389, 1020.58], [-121.81276381015778, 48.707058280706406, 1020.1], [-121.8127847649157, 48.70704595930874, 1020.58], [-121.81269826367497, 48.70697060599923, 1019.62], [-121.81250413879752, 48.70690220966935, 1018.65], [-121.81247002445161, 48.706857450306416, 1019.62], [-121.81242392398417, 48.70675846002996, 1019.62], [-121.81246977299452, 48.70666030794382, 1017.69], [-121.81248745881021, 48.706609178334475, 1017.69], [-121.81261804886162, 48.70650985278189, 1014.33], [-121.8130096513778, 48.706529047340155, 1017.21], [-121.81324342265725, 48.70655410923064, 1016.73], [-121.8133585061878, 48.70653474703431, 1018.65], [-121.81344383396208, 48.706504153087735, 1020.1], [-121.81354123167694, 48.706438690423965, 1020.1], [-121.81360334157944, 48.70634808205068, 1021.54], [-121.813591606915, 48.70626241900027, 1021.54], [-121.81364214979112, 48.70618178509176, 1021.54], [-121.81379050947726, 48.70618488639593, 1020.1], [-121.81393769569695, 48.70615093968809, 1023.46], [-121.8140266276896, 48.70610215701163, 1025.38], [-121.81418831460178, 48.70606544427574, 1025.86], [-121.81428210809827, 48.70598053559661, 1024.42], [-121.81443038396537, 48.70595337823033, 1023.46], [-121.81454722769558, 48.70593820698559, 1024.9], [-121.81465803645551, 48.70590325444937, 1022.5], [-121.81478820741177, 48.70588758029044, 1022.5], [-121.81500110775232, 48.70572170242667, 1021.54], [-121.81501133367419, 48.705735532566905, 1021.06], [-121.8150729406625, 48.70569370687008, 1022.5], [-121.81522071361542, 48.70568641461432, 1024.42], [-121.81528097949922, 48.705699825659394, 1026.83], [-121.81554978713393, 48.70571264997125, 1028.27], [-121.81567325256765, 48.70566411875188, 1030.67], [-121.81582177989185, 48.70561759918928, 1032.59], [-121.81589545682073, 48.70560108684003, 1033.55], [-121.81601967662573, 48.70552372187376, 1034.52], [-121.81608396582305, 48.705493630841374, 1035.0], [-121.81622880510986, 48.70548558421433, 1035.0], [-121.81635847315192, 48.70550167746842, 1034.52], [-121.8164926674217, 48.70549865998328, 1035.0], [-121.8166028894484, 48.70541576296091, 1035.96], [-121.8167152069509, 48.70535432361066, 1037.88], [-121.81698669679463, 48.70528123341501, 1040.28], [-121.81708099320531, 48.7052487116307, 1037.88], [-121.81711628101766, 48.70522079989314, 1035.96], [-121.81723547168076, 48.70518031530082, 1035.96], [-121.8173283431679, 48.70513035915792, 1035.48], [-121.8174456898123, 48.705097837373614, 1037.88], [-121.81759354658425, 48.70511342771351, 1039.32], [-121.81767233647406, 48.70515081100166, 1041.25], [-121.81776755489409, 48.70517713017762, 1042.69], [-121.81785338558257, 48.70515483431518, 1041.25], [-121.81794709526002, 48.70517042465508, 1042.21], [-121.81812772527337, 48.705187272280455, 1043.65], [-121.8182676192373, 48.705209819599986, 1044.61], [-121.81850776076317, 48.70528777129948, 1048.94], [-121.81867824867368, 48.70526530779898, 1047.49], [-121.81879056617618, 48.705274779349566, 1047.49], [-121.81891277432442, 48.70527444407344, 1047.49], [-121.81896767579019, 48.70528282597661, 1047.49], [-121.81900539435446, 48.70526564307511, 1047.01], [-121.81915886700153, 48.70524016208947, 1047.97], [-121.81932927109301, 48.70524125173688, 1048.45], [-121.81940646842122, 48.70526279322803, 1049.42], [-121.81953278370202, 48.705314761027694, 1049.9], [-121.81964158080518, 48.705318784341216, 1050.38], [-121.81984442286193, 48.70529506355524, 1049.9], [-121.8200187664479, 48.705289363861084, 1049.42], [-121.82008238509297, 48.705302188172936, 1048.94], [-121.82015455327928, 48.70533269830048, 1048.45], [-121.82027349248528, 48.705363627523184, 1052.78], [-121.82024532929063, 48.70536823756993, 1047.97], [-121.82033568620682, 48.70540159754455, 1049.42], [-121.82048044167459, 48.70540285483003, 1049.9], [-121.82058823294938, 48.7053938023746, 1050.86], [-121.8207254447043, 48.70540553703904, 1050.86], [-121.8208150472492, 48.70537804439664, 1051.34], [-121.82090632617474, 48.705337811261415, 1051.34], [-121.82101336307824, 48.705271761864424, 1053.26], [-121.82115577161312, 48.70522214099765, 1053.26], [-121.82128795422614, 48.705192133784294, 1053.74], [-121.82135517708957, 48.705172184854746, 1053.26], [-121.82145626284182, 48.705168748274446, 1054.7], [-121.82146925479174, 48.705161456018686, 1054.22], [-121.82169263251126, 48.70521644130349, 1056.15], [-121.82179807685316, 48.705210741609335, 1056.15], [-121.82197929359972, 48.70524217374623, 1055.67], [-121.8221362028271, 48.70526572689414, 1055.18], [-121.82227215729654, 48.70530134998262, 1055.18], [-121.82235429994762, 48.70535817928612, 1055.18], [-121.8224499374628, 48.705396400764585, 1055.67], [-121.8226008117199, 48.705476783216, 1055.67], [-121.82263249531388, 48.70552799664438, 1059.03], [-121.82274137623608, 48.70565649122, 1061.91], [-121.82282854802907, 48.70571365579963, 1061.91], [-121.82300733402371, 48.705714493989944, 1059.99], [-121.82314940728247, 48.70572748593986, 1060.47], [-121.8232874572277, 48.7057460937649, 1060.47], [-121.82343925349414, 48.7058082036674, 1059.99], [-121.82354126125574, 48.70588732883334, 1059.51], [-121.82373823598027, 48.706011632457376, 1060.47], [-121.82387301698327, 48.70615068823099, 1061.43], [-121.8239817302674, 48.70623408816755, 1059.99], [-121.82407191954553, 48.70632360689342, 1060.47], [-121.82419152930379, 48.70640524663031, 1060.95], [-121.82429923675954, 48.70646517723799, 1061.43], [-121.82441851124167, 48.706548158079386, 1060.95], [-121.82452227920294, 48.706612614914775, 1061.91], [-121.82463627308607, 48.706689309328794, 1061.91], [-121.82474959641695, 48.70674689300358, 1063.36], [-121.82485646568239, 48.70682283304632, 1064.8], [-121.8249352555722, 48.706895504146814, 1064.32], [-121.8250940926373, 48.70696222409606, 1064.8], [-121.82520599104464, 48.70702316053212, 1065.28], [-121.82523055002093, 48.707025507465005, 1065.28], [-121.82539927773178, 48.707081750035286, 1068.64], [-121.82549457997084, 48.70711921714246, 1069.12], [-121.82561108842492, 48.707154504954815, 1068.16], [-121.82571276091039, 48.70717369951308, 1066.72], [-121.8258486315608, 48.707169592380524, 1066.72], [-121.82597058825195, 48.70715416967869, 1068.16], [-121.82606706395745, 48.707165569067, 1070.57], [-121.82616068981588, 48.70716246776283, 1070.08], [-121.82629002258182, 48.7071724422276, 1070.57], [-121.82639362290502, 48.70721091516316, 1072.49], [-121.82648004032671, 48.70726162567735, 1072.97], [-121.82653142139316, 48.70726707391441, 1073.45], [-121.82658766396344, 48.707261038944125, 1073.45], [-121.82673342525959, 48.70727780275047, 1072.97], [-121.82686342857778, 48.707307977601886, 1072.49], [-121.82713801972568, 48.707358269020915, 1073.45], [-121.8272995389998, 48.707359191030264, 1075.85], [-121.82737271301448, 48.707377882674336, 1075.37], [-121.8274803366512, 48.707415936514735, 1073.93], [-121.82758326642215, 48.70750453323126, 1073.93], [-121.82765970937908, 48.70759254321456, 1073.45], [-121.82768829166889, 48.70765708386898, 1073.45], [-121.8276571109891, 48.70787635445595, 1078.26], [-121.82760120369494, 48.70793695561588, 1082.1], [-121.82759416289628, 48.70795673690736, 1082.58], [-121.82740758173168, 48.70806561782956, 1084.02], [-121.8273563683033, 48.708124458789825, 1084.5], [-121.82728218846023, 48.70815237052739, 1085.47], [-121.827263077721, 48.70822914876044, 1085.47], [-121.82729526422918, 48.708327719941735, 1084.02], [-121.82732644490898, 48.70838035829365, 1084.5], [-121.82735879905522, 48.70846736244857, 1085.95], [-121.82738151401281, 48.708615973591805, 1086.91], [-121.82745804078877, 48.70878369547427, 1088.83], [-121.82756985537708, 48.70887732133269, 1088.83], [-121.82766775600612, 48.709042528644204, 1086.91], [-121.82774688117206, 48.70916976593435, 1088.35], [-121.82772492058575, 48.70921083725989, 1088.83], [-121.82784955948591, 48.709451062604785, 1091.23], [-121.82785383425653, 48.709474951028824, 1095.56], [-121.82788945734501, 48.70946547947824, 1096.04], [-121.82790119200945, 48.70950118638575, 1095.08], [-121.82801241986454, 48.70960277505219, 1095.08], [-121.82800713926554, 48.7096228916198, 1095.56], [-121.82793312706053, 48.70969329960644, 1097.96], [-121.82795056141913, 48.70974593795836, 1099.4], [-121.8280125875026, 48.70980938896537, 1099.89], [-121.82798551395535, 48.70987409725785, 1101.33], [-121.82796472683549, 48.70990033261478, 1101.33], [-121.82792231440544, 48.71003511361778, 1102.77], [-121.82781326584518, 48.71008850634098, 1104.21], [-121.8277239985764, 48.71015053242445, 1104.21], [-121.82768309488893, 48.710227478295565, 1105.17], [-121.82769902050495, 48.710263185203075, 1104.69], [-121.8276256788522, 48.71035245247185, 1106.13], [-121.82758837938309, 48.71041405946016, 1105.65], [-121.82759877294302, 48.71046015992761, 1104.21], [-121.82768133468926, 48.71050089597702, 1105.17], [-121.82778501883149, 48.710536351427436, 1106.61], [-121.82779918424785, 48.71056200005114, 1107.1], [-121.82777931913733, 48.71061229147017, 1108.54], [-121.82769441045821, 48.7106194999069, 1109.5], [-121.82768653146923, 48.710660403594375, 1109.98], [-121.82774160057306, 48.71072335168719, 1109.98], [-121.8277382478118, 48.71075411327183, 1111.42], [-121.82780572213233, 48.71081513352692, 1110.46], [-121.82783874683082, 48.710868190974, 1111.42], [-121.82791845872998, 48.71085452847183, 1114.79], [-121.8280157726258, 48.710858803242445, 1115.27], [-121.82810101658106, 48.71091051958501, 1111.9], [-121.82810654863715, 48.71094354428351, 1110.94], [-121.82823889888823, 48.71103683486581, 1110.94], [-121.82840787805617, 48.711167173460126, 1113.34], [-121.82845389470458, 48.71123271994293, 1112.86], [-121.82851550169289, 48.71124562807381, 1112.38], [-121.82860527187586, 48.71129063889384, 1112.86], [-121.82863871566951, 48.71145383454859, 1116.71], [-121.82862983085215, 48.71149876154959, 1117.67], [-121.82854978367686, 48.711573695763946, 1121.03], [-121.82857534848154, 48.71160563081503, 1122.96], [-121.82857451029122, 48.71166195720434, 1123.92], [-121.8286344408989, 48.71169364079833, 1124.88], [-121.82867995463312, 48.71178776957095, 1125.84], [-121.82873703539371, 48.71181291528046, 1125.84], [-121.8287398852408, 48.71183127164841, 1126.32], [-121.82883778586984, 48.7119871750474, 1127.28], [-121.82889360934496, 48.71198097243905, 1127.76], [-121.82892319746315, 48.71203386224806, 1127.28], [-121.8289087805897, 48.71206562966108, 1129.21], [-121.82892981916666, 48.71208985336125, 1128.24], [-121.82900793850422, 48.71213343925774, 1130.17], [-121.82903794571757, 48.71218582615256, 1131.13], [-121.82911179028451, 48.71219747699797, 1129.69], [-121.82919410057366, 48.71217543259263, 1127.76], [-121.82933516800404, 48.71218021027744, 1134.97], [-121.82934178970754, 48.712158501148224, 1134.97], [-121.82928797788918, 48.71215992607176, 1137.38], [-121.829271633178, 48.71221591718495, 1132.09], [-121.82931865565479, 48.71227953583002, 1133.05], [-121.82934178970754, 48.7123738322407, 1134.49], [-121.82943834923208, 48.71250165626407, 1130.65], [-121.82946416549385, 48.712557731196284, 1133.53], [-121.82952024042606, 48.71256468817592, 1134.01], [-121.82960900478065, 48.71259452775121, 1133.05], [-121.8296614754945, 48.712603244930506, 1134.97], [-121.82969684712589, 48.712636269629, 1136.9], [-121.82978980243206, 48.71269536204636, 1138.34], [-121.82986767031252, 48.712720507755876, 1140.26], [-121.82992936111987, 48.712721429765224, 1140.26], [-121.82993112131953, 48.71275135315955, 1136.42], [-121.83000488206744, 48.71271824464202, 1134.01], [-121.83001686818898, 48.71272855438292, 1134.01], [-121.83014209382236, 48.712699888274074, 1135.94], [-121.83016011491418, 48.7127401214093, 1135.94], [-121.83025684207678, 48.712737606838346, 1135.45], [-121.8303092289716, 48.712744899094105, 1138.34], [-121.83033957146108, 48.71281321160495, 1141.22], [-121.8303885217756, 48.71285076253116, 1142.66], [-121.83043101802468, 48.71293374337256, 1142.18], [-121.83047770522535, 48.71296064928174, 1143.63], [-121.83053151704371, 48.713054191321135, 1147.95], [-121.83056680485606, 48.71305142529309, 1148.91], [-121.83044367469847, 48.7131318077445, 1151.32], [-121.83041660115123, 48.71321571059525, 1155.64], [-121.83042087592185, 48.71329735033214, 1160.93], [-121.83046446181834, 48.71334822848439, 1162.85], [-121.83059924282134, 48.71340128593147, 1163.33], [-121.83066411875188, 48.713382091373205, 1162.85], [-121.8307096324861, 48.71340723708272, 1158.53], [-121.83073855005205, 48.713329788297415, 1161.89], [-121.83075883425772, 48.71330447494984, 1165.74], [-121.83103334158659, 48.71326021850109, 1168.14], [-121.83110802434385, 48.71310188435018, 1168.14], [-121.83110031299293, 48.71294212527573, 1159.97], [-121.83111330494285, 48.71284246444702, 1160.45], [-121.83105723001063, 48.71278513222933, 1155.16], [-121.83096578344703, 48.712734589353204, 1159.97], [-121.83112042956054, 48.712712125852704, 1156.6], [-121.83125630021095, 48.71269636787474, 1154.68], [-121.83131262660027, 48.71259419247508, 1152.28], [-121.83141002431512, 48.712527472525835, 1149.39], [-121.83148018084466, 48.71251783333719, 1146.51], [-121.83162200264633, 48.71243988163769, 1136.42], [-121.83175326325, 48.71243719942868, 1127.28], [-121.83199306949973, 48.71245547197759, 1117.19], [-121.83223212137818, 48.7123426515609, 1113.82], [-121.83235047385097, 48.71223226189613, 1120.55], [-121.83243772946298, 48.712264113128185, 1122.0], [-121.83254158124328, 48.71221197769046, 1124.88], [-121.83259438723326, 48.71217099018395, 1123.44], [-121.83263805694878, 48.712124386802316, 1121.03], [-121.83264157734811, 48.712137965485454, 1119.11], [-121.83274073526263, 48.712142491713166, 1119.11], [-121.8327805493027, 48.71215883642435, 1119.59], [-121.83281952515244, 48.71212933212519, 1116.71], [-121.83284559287131, 48.71216076426208, 1116.71], [-121.8328735884279, 48.71212715283036, 1116.71], [-121.83281826786697, 48.712138468399644, 1119.11], [-121.83291558176279, 48.71218264102936, 1118.63], [-121.83292848989367, 48.71221256442368, 1117.67], [-121.83308699168265, 48.71229135431349, 1117.67], [-121.83316628448665, 48.71230778284371, 1119.59], [-121.83325270190835, 48.71229470707476, 1122.0], [-121.83332403190434, 48.712314907461405, 1121.52], [-121.83334892615676, 48.71233829297125, 1123.44], [-121.83344188146293, 48.712362265214324, 1125.84], [-121.83353500440717, 48.7123722396791, 1124.88], [-121.83355696499348, 48.71238313615322, 1125.84], [-121.8336315639317, 48.71237869374454, 1126.8], [-121.83368369936943, 48.71239621192217, 1130.17], [-121.83369778096676, 48.712381375953555, 1131.61], [-121.83360868133605, 48.712339801713824, 1131.61], [-121.83355704881251, 48.712345249950886, 1131.13], [-121.83353265747428, 48.712277356535196, 1128.73], [-121.83341598138213, 48.712265035137534, 1126.8], [-121.83333224616945, 48.71221113950014, 1125.36], [-121.83314868248999, 48.71219487860799, 1121.52], [-121.83310367166996, 48.71222631074488, 1118.63], [-121.8330427352339, 48.712210385128856, 1118.63], [-121.83297811076045, 48.71211206540465, 1117.19], [-121.83295195922256, 48.71213058941066, 1114.79], [-121.8328511249274, 48.71208608150482, 1115.75], [-121.83283846825361, 48.71206554584205, 1114.79], [-121.83279228396714, 48.71209873817861, 1112.86], [-121.83269958011806, 48.712121956050396, 1110.46], [-121.83272774331272, 48.71210619807243, 1112.38], [-121.83269421570003, 48.712079878896475, 1124.88], [-121.8325849995017, 48.712131679058075, 1122.48], [-121.83249933645129, 48.71215573512018, 1121.03], [-121.8324282579124, 48.71215992607176, 1120.55], [-121.83230135589838, 48.71218071319163, 1123.44], [-121.83226196095347, 48.71210787445307, 1122.96], [-121.83186256326735, 48.71230577118695, 1125.36], [-121.83192165568471, 48.712351117283106, 1123.92], [-121.83191620744765, 48.7123117223382, 1120.55], [-121.83166257105768, 48.71236704289913, 1120.55], [-121.83158973231912, 48.71239587664604, 1120.55], [-121.83145897462964, 48.71248514391482, 1120.07], [-121.83121506124735, 48.71245387941599, 1122.48], [-121.83116275817156, 48.712411215528846, 1120.55], [-121.83114708401263, 48.71244206093252, 1122.48], [-121.83114523999393, 48.71240392327309, 1133.53], [-121.83111229911447, 48.712368719279766, 1138.82], [-121.83096100576222, 48.71231080032885, 1142.66], [-121.83094684034586, 48.71231080032885, 1142.66], [-121.8307910207659, 48.71226226910949, 1143.14], [-121.83066168799996, 48.712290013208985, 1139.78], [-121.83053168468177, 48.71228297241032, 1136.42], [-121.83042531833053, 48.712233770638704, 1134.97], [-121.83040344156325, 48.71219353750348, 1132.09], [-121.83033253066242, 48.71214265935123, 1127.76], [-121.83035474270582, 48.71211927384138, 1125.84], [-121.83024301193655, 48.71214265935123, 1127.76], [-121.8301400821656, 48.712170319631696, 1127.76], [-121.83004628866911, 48.71217970736325, 1127.28], [-121.82994956150651, 48.71215992607176, 1127.76], [-121.82988367974758, 48.71216185390949, 1126.32], [-121.82979793287814, 48.71215338818729, 1125.36], [-121.82963524013758, 48.71211960911751, 1125.36], [-121.8296165484935, 48.712120950222015, 1124.88], [-121.8294320628047, 48.71207023970783, 1125.84], [-121.82935008779168, 48.71207728050649, 1125.36], [-121.82921597734094, 48.712032437324524, 1125.36], [-121.82914892211556, 48.712035370990634, 1130.65], [-121.82907843030989, 48.71192414313555, 1130.17], [-121.82895253412426, 48.71192414313555, 1128.24], [-121.8289603292942, 48.71189790777862, 1125.36], [-121.82879126630723, 48.71189556084573, 1123.44], [-121.82878850027919, 48.711953395977616, 1122.0], [-121.82881456799805, 48.7119454331696, 1114.79], [-121.82878506369889, 48.71198818087578, 1122.0], [-121.8288152385503, 48.71200880035758, 1122.48], [-121.82881808839738, 48.71208951808512, 1124.4], [-121.8287258874625, 48.71198206208646, 1129.69], [-121.82876947335899, 48.71201852336526, 1132.57], [-121.82880911976099, 48.711981642991304, 1134.01], [-121.82877190411091, 48.71186563745141, 1135.45], [-121.82868313975632, 48.711829176172614, 1134.01], [-121.82867140509188, 48.711733957752585, 1132.57], [-121.82862035930157, 48.71163287200034, 1132.57], [-121.82863812893629, 48.711543353274465, 1133.53], [-121.82867090217769, 48.71151720173657, 1131.13], [-121.82863636873662, 48.71137395501137, 1121.52], [-121.8286376260221, 48.71132802218199, 1117.67], [-121.82855430990458, 48.71120656840503, 1115.27], [-121.82844995521009, 48.71115820482373, 1111.9], [-121.82835624553263, 48.71103792451322, 1109.5], [-121.82826932519674, 48.71094102971256, 1109.98], [-121.82823554612696, 48.71085276827216, 1114.31], [-121.8281661439687, 48.710774313658476, 1109.02], [-121.8280971609056, 48.710732236504555, 1106.13], [-121.82802993804216, 48.710762076079845, 1106.13], [-121.82797537185252, 48.71074313297868, 1104.21], [-121.82788174599409, 48.710763081908226, 1102.77], [-121.82780287228525, 48.7107609026134, 1102.77], [-121.82776498608291, 48.71071195229888, 1102.29], [-121.82780463248491, 48.710636431351304, 1101.33], [-121.82781561277807, 48.710564095526934, 1101.81], [-121.82765233330429, 48.710484467446804, 1103.73], [-121.82772441767156, 48.71036469005048, 1102.29], [-121.82772223837674, 48.71031867340207, 1101.33], [-121.82768451981246, 48.71021985076368, 1102.77], [-121.82776951231062, 48.71014231815934, 1102.29], [-121.82798434048891, 48.71002941392362, 1101.81], [-121.82795953005552, 48.70997895486653, 1099.89], [-121.8280503898859, 48.70988851413131, 1097.96], [-121.82805717922747, 48.70979773811996, 1096.04], [-121.82800303213298, 48.70972934179008, 1094.12], [-121.8280334584415, 48.70959171094, 1092.2], [-121.82794980704784, 48.70950252749026, 1092.2], [-121.8279488850385, 48.7094814889133, 1092.2], [-121.82789876125753, 48.709414433687925, 1092.2], [-121.8277813307941, 48.70934226550162, 1093.64], [-121.82778962887824, 48.70929733850062, 1093.16], [-121.82774889282882, 48.70919885113835, 1094.12], [-121.82774017564952, 48.70914545841515, 1095.56], [-121.82770765386522, 48.70905686169863, 1092.68], [-121.82768770493567, 48.70896801352501, 1090.27], [-121.8276949133724, 48.7088802549988, 1088.35], [-121.82771377265453, 48.708849493414164, 1084.02], [-121.82760061696172, 48.70882434770465, 1083.06], [-121.82754160836339, 48.7087438814342, 1082.1], [-121.82752283290029, 48.70860155671835, 1083.54], [-121.82746994309127, 48.70853768661618, 1081.62], [-121.82743364945054, 48.70836862362921, 1080.18], [-121.82737413793802, 48.70832545682788, 1082.1], [-121.82732183486223, 48.70827164500952, 1078.26], [-121.82741613127291, 48.708086321130395, 1079.7], [-121.82744999416173, 48.70803577825427, 1081.62], [-121.82758427225053, 48.70800753124058, 1079.7], [-121.82764797471464, 48.70795556344092, 1073.45], [-121.82777982205153, 48.7078320980072, 1071.05], [-121.82776129804552, 48.707698406651616, 1070.08], [-121.8277036305517, 48.7076129950583, 1069.12], [-121.82765786536038, 48.70751081965864, 1068.64], [-121.82757865637541, 48.70741358958185, 1072.97], [-121.82748109102249, 48.707337230443954, 1074.41], [-121.82717783376575, 48.70733102783561, 1072.97], [-121.82694288901985, 48.707292303442955, 1073.45], [-121.82687357068062, 48.70725827291608, 1077.29], [-121.82668791152537, 48.7072379887104, 1076.81], [-121.82653175666928, 48.707227762788534, 1074.89], [-121.82634794153273, 48.70716020464897, 1074.89], [-121.82613990269601, 48.70713028125465, 1075.37], [-121.82599766179919, 48.70714578777552, 1074.41], [-121.82582382112741, 48.70715718716383, 1073.93], [-121.82566816918552, 48.70711326599121, 1074.41], [-121.82551679201424, 48.70704235509038, 1076.81], [-121.82535795494914, 48.7069877050817, 1076.81], [-121.82530355639756, 48.70695627294481, 1078.74], [-121.82503206655383, 48.70685267262161, 1078.74], [-121.82490860112011, 48.70676281861961, 1080.18], [-121.82474926114082, 48.706700541079044, 1075.85], [-121.8245002347976, 48.70654597878456, 1071.05], [-121.82432404719293, 48.7064506765455, 1067.68], [-121.82416621595621, 48.706348920241, 1063.84], [-121.8240353744477, 48.70623467490077, 1062.87], [-121.82392850518227, 48.70613409206271, 1061.43], [-121.82388215325773, 48.70605521835387, 1060.47], [-121.82361837476492, 48.70590694248676, 1058.07], [-121.82353070005774, 48.70581331662834, 1059.03], [-121.8232514988631, 48.70571273379028, 1059.03], [-121.82313792407513, 48.705677362158895, 1059.51], [-121.82308830320835, 48.70561064220965, 1059.99], [-121.82310691103339, 48.7055476102978, 1059.99], [-121.82307162322104, 48.70549480430782, 1056.15], [-121.82301068678498, 48.70547133497894, 1056.63], [-121.82293491438031, 48.70548256672919, 1058.55], [-121.82283475063741, 48.70545691810548, 1056.63], [-121.82274238206446, 48.70539187453687, 1055.18], [-121.82272100821137, 48.70526421815157, 1055.67], [-121.82255127467215, 48.705228846520185, 1057.11], [-121.82242185808718, 48.7052090652287, 1058.55], [-121.82224223390222, 48.70517587289214, 1059.03], [-121.82205565273762, 48.70520705357194, 1058.07], [-121.82191626168787, 48.705149721354246, 1058.07], [-121.82173144072294, 48.70514108799398, 1059.51], [-121.82168684899807, 48.70515969581902, 1063.36], [-121.8216076400131, 48.7051694188267, 1059.99], [-121.82140404358506, 48.70514955371618, 1056.63], [-121.82126741856337, 48.70517905801535, 1053.26], [-121.82103565894067, 48.70521040633321, 1049.42], [-121.82088998146355, 48.705313839018345, 1048.94], [-121.8207508418709, 48.7053541559726, 1047.49], [-121.82059736922383, 48.705376368016005, 1047.01], [-121.82039226405323, 48.70537184178829, 1045.57], [-121.82022454217076, 48.70532238855958, 1048.94], [-121.8198617734015, 48.705267403274775, 1049.42], [-121.81969287805259, 48.70526220649481, 1047.97], [-121.81950202211738, 48.7052365578711, 1047.97], [-121.81934687308967, 48.70519489981234, 1047.97], [-121.8191482219845, 48.70520026423037, 1046.05], [-121.81881269440055, 48.70525734499097, 1043.17], [-121.81856366805732, 48.705237144604325, 1043.65], [-121.81839284487069, 48.705218536779284, 1045.09], [-121.81822009384632, 48.705170257017016, 1048.45], [-121.81801951490343, 48.70519917458296, 1047.01], [-121.81788858957589, 48.70518014766276, 1046.05], [-121.81771592237055, 48.70521426200867, 1043.65], [-121.81763763539493, 48.70515936054289, 1043.65], [-121.81743286550045, 48.70510186068714, 1042.69], [-121.81721040979028, 48.7051419261843, 1038.84], [-121.81709934957325, 48.70521484874189, 1038.36], [-121.81692483834922, 48.70521107688546, 1037.4], [-121.81680941954255, 48.705295315012336, 1038.84], [-121.81671001017094, 48.705333368852735, 1036.92], [-121.81657413952053, 48.705357844009995, 1036.92], [-121.81639024056494, 48.70540687814355, 1034.04], [-121.81620416231453, 48.70546940714121, 1030.67], [-121.81604172103107, 48.705486757680774, 1030.67], [-121.81582815013826, 48.70547384954989, 1032.11], [-121.81581038050354, 48.70547879487276, 1032.59], [-121.81565808132291, 48.705626567825675, 1030.67], [-121.81545532308519, 48.705681301653385, 1028.27], [-121.8153028562665, 48.70570887811482, 1027.79], [-121.81512742303312, 48.705717427656054, 1029.71], [-121.81490655988455, 48.70581935159862, 1027.31], [-121.81470732204616, 48.70589663274586, 1022.98], [-121.81460841558874, 48.70590979233384, 1022.02], [-121.81428093463182, 48.70589789003134, 1018.65], [-121.81413441896439, 48.7059929408133, 1015.77], [-121.81395286694169, 48.70606997050345, 1013.37], [-121.81367794051766, 48.706118669360876, 1015.77], [-121.81357149034739, 48.70619016699493, 1015.29], [-121.81352438405156, 48.70646425522864, 1017.69], [-121.81335582397878, 48.706506583839655, 1016.25], [-121.81311903521419, 48.70649225078523, 1013.37], [-121.81295483373106, 48.70650105178356, 1012.41], [-121.81268778629601, 48.70649074204266, 1010.96], [-121.81232141330838, 48.7065561208874, 1010.96], [-121.81244211271405, 48.706802632659674, 1014.33], [-121.81246197782457, 48.706875471398234, 1019.62], [-121.81239509023726, 48.70684311725199, 1021.06], [-121.81240749545395, 48.706874968484044, 1017.21], [-121.81248905137181, 48.70702525600791, 1014.81], [-121.81258921511471, 48.7073936406523, 1010.96], [-121.81253272108734, 48.70708007365465, 1007.6], [-121.81248435750604, 48.70692006312311, 1007.12], [-121.81243440136313, 48.706849571317434, 1007.12], [-121.8123220000416, 48.70681805536151, 1013.85], [-121.8121824413538, 48.70675762183964, 1015.29], [-121.81196887046099, 48.70667237788439, 1017.21], [-121.81173568591475, 48.706687800586224, 1010.0], [-121.8115154094994, 48.70669199153781, 1006.64], [-121.81126923300326, 48.70665921829641, 1004.72], [-121.81109296157956, 48.70665636844933, 1005.2], [-121.81092440150678, 48.706625774502754, 1005.68], [-121.81069155223668, 48.70652887970209, 1007.12], [-121.81042743846774, 48.70643299072981, 1008.56], [-121.81017782539129, 48.70641656219959, 1008.56], [-121.8099531903863, 48.70628245174885, 1010.0], [-121.80992536246777, 48.70615689083934, 1013.37], [-121.80974448099732, 48.706009704619646, 1017.21], [-121.80952512659132, 48.70591054670513, 1016.73], [-121.80925455875695, 48.70574056170881, 1014.33], [-121.8090580869466, 48.70561449788511, 1012.41], [-121.80879849940538, 48.70548315346241, 1008.56], [-121.80853622965515, 48.705380810424685, 1005.68], [-121.80835677310824, 48.70529497973621, 1005.2], [-121.80822308175266, 48.705077385529876, 1004.23], [-121.80808612145483, 48.70486683212221, 1004.72], [-121.80795251391828, 48.704713275656104, 1005.2], [-121.8076047487557, 48.7043821066618, 999.91], [-121.80746795609593, 48.704168535768986, 999.91], [-121.80739947594702, 48.70391028933227, 1000.87], [-121.80735999718308, 48.70363309979439, 1002.79], [-121.80727156810462, 48.703412152826786, 995.1], [-121.80732429027557, 48.70323646813631, 991.74], [-121.80719294585288, 48.70305307209492, 988.37], [-121.80694593116641, 48.70289381593466, 981.64], [-121.80688474327326, 48.70286984369159, 980.68], [-121.80669338442385, 48.70270715095103, 978.76], [-121.80654871277511, 48.70254931971431, 977.8], [-121.80647729896009, 48.7023751437664, 977.8], [-121.80632810108364, 48.70222938247025, 976.36], [-121.80615325458348, 48.70203190483153, 973.47], [-121.80602082051337, 48.70183032006025, 972.03], [-121.80583004839718, 48.70166444219649, 968.67], [-121.80561144836247, 48.70145749300718, 967.7], [-121.80552209727466, 48.701248448342085, 965.78], [-121.80534674786031, 48.701140908524394, 968.18], [-121.80529084056616, 48.70104845613241, 965.3], [-121.80513141676784, 48.70090822689235, 963.86], [-121.8048900179565, 48.7008039560169, 961.46], [-121.80470628663898, 48.70071234181523, 959.05], [-121.80443613789976, 48.70065023191273, 958.09], [-121.8042005226016, 48.70056331157684, 957.61], [-121.80400287732482, 48.70046876370907, 955.69], [-121.80396046489477, 48.700550654903054, 955.21], [-121.80393448099494, 48.700511595234275, 961.94], [-121.8039092514664, 48.700573118403554, 960.49], [-121.80389952845871, 48.70048041455448, 967.7], [-121.80403028614819, 48.70038234628737, 965.78], [-121.80389215238392, 48.70027824304998, 961.46], [-121.80377220734954, 48.70028276927769, 954.25], [-121.8036603089422, 48.70023784227669, 953.77], [-121.80352854542434, 48.70011856779456, 957.13], [-121.80338764563203, 48.700036173686385, 959.53], [-121.80315823294222, 48.69980533607304, 965.78], [-121.80295371450484, 48.69967818260193, 968.67], [-121.80273989215493, 48.69944457896054, 968.18], [-121.80234896019101, 48.699222626164556, 961.46], [-121.8021456990391, 48.699040822684765, 956.17], [-121.80195316672325, 48.698925152421, 951.84], [-121.80173532105982, 48.69879934005439, 950.88], [-121.80166784673929, 48.69878031313419, 950.4], [-121.80143482983112, 48.69867914356291, 951.84], [-121.80125579237938, 48.698537489399314, 950.4], [-121.8010806106031, 48.69842106476426, 948.96], [-121.8008903414011, 48.69832961820066, 947.52], [-121.80068540386856, 48.698197519406676, 946.56], [-121.80034526623785, 48.69799358770251, 942.71], [-121.80010361596942, 48.69791521690786, 942.23], [-121.79990169592202, 48.69778856635094, 942.71], [-121.79968527518213, 48.69767876341939, 942.23], [-121.7994621489197, 48.69756879284978, 941.27], [-121.7991894017905, 48.697444908320904, 943.19], [-121.79900349117815, 48.697344241663814, 941.27], [-121.79878832772374, 48.69728556834161, 939.83], [-121.79843335412443, 48.697145422920585, 940.79], [-121.79816672578454, 48.697109716013074, 945.11], [-121.79762684740126, 48.69705531746149, 944.15], [-121.79730380885303, 48.69706814177334, 940.79], [-121.79697138257325, 48.69712262414396, 940.31], [-121.79667759686708, 48.697061352431774, 939.35], [-121.79659637622535, 48.69702489115298, 938.86], [-121.79643804207444, 48.69688876904547, 938.86], [-121.7961445916444, 48.69667234830558, 937.42], [-121.79590268991888, 48.69661543518305, 935.98], [-121.79565969854593, 48.69663303717971, 935.98], [-121.79533255286515, 48.69670771993697, 936.46], [-121.79504790343344, 48.69670696556568, 936.94], [-121.7946703825146, 48.69669917039573, 935.02], [-121.79451380856335, 48.69670310989022, 933.1], [-121.79437617771327, 48.69669992476702, 930.69], [-121.79417283274233, 48.696571765467525, 933.1], [-121.79404224269092, 48.69634184986353, 940.79], [-121.79382967762649, 48.696152502670884, 947.04], [-121.79378827102482, 48.69610816240311, 948.96], [-121.79367327131331, 48.696105647832155, 950.88], [-121.79355659522116, 48.69600808247924, 951.84], [-121.79352625273168, 48.69576576165855, 950.4], [-121.79354653693736, 48.695619497448206, 949.92], [-121.7934908811003, 48.69538765400648, 946.56], [-121.79333304986358, 48.69514072313905, 948.0], [-121.79322483949363, 48.694828916341066, 943.19], [-121.79301663301885, 48.69463085196912, 937.9], [-121.79288730025291, 48.69454778730869, 935.02], [-121.79286098107696, 48.694524904713035, 934.06], [-121.79277967661619, 48.694486767053604, 932.14], [-121.7926013097167, 48.69437478482723, 925.41], [-121.7924112919718, 48.69422600604594, 920.12], [-121.79215019568801, 48.694066163152456, 913.87], [-121.79186831228435, 48.69400472380221, 911.47], [-121.79159129038453, 48.69396951980889, 909.54], [-121.79132256656885, 48.69392660446465, 905.22], [-121.79101436398923, 48.69382778182626, 910.99], [-121.79099508561194, 48.69385963305831, 924.93], [-121.79091461934149, 48.69382778182626, 928.77]]}}