{"type": "Feature", "properties": {}, "geometry": {"type": "LineString", "coordinates": [[-121.15043705329299, 47.70923025906086, 707.19], [-121.15034929476678, 47.709194887429476, 709.11], [-121.15030897781253, 47.70914484746754, 712.47], [-121.15022608079016, 47.709097573533654, 715.84], [-121.15008710883558, 47.70906857214868, 719.2], [-121.14990304224193, 47.70900537259877, 727.37], [-121.1496315523982, 47.709033535793424, 732.66], [-121.14953868091106, 47.70902758464217, 737.47], [-121.14945704117417, 47.70905273035169, 740.35], [-121.14935897290707, 47.70904560573399, 740.83], [-121.1491811927408, 47.70900252275169, 746.6], [-121.14912034012377, 47.70900252275169, 752.37], [-121.14897499792278, 47.70894703455269, 757.66], [-121.14885999821126, 47.708941251039505, 756.69], [-121.14879512228072, 47.708991039544344, 752.85], [-121.14875631406903, 47.70904459990561, 753.81], [-121.14869680255651, 47.70905843004584, 757.66], [-121.14853729493916, 47.70899129100144, 761.98], [-121.14847987890244, 47.70906278863549, 761.02], [-121.14841030910611, 47.70906211808324, 761.02], [-121.14831986837089, 47.70902222022414, 765.35], [-121.14818835631013, 47.7090691588819, 765.35], [-121.14813873544335, 47.70907477475703, 768.23], [-121.14813513122499, 47.70904317498207, 769.67], [-121.14803547039628, 47.70899045281112, 773.52], [-121.14798140712082, 47.70898676477373, 773.52], [-121.14783455617726, 47.70904183387756, 775.44], [-121.14782374352217, 47.70899967290461, 774.96], [-121.14762953482568, 47.708948627114296, 779.29], [-121.14741110242903, 47.70902557298541, 784.09], [-121.14729610271752, 47.70899925380945, 787.46], [-121.14719635806978, 47.70903957076371, 787.94], [-121.14709242247045, 47.70904912613332, 787.94], [-121.1468967050314, 47.70909262821078, 789.38], [-121.14676946774125, 47.70914124324918, 791.3], [-121.14653837867081, 47.709180722013116, 793.22], [-121.1462663859129, 47.709331177175045, 794.19], [-121.14607997238636, 47.70940225571394, 797.07], [-121.14605004899204, 47.709367889910936, 795.63], [-121.14591761492193, 47.709266133606434, 798.99], [-121.1457843426615, 47.709220787510276, 800.92], [-121.14551519975066, 47.70924643613398, 802.84], [-121.14536658860743, 47.709304271265864, 809.09], [-121.14524513483047, 47.70937887020409, 813.41], [-121.14496945403516, 47.70961876027286, 816.78], [-121.14478806965053, 47.70971758291125, 820.14], [-121.14470743574202, 47.709744991734624, 823.03], [-121.14463157951832, 47.709711799398065, 822.55], [-121.1445493530482, 47.709599900990725, 824.95], [-121.1444737482816, 47.70954734645784, 827.35], [-121.1443233769387, 47.709543239325285, 829.76], [-121.14418951794505, 47.70962454378605, 832.16], [-121.14398525096476, 47.709699142724276, 840.33], [-121.14379439502954, 47.70974004641175, 844.66], [-121.14363907836378, 47.70979888737202, 850.42], [-121.14338829182088, 47.709831995889544, 845.62], [-121.14340069703758, 47.70980165340006, 848.98], [-121.14325745031238, 47.70974859595299, 855.23], [-121.14308226853609, 47.709796288982034, 861.0], [-121.14292468875647, 47.70981120876968, 866.29], [-121.1427918355912, 47.70984498783946, 869.17], [-121.14248111844063, 47.70997256040573, 870.61], [-121.1422128137201, 47.71000759676099, 871.57], [-121.14196068607271, 47.71010591648519, 874.46], [-121.1416913755238, 47.71017707884312, 877.82], [-121.14155097864568, 47.71019618958235, 880.71], [-121.14134310744703, 47.71024513989687, 887.91], [-121.14106306806207, 47.710285456851125, 892.24], [-121.14077942445874, 47.710345052182674, 897.53], [-121.14050407893956, 47.71046080626547, 902.82], [-121.14020082168281, 47.71056482568383, 904.26], [-121.14004818722606, 47.71059659309685, 903.3], [-121.13973663188517, 47.71068871021271, 907.62], [-121.13937151618302, 47.710806811228395, 917.72], [-121.13921410404146, 47.7108306158334, 921.08], [-121.13905400969088, 47.71083941683173, 923.96], [-121.13864078186452, 47.710937736555934, 927.33], [-121.13835244439542, 47.71100043319166, 930.69], [-121.13795589655638, 47.711105374619365, 929.73], [-121.13780116662383, 47.71112658083439, 931.65], [-121.1375074647367, 47.71118718199432, 932.14], [-121.13731476478279, 47.711207550019026, 933.58], [-121.13710253499448, 47.71121702156961, 935.5], [-121.1369809973985, 47.71123160608113, 937.9], [-121.13686591386795, 47.71126789972186, 940.31], [-121.13660708069801, 47.711312072351575, 944.15], [-121.13649291917682, 47.71134987473488, 944.63], [-121.13648604601622, 47.711333110928535, 946.07], [-121.13661864772439, 47.71120822057128, 953.28], [-121.1366644129157, 47.711216770112514, 955.69], [-121.13681017421186, 47.71117829717696, 963.86], [-121.13703547976911, 47.7110829949379, 977.8], [-121.13714955747128, 47.710942178964615, 978.28], [-121.13722566515207, 47.7109447773546, 983.57], [-121.13740931265056, 47.71082608960569, 991.74], [-121.1375970672816, 47.7106271032244, 996.54], [-121.1376538965851, 47.71054211072624, 998.47], [-121.13772673532367, 47.71047790534794, 1000.39], [-121.13777602091432, 47.71046935580671, 1001.83], [-121.13794223405421, 47.71035904996097, 1004.23], [-121.13816586323082, 47.710143299773335, 1014.33], [-121.13830600865185, 47.71003324538469, 1016.73], [-121.13839108496904, 47.710019163787365, 1020.58], [-121.13852159120142, 47.70989720709622, 1019.13], [-121.13863726146519, 47.70984834060073, 1019.13], [-121.13871848210692, 47.70979528315365, 1018.65], [-121.13880607299507, 47.7097808662802, 1021.54], [-121.1389200668782, 47.7096149045974, 1025.38], [-121.13897731527686, 47.70951482467353, 1030.19], [-121.13904227502644, 47.709452379494905, 1037.4], [-121.13901486620307, 47.7093923650682, 1041.73], [-121.13903389312327, 47.70931717939675, 1041.25], [-121.139136236161, 47.709184158593416, 1039.8], [-121.13919960334897, 47.709229001775384, 1040.76], [-121.13925970159471, 47.70908567123115, 1044.13], [-121.13937704823911, 47.70897176116705, 1050.38], [-121.13942465744913, 47.70888274535537, 1052.3], [-121.13949045538902, 47.70881158299744, 1053.26], [-121.13952825777233, 47.708793645724654, 1055.67], [-121.13957393914461, 47.708685183897614, 1059.51], [-121.13960134796798, 47.70866548642516, 1064.32], [-121.13959497772157, 47.70854218862951, 1077.29], [-121.13955005072057, 47.70842391997576, 1074.41], [-121.13957846537232, 47.70835652947426, 1074.41], [-121.13952884450555, 47.708286456763744, 1074.41], [-121.13943563774228, 47.70828880369663, 1072.49], [-121.13928208127618, 47.70831612870097, 1075.37], [-121.13915082067251, 47.708406737074256, 1076.81], [-121.13897144794464, 47.708501955494285, 1082.58], [-121.1386296339333, 47.708573788404465, 1085.47], [-121.13851312547922, 47.70855777896941, 1087.39], [-121.13829695619643, 47.70859667100012, 1092.68], [-121.13809721544385, 47.708658864721656, 1089.31], [-121.13810274749994, 47.7087239921093, 1097.48], [-121.13797903060913, 47.708769254386425, 1089.79], [-121.13790225237608, 47.708830358460546, 1085.47], [-121.13791893236339, 47.70892012864351, 1078.74], [-121.1378978099674, 47.708925157785416, 1019.13], [-121.13790376111865, 47.70881636068225, 976.36], [-121.13780217245221, 47.70858149975538, 1004.23], [-121.13771868869662, 47.70858041010797, 1009.04], [-121.13789135590196, 47.708680322393775, 1029.71], [-121.13803887739778, 47.708790712058544, 1074.89], [-121.13804960623384, 47.708766823634505, 1075.85], [-121.1381549667567, 47.708756513893604, 1079.7], [-121.13822814077139, 47.70872751250863, 1081.62], [-121.13833685405552, 47.70870789885521, 1085.95], [-121.13848496228456, 47.708720890805125, 1094.12], [-121.13857733085752, 47.70867135375738, 1095.08], [-121.13877908326685, 47.708628019317985, 1097.48], [-121.13886575214565, 47.708634892478585, 1098.44], [-121.13907898776233, 47.70850455388427, 1097.0], [-121.13923849537969, 47.70844403654337, 1094.6], [-121.1393569316715, 47.708413107320666, 1092.68], [-121.13940965384245, 47.708383770659566, 1093.16], [-121.13943731412292, 47.708455016836524, 1090.75], [-121.13944561220706, 47.708550905808806, 1083.06], [-121.13950847648084, 47.708588959649205, 1079.22], [-121.13928602077067, 47.70882507786155, 1071.53], [-121.13914537243545, 47.708990620449185, 1072.01], [-121.13901201635599, 47.709083911031485, 1065.76], [-121.13896767608821, 47.709189523011446, 1061.43], [-121.13892065361142, 47.70925565622747, 1061.43], [-121.13889886066318, 47.709347857162356, 1059.51], [-121.13891948014498, 47.70937534980476, 1052.3], [-121.13887296058238, 47.70951708778739, 1043.65], [-121.13872325979173, 47.70959478802979, 1042.21], [-121.13847406581044, 47.709765108302236, 1034.52], [-121.1383899115026, 47.709795366972685, 1030.67], [-121.13826711662114, 47.70986896008253, 1024.42], [-121.13808170892298, 47.71001840941608, 1022.98], [-121.1379498615861, 47.710157884284854, 1024.42], [-121.1378283239901, 47.710207253694534, 1026.83], [-121.13768264651299, 47.710374891757965, 1022.98], [-121.13759011030197, 47.71042501553893, 1019.13], [-121.13740419968963, 47.710649566724896, 1012.41], [-121.13725676201284, 47.71075174212456, 1004.72], [-121.13721619360149, 47.710817120969296, 1002.79], [-121.13706062547863, 47.71087252534926, 1006.16], [-121.13687940873206, 47.711003785952926, 1001.83], [-121.1368599627167, 47.71112917922437, 997.02], [-121.13665360026062, 47.71124484948814, 990.3], [-121.13652359694242, 47.71129170432687, 983.09], [-121.13660615868866, 47.71132146008313, 967.22], [-121.13669676706195, 47.71132246591151, 964.82], [-121.13708367571235, 47.71128701046109, 948.0], [-121.13741182722151, 47.71122305653989, 942.71], [-121.13746429793537, 47.71122473292053, 942.23], [-121.1377529706806, 47.71117452532053, 937.9], [-121.1378732509911, 47.711141500622034, 935.02], [-121.13792547024786, 47.71111090667546, 933.1], [-121.13830793648958, 47.71103153005242, 926.85], [-121.13857573829591, 47.71096296608448, 923.0], [-121.13876106217504, 47.710953494533896, 920.6], [-121.13882258534431, 47.71092155948281, 918.68], [-121.1390699353069, 47.71086967550218, 914.83], [-121.13928618840873, 47.71088317036629, 912.43], [-121.1393640562892, 47.710843440145254, 910.99], [-121.13987107761204, 47.71067647263408, 902.33], [-121.13997702486813, 47.71064495667815, 899.93], [-121.1401463393122, 47.71062081679702, 895.61], [-121.14038438536227, 47.710538590326905, 893.2], [-121.14059720188379, 47.71047572605312, 892.24], [-121.14082208834589, 47.710389979183674, 889.36], [-121.1410097591579, 47.71032971329987, 886.47], [-121.14107966423035, 47.71033273078501, 885.03], [-121.14138300530612, 47.71026710048318, 882.15], [-121.14153706468642, 47.710222424939275, 879.74], [-121.14179807715118, 47.710161823779345, 876.38], [-121.1421216186136, 47.71006886847317, 867.73], [-121.14240542985499, 47.7099619153887, 861.96], [-121.14258203655481, 47.70992662757635, 859.08], [-121.1430130340159, 47.70980542525649, 853.31], [-121.14318318665028, 47.70977164618671, 851.87], [-121.14329164847732, 47.70980156958103, 850.42], [-121.14344210363925, 47.70980483852327, 847.54], [-121.14340639673173, 47.709848089143634, 846.1], [-121.14348962903023, 47.70985680632293, 845.14], [-121.14392682909966, 47.70975806750357, 839.85], [-121.14411810413003, 47.709689335897565, 835.52], [-121.1442332714796, 47.709628734737635, 832.16], [-121.14429445937276, 47.70957374945283, 830.72], [-121.1444111354649, 47.70959177054465, 828.79], [-121.14451624453068, 47.709648851305246, 825.91], [-121.14457173272967, 47.70972772501409, 819.66], [-121.14464926533401, 47.70976644940674, 818.22], [-121.14473886787891, 47.70974658429623, 817.74], [-121.14499367773533, 47.70964843221009, 816.78], [-121.14522686228156, 47.709490517154336, 811.97], [-121.14542425610125, 47.709345342591405, 807.16], [-121.14550229161978, 47.70931147970259, 805.72], [-121.14576204679906, 47.70927879028022, 801.4], [-121.14592641592026, 47.709366381168365, 796.11], [-121.14607100374997, 47.709499737247825, 791.78], [-121.14608340896666, 47.70962932147086, 786.02], [-121.1460520606488, 47.7096579875797, 783.61], [-121.14600914530456, 47.70975664258003, 784.09], [-121.14583161659539, 47.70997608080506, 807.64], [-121.14580873399973, 47.71018118597567, 815.82], [-121.14577663131058, 47.71035016514361, 822.06], [-121.14571695216, 47.71048947237432, 824.47], [-121.14570764824748, 47.7105819247663, 828.31], [-121.14557445980608, 47.71081251092255, 826.87], [-121.14544160664082, 47.71098014898598, 818.22], [-121.14529634825885, 47.711148373782635, 812.93], [-121.14505293779075, 47.71124971099198, 811.49], [-121.1450380180031, 47.711278293281794, 811.49], [-121.14495939575136, 47.7113126590848, 812.93], [-121.14475253038108, 47.711423048749566, 813.41], [-121.14457944408059, 47.711420617997646, 814.37], [-121.14452588371933, 47.71156780421734, 809.09], [-121.14449637942016, 47.71177609451115, 803.8], [-121.14457692950964, 47.7119202632457, 799.95], [-121.14463702775538, 47.711996706202626, 804.28], [-121.14472260698676, 47.71207490935922, 807.16], [-121.14483274519444, 47.71208236925304, 806.2], [-121.14501287229359, 47.712172977626324, 796.11], [-121.14515326917171, 47.71219368092716, 798.03], [-121.14530338905752, 47.712257551029325, 806.2], [-121.14542157389224, 47.712380681186914, 819.18], [-121.14555937238038, 47.71241806447506, 821.1], [-121.14556406624615, 47.71246165037155, 823.99], [-121.14551964215934, 47.7125318069011, 827.35], [-121.14546868018806, 47.71256575360894, 825.43], [-121.14532208070159, 47.71257053129375, 814.37], [-121.14531696774065, 47.712605483829975, 809.57], [-121.14509199745953, 47.71271176636219, 798.51], [-121.1450300551951, 47.71272199228406, 796.59], [-121.14486711099744, 47.712870268151164, 792.74], [-121.14484087564051, 47.71296305581927, 790.34], [-121.14457793533802, 47.71310403943062, 779.77], [-121.14440619014204, 47.713388772681355, 744.2], [-121.14471087232232, 47.71340168081224, 736.99], [-121.14484288729727, 47.71338181570172, 736.03], [-121.14506366662681, 47.71336304023862, 733.62], [-121.1453958414495, 47.71329866722226, 730.26], [-121.1457259207964, 47.713257847353816, 728.82], [-121.14597000181675, 47.71318919956684, 724.97], [-121.14629874005914, 47.71313974633813, 721.61], [-121.14659193903208, 47.71305131725967, 717.76], [-121.14694540388882, 47.71298258565366, 714.88], [-121.14718219265342, 47.71292181685567, 713.92], [-121.14745812490582, 47.712862556800246, 711.51], [-121.1475526727736, 47.71292542107403, 711.99], [-121.14795039407909, 47.71290086209774, 707.67], [-121.14825842902064, 47.712840931490064, 703.82], [-121.14842581562698, 47.712780414149165, 702.38], [-121.14853117614985, 47.7126250974834, 696.13], [-121.14869487471879, 47.71258721128106, 696.13], [-121.14874877035618, 47.712508169934154, 694.69], [-121.14894482307136, 47.7123605646193, 691.81], [-121.14908161573112, 47.712371880188584, 691.33], [-121.14919074811041, 47.712342627346516, 691.81], [-121.14925528876483, 47.712294766679406, 692.77], [-121.1492916662246, 47.712148670107126, 694.69], [-121.14936500787735, 47.711990335956216, 703.82], [-121.14943021908402, 47.71199704147875, 713.44], [-121.14953918382525, 47.7119754999876, 720.65], [-121.14964655600488, 47.71197533234954, 721.13], [-121.14969877526164, 47.71195052191615, 719.68], [-121.14982014521956, 47.71201154217124, 724.01], [-121.14985736086965, 47.71205051802099, 725.93], [-121.15002466365695, 47.712073400616646, 721.61], [-121.15016061812639, 47.71204439923167, 712.95], [-121.15044887177646, 47.71192604675889, 707.19], [-121.15057250484824, 47.711880784481764, 705.26], [-121.15075715817511, 47.71177500486374, 702.38], [-121.1511218547821, 47.71149152889848, 694.69], [-121.15130323916674, 47.711323807016015, 690.36], [-121.15143097937107, 47.711218697950244, 687.0], [-121.15167598240077, 47.71093597635627, 679.31], [-121.1518110986799, 47.710745204240084, 676.42], [-121.15188804455101, 47.71056122146547, 677.87], [-121.1519183870405, 47.71041730418801, 677.87], [-121.15196063183248, 47.7103178948164, 681.71], [-121.15185367874801, 47.71033608354628, 685.08], [-121.15182719193399, 47.710319655016065, 678.35], [-121.15173188969493, 47.71034547127783, 679.79]]}}