{"type": "Feature", "properties": {}, "geometry": {"type": "LineString", "coordinates": [[-121.7009874433279, 47.48605236411095, 283.73], [-121.70099037699401, 47.48601883649826, 280.36], [-121.701016779989, 47.48604331165552, 281.8], [-121.70099750161171, 47.48607952147722, 280.36], [-121.70097059570253, 47.486068457365036, 283.73], [-121.70093622989953, 47.48598614707589, 281.32], [-121.70095081441104, 47.48606217093766, 278.92], [-121.70098618604243, 47.486082622781396, 280.36], [-121.70096514746547, 47.48609829694033, 278.44], [-121.70106832869351, 47.486088490113616, 280.36], [-121.70106313191354, 47.48604364693165, 284.21], [-121.70100135728717, 47.486037611961365, 283.25], [-121.70117343775928, 47.48610030859709, 289.01], [-121.7014967277646, 47.48622754588723, 298.15], [-121.7016973067075, 47.486331732943654, 301.03], [-121.70188606716692, 47.48640448786318, 304.88], [-121.70209846459329, 47.48651001602411, 307.28], [-121.70237766578794, 47.48680002987385, 314.01], [-121.70275359414518, 47.48715424910188, 317.85], [-121.70291678979993, 47.4872290994972, 323.14], [-121.70318333432078, 47.48736153356731, 326.02], [-121.70358516275883, 47.487449292093515, 324.1], [-121.70390300452709, 47.487456668168306, 326.02], [-121.70419377274811, 47.48748407699168, 337.56], [-121.70458772219718, 47.487610476091504, 337.56], [-121.70495769940317, 47.48768784105778, 339.48], [-121.70520178042352, 47.48776277527213, 344.77], [-121.70542071573436, 47.48774626292288, 356.31], [-121.70567862689495, 47.4876400642097, 365.92], [-121.70574735850096, 47.48760377056897, 367.84], [-121.70615966431797, 47.48751341365278, 368.32], [-121.70634699985385, 47.48753101564944, 362.07], [-121.70666182413697, 47.48765280470252, 331.31], [-121.70689760707319, 47.48766604810953, 327.47], [-121.70731578022242, 47.48778188601136, 324.1], [-121.70752884820104, 47.48798221349716, 323.14], [-121.70768165029585, 47.48821430839598, 325.06], [-121.70779949985445, 47.48846651986241, 328.43], [-121.70793369412422, 47.48868763446808, 328.91], [-121.70804928056896, 47.4889075756073, 330.35], [-121.70810787007213, 47.48898636549711, 330.35], [-121.70832680538297, 47.4892289377749, 333.23], [-121.70858345925808, 47.48943789862096, 337.56], [-121.70882678590715, 47.48971056193113, 336.6], [-121.70913565903902, 47.48996495269239, 337.56], [-121.70937228016555, 47.490166118368506, 337.08], [-121.70958803035319, 47.490377677604556, 336.6], [-121.7097928840667, 47.49056660570204, 338.52], [-121.7099744360894, 47.49083926901221, 339.48], [-121.71008214354515, 47.491081673651934, 340.92], [-121.71007024124265, 47.49129943549633, 342.85], [-121.71000259928405, 47.491582073271275, 346.69], [-121.70993487350643, 47.491751220077276, 350.54], [-121.7098066303879, 47.491763373836875, 354.38], [-121.70978249050677, 47.49174049124122, 356.31], [-121.70990603975952, 47.491816096007824, 351.98], [-121.70989103615284, 47.49188055284321, 349.58], [-121.70985734090209, 47.49180109240115, 349.1], [-121.70982046052814, 47.49176706187427, 348.62], [-121.70984476804733, 47.49189253896475, 342.37], [-121.70982180163264, 47.49198507517576, 339.96], [-121.70985239557922, 47.492165956646204, 340.92], [-121.70984644442797, 47.49243610538542, 346.69], [-121.70972406864166, 47.492674235254526, 349.1], [-121.70956405811012, 47.49291789717972, 351.98], [-121.70954888686538, 47.49293189495802, 351.98], [-121.70926197431982, 47.49309752136469, 356.31], [-121.70904463157058, 47.49327094294131, 361.59], [-121.70886349864304, 47.493382757529616, 366.4], [-121.70866794884205, 47.493555173277855, 371.21], [-121.7084442358464, 47.49371065758169, 371.21], [-121.70822789892554, 47.49387108720839, 371.21], [-121.70792690478265, 47.49400896951556, 371.21], [-121.70762909576297, 47.494114162400365, 373.13], [-121.70739524066448, 47.494255900382996, 376.49], [-121.70706859789789, 47.494443990290165, 376.01], [-121.70693792402744, 47.49452437274158, 379.38], [-121.70677321963012, 47.494586734101176, 379.38], [-121.70672200620174, 47.4946753308177, 381.3], [-121.70659569092095, 47.49487465247512, 373.61], [-121.70661455020308, 47.49508520588279, 372.17], [-121.70673030428588, 47.495306488126516, 375.05], [-121.70681420713663, 47.49541704542935, 377.94], [-121.70702911913395, 47.49550128355622, 377.94], [-121.70734754763544, 47.4955731164664, 384.18], [-121.70750764198601, 47.495588790625334, 388.03], [-121.70799069106579, 47.49567839317024, 392.36], [-121.70838472433388, 47.495640590786934, 393.32], [-121.70880977064371, 47.49561108648777, 387.55], [-121.70911344699562, 47.495532128959894, 388.99], [-121.70950563624501, 47.495523411780596, 390.91], [-121.70995624735951, 47.49572063796222, 395.24], [-121.71025346964598, 47.49587209895253, 400.53], [-121.71057810075581, 47.4958738591522, 404.37], [-121.71095645986497, 47.49591551721096, 406.77], [-121.71135937795043, 47.495983159169555, 408.7], [-121.71168820001185, 47.49601325020194, 400.53], [-121.71204342506826, 47.496053567156196, 398.6], [-121.71238188631833, 47.49608709476888, 395.72], [-121.71277214772999, 47.49606488272548, 396.68], [-121.71319493092597, 47.49612112529576, 398.12], [-121.71364956535399, 47.496157586574554, 400.05], [-121.7140050418675, 47.496167896315455, 397.64], [-121.71443888917565, 47.4961413256824, 398.6], [-121.71488438732922, 47.49613554216921, 397.16], [-121.71524070203304, 47.49606161378324, 403.41], [-121.71556843444705, 47.49601283110678, 411.58], [-121.71605718322098, 47.49601433984935, 414.95], [-121.71650167554617, 47.49606404453516, 414.95], [-121.71689545735717, 47.49618558213115, 417.35], [-121.71704901382327, 47.49620435759425, 422.64], [-121.71720122918487, 47.496414659544826, 427.92], [-121.71757170930505, 47.49644282273948, 434.65], [-121.71786993741989, 47.496561761945486, 436.1], [-121.71796943061054, 47.496808022260666, 433.21], [-121.7179439496249, 47.49710180796683, 442.82], [-121.71808728016913, 47.49718747101724, 446.19], [-121.71821451745927, 47.4972050730139, 450.03], [-121.71850645914674, 47.49740188010037, 452.92], [-121.71856932342052, 47.49759583733976, 452.44], [-121.71858390793204, 47.49768720008433, 460.13], [-121.71830906532705, 47.4977489747107, 471.18], [-121.71799499541521, 47.49789339490235, 468.78], [-121.71784579753876, 47.49784461222589, 441.86], [-121.7177951708436, 47.49794100411236, 446.67], [-121.71756215393543, 47.49799163080752, 456.28], [-121.71744639985263, 47.49809690751135, 461.57], [-121.71745151281357, 47.498363703489304, 474.07], [-121.71756475232542, 47.49849496409297, 484.64], [-121.7178451269865, 47.49848339706659, 491.85], [-121.7180544231087, 47.49862186610699, 495.22], [-121.71831702813506, 47.498806435614824, 498.58], [-121.7185792978853, 47.49881699681282, 501.95], [-121.71876998618245, 47.4988957028836, 505.79], [-121.71866496093571, 47.499063508585095, 506.27], [-121.71850411221385, 47.4991684500128, 511.56], [-121.71833655796945, 47.4992947652936, 526.46], [-121.71800228767097, 47.49928906559944, 536.07], [-121.71760456636548, 47.49931328929961, 540.88], [-121.71731983311474, 47.499276995658875, 545.2], [-121.71727825887501, 47.499429043382406, 546.17], [-121.71749526634812, 47.49957673251629, 549.53], [-121.71774001792073, 47.499731881543994, 554.34], [-121.71809708699584, 47.49984419904649, 561.55], [-121.71832406893373, 47.499925922602415, 559.62], [-121.7185513023287, 47.5000960752368, 559.14], [-121.7187727522105, 47.50013630837202, 560.59], [-121.71885279938579, 47.500183917582035, 560.59], [-121.71917483210564, 47.500220546498895, 559.62], [-121.71943282708526, 47.50020118430257, 560.59], [-121.71973776072264, 47.50017335638404, 564.43], [-121.72002911567688, 47.50019967556, 569.24], [-121.72001922503114, 47.50036739744246, 572.12], [-121.71984856948256, 47.50052799470723, 574.53], [-121.71982149593532, 47.500580716878176, 575.01], [-121.71964069828391, 47.50067870132625, 578.37], [-121.71942276880145, 47.5007557310164, 585.1], [-121.71917097643018, 47.50087844207883, 596.15], [-121.71867485158145, 47.50111103989184, 619.23], [-121.71833613887429, 47.501185555011034, 622.59], [-121.71802030876279, 47.501233499497175, 613.46], [-121.71771386638284, 47.50129686668515, 611.06], [-121.71737683005631, 47.50135193578899, 609.13], [-121.71697231940925, 47.50142393633723, 611.54], [-121.71669085510075, 47.501581935212016, 607.69], [-121.71639933250844, 47.50167639926076, 612.98], [-121.71612801030278, 47.501879492774606, 623.55], [-121.71597437001765, 47.50195937231183, 636.05], [-121.71575887128711, 47.50209121964872, 652.39], [-121.71546516939998, 47.50229456461966, 668.73], [-121.71514078974724, 47.502386681735516, 681.23], [-121.71485882252455, 47.50240344554186, 691.33], [-121.71455984003842, 47.5024392362684, 699.02], [-121.71420545317233, 47.50245734117925, 705.75], [-121.71393111348152, 47.50239875167608, 710.55], [-121.71360908076167, 47.502282578498125, 712.47], [-121.7133969347924, 47.50211485661566, 695.17], [-121.71336701139808, 47.50203598290682, 683.63], [-121.71342903748155, 47.502103289589286, 682.19], [-121.71365769580007, 47.50211142003536, 688.44], [-121.71422825194895, 47.502270340919495, 694.69], [-121.71443779952824, 47.50246345996857, 696.61], [-121.71467785723507, 47.50251919962466, 698.53], [-121.71489620581269, 47.502642748877406, 701.42], [-121.71509653329849, 47.50269178301096, 701.42], [-121.71539291739464, 47.50270745716989, 702.86], [-121.71570514328778, 47.50273863784969, 704.78], [-121.71595517545938, 47.50272053293884, 708.63], [-121.71621954068542, 47.50271634198725, 712.47], [-121.71652346849442, 47.502772249281406, 713.44], [-121.7167554795742, 47.50280066393316, 716.8], [-121.71701783314347, 47.50287593342364, 722.57], [-121.71704105101526, 47.502895295619965, 722.57], [-121.71726593747735, 47.50297131948173, 724.97], [-121.71750457026064, 47.50296201556921, 729.3], [-121.71775217168033, 47.50293452292681, 734.1], [-121.7183771263808, 47.50286042690277, 737.47], [-121.71877669170499, 47.502779960632324, 735.55], [-121.71887191012502, 47.502734111621976, 752.37], [-121.71890283934772, 47.50290434807539, 763.9], [-121.71895505860448, 47.502828827127814, 718.24], [-121.71896184794605, 47.502860091626644, 717.28], [-121.7190159112215, 47.50289998948574, 720.16], [-121.71895371749997, 47.50297232531011, 718.72], [-121.7189318407327, 47.502931002527475, 719.68], [-121.71901943162084, 47.50290283933282, 716.32], [-121.71903669834137, 47.502908036112785, 716.32], [-121.71897232532501, 47.50296846963465, 705.75], [-121.71916619874537, 47.50308522954583, 700.94], [-121.71928094699979, 47.50309428200126, 700.46], [-121.71944850124419, 47.50312194228172, 700.94], [-121.71959501691163, 47.50316292978823, 700.46], [-121.71979593113065, 47.503140550106764, 702.38], [-121.71986818313599, 47.50321917235851, 736.03], [-121.71974924392998, 47.50327315181494, 739.39], [-121.7193306516856, 47.50343391671777, 749.97], [-121.71919092535973, 47.503493847325444, 753.81], [-121.71901104971766, 47.503584707155824, 754.77], [-121.71875355765224, 47.50364840961993, 757.18], [-121.71840730123222, 47.50375661998987, 764.87], [-121.71829531900585, 47.503776736557484, 768.71], [-121.71810429543257, 47.503826105967164, 772.08], [-121.71800656244159, 47.503909757360816, 774.96], [-121.71787714585662, 47.50393766909838, 774.96], [-121.71778745949268, 47.503974214196205, 779.29], [-121.71764312312007, 47.50412357971072, 784.57], [-121.71761261299253, 47.50412492081523, 785.05], [-121.71750641427934, 47.50420588999987, 783.61], [-121.71742276288569, 47.504244362935424, 785.05], [-121.71727180480957, 47.50428878702223, 790.82], [-121.71716040931642, 47.50433396548033, 792.74], [-121.71687500551343, 47.50441082753241, 794.19], [-121.71677852980793, 47.50444502569735, 795.15], [-121.7167039308697, 47.504503950476646, 798.51], [-121.7166901845485, 47.50453035347164, 799.47], [-121.71657585538924, 47.504590870812535, 803.8], [-121.71634878963232, 47.504685670137405, 809.09], [-121.71617612242699, 47.50480771064758, 806.68], [-121.71604393981397, 47.50487979501486, 805.72], [-121.7159200552851, 47.504916340112686, 806.68], [-121.71584847383201, 47.50496604479849, 805.24], [-121.71573959290981, 47.505004266276956, 805.24], [-121.71565543860197, 47.5050538033247, 806.2], [-121.71557220630348, 47.5050884205848, 806.2], [-121.7155001219362, 47.50513242557645, 806.68], [-121.7154554463923, 47.50513049773872, 807.64], [-121.71539082191885, 47.50515849329531, 806.68], [-121.71528378501534, 47.5052229501307, 807.16], [-121.71518311835825, 47.50526544637978, 807.16], [-121.71493174508214, 47.50535580329597, 809.57], [-121.71469755470753, 47.50539788044989, 805.24], [-121.71462991274893, 47.50542067922652, 805.72], [-121.7145227920264, 47.50544180162251, 804.28], [-121.71449379064143, 47.50549200922251, 804.76], [-121.71453083865345, 47.50553894788027, 806.2], [-121.71472731046379, 47.505608601495624, 809.57], [-121.71487248502672, 47.50563668087125, 811.49], [-121.7149459104985, 47.50566132366657, 811.01], [-121.71517775394022, 47.50566769391298, 812.45], [-121.71532519161701, 47.50566308386624, 815.82], [-121.71538797207177, 47.505687391385436, 818.7], [-121.71549928374588, 47.50569728203118, 819.66], [-121.71563548967242, 47.505690744146705, 826.87], [-121.71575861983001, 47.505697533488274, 833.12], [-121.71578812412918, 47.505683954805136, 834.56], [-121.71587152406573, 47.5056859664619, 837.93], [-121.71611107885838, 47.50567523762584, 843.69], [-121.71615139581263, 47.50568563118577, 845.14], [-121.71625524759293, 47.505687894299626, 844.18], [-121.7163275834173, 47.50569895841181, 844.66], [-121.716369073838, 47.50571882352233, 846.58], [-121.71658826060593, 47.50569744966924, 848.02], [-121.71673812903464, 47.505714632570744, 846.58], [-121.71683167107403, 47.50571890734136, 848.02], [-121.71692219562829, 47.50573609024286, 852.35], [-121.7170596588403, 47.50569133087993, 858.59], [-121.71700509265065, 47.505671214312315, 862.44], [-121.71698975376785, 47.505643386393785, 874.46], [-121.71704549342394, 47.505627712234855, 869.65], [-121.71706041321158, 47.50565377995372, 874.94], [-121.7170266341418, 47.50566115602851, 873.01], [-121.71706368215382, 47.5056251976639, 874.46], [-121.71724297106266, 47.50568563118577, 873.01], [-121.7174616549164, 47.505742041394114, 875.42], [-121.71767983585596, 47.50577196478844, 878.3], [-121.71786733902991, 47.50580398365855, 876.86], [-121.71797471120954, 47.50579996034503, 875.42], [-121.71811276115477, 47.505807084962726, 873.5], [-121.71844912692904, 47.50578738749027, 873.5], [-121.71862414106727, 47.50578839331865, 877.34], [-121.71878322958946, 47.505739610642195, 883.59], [-121.7188916914165, 47.50566895119846, 891.76], [-121.71900325454772, 47.50571253709495, 894.16], [-121.71944338828325, 47.50564640387893, 897.53], [-121.71957984566689, 47.50561656430364, 900.41], [-121.71970867551863, 47.50556459650397, 902.82], [-121.71975930221379, 47.505486560985446, 906.66], [-121.71984563581645, 47.505512377247214, 910.03], [-121.71974404715002, 47.505443478003144, 916.75], [-121.7197310552001, 47.505448842421174, 916.27], [-121.71979308128357, 47.505501648411155, 908.58], [-121.71986298635602, 47.505610110238194, 902.33], [-121.71974245458841, 47.50558102503419, 910.03], [-121.71968679875135, 47.505641458556056, 916.27], [-121.71961924061179, 47.50569501891732, 917.72], [-121.71947012655437, 47.505832482129335, 922.52], [-121.71933266334236, 47.50588268972933, 924.93], [-121.71913828700781, 47.5059793330729, 926.37], [-121.71901783905923, 47.50604529865086, 927.33], [-121.71882698312402, 47.506085028871894, 930.21], [-121.71854350715876, 47.50621545128524, 934.06], [-121.71862539835274, 47.50633011572063, 934.06], [-121.71875112690032, 47.50633707270026, 932.62], [-121.71890627592802, 47.50639113597572, 930.21], [-121.71904382295907, 47.5063334684819, 932.14], [-121.71924574300647, 47.506290301680565, 940.79], [-121.71961991116405, 47.506295247003436, 948.96], [-121.7197725456208, 47.506276639178395, 949.92], [-121.71993331052363, 47.50626909546554, 948.96], [-121.72007261775434, 47.506278650835156, 946.56], [-121.72015911899507, 47.506183348596096, 948.48], [-121.72025073319674, 47.506131464615464, 954.73], [-121.72037126496434, 47.506126184016466, 959.05], [-121.72051325440407, 47.50614990480244, 963.38], [-121.72067569568753, 47.50612886622548, 968.18], [-121.72080729156733, 47.50608427450061, 971.07], [-121.7208986543119, 47.50610489398241, 974.43], [-121.72106905840337, 47.50623296946287, 980.68], [-121.72127424739301, 47.50627873465419, 983.09], [-121.72137483023107, 47.50629139132798, 989.33], [-121.7215567175299, 47.50626725144684, 991.74], [-121.72169744968414, 47.50627378933132, 995.58], [-121.72186148352921, 47.506306981667876, 1001.35], [-121.72223942354321, 47.50627923756838, 1001.83], [-121.7223728634417, 47.50629482790828, 997.02], [-121.72249381430447, 47.50625342130661, 997.99], [-121.7226151842624, 47.50628476962447, 1001.83], [-121.72266824170947, 47.50625249929726, 1009.04], [-121.72278449870646, 47.506281500682235, 1011.44], [-121.72325246036053, 47.50634830445051, 1022.98], [-121.7234075255692, 47.50639700330794, 1026.34], [-121.72367515973747, 47.506490712985396, 1029.23], [-121.72384195961058, 47.506582494825125, 1026.83], [-121.7240188177675, 47.50665885396302, 1029.23], [-121.7243832629174, 47.5067840795964, 1025.86], [-121.72451192513108, 47.50685390084982, 1023.94], [-121.724884333089, 47.50699563883245, 1028.27], [-121.72507326118648, 47.50702925026417, 1028.27], [-121.72527224756777, 47.50708658248186, 1025.86], [-121.72559754922986, 47.507140561938286, 1025.86], [-121.72568899579346, 47.5070377998054, 1027.31], [-121.72571011818945, 47.50705330632627, 1031.63], [-121.72567709349096, 47.50690729357302, 1039.32], [-121.72555237077177, 47.506659273058176, 1048.45], [-121.72554600052536, 47.50649691559374, 1048.94], [-121.72548288479447, 47.50641820952296, 1042.69], [-121.72548028640449, 47.50633397139609, 1035.0], [-121.72551901079714, 47.506300611421466, 1033.07], [-121.72568086534739, 47.506258031353354, 1026.83], [-121.72571321949363, 47.50626465305686, 1025.38], [-121.72586585395038, 47.50622835941613, 1021.06], [-121.72604422084987, 47.50619265250862, 1017.69], [-121.72624044120312, 47.506116377189755, 1017.21], [-121.72636734321713, 47.5060520041734, 1016.25], [-121.72658946365118, 47.50600875355303, 1017.69], [-121.72675332985818, 47.50594035722315, 1017.69], [-121.72684175893664, 47.50585561618209, 1018.17], [-121.72689682804048, 47.505764588713646, 1021.54], [-121.72696597874165, 47.505725026130676, 1026.83], [-121.72703261487186, 47.50565579161048, 1027.79], [-121.72714987769723, 47.50566962175071, 1031.15], [-121.72719807364047, 47.505719577893615, 1033.07], [-121.72719337977469, 47.50583021901548, 1040.28], [-121.72713177278638, 47.50591445714235, 1042.21], [-121.726945778355, 47.50603012740612, 1049.42], [-121.72677839174867, 47.50616700388491, 1054.22], [-121.72666540369391, 47.50624470412731, 1055.18], [-121.72658435069025, 47.50632667914033, 1054.7], [-121.72639332711697, 47.50654653646052, 1054.7], [-121.72636851668358, 47.50661216676235, 1057.59], [-121.72635108232498, 47.506697829812765, 1060.47], [-121.72648720443249, 47.50678097829223, 1062.39], [-121.72660354524851, 47.506756586954, 1061.91], [-121.72671552747488, 47.50676555559039, 1062.39], [-121.72691149637103, 47.50667570158839, 1063.84], [-121.7270218860358, 47.506645023822784, 1064.8], [-121.72711919993162, 47.50657930970192, 1065.28], [-121.72730284743011, 47.50660822726786, 1067.68], [-121.7273347824812, 47.50664317980409, 1072.49], [-121.72730410471559, 47.50673613511026, 1079.7], [-121.72725356183946, 47.50681970268488, 1083.06], [-121.72726127319038, 47.50691223889589, 1084.99], [-121.72729580663145, 47.50698482617736, 1088.35], [-121.72735607251525, 47.507049618288875, 1091.71], [-121.72742748633027, 47.507084319368005, 1094.12], [-121.72753955237567, 47.50716662965715, 1094.12], [-121.72762907110155, 47.50727467238903, 1097.0], [-121.72772412188351, 47.507372573018074, 1099.4], [-121.72768950462341, 47.50737642869353, 1101.81], [-121.72772998921573, 47.507408279925585, 1106.13], [-121.72772051766515, 47.50737081281841, 1109.5], [-121.72771188430488, 47.50744289718568, 1098.44], [-121.72778623178601, 47.50755772925913, 1104.21], [-121.72781330533326, 47.5076509360224, 1107.1], [-121.7278216034174, 47.50774045474827, 1108.06], [-121.72786862589419, 47.50784497708082, 1108.06], [-121.72788077965379, 47.507913038134575, 1110.94], [-121.72786007635295, 47.508019069209695, 1113.82], [-121.72786694951355, 47.508075730875134, 1113.82], [-121.72784339636564, 47.50810146331787, 1113.82], [-121.72781875357032, 47.508175894618034, 1115.27], [-121.72774155624211, 47.50829349271953, 1111.9], [-121.72764935530722, 47.50835409387946, 1111.42], [-121.72756134532392, 47.50843120738864, 1112.38], [-121.72749412246048, 47.50850345939398, 1114.31], [-121.72747685573995, 47.50850731506944, 1114.79], [-121.72741893678904, 47.50859188847244, 1115.75], [-121.72738649882376, 47.50868643634021, 1117.19], [-121.72728440724313, 47.508726585656404, 1119.11], [-121.72719622962177, 47.50883538275957, 1122.0], [-121.72714216634631, 47.508882991969585, 1122.96], [-121.72710201703012, 47.5088959839195, 1123.92], [-121.72699657268822, 47.50899220816791, 1126.32], [-121.72693479806185, 47.50903705134988, 1127.76], [-121.7268371488899, 47.50912648625672, 1126.32], [-121.7267161142081, 47.5091964751482, 1126.8], [-121.72655032016337, 47.50931373797357, 1126.8], [-121.72636491246521, 47.50940887257457, 1129.21], [-121.7262755613774, 47.50946385785937, 1131.61], [-121.72616642899811, 47.5095144007355, 1134.49], [-121.72604908235371, 47.50946863554418, 1136.42], [-121.72595344483852, 47.50937668606639, 1136.42], [-121.72584364190698, 47.509299237281084, 1138.82], [-121.72569922171533, 47.50922639854252, 1141.7], [-121.72555739991367, 47.50919094309211, 1142.66], [-121.72541465610266, 47.5091393943876, 1145.55], [-121.72507049515843, 47.50905171968043, 1149.87], [-121.7249805573374, 47.50904845073819, 1150.35], [-121.7247939761728, 47.50902724452317, 1152.28], [-121.72455416992307, 47.50901374965906, 1159.49], [-121.72442726790905, 47.508998326957226, 1161.89], [-121.72436465509236, 47.50896723009646, 1171.02], [-121.72412157990038, 47.50894225202501, 1170.54], [-121.72397749498487, 47.508917106315494, 1171.5], [-121.72394262626767, 47.508922554552555, 1171.5], [-121.72371715307236, 47.50891945324838, 1173.43], [-121.72349930740893, 47.50889539718628, 1176.31], [-121.72340794466436, 47.508898582309484, 1177.75], [-121.72317685559392, 47.50887553207576, 1180.16], [-121.72307300381362, 47.508877627551556, 1180.16], [-121.72283629886806, 47.50889724120498, 1184.96], [-121.72258685342968, 47.508905874565244, 1185.92], [-121.722481995821, 47.50892632640898, 1187.37], [-121.72227001748979, 47.50893973745406, 1189.77], [-121.72208041884005, 47.508971421048045, 1192.65], [-121.72197723761201, 47.50901609659195, 1196.98], [-121.72181630507112, 47.50904601998627, 1198.9], [-121.72139670699835, 47.50919102691114, 1208.51], [-121.72100778669119, 47.50929764471948, 1213.32], [-121.7208722513169, 47.50934584066272, 1214.28], [-121.72071089968085, 47.509325640276074, 1215.24], [-121.72066982835531, 47.50933075323701, 1214.76], [-121.72054996713996, 47.509317342191935, 1215.72], [-121.72044108621776, 47.50931809656322, 1215.72], [-121.72029658220708, 47.50930435024202, 1215.72], [-121.7200212366879, 47.50933427363634, 1216.69], [-121.71975703909993, 47.50937475822866, 1219.09], [-121.71958269551396, 47.509422870352864, 1218.13], [-121.71943148598075, 47.509478610008955, 1215.24], [-121.71925881877542, 47.50951884314418, 1212.84], [-121.71907584182918, 47.50960635021329, 1212.84], [-121.71900199726224, 47.50968413427472, 1212.84], [-121.71891859732568, 47.509743981063366, 1214.76], [-121.71886813826859, 47.50979494303465, 1215.24], [-121.71880108304322, 47.50993969850242, 1218.61], [-121.71871449798346, 47.510043466463685, 1220.05], [-121.71861140057445, 47.51010004431009, 1219.09], [-121.71848424710333, 47.51015125773847, 1219.09], [-121.71840813942254, 47.51023323275149, 1218.61], [-121.71845583245158, 47.51033096574247, 1218.13], [-121.71857971698046, 47.51038427464664, 1217.65], [-121.71875364147127, 47.51044504344463, 1214.28], [-121.71886981464922, 47.51049240119755, 1212.36], [-121.71892236918211, 47.51057865098119, 1215.72], [-121.71894240193069, 47.51064813695848, 1217.17], [-121.71898749656975, 47.51069800928235, 1215.24], [-121.71901440247893, 47.510772524401546, 1217.65], [-121.71897693537176, 47.51082583330572, 1220.05], [-121.71894181519747, 47.51098047941923, 1221.01], [-121.71891314908862, 47.510991375893354, 1221.49], [-121.71887693926692, 47.51108651049435, 1222.93], [-121.71882145106792, 47.51115934923291, 1222.93], [-121.71870812773705, 47.51133369281888, 1220.53], [-121.7186239734292, 47.51148615963757, 1214.28], [-121.71861751936376, 47.51151365227997, 1213.32], [-121.71860050410032, 47.511764941737056, 1208.51], [-121.71867267228663, 47.511869966983795, 1206.59], [-121.71866395510733, 47.51188832335174, 1205.63], [-121.71871399506927, 47.51197683624923, 1207.55], [-121.71870075166225, 47.51204213127494, 1208.51], [-121.71869605779648, 47.512145061045885, 1205.63], [-121.71867677941918, 47.512222761288285, 1204.67], [-121.71855599619448, 47.51237891614437, 1206.59], [-121.71851157210767, 47.512401547282934, 1207.07], [-121.7183773778379, 47.51243758946657, 1206.11], [-121.7183253262192, 47.512465082108974, 1207.07], [-121.71818492934108, 47.512501291930676, 1205.15], [-121.71809943392873, 47.512506153434515, 1203.23], [-121.71782375313342, 47.51244907267392, 1206.11], [-121.71759132295847, 47.512442199513316, 1203.71], [-121.71738705597818, 47.512429878115654, 1201.3], [-121.71718052588403, 47.5123427901417, 1202.75], [-121.7171426396817, 47.51234027557075, 1202.75], [-121.71692362055182, 47.512293169274926, 1201.79], [-121.71676612459123, 47.51233004964888, 1201.3], [-121.71668381430209, 47.512360475957394, 1199.86], [-121.71658700332046, 47.51244722865522, 1199.86], [-121.71657619066536, 47.51248620450497, 1199.86], [-121.71652430668473, 47.51256943680346, 1200.82], [-121.71661105938256, 47.51280002295971, 1203.71], [-121.71662405133247, 47.5129387434572, 1204.19], [-121.71663830056787, 47.51296824775636, 1203.71], [-121.71675472520292, 47.513079810887575, 1201.3], [-121.71681029722095, 47.513171676546335, 1201.79], [-121.71692269854248, 47.51327401958406, 1202.27], [-121.71695228666067, 47.51336446031928, 1201.79], [-121.71689989976585, 47.513537630438805, 1198.9], [-121.71676084399223, 47.51358767040074, 1197.46], [-121.71659404411912, 47.513634944334626, 1196.02], [-121.71644669026136, 47.51366989687085, 1196.98], [-121.71627963893116, 47.51373569481075, 1199.38], [-121.71619799919426, 47.51380325295031, 1201.3], [-121.71614158898592, 47.51387064345181, 1204.67], [-121.71604729257524, 47.513908026739955, 1200.34], [-121.71565401367843, 47.51401875168085, 1189.29], [-121.715515460819, 47.51403283327818, 1187.37], [-121.71540398150682, 47.51401615329087, 1186.4], [-121.71523500233889, 47.51396929845214, 1188.33], [-121.71509703621268, 47.513955719769, 1186.88], [-121.71497197821736, 47.513968124985695, 1186.4], [-121.71484281308949, 47.51394918188453, 1185.92], [-121.71470233239233, 47.51396016217768, 1184.0], [-121.7144036013633, 47.513950606808066, 1184.0], [-121.71427326276898, 47.51396644860506, 1182.08], [-121.71422339044511, 47.51393987797201, 1180.64], [-121.71399096027017, 47.51394675113261, 1182.08], [-121.71382131054997, 47.51396209001541, 1183.52], [-121.71374528668821, 47.51399972476065, 1186.4], [-121.71350833028555, 47.51397558487952, 1187.37], [-121.71341185458004, 47.51397080719471, 1189.77], [-121.71333088539541, 47.51399427652359, 1190.73], [-121.71325134113431, 47.51398933120072, 1191.69], [-121.71311555430293, 47.51399343833327, 1193.61], [-121.71306191012263, 47.51401003450155, 1194.58], [-121.71290533617139, 47.51403677277267, 1193.61], [-121.71273627318442, 47.514021936804056, 1196.02], [-121.71244810335338, 47.51402763649821, 1198.42], [-121.71229094266891, 47.51399268396199, 1198.9], [-121.71220293268561, 47.51398740336299, 1201.3], [-121.71202003955841, 47.513964772224426, 1204.67], [-121.71188701875508, 47.513937782496214, 1205.15], [-121.71168275177479, 47.51396141946316, 1205.63], [-121.71157118864357, 47.513947170227766, 1207.55], [-121.71144152060151, 47.51391020603478, 1209.0], [-121.71133289113641, 47.51388866454363, 1211.4], [-121.7112451326102, 47.51388321630657, 1212.84], [-121.71109727583826, 47.51389930956066, 1214.76], [-121.71101035550237, 47.51389654353261, 1215.24], [-121.71077515929937, 47.51394750550389, 1215.72], [-121.71070751734078, 47.51397969201207, 1216.21], [-121.7106013186276, 47.51401104032993, 1216.69], [-121.71040551736951, 47.51405278220773, 1217.65], [-121.71030870638788, 47.51403082162142, 1218.61], [-121.71009765006602, 47.51404909417033, 1221.01], [-121.71007728204131, 47.514067366719246, 1221.49], [-121.70997368171811, 47.5140696298331, 1222.45], [-121.70987837947905, 47.51406258903444, 1224.86], [-121.70980093069375, 47.514039957895875, 1225.82], [-121.70965106226504, 47.51405336894095, 1228.7], [-121.70952826738358, 47.514043897390366, 1230.14], [-121.70942592434585, 47.51405051909387, 1232.55], [-121.70924571342766, 47.51404062844813, 1236.39], [-121.70917916111648, 47.51401514746249, 1237.83], [-121.70910213142633, 47.51402604393661, 1239.28], [-121.70904228463769, 47.51400852575898, 1240.72], [-121.70881178230047, 47.51399997621775, 1245.04], [-121.70856040902436, 47.51396217383444, 1243.12], [-121.70844825915992, 47.51393753103912, 1243.6], [-121.70831062830985, 47.513896794989705, 1246.97], [-121.70807761140168, 47.51385111361742, 1253.22], [-121.70792908407748, 47.51380752772093, 1257.54], [-121.70777837745845, 47.51375681720674, 1260.43], [-121.70772146433592, 47.51374650746584, 1261.39], [-121.70755784958601, 47.513783974573016, 1261.87], [-121.70750604942441, 47.51376654021442, 1261.87], [-121.7075184546411, 47.51374399289489, 1262.35], [-121.70748836360872, 47.51368070952594, 1266.19], [-121.70738509856164, 47.51360694877803, 1274.36], [-121.70738057233393, 47.513579707592726, 1269.08], [-121.70728443190455, 47.513491194695234, 1267.16], [-121.7072457075119, 47.51344266347587, 1266.67], [-121.7071338929236, 47.51345129683614, 1270.04], [-121.70713305473328, 47.513537714257836, 1267.64], [-121.7071886267513, 47.51361155882478, 1269.08], [-121.70714009553194, 47.51360736787319, 1270.04], [-121.70701151713729, 47.51347283832729, 1275.81], [-121.70696734450758, 47.51344685442746, 1279.17], [-121.70692862011492, 47.51337527297437, 1280.61], [-121.7068315576762, 47.513342667371035, 1283.02], [-121.70671412721276, 47.51328198239207, 1283.5], [-121.70649108476937, 47.513227919116616, 1287.82], [-121.70638287439942, 47.51317729242146, 1287.34], [-121.70627122744918, 47.51318324357271, 1288.78], [-121.70600501820445, 47.51314418390393, 1293.59], [-121.70590787194669, 47.51309481449425, 1297.92], [-121.70586914755404, 47.51315139234066, 1297.44], [-121.70586051419377, 47.51310696825385, 1297.44], [-121.70572053641081, 47.51305902376771, 1302.24], [-121.70563998632133, 47.513090036809444, 1304.17], [-121.70563763938844, 47.5130613707006, 1308.49], [-121.70555516146123, 47.513056341558695, 1311.38], [-121.70545315369964, 47.51309129409492, 1312.34], [-121.7053637187928, 47.51310009509325, 1311.38], [-121.70535902492702, 47.513057263568044, 1312.82], [-121.70525651425123, 47.513057263568044, 1312.82], [-121.70516029000282, 47.51307461410761, 1314.74], [-121.70510614290833, 47.51302474178374, 1325.31], [-121.70504344627261, 47.513008983805776, 1323.87], [-121.70496918261051, 47.513031950220466, 1323.87], [-121.70485686510801, 47.51305365934968, 1325.31], [-121.70480942353606, 47.513084756210446, 1327.24], [-121.70461596921086, 47.51301317475736, 1334.45], [-121.70454740524292, 47.512974282726645, 1335.89], [-121.70448043383658, 47.512987023219466, 1334.93], [-121.70440231449902, 47.51294578425586, 1333.97], [-121.7042309883982, 47.51291083171964, 1336.85], [-121.70415060594678, 47.51286070793867, 1338.29], [-121.70405329205096, 47.51286012120545, 1342.62], [-121.70407617464662, 47.51291351392865, 1344.06], [-121.7040354385972, 47.51292675733566, 1341.66], [-121.70391884632409, 47.51290647312999, 1343.1], [-121.70389923267066, 47.51292214728892, 1346.46], [-121.70379286631942, 47.512923907488585, 1354.15], [-121.70371206477284, 47.51295659691095, 1358.0], [-121.70361357741058, 47.51296070404351, 1360.88], [-121.70352288521826, 47.51295408234, 1365.21], [-121.70347468927503, 47.5129265896976, 1366.17], [-121.70341400429606, 47.512989956885576, 1366.17], [-121.70330964960158, 47.51300781033933, 1366.65], [-121.70315550640225, 47.512951819226146, 1370.02], [-121.70307629741728, 47.51294025219977, 1369.54], [-121.70299650169909, 47.512911250814795, 1370.02], [-121.70287211425602, 47.5128539185971, 1370.5], [-121.70267094857991, 47.512803291901946, 1372.9], [-121.70257455669343, 47.51275274902582, 1372.9], [-121.70251479372382, 47.512704469263554, 1375.3], [-121.70237372629344, 47.51269600354135, 1378.67], [-121.70229267328978, 47.51262903213501, 1381.07], [-121.70219619758427, 47.512607239186764, 1383.96], [-121.7020516935736, 47.51260153949261, 1388.28], [-121.70189562253654, 47.51256960444152, 1390.2], [-121.70174189843237, 47.51253046095371, 1391.17], [-121.70158733613789, 47.51250942237675, 1394.53], [-121.7014346178621, 47.512466590851545, 1397.41], [-121.70129086822271, 47.51246298663318, 1400.78], [-121.7011824902147, 47.51244446262717, 1402.7], [-121.70105173252523, 47.51246600411832, 1403.18], [-121.70091795735061, 47.51244831830263, 1402.7], [-121.70085484161973, 47.51240850426257, 1400.78], [-121.7007477208972, 47.512378664687276, 1402.7], [-121.70063624158502, 47.51235938630998, 1407.51], [-121.70052316971123, 47.512376150116324, 1409.91], [-121.70030658133328, 47.51238813623786, 1411.35], [-121.70026458799839, 47.512423591688275, 1407.99], [-121.70028747059405, 47.51249911263585, 1408.95], [-121.70030079782009, 47.51250062137842, 1408.47], [-121.70029518194497, 47.512428956106305, 1409.91], [-121.70026098378003, 47.512460723519325, 1408.47], [-121.70021404512227, 47.512346226722, 1406.55], [-121.70024078339338, 47.51222552731633, 1405.1], [-121.70020365156233, 47.5120510160923, 1403.18], [-121.70008638873696, 47.51192109659314, 1399.34], [-121.7000241111964, 47.51179654151201, 1397.41], [-121.69993501156569, 47.51173200085759, 1395.97], [-121.69989712536335, 47.511643236503005, 1395.49], [-121.6998187545687, 47.51156327314675, 1392.61], [-121.69981364160776, 47.511501079425216, 1389.72], [-121.69976804405451, 47.51145103946328, 1383.96], [-121.6997600812465, 47.51136001199484, 1381.07], [-121.69971096329391, 47.51124853268266, 1377.23], [-121.6996823810041, 47.511113081127405, 1376.26], [-121.69965488836169, 47.510942006483674, 1373.86], [-121.69965798966587, 47.51084703952074, 1377.23], [-121.6996876616031, 47.51085449941456, 1375.3], [-121.69957894831896, 47.51093513332307, 1376.26], [-121.69951189309359, 47.5108178704977, 1379.15], [-121.69942664913833, 47.51064319163561, 1380.11], [-121.69922766275704, 47.51058954745531, 1380.59], [-121.69914334081113, 47.51049625687301, 1381.07], [-121.69907695613801, 47.51043800264597, 1380.11], [-121.69900587759912, 47.510355692356825, 1376.26], [-121.69894259423018, 47.51031110063195, 1372.9], [-121.69871661812067, 47.510207584127784, 1369.54], [-121.69855216518044, 47.510082609951496, 1363.77], [-121.69843004085124, 47.51005981117487, 1359.44], [-121.69830288738012, 47.50996953807771, 1357.52], [-121.69801429845393, 47.50973551534116, 1354.15], [-121.69782386161387, 47.50963920727372, 1348.87], [-121.6975525394082, 47.509558741003275, 1347.43], [-121.69736604206264, 47.509591430425644, 1353.67], [-121.69730845838785, 47.50954667106271, 1358.96], [-121.69720385223627, 47.50949026085436, 1365.21], [-121.69705876149237, 47.50939780846238, 1372.42], [-121.69704652391374, 47.50941524282098, 1376.26], [-121.69688140042126, 47.509341314435005, 1382.51], [-121.6968690790236, 47.50931206159294, 1387.32], [-121.6967927198857, 47.509246515110135, 1387.32], [-121.6966845933348, 47.50921013765037, 1386.84], [-121.6965495608747, 47.50913545489311, 1387.32], [-121.69643732719123, 47.50899028033018, 1387.8], [-121.69638167135417, 47.50893512740731, 1392.13], [-121.69615795835853, 47.50901123508811, 1396.93], [-121.69606257230043, 47.50894828699529, 1404.14], [-121.6959971934557, 47.50885725952685, 1412.79], [-121.69586274772882, 47.50873044133186, 1419.52], [-121.69580591842532, 47.50878827646375, 1424.33], [-121.69581153430045, 47.50865701586008, 1424.81], [-121.69577012769878, 47.50862080603838, 1424.81], [-121.69570818543434, 47.50861049629748, 1427.7], [-121.69568463228643, 47.50864176079631, 1428.66], [-121.69560877606273, 47.508680149912834, 1426.73], [-121.69554465450346, 47.50874938443303, 1434.42], [-121.69549184851348, 47.50875567086041, 1438.27], [-121.69537500478327, 47.50882406719029, 1442.11], [-121.69527911581099, 47.50890268944204, 1444.52], [-121.6952683031559, 47.50892724841833, 1445.48], [-121.69521474279463, 47.5089615304023, 1446.92], [-121.6952133178711, 47.50892951153219, 1447.88], [-121.69528456404805, 47.50887938775122, 1445.96], [-121.6953388787806, 47.508865389972925, 1443.08], [-121.69554037973285, 47.5087752006948, 1435.39], [-121.69561489485204, 47.50872482545674, 1432.02], [-121.6956293117255, 47.50868886709213, 1430.1], [-121.69570986181498, 47.50864394009113, 1426.25], [-121.6957934293896, 47.50861946493387, 1420.0], [-121.69585637748241, 47.50870822928846, 1413.76], [-121.69591714628041, 47.50875181518495, 1408.95], [-121.69594983570278, 47.50880177132785, 1404.14], [-121.69600096531212, 47.50881048850715, 1403.66], [-121.69607028365135, 47.508840998634696, 1400.78], [-121.69616491533816, 47.508913334459066, 1399.34], [-121.69625233858824, 47.50894367694855, 1398.86], [-121.69639374129474, 47.508954741060734, 1395.97], [-121.69644922949374, 47.50886756926775, 1391.65], [-121.69654503464699, 47.50877469778061, 1387.8], [-121.69673002324998, 47.50866715796292, 1379.15], [-121.69684225693345, 47.508576130494475, 1379.63], [-121.69688190333545, 47.50857110135257, 1377.23], [-121.69690805487335, 47.508597588166595, 1373.38], [-121.6969832405448, 47.508566407486796, 1369.54], [-121.69697670266032, 47.50846247188747, 1364.73], [-121.69701819308102, 47.50835979357362, 1363.77], [-121.6970696579665, 47.50826356932521, 1359.44], [-121.6970818117261, 47.50818142667413, 1358.0], [-121.69710335321724, 47.50815711915493, 1347.43], [-121.69720971956849, 47.508148569613695, 1345.02], [-121.69741876423359, 47.50819869339466, 1336.85], [-121.69758061878383, 47.50812719576061, 1330.6], [-121.69760266318917, 47.50809199176729, 1325.8], [-121.69766795821488, 47.5080790836364, 1324.35], [-121.69771615415812, 47.50799987465143, 1325.8], [-121.69766435399652, 47.50801965594292, 1327.72], [-121.69773710891604, 47.50805251300335, 1325.8], [-121.69789921492338, 47.50801437534392, 1319.07], [-121.69804765842855, 47.50799182802439, 1308.49], [-121.69811798259616, 47.507939860224724, 1307.05], [-121.6981521807611, 47.50784338451922, 1305.61], [-121.69821705669165, 47.50778152607381, 1302.24], [-121.6983007080853, 47.50768421217799, 1291.19], [-121.69847111217678, 47.50765864737332, 1287.82], [-121.69849709607661, 47.507618917152286, 1282.54], [-121.69853758066893, 47.507619839161634, 1282.06], [-121.69860052876174, 47.50758505426347, 1282.06], [-121.69866900891066, 47.5074868183583, 1278.69], [-121.69866523705423, 47.50740123912692, 1275.33], [-121.69870890676975, 47.507291520014405, 1271.48], [-121.69881644658744, 47.50722907483578, 1267.64], [-121.6988308634609, 47.50724039040506, 1264.27], [-121.69896254315972, 47.50719906762242, 1259.94], [-121.69905533082783, 47.50711340457201, 1256.1], [-121.69915440492332, 47.507060933858156, 1253.22], [-121.6992505453527, 47.50698734074831, 1252.25], [-121.69931181706488, 47.50701307319105, 1250.33], [-121.69934215955436, 47.50694400630891, 1247.45], [-121.69951130636036, 47.50687544234097, 1242.64], [-121.69963485561311, 47.506816098466516, 1237.35], [-121.69982763938606, 47.506755497306585, 1232.55], [-121.69997340068221, 47.50665935687721, 1229.66], [-121.70016065239906, 47.50661459751427, 1226.78], [-121.70035385526717, 47.506582494825125, 1221.49], [-121.70040649361908, 47.50649398192763, 1220.05], [-121.70054152607918, 47.50644595362246, 1216.69], [-121.70069206506014, 47.50640538521111, 1213.32], [-121.700818547979, 47.50634612515569, 1209.96], [-121.70080555602908, 47.50632039271295, 1208.03], [-121.70090597122908, 47.50627823174, 1202.27], [-121.7010048776865, 47.506225258111954, 1197.94], [-121.7011412512511, 47.506099194288254, 1192.17], [-121.7013627011329, 47.505924263969064, 1185.92], [-121.70144568197429, 47.50592610798776, 1183.04], [-121.70153704471886, 47.50590682961047, 1180.64], [-121.70168984681368, 47.50584991648793, 1174.87], [-121.70183066278696, 47.50575930811465, 1159.97], [-121.70194239355624, 47.505650762468576, 1156.6], [-121.70202906243503, 47.50565327703953, 1154.2], [-121.7021447326988, 47.50567641109228, 1150.35], [-121.70232703909278, 47.50563969835639, 1141.22], [-121.70254044234753, 47.50558152794838, 1123.44], [-121.70249802991748, 47.505565602332354, 1117.67], [-121.7025366704911, 47.50553132034838, 1134.01], [-121.70263943262398, 47.50555763952434, 1131.61], [-121.70292852446437, 47.50539536587894, 1117.67], [-121.70299507677555, 47.50532403588295, 1109.02], [-121.70305349864066, 47.505177184939384, 1097.0], [-121.7031603679061, 47.505111219361424, 1092.68], [-121.7033411655575, 47.504962105304, 1084.99], [-121.70353034511209, 47.50485012307763, 1072.97], [-121.70354928821325, 47.504803854972124, 1069.12], [-121.70360921882093, 47.50473964959383, 1069.12], [-121.70366747304797, 47.5046013481915, 1068.64], [-121.70376420021057, 47.50455625355244, 1066.24], [-121.70380158349872, 47.50450512394309, 1064.32], [-121.70382429845631, 47.504416946321726, 1062.39], [-121.70388674363494, 47.50438375398517, 1057.59], [-121.7038990650326, 47.504329942166805, 1051.82], [-121.70396293513477, 47.504302617162466, 1047.49], [-121.70402890071273, 47.50424888916314, 1043.65], [-121.70413417741656, 47.50422114506364, 1043.17], [-121.70414834283292, 47.50419080257416, 1040.28], [-121.70412596315145, 47.50414872542024, 1033.55], [-121.70403652824461, 47.50419625081122, 1035.0], [-121.70399805530906, 47.50419449061155, 1042.21], [-121.70411699451506, 47.504157861694694, 1039.8], [-121.70415773056448, 47.504129111766815, 1039.8], [-121.70421112328768, 47.50413212925196, 1035.48], [-121.70433232560754, 47.504023499786854, 1030.67], [-121.70436501502991, 47.50396365299821, 1026.83], [-121.70437297783792, 47.50387824140489, 1023.94], [-121.70442025177181, 47.503785118460655, 1021.54], [-121.7044411227107, 47.50370230525732, 1018.17], [-121.7044723033905, 47.50364497303963, 1016.25], [-121.70449652709067, 47.503551598638296, 1014.81], [-121.70448596589267, 47.50350248068571, 1011.44], [-121.7045486625284, 47.50341061502695, 1007.6], [-121.70456140302122, 47.50337599776685, 1007.6], [-121.70460063032806, 47.50334741547704, 1006.16], [-121.70458638109267, 47.50332101248205, 1000.87], [-121.70466592535377, 47.5032889097929, 997.51], [-121.70468386262655, 47.50322881154716, 995.58], [-121.7047468945384, 47.503195283934474, 993.18], [-121.70480933971703, 47.50309159979224, 985.01], [-121.70483565889299, 47.50299755483866, 982.12], [-121.70481277629733, 47.502939803525805, 980.2], [-121.70483213849366, 47.502834778279066, 978.76], [-121.70486742630601, 47.50276864506304, 975.88], [-121.70487924478948, 47.50264006666839, 966.74], [-121.70495996251702, 47.502593379467726, 962.42], [-121.70499986037612, 47.502545937895775, 958.57], [-121.70499935746193, 47.50246077775955, 953.28], [-121.70508837327361, 47.502433033660054, 948.96], [-121.70515291392803, 47.50238684937358, 945.11], [-121.70521460473537, 47.50237989239395, 941.75], [-121.70531024225056, 47.502389028668404, 938.86], [-121.70536908321083, 47.5023150164634, 936.46], [-121.70534360222518, 47.502270424738526, 933.1], [-121.70539163053036, 47.50229422934353, 931.65], [-121.7053891159594, 47.502316609025, 924.45], [-121.70544426888227, 47.502333372831345, 922.52], [-121.70551526360214, 47.502334378659725, 920.6], [-121.70553035102785, 47.50241140834987, 918.2], [-121.70567602850497, 47.502416940405965, 917.24], [-121.70566244982183, 47.502398919314146, 913.39], [-121.70582614839077, 47.50227369368076, 918.2], [-121.7056827340275, 47.50228090211749, 918.68], [-121.70569916255772, 47.502297246828675, 917.72], [-121.70584986917675, 47.502338821068406, 913.39], [-121.70589982531965, 47.50233949162066, 910.03], [-121.70594743452966, 47.50227587297559, 907.62], [-121.70587836764753, 47.502249889075756, 899.93], [-121.70576537959278, 47.50215299427509, 907.14], [-121.7057744320482, 47.5020869448781, 904.74], [-121.7058191075921, 47.50207512639463, 901.37], [-121.70582338236272, 47.50201787799597, 898.97], [-121.7058661300689, 47.501971358433366, 896.57], [-121.70589881949127, 47.50185862183571, 893.68], [-121.70589965768158, 47.50190011225641, 887.91], [-121.70585598796606, 47.50175468623638, 885.03], [-121.70587099157274, 47.501715710386634, 885.51], [-121.70582790859044, 47.501701628789306, 884.07], [-121.70581550337374, 47.5016569532454, 880.22], [-121.70590686611831, 47.501613115891814, 875.42], [-121.70595430769026, 47.50162124633789, 871.57], [-121.70592212118208, 47.50163725577295, 874.46], [-121.70593620277941, 47.501588724553585, 875.42], [-121.70597836375237, 47.50154044479132, 874.94], [-121.70598490163684, 47.501573553308845, 867.25], [-121.7060072813183, 47.501529632136226, 862.92], [-121.70603292994201, 47.501549664884806, 861.96], [-121.7061269748956, 47.50151412561536, 858.59], [-121.70615639537573, 47.501429384574294, 856.67], [-121.70617802068591, 47.50144246034324, 851.38], [-121.70625396072865, 47.50157590024173, 851.38], [-121.70627675950527, 47.50157321803272, 848.5], [-121.70634834095836, 47.50163834542036, 845.62], [-121.70630316250026, 47.50163692049682, 846.1], [-121.70636636205018, 47.50156341120601, 847.06], [-121.70644397847354, 47.50157757662237, 845.62], [-121.7064631730318, 47.50161873176694, 841.29], [-121.70656551606953, 47.501623844727874, 838.41], [-121.7065844591707, 47.50160297378898, 834.56], [-121.70661631040275, 47.50164178200066, 830.24], [-121.7066018935293, 47.50167388468981, 827.35], [-121.70668336562812, 47.50170037150383, 824.47], [-121.70670063234866, 47.501722667366266, 818.22], [-121.7068241816014, 47.50178008340299, 817.26], [-121.70680448412895, 47.5017518363893, 821.58], [-121.7068748921156, 47.50177136622369, 811.01], [-121.70686349272728, 47.501807659864426, 810.53], [-121.70698033645749, 47.50181972980499, 811.49], [-121.70698804780841, 47.501729456707835, 806.2], [-121.70695820823312, 47.50171193853021, 799.47], [-121.70705460011959, 47.50173230655491, 798.03], [-121.70706977136433, 47.50165460631251, 796.59], [-121.7071265168488, 47.50159735791385, 796.11], [-121.70703632757068, 47.50160372816026, 795.63], [-121.70712014660239, 47.50168033875525, 790.82], [-121.70718820765615, 47.5016862899065, 785.05], [-121.70707052573562, 47.50153583474457, 796.59], [-121.70711687766016, 47.501530135050416, 795.15], [-121.70709097757936, 47.501473892480135, 788.9], [-121.70712877996266, 47.50145260244608, 784.57], [-121.70720371417701, 47.5013807695359, 783.13], [-121.7071629781276, 47.501441203057766, 782.65], [-121.70731913298368, 47.50140331685543, 792.26], [-121.70734838582575, 47.50136526301503, 798.51], [-121.70720396563411, 47.501340452581644, 802.36], [-121.70739859342575, 47.501359563320875, 800.92], [-121.70727755874395, 47.50133693218231, 798.51], [-121.70715543441474, 47.501409351825714, 785.53], [-121.70717865228653, 47.50143080949783, 782.17], [-121.7073374055326, 47.50143541954458, 783.13], [-121.70731955207884, 47.50148839317262, 777.36], [-121.70740571804345, 47.501464169472456, 779.77], [-121.70739666558802, 47.50140918418765, 777.36], [-121.70750118792057, 47.50149434432387, 774.0], [-121.70753605663776, 47.50146978534758, 770.63], [-121.70747889205813, 47.50148051418364, 767.75], [-121.70746020041406, 47.501558968797326, 761.02], [-121.70741611160338, 47.5015515089035, 758.62], [-121.70748920179904, 47.50147900544107, 761.5], [-121.70759883709252, 47.50148386694491, 768.23], [-121.70772397890687, 47.5015102699399, 772.08], [-121.70765155926347, 47.50146400183439, 766.79], [-121.70760478824377, 47.50149074010551, 765.35], [-121.70769941993058, 47.50150557607412, 770.63], [-121.70775356702507, 47.501462157815695, 769.67], [-121.70774694532156, 47.50143952667713, 770.63], [-121.70788390561938, 47.50156399793923, 765.35], [-121.70793847180903, 47.501589646562934, 764.87], [-121.70815648511052, 47.501547234132886, 766.31], [-121.70811574906111, 47.501539438962936, 766.31], [-121.70806453563273, 47.50159090384841, 764.39], [-121.70807400718331, 47.501664916053414, 752.37], [-121.70815967023373, 47.501613115891814, 731.22], [-121.70807166025043, 47.50162627547979, 724.49], [-121.70798197388649, 47.50168805010617, 718.24], [-121.70803134329617, 47.50170070677996, 708.15], [-121.7079984024167, 47.50176440924406, 706.71], [-121.70795322395861, 47.50170045532286, 703.82], [-121.70794425532222, 47.50161965377629, 702.38], [-121.70796697027981, 47.50141161493957, 705.26], [-121.7080057784915, 47.501235678792, 707.67], [-121.70791014097631, 47.5011183321476, 705.26], [-121.707872338593, 47.50103292055428, 706.71], [-121.70796185731888, 47.50103333964944, 707.67], [-121.70817014761269, 47.50111388973892, 710.07], [-121.70835832133889, 47.501153284683824, 712.95], [-121.70833409763873, 47.50096259638667, 712.95], [-121.70827927999198, 47.50081465579569, 712.47], [-121.70828305184841, 47.50069915316999, 710.55], [-121.7083697207272, 47.50068850815296, 708.63], [-121.70838195830584, 47.50071172602475, 707.67], [-121.7084703873843, 47.5007813796401, 708.15], [-121.70865545980632, 47.50085455365479, 708.63], [-121.7087965272367, 47.500899732112885, 710.07], [-121.70891957357526, 47.500909036025405, 710.07], [-121.70886090025306, 47.50089445151389, 703.34], [-121.70874682255089, 47.501016575843096, 695.65], [-121.7088427953422, 47.50099251978099, 692.29], [-121.70875570736825, 47.50092403963208, 688.44], [-121.7087132949382, 47.50082965940237, 686.52], [-121.70866266824305, 47.50066344626248, 685.08], [-121.70863525941968, 47.500518690794706, 684.6], [-121.70866954140365, 47.50044409185648, 684.12], [-121.70858823694289, 47.50043638050556, 684.12], [-121.70864230021834, 47.500454653054476, 685.08], [-121.7088763229549, 47.50049103051424, 684.12], [-121.70906508341432, 47.50065917149186, 683.63], [-121.70929357409477, 47.500768806785345, 679.31], [-121.70943933539093, 47.50087802298367, 674.98], [-121.70958735980093, 47.501079021021724, 668.25], [-121.7097466159612, 47.50109980814159, 657.68], [-121.70990444719791, 47.50091071240604, 662.49], [-121.70987024903297, 47.500915909186006, 663.45], [-121.70997502282262, 47.50080577097833, 665.85], [-121.7100505437702, 47.50070166774094, 665.85], [-121.71005515381694, 47.5005414057523, 665.37], [-121.70997929759324, 47.5004618614912, 666.33], [-121.70986454933882, 47.500396901741624, 657.68], [-121.70984024181962, 47.500397404655814, 657.2], [-121.7098052892834, 47.50035423785448, 657.68], [-121.70973555184901, 47.50023253262043, 656.72], [-121.70955039560795, 47.50002591870725, 653.83], [-121.70953379943967, 47.499920977279544, 654.8], [-121.70952265150845, 47.49999457038939, 654.31], [-121.70947286300361, 47.49993396922946, 655.28], [-121.7095843423158, 47.50000060535967, 653.83], [-121.70973119325936, 47.500098422169685, 647.59], [-121.70982515439391, 47.500195149332285, 639.89], [-121.7098740208894, 47.50025935471058, 628.36], [-121.70993311330676, 47.50031031668186, 626.44], [-121.71011106111109, 47.50038801692426, 625.47], [-121.71028121374547, 47.500428669154644, 625.96], [-121.7103026714176, 47.50049094669521, 621.15], [-121.71040887013078, 47.50051299110055, 618.26], [-121.71047542244196, 47.50056713819504, 615.38], [-121.71058128587902, 47.50067526474595, 614.42], [-121.7106079403311, 47.50059999525547, 612.5], [-121.71051532030106, 47.5004325248301, 612.02], [-121.71043401584029, 47.500342167913914, 611.06], [-121.71041004359722, 47.500229347497225, 609.61], [-121.71028599143028, 47.50007956288755, 608.65], [-121.71024232171476, 47.499964982271194, 608.17], [-121.71000016853213, 47.4999768845737, 597.12], [-121.71002036891878, 47.49995685182512, 597.12], [-121.7100037727505, 47.49991946853697, 591.83], [-121.70993043109775, 47.499898597598076, 590.87], [-121.71001994982362, 47.4998989328742, 589.43], [-121.71002866700292, 47.49994025565684, 586.54], [-121.71007610857487, 47.499965988099575, 582.22], [-121.71019873581827, 47.4999475479126, 576.93], [-121.71035807579756, 47.500008065253496, 572.6], [-121.71062554232776, 47.500046622008085, 568.28], [-121.71073224395514, 47.500087609514594, 568.28], [-121.71083802357316, 47.500040754675865, 566.35], [-121.71072637662292, 47.49998820014298, 562.51], [-121.71061171218753, 47.49986565671861, 557.22], [-121.71057231724262, 47.499801367521286, 554.82], [-121.71046712435782, 47.4996970128268, 553.86], [-121.71036159619689, 47.49964579939842, 553.86], [-121.71029353514314, 47.49954462982714, 551.93], [-121.71028439886868, 47.49956499785185, 552.41], [-121.7103320080787, 47.49963314272463, 548.57], [-121.71046561561525, 47.49964311718941, 545.2], [-121.71052663587034, 47.499667927622795, 543.28], [-121.71064180321991, 47.49968100339174, 543.76], [-121.71083383262157, 47.49973104335368, 542.32], [-121.71097875572741, 47.49980388209224, 542.32], [-121.71109677292407, 47.49983481131494, 541.36], [-121.711146812886, 47.49982953071594, 540.88], [-121.71124731190503, 47.499769013375044, 538.96], [-121.71129232272506, 47.499721655622125, 538.96], [-121.71133632771671, 47.4996433686465, 537.51], [-121.71131344512105, 47.49964462593198, 529.34], [-121.71131704933941, 47.49971654266119, 527.9], [-121.71135460026562, 47.499641524627805, 524.06], [-121.71136574819684, 47.49951244331896, 522.61], [-121.71124689280987, 47.499501798301935, 522.13], [-121.71121177263558, 47.49937196262181, 523.09], [-121.71124270185828, 47.49943952076137, 522.13], [-121.71124261803925, 47.499407501891255, 518.77], [-121.71113667078316, 47.499273139983416, 515.88], [-121.71094983816147, 47.49913953244686, 515.4], [-121.71080424450338, 47.49907683581114, 514.44], [-121.7107376921922, 47.49902503564954, 512.52], [-121.71060140244663, 47.49899226240814, 509.16], [-121.71056812629104, 47.4989940226078, 509.16], [-121.71051263809204, 47.49894004315138, 507.23], [-121.71029630117118, 47.49885815195739, 502.43], [-121.71020334586501, 47.49883275479078, 501.46], [-121.71005314216018, 47.498771818354726, 500.5], [-121.70995607972145, 47.49865765683353, 498.1], [-121.70984342694283, 47.498541651293635, 495.7], [-121.70980495400727, 47.49853251501918, 494.74], [-121.70976161956787, 47.49849756248295, 494.26], [-121.70961191877723, 47.49840737320483, 491.37], [-121.70949842780828, 47.498370157554746, 490.41], [-121.70943472534418, 47.498320620507, 489.45], [-121.70931695960462, 47.49828793108463, 488.01], [-121.7092833481729, 47.49826932325959, 488.97], [-121.70911747030914, 47.498224563896656, 484.64], [-121.70906223356724, 47.49822950921953, 484.16], [-121.70894446782768, 47.498194221407175, 481.76], [-121.70879870653152, 47.49813496135175, 479.35], [-121.70868722721934, 47.498059356585145, 478.39], [-121.70857968740165, 47.49802968464792, 477.43], [-121.70852294191718, 47.497983584180474, 478.39], [-121.70862084254622, 47.49802147038281, 477.91], [-121.70870231464505, 47.49803421087563, 477.43], [-121.70874212868512, 47.49802289530635, 476.95], [-121.70883349142969, 47.498032031580806, 475.99], [-121.70887984335423, 47.498053489252925, 475.99], [-121.70903096906841, 47.4980772100389, 475.51], [-121.70916901901364, 47.49809036962688, 475.03], [-121.70932685025036, 47.49805608764291, 473.11], [-121.7090037278831, 47.49793253839016, 468.78], [-121.70878973789513, 47.497903453186154, 468.3], [-121.7086532805115, 47.49783924780786, 466.38], [-121.70868521556258, 47.497875206172466, 469.74], [-121.70871128328145, 47.4978457018733, 469.74], [-121.70864313840866, 47.49785198830068, 469.74], [-121.7085309047252, 47.49780488200486, 467.82], [-121.70834289863706, 47.497735898941755, 463.97], [-121.70807065442204, 47.497682673856616, 461.09], [-121.70799479819834, 47.49766331166029, 460.61], [-121.70769665390253, 47.497624000534415, 460.13], [-121.70753479935229, 47.49761360697448, 459.65], [-121.70726096257567, 47.497620563954115, 457.72], [-121.70681211166084, 47.497564908117056, 453.88], [-121.70661002397537, 47.497549736872315, 451.96], [-121.70652360655367, 47.4975227471441, 451.0], [-121.70625312253833, 47.49752123840153, 448.59], [-121.70607383362949, 47.4974762275815, 444.75], [-121.70583277009428, 47.49743222258985, 444.27], [-121.70561601407826, 47.4973483197391, 446.67], [-121.70534494332969, 47.497324934229255, 446.19], [-121.70508761890233, 47.497316133230925, 442.82], [-121.7048417776823, 47.49728503637016, 441.38], [-121.70462384819984, 47.49728227034211, 439.46], [-121.70440960675478, 47.49725134111941, 439.94], [-121.70393887907267, 47.49725829809904, 438.98], [-121.70373570173979, 47.497245306149125, 439.46], [-121.70350167900324, 47.49726693145931, 437.54], [-121.70297563076019, 47.49735309742391, 435.13], [-121.70269693247974, 47.49735351651907, 434.65], [-121.7025007121265, 47.49727338552475, 432.25], [-121.70237506739795, 47.49714178964496, 430.81], [-121.70222436077893, 47.496956465765834, 431.77], [-121.70225780457258, 47.4967750813812, 434.17], [-121.70240951701999, 47.49645883217454, 433.69], [-121.70234204269946, 47.49621064402163, 428.89], [-121.70226199552417, 47.49605767428875, 426.48], [-121.70218354091048, 47.49592775478959, 420.71], [-121.70205345377326, 47.495793644338846, 417.35], [-121.70194767415524, 47.495669005438685, 411.58], [-121.7018249630928, 47.49544554390013, 410.62], [-121.70182471163571, 47.49528209678829, 411.58], [-121.7017662897706, 47.49517531134188, 411.58], [-121.70169806107879, 47.4951658397913, 410.62], [-121.7016211990267, 47.495019072666764, 407.74], [-121.7015574965626, 47.49487322755158, 405.33], [-121.70154064893723, 47.494692765176296, 405.81], [-121.70150150544941, 47.49462654814124, 405.33], [-121.7015937063843, 47.49446234665811, 407.74], [-121.70161390677094, 47.49437794089317, 408.7], [-121.70161851681769, 47.49417141079903, 408.7], [-121.70169722288847, 47.49400201253593, 408.7], [-121.70178221538663, 47.493851725012064, 411.1], [-121.7018962930888, 47.49368157237768, 413.5], [-121.70209310017526, 47.49352508224547, 413.98], [-121.70223441906273, 47.49333489686251, 416.39], [-121.70249249786139, 47.49304438009858, 413.02], [-121.70265703462064, 47.49279895797372, 412.06], [-121.70290388166904, 47.49251263216138, 412.54], [-121.70315743423998, 47.4924304895103, 409.18], [-121.70340470038354, 47.492399560287595, 403.41], [-121.70370946638286, 47.49235429801047, 399.08], [-121.70396603643894, 47.492250027135015, 398.12], [-121.70415747910738, 47.49227265827358, 402.45], [-121.70422947965562, 47.49227525666356, 403.41], [-121.7047381773591, 47.492145504802465, 403.41], [-121.70498007908463, 47.492050705477595, 400.53], [-121.70535391196609, 47.49204156920314, 395.72], [-121.70565130189061, 47.49214676208794, 391.39], [-121.70585003681481, 47.49221314676106, 389.47], [-121.70596914365888, 47.49228162690997, 389.95], [-121.70628941617906, 47.49252000823617, 396.68], [-121.70637398958206, 47.49270424246788, 395.24], [-121.7063912563026, 47.49282133765519, 395.24], [-121.70637608505785, 47.493018731474876, 392.84], [-121.70639066956937, 47.493189722299576, 392.84], [-121.7062617558986, 47.493326934054494, 391.39], [-121.70608296990395, 47.4935441929847, 388.99], [-121.70607383362949, 47.49371669255197, 383.22], [-121.70607978478074, 47.4938983283937, 380.82], [-121.7061264719814, 47.49404216185212, 379.86], [-121.7061771824956, 47.494138050824404, 377.94], [-121.70625169761479, 47.49425430782139, 378.42], [-121.70644816942513, 47.4943626858294, 376.49], [-121.70651740394533, 47.49438498169184, 375.05], [-121.70665059238672, 47.494465950876474, 371.69], [-121.70675980858505, 47.49452303163707, 369.28], [-121.70675645582378, 47.49454440549016, 365.92], [-121.70693230815232, 47.49444281682372, 366.88], [-121.70705812051892, 47.49440551735461, 363.52], [-121.70727454125881, 47.494245087727904, 359.19], [-121.70753044076264, 47.49416529200971, 357.27], [-121.70783042907715, 47.494076611474156, 349.58], [-121.7080607637763, 47.49391500838101, 347.65], [-121.70827383175492, 47.49376111663878, 344.29], [-121.70848463661969, 47.49356925487518, 347.17], [-121.70870457775891, 47.49340237118304, 347.17], [-121.7087605688721, 47.493338165804744, 345.73], [-121.7088945955038, 47.493253257125616, 339.0], [-121.70909794047475, 47.49318762682378, 333.71], [-121.70927111059427, 47.49310347251594, 327.47], [-121.70941066928208, 47.493000123649836, 321.22], [-121.70958057045937, 47.49283416196704, 326.02], [-121.7097701691091, 47.49259318225086, 333.71], [-121.70978986658156, 47.49247784726322, 335.64], [-121.70994836837053, 47.492265617474914, 346.21], [-121.7099295090884, 47.492085322737694, 350.06], [-121.70990268699825, 47.49191961251199, 349.58], [-121.70992129482329, 47.491758512333035, 350.54], [-121.70995750464499, 47.49170537106693, 350.54], [-121.71002900227904, 47.491546869277954, 349.1], [-121.71008633449674, 47.491370514035225, 348.62], [-121.71005666255951, 47.49117638915777, 349.58], [-121.71001835726202, 47.49098067171872, 343.33], [-121.70990947633982, 47.49080113135278, 339.48], [-121.70987318269908, 47.49068411998451, 334.68], [-121.70984460040927, 47.49053869396448, 333.23], [-121.70979254879057, 47.490431321784854, 335.16], [-121.709666820243, 47.49030861072242, 336.12], [-121.7096255812794, 47.4902596604079, 336.6], [-121.70946741476655, 47.49011448584497, 341.41], [-121.70918863266706, 47.489892952144146, 339.0], [-121.70897581614554, 47.48975062742829, 339.48], [-121.70881605707109, 47.489628000184894, 337.08], [-121.70868462882936, 47.4894271697849, 341.89], [-121.70846913009882, 47.4891977570951, 342.37], [-121.70833795331419, 47.48907873407006, 341.89], [-121.70819688588381, 47.48892366886139, 339.48], [-121.70801650732756, 47.488611275330186, 337.08], [-121.7079761903733, 47.48843835666776, 335.16], [-121.70787451788783, 47.48832939192653, 332.27], [-121.70777988620102, 47.488188575953245, 328.91], [-121.70770218595862, 47.48803233727813, 329.87], [-121.70759523287416, 47.48790048994124, 331.31], [-121.7072409298271, 47.48769194819033, 325.54], [-121.7070369143039, 47.48764500953257, 322.66], [-121.70680297538638, 47.4876366276294, 320.26], [-121.70659745112062, 47.48765573836863, 319.78], [-121.70649007894099, 47.487676525488496, 319.3], [-121.7062905896455, 47.48778322711587, 318.33], [-121.7061806190759, 47.48780133202672, 315.45], [-121.70604106038809, 47.487845588475466, 314.97], [-121.70596478506923, 47.48790401034057, 316.89], [-121.70571651309729, 47.487878780812025, 314.49], [-121.70542809180915, 47.48783930204809, 315.45], [-121.70528249815106, 47.487764451652765, 314.97], [-121.70517177321017, 47.48773092404008, 316.89], [-121.7049126047641, 47.48766956850886, 315.45], [-121.70474136248231, 47.4876419082284, 313.53], [-121.7045431304723, 47.487591952085495, 308.72], [-121.70434598810971, 47.487534284591675, 308.24], [-121.70415035448968, 47.48747041448951, 303.91], [-121.70394072309136, 47.48744803480804, 304.39], [-121.70386268757284, 47.48740956187248, 303.91], [-121.70361516997218, 47.48740000650287, 301.03], [-121.70331778004766, 47.48738123103976, 299.59], [-121.70313572511077, 47.487333454191685, 301.03], [-121.70298485085368, 47.48725810088217, 301.51], [-121.70289432629943, 47.48719238676131, 303.43], [-121.70276826247573, 47.48703941702843, 307.76], [-121.70266793109477, 47.486890805885196, 310.16], [-121.70246534049511, 47.486765747889876, 311.12], [-121.70235612429678, 47.48662761412561, 311.12], [-121.70230692252517, 47.48647036962211, 317.85], [-121.70225621201098, 47.48639811761677, 319.78], [-121.70198480598629, 47.48627523891628, 321.7], [-121.701764697209, 47.48618295416236, 316.41], [-121.70151986181736, 47.48613467440009, 307.28], [-121.70138055458665, 47.48602998442948, 301.51], [-121.70120973140001, 47.48597038909793, 299.11], [-121.70104527845979, 47.48598698526621, 294.3], [-121.70100605115294, 47.486008778214455, 290.46], [-121.70097478665411, 47.48599042184651, 286.61], [-121.70100010000169, 47.485968293622136, 285.17], [-121.70100999064744, 47.48602428473532, 284.69], [-121.70098073780537, 47.48601816594601, 283.73]]}}