{"type": "Feature", "properties": {}, "geometry": {"type": "LineString", "coordinates": [[-121.58928877674043, 47.41030728444457, 651.91], [-121.58934191800654, 47.41017594002187, 651.91], [-121.5893682371825, 47.4099534843117, 651.91], [-121.58940562047064, 47.409832533448935, 651.91], [-121.58951039426029, 47.40956615656614, 651.91], [-121.5896084625274, 47.40941930562258, 651.91], [-121.58972388133407, 47.40916969254613, 651.91], [-121.58974609337747, 47.408890910446644, 651.43], [-121.58972639590502, 47.40861447528005, 651.43], [-121.58968264237046, 47.40844708867371, 651.43], [-121.58966830931604, 47.40831909701228, 651.43], [-121.58965774811804, 47.40808012895286, 651.43], [-121.58967149443924, 47.40790218114853, 651.43], [-121.58970728516579, 47.407815009355545, 651.43], [-121.5896668843925, 47.40779095329344, 651.43], [-121.58937871456146, 47.407340593636036, 549.53], [-121.5893785469234, 47.407173961400986, 543.28], [-121.58934376202524, 47.4070799164474, 548.57], [-121.58944820053875, 47.40695276297629, 545.2], [-121.58956973813474, 47.406848492100835, 545.2], [-121.58961500041187, 47.4069366697222, 548.09], [-121.58972589299083, 47.407038509845734, 551.93], [-121.58987559378147, 47.4071198143065, 556.26], [-121.59007734619081, 47.407088885083795, 559.14], [-121.59014389850199, 47.40713548846543, 564.43], [-121.59036132507026, 47.40697681903839, 568.76], [-121.59043064340949, 47.407002970576286, 566.35], [-121.5904494188726, 47.40688838995993, 567.32], [-121.59050926566124, 47.40690942853689, 574.53], [-121.59066231921315, 47.40707941353321, 576.93], [-121.59071831032634, 47.407100619748235, 576.45], [-121.59083892591298, 47.407208662480116, 576.93], [-121.59103020094335, 47.40722542628646, 579.33], [-121.59114545211196, 47.40734411403537, 586.54], [-121.5912922192365, 47.40739314816892, 592.31], [-121.59130303189158, 47.4075495544821, 592.31], [-121.59125994890928, 47.40770830772817, 592.79], [-121.59123413264751, 47.40791207179427, 593.75], [-121.59116095863283, 47.40827517583966, 588.46], [-121.59110496751964, 47.40842118859291, 587.98], [-121.59104889258742, 47.408738527446985, 587.98], [-121.59108518622816, 47.40891479887068, 587.02], [-121.59114268608391, 47.40912929177284, 586.54], [-121.59120094031096, 47.40928108803928, 588.46], [-121.59128249622881, 47.409456856548786, 593.27], [-121.59129406325519, 47.40954444743693, 594.23], [-121.59155935049057, 47.409861451014876, 599.04], [-121.59185506403446, 47.41004928946495, 598.08], [-121.59191600047052, 47.41009388118982, 597.6], [-121.59217860549688, 47.410219609737396, 596.15], [-121.59237465821207, 47.410325640812516, 595.67], [-121.59249083139002, 47.41033175960183, 594.23], [-121.59270574338734, 47.41039386950433, 592.79], [-121.59300858154893, 47.41045136936009, 590.87], [-121.59330639056861, 47.41046167910099, 584.14], [-121.59345516934991, 47.41063166409731, 581.73], [-121.59368416294456, 47.41074305959046, 582.7], [-121.59392145462334, 47.4107960332185, 582.22], [-121.59421213902533, 47.41083383560181, 584.14], [-121.59446569159627, 47.41086049005389, 585.58], [-121.59475117921829, 47.41095378063619, 581.25], [-121.59494119696319, 47.41104120388627, 582.22], [-121.59516097046435, 47.411184618249536, 583.18], [-121.59532123245299, 47.41135016083717, 585.58], [-121.59549683332443, 47.41148033179343, 583.66], [-121.59570177085698, 47.41170261986554, 583.18], [-121.59573211334646, 47.411746541038156, 583.18], [-121.5957938041538, 47.411966901272535, 587.5], [-121.59599455073476, 47.41206337697804, 587.02], [-121.59618465229869, 47.41203990764916, 583.18], [-121.5962787810713, 47.411968410015106, 573.56], [-121.59631147049367, 47.41186749190092, 569.24], [-121.59640023484826, 47.411662889644504, 563.95], [-121.5964896697551, 47.411480247974396, 564.43], [-121.5965242870152, 47.41112032905221, 564.91], [-121.59650048241019, 47.41122476756573, 573.08], [-121.59662386402488, 47.41124597378075, 575.49], [-121.59673391841352, 47.4115854408592, 582.22], [-121.59676660783589, 47.41182482801378, 585.1], [-121.5967801027, 47.41201342083514, 589.91], [-121.59672327339649, 47.41223302669823, 591.83], [-121.5966799389571, 47.412430169060826, 599.04], [-121.59661925397813, 47.41263552568853, 599.04], [-121.5965792723, 47.412856640294194, 599.52], [-121.59652370028198, 47.413067277520895, 596.64], [-121.59643795341253, 47.41328009404242, 597.12], [-121.59643518738449, 47.41343926638365, 601.44], [-121.59655228257179, 47.41357279010117, 604.81], [-121.5967298951, 47.41372777149081, 606.73], [-121.59667884930968, 47.41362693719566, 613.94], [-121.59661523066461, 47.41339115425944, 616.82], [-121.59668404608965, 47.41319049149752, 621.15], [-121.59687029197812, 47.41306082345545, 617.78], [-121.59696660004556, 47.41302779875696, 615.86], [-121.59708386287093, 47.41290584206581, 613.46], [-121.59731277264655, 47.41253930144012, 615.38], [-121.59751779399812, 47.41233101114631, 620.19], [-121.59771862439811, 47.41215582937002, 625.47], [-121.59783412702382, 47.411999674513936, 627.4], [-121.59803663380444, 47.41186195984483, 627.4], [-121.59818801097572, 47.411704547703266, 629.8], [-121.59837568178773, 47.41153305396438, 632.68], [-121.59848959185183, 47.411383520811796, 635.57], [-121.59866980277002, 47.41122149862349, 634.13], [-121.5988225210458, 47.41105629131198, 633.17], [-121.59917891956866, 47.41070995107293, 637.97], [-121.59947664476931, 47.41038439795375, 648.07], [-121.59958016127348, 47.41024701856077, 652.87], [-121.59977001138031, 47.41009128279984, 658.16], [-121.59994376823306, 47.40989531390369, 660.08], [-121.60018323920667, 47.40973907522857, 662.97], [-121.6003545653075, 47.409648383036256, 662.97], [-121.60059361718595, 47.40954629145563, 660.56], [-121.60086971707642, 47.409451408311725, 661.04], [-121.60136927850544, 47.40926809608936, 662.49], [-121.60130247473717, 47.40935233421624, 662.97], [-121.60110717639327, 47.409496838226914, 667.29], [-121.60107180476189, 47.409510500729084, 668.73], [-121.60108144395053, 47.409578897058964, 656.72], [-121.60098547115922, 47.40954000502825, 657.68], [-121.60094414837658, 47.409614687785506, 662.49], [-121.60110365599394, 47.40962767973542, 664.41], [-121.60127246752381, 47.40954402834177, 666.33], [-121.60151378251612, 47.40937488153577, 666.81], [-121.60174344666302, 47.40929977968335, 669.7], [-121.60194804891944, 47.409246722236276, 672.1], [-121.60206757485867, 47.4091780744493, 672.58], [-121.60231861285865, 47.40908268839121, 674.5], [-121.60254190675914, 47.409032229334116, 674.5], [-121.60248599946499, 47.40902711637318, 683.15], [-121.60245046019554, 47.409109845757484, 687.0], [-121.60208567976952, 47.4094957485795, 702.38], [-121.60176205448806, 47.40977570414543, 720.16], [-121.60163808614016, 47.40991584956646, 728.82], [-121.60162249580026, 47.40999807603657, 730.74], [-121.60148193128407, 47.4101450946182, 735.07], [-121.60131756216288, 47.41040493361652, 745.16], [-121.60117615945637, 47.41052119061351, 749.49], [-121.60104422830045, 47.41059788502753, 751.89], [-121.60105437040329, 47.4107080232352, 754.29], [-121.60111430101097, 47.41092964075506, 750.93], [-121.60109158605337, 47.41109199821949, 749.0], [-121.60149911418557, 47.41099024191499, 742.28], [-121.60173540003598, 47.41089552640915, 734.58], [-121.60191234201193, 47.410746328532696, 732.66], [-121.6023023519665, 47.41055899299681, 733.14], [-121.60276620648801, 47.410321617498994, 732.66], [-121.60295245237648, 47.4102056119591, 736.03], [-121.60348009318113, 47.41005918011069, 744.68], [-121.60369475372136, 47.40992180071771, 748.04], [-121.60413245670497, 47.40976304747164, 749.97], [-121.60425466485322, 47.40968903526664, 754.29], [-121.60434066317976, 47.40961208939552, 758.62], [-121.6044573392719, 47.40956548601389, 760.54], [-121.60465942695737, 47.40946624428034, 762.46], [-121.60481608472764, 47.40940296091139, 764.87], [-121.6049494408071, 47.40933339111507, 770.15], [-121.60522160120308, 47.409337582066655, 778.32], [-121.60543240606785, 47.40931201726198, 778.32], [-121.60571873188019, 47.4093197286129, 773.04], [-121.60592157393694, 47.40936113521457, 775.92], [-121.60613883286715, 47.409362057223916, 769.19], [-121.60630756057799, 47.40933481603861, 768.23], [-121.6064867656678, 47.40921554155648, 769.67], [-121.60669882781804, 47.40912132896483, 772.56], [-121.606754232198, 47.40907874889672, 771.6], [-121.60684710368514, 47.4090623203665, 765.83], [-121.60693846642971, 47.40894732065499, 767.75], [-121.60707182250917, 47.40885403007269, 767.27], [-121.60707836039364, 47.40875554271042, 767.75], [-121.60712169483304, 47.408548425883055, 766.31], [-121.60726837813854, 47.40837408229709, 777.84], [-121.60747189074755, 47.408278193324804, 776.4], [-121.60759099759161, 47.40812547504902, 777.36], [-121.60776651464403, 47.407942079007626, 786.02], [-121.60795577801764, 47.4078537337482, 790.82], [-121.60817605443299, 47.407779386267066, 798.03], [-121.60802903585136, 47.40798885002732, 805.72], [-121.60800699144602, 47.40813327021897, 812.93], [-121.6078867111355, 47.408313900232315, 826.39], [-121.60797807388008, 47.40846175700426, 836.0], [-121.60807832144201, 47.40854783914983, 843.21], [-121.60821586847305, 47.4086497630924, 853.79], [-121.60825601778924, 47.408747244626284, 859.56], [-121.60844058729708, 47.40896349772811, 861.48], [-121.60855868831277, 47.40921336226165, 863.4], [-121.608612164855, 47.40926197730005, 859.56], [-121.6087503824383, 47.40918226540089, 854.75], [-121.60879782401025, 47.40938561037183, 860.04], [-121.60884266719222, 47.40945182740688, 862.92], [-121.60882665775716, 47.40955182351172, 871.57], [-121.6089232172817, 47.409661542624235, 868.69], [-121.60902589559555, 47.409800346940756, 864.84], [-121.60905422642827, 47.40993965417147, 863.4], [-121.60910041071475, 47.410026071593165, 861.96], [-121.60916780121624, 47.41009362973273, 860.04], [-121.60911315120757, 47.41022774018347, 860.52], [-121.60911616869271, 47.41034550592303, 862.44], [-121.60921214148402, 47.41038389503956, 866.77], [-121.6093286499381, 47.410305608063936, 868.69], [-121.60950508899987, 47.410129169002175, 873.98], [-121.60959930159152, 47.409968823194504, 875.9], [-121.60968228243291, 47.40988600999117, 876.86], [-121.60979459993541, 47.40980437025428, 878.3], [-121.60986836068332, 47.40976983681321, 879.26], [-121.60994824022055, 47.40966632030904, 880.22], [-121.61004773341119, 47.40960261784494, 882.15], [-121.61011680029333, 47.409480744972825, 885.03], [-121.6101402696222, 47.40935979411006, 887.91], [-121.61026239395142, 47.4092404358089, 891.28], [-121.61027622409165, 47.409131303429604, 894.16], [-121.61018352024257, 47.40888671949506, 904.74], [-121.61025744862854, 47.40883441641927, 908.58], [-121.61019844003022, 47.4087739828974, 910.03], [-121.6102060675621, 47.40863467566669, 914.83], [-121.61041100509465, 47.40874456241727, 913.39], [-121.61050722934306, 47.408806923776865, 915.79], [-121.61053715273738, 47.408843133598566, 908.58], [-121.61064737476408, 47.40880927070975, 906.18], [-121.6105927247554, 47.40874523296952, 902.33], [-121.61066363565624, 47.408665772527456, 904.26], [-121.61076681688428, 47.40857491269708, 906.18], [-121.61074049770832, 47.40848824381828, 909.54], [-121.61079137586057, 47.408416075631976, 910.51], [-121.61086463369429, 47.408275762572885, 915.31], [-121.61092540249228, 47.408229326829314, 919.16], [-121.61091081798077, 47.40833351388574, 923.48], [-121.61087133921683, 47.40839956328273, 931.17], [-121.61090176552534, 47.40839470177889, 935.5], [-121.61090159788728, 47.40846033208072, 941.75], [-121.6110216267407, 47.40848229266703, 944.15], [-121.61111366003752, 47.40862109698355, 948.96], [-121.6112684737891, 47.408710615709424, 948.0], [-121.61128029227257, 47.4087499268353, 948.48], [-121.61129370331764, 47.4085876531899, 948.0], [-121.61139160394669, 47.408437281847, 941.27], [-121.61148707382381, 47.408404340967536, 943.19], [-121.61154038272798, 47.40845739841461, 951.36], [-121.61162403412163, 47.40848547779024, 955.21], [-121.61175571382046, 47.40845086053014, 953.28], [-121.61176141351461, 47.40822874009609, 952.8], [-121.61181665025651, 47.40816788747907, 958.57], [-121.61193139851093, 47.40821692161262, 966.74], [-121.6119675245136, 47.40811575204134, 967.7], [-121.61204413510859, 47.4079901073128, 970.11], [-121.61202955059707, 47.40799253806472, 988.37], [-121.61234144121408, 47.407732447609305, 988.85], [-121.61237698048353, 47.40765290334821, 987.41], [-121.61239332519472, 47.407703110948205, 986.93], [-121.61244805902243, 47.40768969990313, 989.33], [-121.61246708594263, 47.40786127746105, 994.62], [-121.61244872957468, 47.40795984864235, 997.51], [-121.61250094883144, 47.40803369320929, 1003.27], [-121.61257395520806, 47.40801768377423, 1009.04], [-121.61265693604946, 47.40784099325538, 1013.37], [-121.61283731460571, 47.40775281563401, 1005.68], [-121.61293856799603, 47.40772046148777, 1017.69], [-121.6128951497376, 47.40767830051482, 1020.1], [-121.61296463571489, 47.40760453976691, 1019.13], [-121.613046862185, 47.40755525417626, 1022.5], [-121.61314266733825, 47.40747705101967, 1021.06], [-121.61314895376563, 47.40737018175423, 1020.58], [-121.61322925239801, 47.40725769661367, 1025.86], [-121.61320838145912, 47.407196341082454, 1033.07], [-121.6131417453289, 47.407207572832704, 1036.44], [-121.61320712417364, 47.407373785972595, 1046.53], [-121.61302129738033, 47.407208159565926, 1042.21], [-121.61303504370153, 47.407139679417014, 1038.36], [-121.61318030208349, 47.40717429667711, 1038.36], [-121.61332882940769, 47.4070592969656, 1045.57], [-121.61353678442538, 47.40710129030049, 1053.26], [-121.61362839862704, 47.40714630112052, 1054.22], [-121.61373677663505, 47.407139763236046, 1061.91], [-121.61377700977027, 47.407079162076116, 1062.87], [-121.61389670334756, 47.407077737152576, 1064.32], [-121.61391757428646, 47.4071198143065, 1069.12], [-121.6141293849796, 47.40716113708913, 1074.89], [-121.61421370692551, 47.40714110434055, 1078.26], [-121.61426274105906, 47.40715552121401, 1081.62], [-121.61431328393519, 47.407111348584294, 1088.83], [-121.61422393284738, 47.407042449340224, 1097.96], [-121.61443926393986, 47.407116713002324, 1092.68], [-121.61452920176089, 47.407162729650736, 1095.08], [-121.61458846181631, 47.407086454331875, 1096.52], [-121.61463925614953, 47.406982854008675, 1096.04], [-121.61470740102232, 47.40689811296761, 1102.29], [-121.6147757973522, 47.40688528865576, 1103.25], [-121.61494536325336, 47.406790405511856, 1100.85], [-121.61502306349576, 47.40678026340902, 1101.81], [-121.61500386893749, 47.40670809522271, 1105.17], [-121.61509028635919, 47.40660784766078, 1108.54], [-121.61523722112179, 47.40648672915995, 1117.19], [-121.61528650671244, 47.40635513328016, 1118.15], [-121.61536714062095, 47.40632705390453, 1123.92], [-121.61545364186168, 47.406244492158294, 1129.69], [-121.61555648781359, 47.40606855601072, 1129.21], [-121.61556025967002, 47.405972331762314, 1133.53], [-121.61551340483129, 47.405881052836776, 1139.3], [-121.61558255553246, 47.405801424756646, 1143.14], [-121.61569864489138, 47.405761359259486, 1149.39], [-121.61575648002326, 47.405681144446135, 1150.35], [-121.61593534983695, 47.405636720359325, 1145.07], [-121.61601154133677, 47.405606880784035, 1145.07], [-121.61610692739487, 47.40550294518471, 1148.91], [-121.61622527986765, 47.40543798543513, 1153.72], [-121.61630138754845, 47.40541644394398, 1158.05], [-121.616366263479, 47.405344443395734, 1159.01], [-121.61649609915912, 47.4053237400949, 1157.08], [-121.61659693345428, 47.40525668486953, 1152.28], [-121.6166266053915, 47.40520605817437, 1151.8], [-121.61662735976279, 47.4051509052515, 1152.28], [-121.61665954627097, 47.405091896653175, 1153.72], [-121.61666164174676, 47.40502241067588, 1161.89], [-121.61673774942756, 47.40494110621512, 1163.81], [-121.61685333587229, 47.40495862439275, 1149.87], [-121.61693841218948, 47.40500816144049, 1148.91], [-121.61701770499349, 47.40500120446086, 1156.12], [-121.61700882017612, 47.4049074947834, 1161.89], [-121.61709364503622, 47.40493389777839, 1171.98], [-121.61718207411468, 47.40491327829659, 1173.91], [-121.61725415848196, 47.404969856143, 1177.27], [-121.61720395088196, 47.404861226677895, 1181.6], [-121.61731987260282, 47.404866674914956, 1183.04], [-121.6173951420933, 47.404962899163365, 1188.33], [-121.61751994863153, 47.404924258589745, 1187.37], [-121.6174937132746, 47.404895508661866, 1189.77], [-121.6176816355437, 47.40491755306721, 1189.77], [-121.61768054589629, 47.40485468879342, 1196.02], [-121.61778775043786, 47.404784029349685, 1198.42], [-121.61778070963919, 47.40482501685619, 1207.07], [-121.61789788864553, 47.404825100675225, 1206.11], [-121.61794583313167, 47.404765505343676, 1206.59], [-121.61802529357374, 47.40482929162681, 1211.88], [-121.61807441152632, 47.40482040680945, 1218.13], [-121.61837498657405, 47.404869440943, 1220.53], [-121.61844740621746, 47.404848989099264, 1221.01], [-121.61839585751295, 47.40475838072598, 1229.18], [-121.61844438873231, 47.40488628856838, 1219.09], [-121.6184829454869, 47.40484328940511, 1217.17], [-121.61851496435702, 47.40496910177171, 1213.32], [-121.61853441037238, 47.40489969961345, 1208.03], [-121.6184950992465, 47.40490900352597, 1210.44], [-121.6184469871223, 47.40497815422714, 1219.57], [-121.61841195076704, 47.40492953918874, 1222.93], [-121.61846039816737, 47.4049109313637, 1219.09], [-121.6185173112899, 47.404854353517294, 1221.01], [-121.6183502599597, 47.40484530106187, 1214.76], [-121.61827549338341, 47.404872458428144, 1211.4], [-121.61818823777139, 47.40486114285886, 1208.51], [-121.61812210455537, 47.404811354354024, 1202.27], [-121.61804733797908, 47.404796769842505, 1198.42], [-121.61792571656406, 47.404843205586076, 1192.65], [-121.61782245151699, 47.40481001324952, 1190.25], [-121.61775757558644, 47.40485334768891, 1186.88], [-121.61770493723452, 47.404836751520634, 1184.96], [-121.61762069910765, 47.40488058887422, 1186.4], [-121.61745398305357, 47.40490305237472, 1181.6], [-121.61741978488863, 47.404867094010115, 1178.71], [-121.61720998585224, 47.404916463419795, 1170.06], [-121.61705148406327, 47.404937501996756, 1157.56], [-121.61695039831102, 47.40498720668256, 1155.16], [-121.61688175052404, 47.40493959747255, 1151.8], [-121.6167561057955, 47.404982428997755, 1146.51], [-121.61668293178082, 47.40499399602413, 1143.63], [-121.61664353683591, 47.40508527494967, 1141.22], [-121.61659852601588, 47.405125088989735, 1140.74], [-121.61663490347564, 47.40516632795334, 1142.18], [-121.61659341305494, 47.40524411201477, 1142.66], [-121.61653239279985, 47.40522441454232, 1145.07], [-121.61650900729, 47.4052856862545, 1144.59], [-121.61647028289735, 47.4052563495934, 1144.11], [-121.61626978777349, 47.40540252998471, 1145.55], [-121.61614146083593, 47.40545013919473, 1139.78], [-121.6160980425775, 47.40548433735967, 1137.86], [-121.61596795544028, 47.405551141127944, 1137.86], [-121.61590240895748, 47.40560478530824, 1136.9], [-121.61569646559656, 47.40585817024112, 1131.13], [-121.61555196158588, 47.4059781152755, 1125.84], [-121.61547191441059, 47.406099485233426, 1122.96], [-121.61541944369674, 47.406203001737595, 1121.03], [-121.61529790610075, 47.40637977607548, 1113.34], [-121.61519975401461, 47.40645680576563, 1109.98], [-121.61510772071779, 47.40654674358666, 1105.17], [-121.6150239855051, 47.4066829495132, 1098.44], [-121.61495600827038, 47.40677104331553, 1099.4], [-121.61482843570411, 47.4068970233202, 1098.44], [-121.6147099994123, 47.4068795889616, 1096.52], [-121.61457354202867, 47.40703674964607, 1097.0], [-121.61443993449211, 47.40711520425975, 1095.56], [-121.61441814154387, 47.40738434717059, 1086.91], [-121.61438905633986, 47.40748794749379, 1081.62], [-121.6143767349422, 47.407615352422, 1078.74], [-121.61434337496758, 47.4076671525836, 1075.85], [-121.61436743102968, 47.407785253599286, 1072.01], [-121.61427523009479, 47.407912239432335, 1072.01], [-121.61413961090147, 47.40796630270779, 1077.29], [-121.61402712576091, 47.40809286944568, 1074.89], [-121.61394540220499, 47.40811910480261, 1073.93], [-121.6138552967459, 47.408103346824646, 1072.49], [-121.61374364979565, 47.408032435923815, 1068.64], [-121.61352957598865, 47.408072501420975, 1061.43], [-121.61343762651086, 47.408164367079735, 1044.13], [-121.61321986466646, 47.40818842314184, 1035.48], [-121.61320854909718, 47.40808700211346, 1028.27], [-121.613057423383, 47.40804249420762, 1022.98], [-121.61307167261839, 47.40799312479794, 1019.13], [-121.61299908533692, 47.407908719033, 1016.25], [-121.61281183362007, 47.407956747338176, 1015.77], [-121.61264687776566, 47.40792816504836, 1015.77], [-121.61248795688152, 47.40797418169677, 1010.0], [-121.6124905552715, 47.40811239928007, 1005.2], [-121.61252609454095, 47.4080797098577, 1005.2], [-121.61242106929421, 47.40788231603801, 1000.39], [-121.61242241039872, 47.40776111371815, 998.95], [-121.61223063245416, 47.40770964883268, 995.1], [-121.6121091786772, 47.40782892331481, 991.74], [-121.61207791417837, 47.40797828882933, 986.93], [-121.6119313146919, 47.40794878453016, 985.01], [-121.61189929582179, 47.40798373706639, 980.2], [-121.61185998469591, 47.40808876231313, 968.18], [-121.61176158115268, 47.40799522027373, 963.86], [-121.61163040436804, 47.40811734460294, 957.13], [-121.61156695336103, 47.408275846391916, 958.57], [-121.6115459986031, 47.40842957049608, 950.88], [-121.61156611517072, 47.40847432985902, 947.52], [-121.61145396530628, 47.408347679302096, 947.52], [-121.61130560562015, 47.40830878727138, 947.52], [-121.61120225675404, 47.40846368484199, 947.04], [-121.61114819347858, 47.4085789360106, 946.56], [-121.61115095950663, 47.40871564485133, 946.56], [-121.61112715490162, 47.408671556040645, 946.07], [-121.61107183434069, 47.408501990139484, 945.59], [-121.61097602918744, 47.40842848084867, 945.59], [-121.61087779328227, 47.408456644043326, 944.15], [-121.61084837280214, 47.40835287608206, 941.27], [-121.61079942248762, 47.408289508894086, 939.35], [-121.61075667478144, 47.40819051861763, 937.9], [-121.61061376333237, 47.408318761736155, 934.06], [-121.61055190488696, 47.408426720649004, 932.14], [-121.61053882911801, 47.40851431153715, 927.81], [-121.61048786714673, 47.40862352773547, 926.37], [-121.61051745526493, 47.40869477391243, 924.45], [-121.61046339198947, 47.40873374976218, 921.56], [-121.61038015969098, 47.40872712805867, 914.83], [-121.6103619709611, 47.40861891768873, 912.91], [-121.61027396097779, 47.40852294489741, 914.83], [-121.61016030237079, 47.40864724852145, 915.31], [-121.6101579554379, 47.40878236480057, 912.91], [-121.61010682582855, 47.40893675945699, 910.51], [-121.6101008746773, 47.40909098647535, 908.58], [-121.61003105342388, 47.409184193238616, 900.89], [-121.60999920219183, 47.40933012217283, 901.37], [-121.61021201871336, 47.40930313244462, 887.43], [-121.61011730320752, 47.409359626471996, 888.4], [-121.61004228517413, 47.409467501565814, 891.28], [-121.60993063822389, 47.409528186544776, 893.2], [-121.60974439233541, 47.40976489149034, 893.2], [-121.60965462215245, 47.40985524840653, 891.28], [-121.60952126607299, 47.40993345156312, 887.91], [-121.6094224434346, 47.41002473048866, 884.07], [-121.60941842012107, 47.41011282429099, 879.74], [-121.60939821973443, 47.41015590727329, 878.3], [-121.6092118062079, 47.41029563359916, 876.38], [-121.60913268104196, 47.410305105149746, 876.38], [-121.60901424475014, 47.410182477906346, 878.3], [-121.6089974809438, 47.41003420203924, 880.22], [-121.60912153311074, 47.409949796274304, 872.05], [-121.60912220366299, 47.409915179014206, 868.69], [-121.60891223698854, 47.409898582845926, 863.88], [-121.60878231748939, 47.409877544268966, 861.96], [-121.60864904522896, 47.40987083874643, 860.04], [-121.6085814870894, 47.409894643351436, 859.08], [-121.60843237303197, 47.40987285040319, 858.11], [-121.60812752321362, 47.409849213436246, 853.79], [-121.60782468505204, 47.409815937280655, 850.9], [-121.60772795788944, 47.409817446023226, 849.94], [-121.60757347941399, 47.409800346940756, 848.98], [-121.60751597955823, 47.409775368869305, 848.02], [-121.60741749219596, 47.409784672781825, 847.54], [-121.6072392091155, 47.4097531568259, 845.14], [-121.60714047029614, 47.40976036526263, 838.41], [-121.60696176812053, 47.40974108688533, 833.12], [-121.6068264003843, 47.409680066630244, 832.64], [-121.60670209676027, 47.40957328118384, 832.64], [-121.60658793523908, 47.40949809551239, 832.64], [-121.60652398131788, 47.40935971029103, 830.24], [-121.60640529356897, 47.40936574526131, 826.39], [-121.60633203573525, 47.40932308137417, 823.03], [-121.606286438182, 47.409269101917744, 822.55], [-121.60614277236164, 47.409328278154135, 823.99], [-121.60602542571723, 47.40934370085597, 823.03], [-121.60592299886048, 47.4092922359705, 816.78], [-121.60571596585214, 47.409299528226256, 805.72], [-121.60546249710023, 47.40934579633176, 795.63], [-121.60518815740943, 47.40935342386365, 789.38], [-121.60510433837771, 47.40930908359587, 789.86], [-121.60497944802046, 47.409268179908395, 789.38], [-121.60480560734868, 47.40937211550772, 783.61], [-121.60465833730996, 47.40944084711373, 776.88], [-121.60454333759844, 47.409528186544776, 771.11], [-121.60435684025288, 47.409631786867976, 766.31], [-121.60423739813268, 47.409661961719394, 765.35], [-121.60407931543887, 47.40973035804927, 758.62], [-121.60398258827627, 47.40979959256947, 755.25], [-121.60379164852202, 47.409871090203524, 752.37], [-121.60359710454941, 47.40997603163123, 750.45], [-121.60337976180017, 47.41007602773607, 746.6], [-121.6031293105334, 47.410153560340405, 744.68], [-121.60294784232974, 47.41019144654274, 742.76], [-121.60274231806397, 47.410282138735056, 736.99], [-121.60258582793176, 47.41035950370133, 732.66], [-121.60237225703895, 47.410495625808835, 726.41], [-121.60216053016484, 47.410612888634205, 722.57], [-121.60200839862227, 47.410662258043885, 720.65], [-121.60193396732211, 47.41075906902552, 720.16], [-121.60173171199858, 47.410895777866244, 716.8], [-121.60148285329342, 47.411037851125, 717.28], [-121.60128680057824, 47.411135667935014, 716.32], [-121.60122024826705, 47.411136673763394, 718.24], [-121.60118202678859, 47.41093383170664, 720.16], [-121.60112435929477, 47.41075789555907, 717.28], [-121.60116635262966, 47.410666197538376, 717.76], [-121.60128554329276, 47.41056050173938, 719.68], [-121.60141814500093, 47.410369981080294, 718.24], [-121.6014804225415, 47.4102280754596, 716.32], [-121.60156968981028, 47.41009270772338, 718.24], [-121.6017426084727, 47.4097946472466, 711.51], [-121.60185920074582, 47.4096773006022, 708.63], [-121.60188484936953, 47.40961586125195, 707.19], [-121.60193857736886, 47.40957621484995, 705.75], [-121.6021638829261, 47.40936356596649, 704.78], [-121.60222901031375, 47.409237837418914, 703.82], [-121.60232372581959, 47.4091262742877, 701.42], [-121.60243679769337, 47.409023344516754, 700.94], [-121.60250728949904, 47.4089743103832, 700.94], [-121.60260527394712, 47.40879627875984, 694.21], [-121.60264399833977, 47.40861548110843, 690.36], [-121.60256235860288, 47.40845060907304, 686.04], [-121.6023713350296, 47.40842420607805, 681.23], [-121.60214938223362, 47.408369136974216, 677.87], [-121.60207704640925, 47.40829168818891, 675.46], [-121.60214619711041, 47.4082559812814, 673.06], [-121.60200068727136, 47.40826955996454, 672.1], [-121.60186959430575, 47.40831155329943, 670.18], [-121.6017999406904, 47.40838631987572, 667.29], [-121.60161050967872, 47.4085081089288, 663.45], [-121.60148930735886, 47.408565105870366, 661.52], [-121.60132678225636, 47.408674992620945, 658.16], [-121.60123634152114, 47.408777168020606, 635.57], [-121.6013213340193, 47.408806001767516, 637.01], [-121.60137958824635, 47.4088070075959, 636.53], [-121.60137766040862, 47.40888345055282, 640.86], [-121.6013453900814, 47.40889744833112, 642.3], [-121.60137665458024, 47.40900984965265, 646.14], [-121.6013591364026, 47.409151336178184, 650.47], [-121.60125411115587, 47.409215960651636, 649.03], [-121.60108546726406, 47.409341437742114, 647.1], [-121.60066268406808, 47.40947563201189, 650.47], [-121.60041918978095, 47.409637067466974, 650.47], [-121.60017963498831, 47.40976111963391, 651.43], [-121.60001568496227, 47.40988307632506, 650.47], [-121.59987662918866, 47.41002917289734, 650.95], [-121.59970429725945, 47.41015666164458, 652.39], [-121.59950137138367, 47.41023167967796, 654.31], [-121.59939022734761, 47.410360760986805, 656.72], [-121.59918084740639, 47.41057064384222, 658.16], [-121.59898697398603, 47.41079896688461, 655.28], [-121.59880885854363, 47.41090977564454, 656.24], [-121.59874222241342, 47.41093760356307, 656.72], [-121.59858631901443, 47.41115553304553, 655.28], [-121.59840233623981, 47.411349741742015, 652.39], [-121.59822958521545, 47.41151914000511, 650.95], [-121.59807410091162, 47.411648808047175, 649.99], [-121.59798977896571, 47.411739164963365, 650.47], [-121.59775516949594, 47.411907305940986, 647.59], [-121.59761334769428, 47.41203982383013, 645.18], [-121.5974395070225, 47.41219094954431, 644.7], [-121.5973258484155, 47.41233696229756, 644.22], [-121.59712485037744, 47.4125403072685, 642.3], [-121.59693852066994, 47.41285848431289, 635.57], [-121.59688244573772, 47.41294230334461, 634.13], [-121.59657172858715, 47.413085885345936, 631.72], [-121.59647122956812, 47.41323743015528, 630.76], [-121.5964069403708, 47.413422083482146, 627.4], [-121.59649830311537, 47.4135884642601, 622.11], [-121.59657550044358, 47.41371167823672, 617.3], [-121.59658874385059, 47.41366758942604, 615.38], [-121.59650852903724, 47.41352325305343, 611.06], [-121.59643644466996, 47.41342074237764, 609.13], [-121.59645404666662, 47.413301384076476, 608.17], [-121.59649277105927, 47.41317800246179, 608.65], [-121.59650534391403, 47.41303442046046, 608.65], [-121.5965832117945, 47.412756560370326, 617.3], [-121.5966207627207, 47.41265958175063, 620.19], [-121.59665479324758, 47.41246243938804, 619.71], [-121.5966984629631, 47.41234727203846, 622.11], [-121.5966672822833, 47.412153482437134, 621.63], [-121.59665504470468, 47.41195013746619, 621.63], [-121.596634760499, 47.411740841344, 621.63], [-121.59658807329834, 47.41152877919376, 622.11], [-121.59644231200218, 47.41146331652999, 622.11], [-121.59632102586329, 47.411426017060876, 619.23], [-121.59618465229869, 47.41150698624551, 613.46], [-121.59607996232808, 47.41159273311496, 610.57], [-121.595971416682, 47.411856008693576, 607.69], [-121.59593537449837, 47.41190546192229, 603.85], [-121.59599949605763, 47.41187327541411, 602.88], [-121.59588281996548, 47.41179306060076, 591.83], [-121.5958937164396, 47.41172717884183, 587.98], [-121.59568911418319, 47.41162491962314, 587.5], [-121.59552994184196, 47.411427944898605, 587.98], [-121.59533833153546, 47.41128746420145, 588.46], [-121.5950239263475, 47.41104614920914, 587.5], [-121.59480130299926, 47.41087004542351, 587.98], [-121.59455227665603, 47.41076996549964, 588.46], [-121.59433376044035, 47.410726211965084, 588.95], [-121.59406344406307, 47.410617833957076, 589.43], [-121.59375490620732, 47.410550778731704, 589.91], [-121.59349942579865, 47.410541055724025, 590.39], [-121.59328702837229, 47.410480538383126, 590.39], [-121.59294655546546, 47.41050367243588, 591.35], [-121.59268043003976, 47.410435527563095, 590.39], [-121.59235252998769, 47.41023771464825, 589.91], [-121.59198330715299, 47.41004199720919, 589.91], [-121.59163855947554, 47.40979942493141, 585.58], [-121.59152657724917, 47.409505136311054, 577.41], [-121.59142700023949, 47.409368846565485, 572.6], [-121.59135005436838, 47.40911705419421, 568.28], [-121.59134284593165, 47.40898294374347, 568.76], [-121.5913088992238, 47.4088569637388, 569.72], [-121.59133655950427, 47.40865185856819, 570.68], [-121.59134653396904, 47.40846276283264, 570.2], [-121.591383414343, 47.40826729685068, 569.72], [-121.5913953166455, 47.40807518362999, 568.76], [-121.59142163582146, 47.40798968821764, 567.8], [-121.59136296249926, 47.40777452476323, 566.83], [-121.59125450067222, 47.40756304934621, 567.8], [-121.59121301025152, 47.407383508980274, 568.76], [-121.59092668443918, 47.40729524753988, 570.2], [-121.59083599224687, 47.40720589645207, 572.12], [-121.59065351821482, 47.407062062993646, 572.12], [-121.590437265113, 47.407039096578956, 569.24], [-121.59030323848128, 47.40713557228446, 569.72], [-121.59027256071568, 47.40721528418362, 569.24], [-121.59027113579214, 47.4072923976928, 568.28], [-121.59009578637779, 47.40716968663037, 569.24], [-121.58991641364992, 47.40701520815492, 565.87], [-121.58977626822889, 47.406869027763605, 564.91], [-121.58951240591705, 47.406845055520535, 562.51], [-121.58942012116313, 47.40685603581369, 558.66], [-121.5893922932446, 47.406987212598324, 556.74], [-121.58939028158784, 47.40711210295558, 550.49], [-121.589414505288, 47.407184690237045, 544.24], [-121.58935558050871, 47.407313184812665, 541.36], [-121.58940067514777, 47.40772029384971, 540.4], [-121.58940997906029, 47.40787871181965, 538.96], [-121.58937569707632, 47.40804148837924, 540.88], [-121.58919003792107, 47.40825111977756, 544.24], [-121.5890156943351, 47.40865814499557, 541.36], [-121.58902985975146, 47.40884883329272, 540.88], [-121.5889675822109, 47.409025859087706, 541.36], [-121.58876373432577, 47.40931084379554, 541.84], [-121.58885543234646, 47.409488623961806, 537.51], [-121.58886012621224, 47.40964092314243, 530.3], [-121.58888535574079, 47.40974569693208, 528.86], [-121.58883430995047, 47.40989690646529, 526.94], [-121.58880111761391, 47.410079296678305, 523.58], [-121.58883405849338, 47.41019136272371, 523.09], [-121.58877261914313, 47.410325137898326, 522.13], [-121.5887344814837, 47.41043284535408, 524.54], [-121.58871796913445, 47.410562597215176, 526.46], [-121.58878896385431, 47.410741886124015, 522.61], [-121.58877999521792, 47.41077616810799, 521.65], [-121.58861679956317, 47.41115025244653, 519.25], [-121.58853122033179, 47.411287212744355, 524.54], [-121.58859618008137, 47.41140816360712, 524.54], [-121.5886927396059, 47.41143255494535, 524.06], [-121.58890295773745, 47.411661045625806, 518.77], [-121.58902541734278, 47.41175953298807, 516.37], [-121.58910144120455, 47.41180605255067, 515.4], [-121.58916891552508, 47.411896493285894, 513.96], [-121.58911719918251, 47.4119239859283, 513.48], [-121.58898769877851, 47.41204518824816, 511.08], [-121.5890384092927, 47.41205373778939, 513.48], [-121.58901795744896, 47.4121414963156, 511.08], [-121.58892701379955, 47.4120984133333, 503.39], [-121.58898753114045, 47.41210335865617, 502.43], [-121.58909917809069, 47.412079721689224, 504.35]]}}