{"type": "Feature", "properties": {}, "geometry": {"type": "LineString", "coordinates": [[-120.2000639308244, 48.55752546340227, 717.76], [-120.20008287392557, 48.557522110641, 718.72], [-120.19992856308818, 48.557504089549184, 720.65], [-120.20003752782941, 48.557529067620635, 721.13], [-120.20001749508083, 48.557513477280736, 721.13], [-120.20011791028082, 48.557540802285075, 716.32], [-120.1998683810234, 48.55745002627373, 736.03], [-120.19997499883175, 48.557503167539835, 727.86], [-120.20014724694192, 48.55756024830043, 722.09], [-120.20020390860736, 48.557569636031985, 720.16], [-120.20014263689518, 48.55756946839392, 723.05], [-120.2001899946481, 48.55757910758257, 722.09], [-120.2001968678087, 48.55755714699626, 719.68], [-120.2001244481653, 48.55756946839392, 718.24], [-120.20010793581605, 48.557537952438, 718.24], [-120.20013685338199, 48.55751448310912, 717.76], [-120.20014070905745, 48.557531498372555, 717.76], [-120.200155377388, 48.55751750059426, 715.84], [-120.20008279010653, 48.557522278279066, 713.44], [-120.20015235990286, 48.557489924132824, 714.88], [-120.20014758221805, 48.557490427047014, 717.76], [-120.20015127025545, 48.557484140619636, 712.95], [-120.200105169788, 48.5574996471405, 713.92], [-120.20003811456263, 48.55751129798591, 719.2], [-120.20001799799502, 48.55750501155853, 712.95], [-120.20003233104944, 48.557488080114126, 712.47], [-120.19998606294394, 48.55751138180494, 723.53], [-120.19998715259135, 48.557516830042005, 720.65], [-120.20000961609185, 48.55749252252281, 721.13], [-120.19999117590487, 48.55748925358057, 718.72], [-120.19992831163108, 48.557516830042005, 717.28], [-120.19996779039502, 48.55751808732748, 721.61], [-120.19999779760838, 48.55749361217022, 724.01], [-120.20001766271889, 48.5575067717582, 729.3], [-120.20000081509352, 48.55750895105302, 727.37], [-120.20000651478767, 48.55747810564935, 715.36], [-120.20000257529318, 48.55747718364, 712.47], [-120.20001020282507, 48.55753728188574, 711.99], [-120.20003769546747, 48.55756502598524, 705.75], [-120.20009804517031, 48.55752864852548, 715.84], [-120.20005043596029, 48.557541808113456, 711.99], [-120.20004482008517, 48.557583298534155, 714.88], [-120.20006979815662, 48.55758665129542, 716.8], [-120.20016862079501, 48.55756075121462, 711.51], [-120.2001691237092, 48.55750232934952, 711.51], [-120.20011858083308, 48.55744474567473, 712.47], [-120.20012369379401, 48.55753283947706, 712.95], [-120.20009159110487, 48.55757474899292, 714.4], [-120.20005471073091, 48.557657059282064, 716.32], [-120.20014984533191, 48.55767306871712, 712.95], [-120.2001794334501, 48.557617496699095, 707.19], [-120.200139535591, 48.55759092606604, 704.78], [-120.20009561441839, 48.557706428691745, 724.97], [-120.20032175816596, 48.55756318196654, 728.82], [-120.20024665631354, 48.55748229660094, 704.3], [-120.20028345286846, 48.5574962105602, 704.78], [-120.19996158778667, 48.55754977092147, 704.78], [-120.20009192638099, 48.557521691545844, 704.78], [-120.20004255697131, 48.55752621777356, 706.71], [-120.2002262044698, 48.55765990912914, 709.11], [-120.20030491054058, 48.5575931891799, 708.15], [-120.2001936826855, 48.55760274454951, 709.59], [-120.20011983811855, 48.5576122161001, 723.53], [-120.20018085837364, 48.55754901655018, 728.34], [-120.20013836212456, 48.557547675445676, 729.3], [-120.20026895217597, 48.5575895011425, 727.37], [-120.19834572449327, 48.55899120680988, 764.87], [-120.19816727377474, 48.559337547048926, 763.9], [-120.1979636773467, 48.55935296975076, 780.25], [-120.19792436622083, 48.55939211323857, 782.17], [-120.19789829850197, 48.55943142436445, 783.61], [-120.19781816750765, 48.559470903128386, 785.53], [-120.19773577339947, 48.55949504300952, 787.94], [-120.19765078090131, 48.55956880375743, 788.42], [-120.1976097933948, 48.559635020792484, 789.86], [-120.19756461493671, 48.55969495140016, 791.3], [-120.19755262881517, 48.559765024110675, 791.78], [-120.1975238788873, 48.559824116528034, 793.71], [-120.1975082885474, 48.55988094583154, 796.11], [-120.19748657941818, 48.55989980511367, 796.59], [-120.19745816476643, 48.55996266938746, 797.55], [-120.19741927273571, 48.5600227676332, 798.51], [-120.19733562134206, 48.560061156749725, 799.47], [-120.1972973998636, 48.56010323390365, 799.95], [-120.19727258943021, 48.560113459825516, 799.95], [-120.1972561609, 48.56012695468962, 800.44], [-120.197216514498, 48.56016450561583, 801.4], [-120.1971974875778, 48.56014975346625, 801.88], [-120.19699414260685, 48.5600798483938, 801.88], [-120.19679909572005, 48.56001757085323, 801.88], [-120.19659608602524, 48.55995437130332, 801.88], [-120.19639072939754, 48.55989905074239, 801.4], [-120.19616249017417, 48.559872480109334, 800.92], [-120.19593651406467, 48.55989586561918, 799.47], [-120.19572403281927, 48.55992067605257, 798.03], [-120.19571229815483, 48.559925286099315, 798.03], [-120.19552504643798, 48.56001019477844, 797.07], [-120.1953734178096, 48.56011220254004, 798.03], [-120.19527886994183, 48.56022410094738, 800.44], [-120.19521592184901, 48.560364078730345, 802.36], [-120.1951786223799, 48.560488130897284, 803.8], [-120.1951614394784, 48.56058125384152, 804.76], [-120.19513143226504, 48.560703629627824, 805.72], [-120.19512162543833, 48.56075635179877, 806.68], [-120.19514434039593, 48.56085584498942, 807.64], [-120.19510176032782, 48.56115541420877, 808.61], [-120.195044092834, 48.561280220746994, 808.13], [-120.19498969428241, 48.56139689683914, 808.13], [-120.19493437372148, 48.56151256710291, 808.13], [-120.194859104231, 48.561633517965674, 808.13], [-120.19481618888676, 48.56175446882844, 808.13], [-120.19477344118059, 48.56183527037501, 809.57], [-120.19474284723401, 48.56195420958102, 809.57], [-120.19469783641398, 48.56210424564779, 809.09], [-120.19465701654553, 48.56225109659135, 808.61], [-120.19464117474854, 48.562365509569645, 807.64], [-120.19463212229311, 48.56248629279435, 807.64], [-120.1946379058063, 48.562636664137244, 807.16], [-120.1946379058063, 48.56278971768916, 807.16], [-120.19463581033051, 48.562945034354925, 807.16], [-120.19463807344437, 48.56306053698063, 807.16], [-120.19464176148176, 48.56322180479765, 807.16], [-120.1946429349482, 48.56336991302669, 807.64], [-120.19464461132884, 48.56342758052051, 807.16], [-120.19464553333819, 48.56356428936124, 806.68], [-120.19464218057692, 48.56372606009245, 806.2], [-120.19463991746306, 48.56373787857592, 805.72], [-120.19463933072984, 48.56389185413718, 806.68], [-120.19464570097625, 48.56393669731915, 807.16], [-120.19464142620564, 48.56410383246839, 806.2], [-120.19464863464236, 48.56423769146204, 806.68], [-120.19465684890747, 48.56437297537923, 805.72], [-120.1946693379432, 48.56452929787338, 805.24], [-120.19466112367809, 48.56467589735985, 805.24], [-120.19465668126941, 48.56470380909741, 805.24], [-120.1946571841836, 48.564878571778536, 805.24], [-120.1946532446891, 48.56503514572978, 804.76], [-120.19463622942567, 48.56520043686032, 805.24], [-120.19456749781966, 48.56528040021658, 806.68], [-120.19448074512184, 48.56538265943527, 806.2], [-120.1944029610604, 48.56549430638552, 807.16], [-120.19432534463704, 48.56559799052775, 806.68], [-120.19431478343904, 48.565695974975824, 806.2], [-120.19430321641266, 48.56581105850637, 807.64], [-120.1942787412554, 48.565818686038256, 808.13], [-120.1942475605756, 48.565821032971144, 809.57], [-120.19416659139097, 48.565824469551444, 810.05], [-120.19417933188379, 48.56583058834076, 811.97], [-120.19417388364673, 48.56584198772907, 810.05], [-120.19418771378696, 48.56583352200687, 809.57], [-120.19416868686676, 48.56580284424126, 812.45], [-120.19414463080466, 48.56580032967031, 813.41], [-120.19417363218963, 48.56579354032874, 810.53], [-120.19418327137828, 48.565798653289676, 810.53], [-120.19418695941567, 48.56581097468734, 809.57], [-120.19416684284806, 48.56579747982323, 807.16], [-120.19416290335357, 48.56578482314944, 811.49], [-120.19415049813688, 48.56578725390136, 811.49], [-120.19416256807745, 48.56578012928367, 812.93], [-120.19416600465775, 48.56578507460654, 812.45]]}}