{"type": "Feature", "properties": {}, "geometry": {"type": "LineString", "coordinates": [[-118.746753, 37.435447, 3098.2], [-118.746787, 37.435456, 3123.8], [-118.746892, 37.435443, 3127.1], [-118.746821, 37.435413, 3113.2], [-118.746781, 37.435409, 3112.1], [-118.746749, 37.435438, 3110.6], [-118.74673, 37.435434, 3112.2], [-118.746614, 37.435497, 3111.4], [-118.74656, 37.43557, 3110.9], [-118.746557, 37.435552, 3111.8], [-118.746642, 37.435514, 3112.0], [-118.74673, 37.435437, 3111.6], [-118.746795, 37.435394, 3112.2], [-118.746871, 37.43531, 3113.7], [-118.746898, 37.435292, 3114.2], [-118.746932, 37.435242, 3113.2], [-118.747002, 37.43521, 3113.3], [-118.747151, 37.435237, 3112.3], [-118.747183, 37.435227, 3112.9], [-118.74726, 37.435172, 3114.6], [-118.747308, 37.435114, 3114.5], [-118.747322, 37.435066, 3113.8], [-118.747438, 37.434932, 3112.5], [-118.747499, 37.434801, 3113.0], [-118.747484, 37.434778, 3116.4], [-118.747518, 37.434749, 3118.7], [-118.747608, 37.434698, 3118.1], [-118.747644, 37.434645, 3118.5], [-118.747667, 37.434635, 3118.1], [-118.747703, 37.434596, 3117.2], [-118.747727, 37.434535, 3117.0], [-118.74777, 37.434452, 3118.2], [-118.747818, 37.434396, 3118.4], [-118.747824, 37.434364, 3117.9], [-118.747864, 37.434273, 3118.9], [-118.747963, 37.434158, 3125.4], [-118.747947, 37.434066, 3126.1], [-118.748022, 37.433986, 3127.3], [-118.748033, 37.433954, 3128.1], [-118.748038, 37.433837, 3129.4], [-118.748058, 37.433798, 3129.9], [-118.748078, 37.433688, 3130.0], [-118.748113, 37.433631, 3129.8], [-118.748122, 37.433583, 3130.3], [-118.74818, 37.433521, 3131.5], [-118.748206, 37.433423, 3130.9], [-118.748206, 37.433406, 3131.5], [-118.748262, 37.433269, 3132.7], [-118.748261, 37.433252, 3133.0], [-118.748323, 37.433104, 3134.9], [-118.748377, 37.433056, 3136.6], [-118.748443, 37.432947, 3138.8], [-118.748505, 37.432865, 3139.8], [-118.748525, 37.432809, 3139.5], [-118.748604, 37.432745, 3138.7], [-118.74866, 37.432649, 3139.3], [-118.748697, 37.432598, 3138.8], [-118.748701, 37.432576, 3138.4], [-118.748764, 37.432496, 3139.0], [-118.748905, 37.43235, 3138.7], [-118.748955, 37.43229, 3138.7], [-118.749026, 37.432245, 3138.3], [-118.74905, 37.432195, 3139.0], [-118.749187, 37.432054, 3140.7], [-118.749244, 37.431986, 3140.5], [-118.749274, 37.431925, 3140.2], [-118.749284, 37.431857, 3140.0], [-118.749317, 37.431786, 3139.6], [-118.749325, 37.431746, 3139.5], [-118.749361, 37.431702, 3138.9], [-118.749357, 37.43168, 3138.8], [-118.7494, 37.431583, 3139.5], [-118.749416, 37.431493, 3140.4], [-118.749491, 37.431374, 3139.5], [-118.749509, 37.431247, 3138.3], [-118.749541, 37.431193, 3139.4], [-118.749571, 37.431163, 3139.4], [-118.749583, 37.431115, 3141.2], [-118.749629, 37.431031, 3143.4], [-118.749653, 37.431006, 3144.5], [-118.749682, 37.430908, 3146.8], [-118.749719, 37.430856, 3149.6], [-118.749767, 37.430761, 3150.3], [-118.749822, 37.430757, 3150.4], [-118.749844, 37.430688, 3151.3], [-118.749883, 37.430655, 3151.0], [-118.749907, 37.430648, 3151.4], [-118.749976, 37.430583, 3153.7], [-118.750043, 37.430532, 3154.4], [-118.750044, 37.430464, 3158.7], [-118.750097, 37.430431, 3158.5], [-118.750134, 37.430397, 3159.6], [-118.75025, 37.430342, 3158.9], [-118.750274, 37.43031, 3160.1], [-118.750352, 37.430224, 3161.2], [-118.750354, 37.430086, 3164.6], [-118.750343, 37.430034, 3166.1], [-118.750373, 37.429925, 3168.1], [-118.750425, 37.429856, 3169.0], [-118.750413, 37.429784, 3169.3], [-118.750423, 37.429743, 3170.8], [-118.750452, 37.429705, 3171.4], [-118.750455, 37.429681, 3172.2], [-118.750479, 37.42964, 3172.5], [-118.75051, 37.429615, 3172.8], [-118.750536, 37.429557, 3174.0], [-118.75059, 37.429495, 3173.8], [-118.750632, 37.429433, 3176.2], [-118.750723, 37.429346, 3175.5], [-118.750891, 37.429219, 3176.9], [-118.750982, 37.429096, 3175.3], [-118.750996, 37.428959, 3178.7], [-118.751021, 37.428884, 3180.3], [-118.751056, 37.428803, 3181.4], [-118.751034, 37.428713, 3182.1], [-118.751032, 37.428602, 3184.9], [-118.751063, 37.428525, 3185.0], [-118.751119, 37.428453, 3184.7], [-118.751175, 37.428341, 3185.3], [-118.751189, 37.428254, 3186.3], [-118.751226, 37.42821, 3186.0], [-118.751247, 37.428152, 3186.1], [-118.751332, 37.42801, 3184.7], [-118.751395, 37.427936, 3185.0], [-118.751418, 37.427876, 3184.8], [-118.751453, 37.427839, 3183.8], [-118.751475, 37.427785, 3183.0], [-118.751504, 37.427754, 3182.3], [-118.751547, 37.427671, 3180.1], [-118.751642, 37.427512, 3177.2], [-118.751689, 37.427474, 3176.1], [-118.751725, 37.427429, 3175.7], [-118.751803, 37.427379, 3174.4], [-118.751962, 37.427251, 3173.1], [-118.751976, 37.427195, 3173.6], [-118.752007, 37.427165, 3173.3], [-118.752007, 37.42712, 3173.3], [-118.752036, 37.427055, 3172.4], [-118.752031, 37.426945, 3170.4], [-118.752019, 37.426926, 3170.7], [-118.752028, 37.426898, 3170.1], [-118.752027, 37.426825, 3169.0], [-118.752049, 37.426798, 3168.4], [-118.752076, 37.426732, 3168.6], [-118.752103, 37.426633, 3166.8], [-118.752063, 37.426473, 3164.9], [-118.751993, 37.426425, 3164.2], [-118.751998, 37.426345, 3163.2], [-118.752036, 37.426309, 3162.8], [-118.752084, 37.426204, 3162.8], [-118.752081, 37.426174, 3162.3], [-118.752062, 37.426138, 3162.3], [-118.752073, 37.426092, 3162.7], [-118.752109, 37.426036, 3164.0], [-118.752153, 37.425909, 3164.3], [-118.752195, 37.425833, 3163.9], [-118.752235, 37.425794, 3163.8], [-118.752301, 37.42567, 3165.9], [-118.752404, 37.425573, 3167.7], [-118.75251, 37.425433, 3169.6], [-118.752535, 37.425391, 3169.1], [-118.752599, 37.425341, 3169.9], [-118.752627, 37.425287, 3170.3], [-118.752691, 37.425239, 3170.0], [-118.752793, 37.425202, 3169.3], [-118.752836, 37.425168, 3169.2], [-118.752969, 37.425086, 3169.7], [-118.752999, 37.425046, 3170.1], [-118.753027, 37.424855, 3172.1], [-118.753023, 37.424765, 3171.1], [-118.753046, 37.424696, 3172.0], [-118.75305, 37.424648, 3172.7], [-118.753093, 37.424591, 3174.0], [-118.753094, 37.424512, 3174.4], [-118.75312, 37.424463, 3174.4], [-118.75311, 37.424395, 3175.6], [-118.753127, 37.424303, 3175.3], [-118.753109, 37.424264, 3176.4], [-118.75312, 37.424088, 3179.6], [-118.753146, 37.424022, 3181.3], [-118.753196, 37.423984, 3182.0], [-118.753229, 37.423905, 3182.0], [-118.753302, 37.423813, 3181.9], [-118.753341, 37.423748, 3181.8], [-118.753389, 37.423635, 3180.0], [-118.753456, 37.423411, 3177.5], [-118.75355, 37.423229, 3175.3], [-118.753612, 37.423163, 3175.5], [-118.753626, 37.423111, 3175.4], [-118.753673, 37.423086, 3172.5], [-118.753717, 37.423036, 3173.2], [-118.753728, 37.422991, 3173.8], [-118.753825, 37.422846, 3176.4], [-118.753961, 37.422706, 3175.5], [-118.754015, 37.422662, 3174.9], [-118.754028, 37.422638, 3174.8], [-118.754039, 37.422565, 3174.5], [-118.754023, 37.422482, 3174.5], [-118.754039, 37.422436, 3175.2], [-118.75402, 37.4222, 3174.3], [-118.754039, 37.422097, 3175.5], [-118.754072, 37.422013, 3175.9], [-118.754073, 37.421962, 3176.9], [-118.754123, 37.42187, 3178.0], [-118.754145, 37.421797, 3177.6], [-118.754139, 37.421776, 3177.4], [-118.754175, 37.421681, 3178.4], [-118.754171, 37.421633, 3177.5], [-118.754182, 37.421608, 3177.3], [-118.754228, 37.421559, 3177.1], [-118.75424, 37.421485, 3177.4], [-118.754307, 37.421378, 3178.8], [-118.754293, 37.421343, 3178.4], [-118.754294, 37.421199, 3180.3], [-118.754303, 37.421132, 3181.5], [-118.754469, 37.420851, 3184.9], [-118.754528, 37.420816, 3184.8], [-118.754568, 37.420756, 3183.7], [-118.754624, 37.420722, 3184.2], [-118.754728, 37.420622, 3184.5], [-118.754777, 37.420564, 3183.9], [-118.754825, 37.42045, 3182.6], [-118.754813, 37.420261, 3180.9], [-118.754804, 37.420191, 3180.5], [-118.754856, 37.420106, 3180.1], [-118.754863, 37.420055, 3179.2], [-118.754854, 37.419927, 3177.9], [-118.754885, 37.419887, 3177.3], [-118.754947, 37.419793, 3177.0], [-118.754977, 37.419718, 3175.0], [-118.755011, 37.41966, 3175.1], [-118.755119, 37.419535, 3174.0], [-118.755142, 37.419488, 3173.2], [-118.755197, 37.419443, 3173.4], [-118.755232, 37.419388, 3173.2], [-118.755226, 37.419366, 3173.0], [-118.755239, 37.419329, 3172.9], [-118.755285, 37.419278, 3173.3], [-118.755343, 37.419159, 3172.3], [-118.75543, 37.419085, 3171.6], [-118.755536, 37.419022, 3170.9], [-118.755566, 37.418981, 3171.4], [-118.75566, 37.418814, 3174.7], [-118.755657, 37.418735, 3175.2], [-118.755666, 37.418714, 3175.0], [-118.755741, 37.418627, 3175.2], [-118.755793, 37.418523, 3175.4], [-118.755826, 37.418482, 3175.6], [-118.755815, 37.418395, 3171.6], [-118.755726, 37.418298, 3169.9], [-118.755673, 37.418276, 3170.6], [-118.755653, 37.418257, 3171.1], [-118.755656, 37.418209, 3169.4], [-118.755585, 37.418156, 3168.6], [-118.755545, 37.418142, 3168.8], [-118.75541, 37.418064, 3170.3], [-118.755354, 37.418036, 3170.9], [-118.755315, 37.418001, 3171.3], [-118.755217, 37.417964, 3172.4], [-118.755203, 37.417954, 3172.6], [-118.755149, 37.417882, 3172.7], [-118.755154, 37.417759, 3171.8], [-118.755164, 37.417718, 3171.1], [-118.755115, 37.417608, 3169.5], [-118.755101, 37.417561, 3169.2], [-118.755042, 37.417523, 3169.1], [-118.754958, 37.417405, 3170.4], [-118.754952, 37.417337, 3172.2], [-118.754961, 37.417281, 3172.6], [-118.754946, 37.417182, 3175.1], [-118.754954, 37.417111, 3177.2], [-118.75507, 37.417043, 3179.8], [-118.755127, 37.416992, 3180.3], [-118.755163, 37.416976, 3182.3], [-118.755275, 37.41685, 3184.1], [-118.75529, 37.416816, 3184.6], [-118.755342, 37.416784, 3185.1], [-118.755396, 37.416706, 3187.3], [-118.755414, 37.416657, 3188.7], [-118.755411, 37.416614, 3190.3], [-118.755455, 37.416545, 3190.9], [-118.755454, 37.416495, 3190.6], [-118.755477, 37.416408, 3192.4], [-118.755469, 37.416334, 3192.7], [-118.755458, 37.416296, 3191.7], [-118.755457, 37.416167, 3191.7], [-118.755478, 37.416089, 3190.6], [-118.75548, 37.416047, 3190.2], [-118.755506, 37.415986, 3191.0], [-118.755506, 37.415969, 3191.7], [-118.755577, 37.415814, 3192.4], [-118.755611, 37.415733, 3192.1], [-118.755667, 37.415677, 3193.1], [-118.755661, 37.415641, 3192.7], [-118.755668, 37.41558, 3194.2], [-118.755658, 37.415529, 3195.3], [-118.755669, 37.41551, 3194.9], [-118.755661, 37.415453, 3195.8], [-118.755672, 37.415354, 3197.3], [-118.755717, 37.415281, 3198.5], [-118.755715, 37.415229, 3198.9], [-118.755735, 37.415186, 3199.0], [-118.755728, 37.415144, 3199.3], [-118.755733, 37.415078, 3199.3], [-118.755707, 37.415024, 3199.1], [-118.755643, 37.414971, 3200.1], [-118.755584, 37.414833, 3198.9], [-118.755574, 37.414754, 3198.8], [-118.755542, 37.414716, 3198.0], [-118.755538, 37.414645, 3196.7], [-118.755558, 37.41457, 3194.5], [-118.755565, 37.414499, 3194.4], [-118.755582, 37.41446, 3194.5], [-118.755587, 37.414328, 3193.4], [-118.755623, 37.414289, 3193.0], [-118.755645, 37.41422, 3192.7], [-118.755645, 37.414158, 3192.7], [-118.755696, 37.414081, 3193.1], [-118.755704, 37.414043, 3194.7], [-118.755772, 37.41401, 3194.3], [-118.755807, 37.413966, 3194.4], [-118.75585, 37.413938, 3194.3], [-118.755936, 37.413872, 3194.9], [-118.755966, 37.413838, 3194.9], [-118.756021, 37.413688, 3194.7], [-118.756075, 37.413584, 3194.4], [-118.756066, 37.413499, 3193.6], [-118.756107, 37.413431, 3193.3], [-118.756131, 37.413337, 3193.4], [-118.756189, 37.413256, 3192.4], [-118.756221, 37.413161, 3190.8], [-118.756281, 37.413032, 3190.6], [-118.756298, 37.412948, 3188.1], [-118.756275, 37.412892, 3187.8], [-118.756292, 37.412835, 3186.7], [-118.756286, 37.412718, 3186.7], [-118.756351, 37.412604, 3185.4], [-118.756354, 37.412564, 3186.0], [-118.7564, 37.412444, 3186.1], [-118.756473, 37.412222, 3188.3], [-118.756499, 37.412184, 3189.8], [-118.756514, 37.412101, 3190.6], [-118.756498, 37.41205, 3191.2], [-118.756526, 37.41201, 3190.5], [-118.756543, 37.411879, 3191.1], [-118.756592, 37.411754, 3193.0], [-118.756605, 37.411692, 3193.8], [-118.756702, 37.411534, 3194.1], [-118.756736, 37.411361, 3197.0], [-118.756764, 37.411331, 3198.9], [-118.756789, 37.411233, 3199.5], [-118.756821, 37.4112, 3199.7], [-118.756854, 37.411036, 3199.5], [-118.756861, 37.411024, 3199.4], [-118.75689, 37.41084, 3200.2], [-118.756884, 37.410811, 3202.1], [-118.756897, 37.410771, 3201.7], [-118.756917, 37.410752, 3202.4], [-118.756931, 37.410706, 3202.8], [-118.756921, 37.410669, 3203.8], [-118.756931, 37.410603, 3205.0], [-118.756988, 37.410487, 3207.2], [-118.757009, 37.410423, 3207.0], [-118.757048, 37.410372, 3208.9], [-118.757085, 37.410286, 3210.3], [-118.757086, 37.410147, 3208.9], [-118.75708, 37.410141, 3208.6], [-118.757102, 37.410074, 3208.4], [-118.757083, 37.410035, 3205.8], [-118.757081, 37.409982, 3204.6], [-118.757126, 37.409916, 3204.8], [-118.757125, 37.409843, 3204.6], [-118.757156, 37.409768, 3203.2], [-118.757238, 37.409662, 3201.9], [-118.757283, 37.409592, 3201.7], [-118.757293, 37.409498, 3202.8], [-118.757315, 37.409437, 3205.4], [-118.757289, 37.409399, 3206.4], [-118.757286, 37.409322, 3207.8], [-118.757295, 37.409305, 3208.1], [-118.757407, 37.409169, 3209.6], [-118.757409, 37.40905, 3209.8], [-118.757431, 37.408996, 3211.6], [-118.75744, 37.408834, 3210.8], [-118.757401, 37.408716, 3212.0], [-118.757407, 37.408652, 3213.2], [-118.757402, 37.408593, 3213.4], [-118.757412, 37.408527, 3214.5], [-118.757437, 37.408463, 3214.0], [-118.75747, 37.40842, 3213.7], [-118.757474, 37.408352, 3215.5], [-118.757495, 37.408277, 3215.8], [-118.757506, 37.408203, 3215.9], [-118.75754, 37.408107, 3215.9], [-118.757558, 37.408018, 3216.0], [-118.757557, 37.407976, 3216.2], [-118.757601, 37.407946, 3220.2], [-118.757626, 37.407883, 3221.5], [-118.757615, 37.407856, 3220.9], [-118.757631, 37.407806, 3222.1], [-118.757611, 37.407771, 3221.3], [-118.757567, 37.407745, 3219.9], [-118.757547, 37.407717, 3219.5], [-118.75755, 37.407684, 3219.6], [-118.757583, 37.407635, 3220.0], [-118.757584, 37.407559, 3220.3], [-118.757613, 37.407449, 3221.1], [-118.757635, 37.407202, 3223.6], [-118.757671, 37.407102, 3224.1], [-118.757654, 37.407062, 3224.1], [-118.757648, 37.407002, 3223.5], [-118.757668, 37.406951, 3223.3], [-118.757661, 37.406828, 3221.8], [-118.757677, 37.406772, 3220.8], [-118.757662, 37.406714, 3220.2], [-118.757676, 37.406655, 3220.4], [-118.757803, 37.406391, 3217.7], [-118.757826, 37.406355, 3217.8], [-118.757823, 37.406338, 3217.8], [-118.757856, 37.406241, 3217.6], [-118.757865, 37.406169, 3217.2], [-118.757889, 37.406117, 3216.6], [-118.757885, 37.406076, 3217.3], [-118.75793, 37.405974, 3217.3], [-118.757941, 37.405897, 3216.6], [-118.757971, 37.405777, 3216.3], [-118.757972, 37.405721, 3216.4], [-118.757901, 37.405568, 3218.1], [-118.757844, 37.40547, 3217.1], [-118.757802, 37.40542, 3216.6], [-118.757787, 37.405302, 3218.3], [-118.757796, 37.405221, 3217.7], [-118.757812, 37.405153, 3217.0], [-118.757808, 37.405124, 3217.5], [-118.757841, 37.405057, 3220.1], [-118.75787, 37.404978, 3219.6], [-118.757868, 37.404915, 3220.1], [-118.757904, 37.404823, 3220.2], [-118.757904, 37.404773, 3220.1], [-118.757926, 37.404729, 3219.9], [-118.757942, 37.404666, 3219.4], [-118.75799, 37.404624, 3219.3], [-118.758016, 37.40453, 3218.7], [-118.758034, 37.404483, 3218.2], [-118.758031, 37.404419, 3218.9], [-118.75805, 37.40436, 3219.3], [-118.758049, 37.40428, 3219.9], [-118.758062, 37.40418, 3219.5], [-118.75807, 37.404167, 3219.4], [-118.758067, 37.404093, 3219.1], [-118.758043, 37.403975, 3218.7], [-118.758053, 37.403886, 3217.4], [-118.758013, 37.403831, 3217.4], [-118.757967, 37.403746, 3217.5], [-118.757933, 37.4037, 3217.7], [-118.757908, 37.403619, 3217.1], [-118.757909, 37.403532, 3216.2], [-118.757898, 37.403431, 3218.1], [-118.757922, 37.403342, 3219.2], [-118.757906, 37.403239, 3221.1], [-118.757941, 37.403156, 3222.8], [-118.757957, 37.403074, 3223.2], [-118.757947, 37.402931, 3224.7], [-118.757967, 37.402846, 3225.8], [-118.757968, 37.402774, 3226.4], [-118.757978, 37.402715, 3227.2], [-118.758004, 37.402652, 3228.2], [-118.757989, 37.402583, 3229.9], [-118.758003, 37.402495, 3230.7], [-118.758024, 37.40243, 3230.6], [-118.758018, 37.402303, 3232.6], [-118.758043, 37.40225, 3231.8], [-118.758021, 37.40224, 3232.8], [-118.758024, 37.402214, 3232.5], [-118.757996, 37.402129, 3234.2], [-118.75798, 37.402108, 3234.7], [-118.757972, 37.402067, 3234.3], [-118.757903, 37.402009, 3234.3], [-118.757891, 37.401966, 3235.5], [-118.757906, 37.401914, 3236.6], [-118.757927, 37.401885, 3237.6], [-118.757927, 37.401836, 3238.1], [-118.757905, 37.401764, 3241.5], [-118.757892, 37.401695, 3242.5], [-118.75795, 37.401577, 3243.4], [-118.757934, 37.401529, 3245.3], [-118.757949, 37.401474, 3247.0], [-118.757944, 37.401422, 3246.6], [-118.757899, 37.401344, 3247.3], [-118.757861, 37.401325, 3248.0], [-118.757816, 37.401268, 3249.2], [-118.757834, 37.401227, 3248.9], [-118.757821, 37.401186, 3249.4], [-118.757826, 37.401107, 3249.3], [-118.757797, 37.401089, 3249.2], [-118.75779, 37.401056, 3249.4], [-118.757738, 37.400966, 3249.3], [-118.757767, 37.40086, 3249.4], [-118.757763, 37.40077, 3248.6], [-118.757778, 37.400676, 3248.8], [-118.757754, 37.400563, 3248.1], [-118.757747, 37.400548, 3248.1], [-118.757773, 37.400405, 3246.9], [-118.757774, 37.400325, 3247.8], [-118.757762, 37.400263, 3247.1], [-118.757777, 37.400224, 3246.4], [-118.757755, 37.400116, 3246.3], [-118.757721, 37.400083, 3245.4], [-118.757674, 37.400007, 3246.1], [-118.757606, 37.399928, 3248.2], [-118.757554, 37.399893, 3250.6], [-118.757399, 37.399823, 3254.6], [-118.757302, 37.399766, 3259.9], [-118.757208, 37.399726, 3262.1], [-118.757106, 37.399705, 3264.2], [-118.757073, 37.399675, 3265.4], [-118.757013, 37.399646, 3265.8], [-118.756919, 37.39963, 3266.0], [-118.756845, 37.399537, 3266.6], [-118.756825, 37.399487, 3265.8], [-118.756797, 37.399473, 3266.2], [-118.756793, 37.399407, 3266.3], [-118.756767, 37.399345, 3267.4], [-118.756765, 37.399272, 3269.0], [-118.756745, 37.399218, 3269.3], [-118.75675, 37.399174, 3270.0], [-118.75672, 37.399106, 3270.7], [-118.756723, 37.39907, 3271.4], [-118.756703, 37.39903, 3271.7], [-118.756705, 37.398987, 3271.9], [-118.756659, 37.398829, 3275.7], [-118.756568, 37.398723, 3275.0], [-118.756572, 37.398639, 3274.2], [-118.756546, 37.398604, 3273.4], [-118.756534, 37.398509, 3272.7], [-118.756492, 37.39836, 3272.7], [-118.756499, 37.398319, 3273.4], [-118.756457, 37.398257, 3273.6], [-118.756448, 37.398217, 3274.2], [-118.756391, 37.398135, 3275.5], [-118.756361, 37.398055, 3276.4], [-118.756324, 37.398003, 3275.2], [-118.756297, 37.397939, 3276.8], [-118.756294, 37.397896, 3277.8], [-118.756261, 37.397823, 3281.3], [-118.756265, 37.3978, 3281.8], [-118.756231, 37.397732, 3283.4], [-118.756217, 37.397665, 3284.9], [-118.756278, 37.397564, 3288.5], [-118.756299, 37.397446, 3289.1], [-118.756292, 37.397376, 3289.2], [-118.756302, 37.397328, 3289.4], [-118.756282, 37.397254, 3289.1], [-118.756306, 37.397185, 3288.4], [-118.756336, 37.397141, 3288.8], [-118.756351, 37.396991, 3290.3], [-118.756345, 37.39688, 3292.0], [-118.756352, 37.396849, 3291.9], [-118.756337, 37.396744, 3292.1], [-118.756346, 37.396705, 3292.5], [-118.756295, 37.396601, 3292.5], [-118.756301, 37.396563, 3293.1], [-118.756254, 37.396472, 3292.2], [-118.756211, 37.396429, 3293.6], [-118.756195, 37.396393, 3293.6], [-118.756126, 37.396344, 3293.9], [-118.756067, 37.39632, 3294.1], [-118.756002, 37.396246, 3293.4], [-118.755963, 37.396222, 3293.1], [-118.755867, 37.39619, 3293.0], [-118.755781, 37.396137, 3292.5], [-118.755711, 37.396102, 3292.3], [-118.755606, 37.396023, 3292.6], [-118.755404, 37.395921, 3291.5], [-118.755397, 37.395912, 3291.6], [-118.755242, 37.395793, 3292.0], [-118.755204, 37.395741, 3292.7], [-118.755136, 37.39571, 3293.4], [-118.755077, 37.395618, 3295.2], [-118.754954, 37.395518, 3296.9], [-118.754888, 37.395446, 3297.7], [-118.754842, 37.395419, 3297.7], [-118.754825, 37.395398, 3297.8], [-118.754813, 37.395335, 3298.2], [-118.754775, 37.395274, 3299.4], [-118.754774, 37.395234, 3300.9], [-118.754753, 37.395178, 3302.4], [-118.754705, 37.395114, 3304.5], [-118.754693, 37.395035, 3304.1], [-118.75471, 37.394935, 3301.3], [-118.754682, 37.394789, 3303.3], [-118.754707, 37.394692, 3305.0], [-118.754702, 37.39467, 3305.8], [-118.754723, 37.394649, 3306.5], [-118.754724, 37.394576, 3307.7], [-118.75474, 37.394513, 3308.8], [-118.754794, 37.39444, 3309.4], [-118.754793, 37.394346, 3310.8], [-118.754779, 37.39425, 3312.0], [-118.754753, 37.394207, 3312.4], [-118.754747, 37.394166, 3312.5], [-118.754702, 37.394024, 3312.8], [-118.75464, 37.393767, 3311.5], [-118.75465, 37.393665, 3310.3], [-118.754645, 37.393588, 3309.0], [-118.754698, 37.393481, 3308.0], [-118.754794, 37.393348, 3307.5], [-118.754813, 37.393274, 3307.3], [-118.754868, 37.393212, 3306.4], [-118.754889, 37.39317, 3306.4], [-118.754977, 37.39302, 3307.6], [-118.755008, 37.392995, 3306.9], [-118.755038, 37.392928, 3308.2], [-118.75504, 37.392902, 3308.1], [-118.754997, 37.392817, 3307.6], [-118.754953, 37.392788, 3309.5], [-118.754892, 37.392689, 3309.3], [-118.75477, 37.392586, 3311.5], [-118.754697, 37.392567, 3311.6], [-118.75457, 37.392582, 3311.9], [-118.754486, 37.392576, 3312.3], [-118.754359, 37.39253, 3312.6], [-118.754322, 37.392499, 3313.1], [-118.754277, 37.392443, 3313.4], [-118.754245, 37.392361, 3313.4], [-118.75424, 37.392322, 3314.2], [-118.754124, 37.39218, 3315.3], [-118.754115, 37.39213, 3315.7], [-118.754095, 37.392094, 3316.4], [-118.754091, 37.39204, 3317.3], [-118.754043, 37.391984, 3318.0], [-118.754022, 37.391866, 3319.4], [-118.754009, 37.39184, 3321.3], [-118.754032, 37.391802, 3323.0], [-118.754039, 37.391714, 3323.2], [-118.754065, 37.39164, 3323.0], [-118.75412, 37.391588, 3321.6], [-118.754145, 37.391548, 3322.1], [-118.754195, 37.391513, 3322.2], [-118.754302, 37.39147, 3321.5], [-118.754426, 37.391445, 3321.3], [-118.754508, 37.391449, 3322.6], [-118.754589, 37.39148, 3324.2], [-118.754665, 37.391491, 3323.1], [-118.754722, 37.391435, 3321.7], [-118.754765, 37.391364, 3318.4], [-118.754796, 37.391195, 3317.8], [-118.754785, 37.391152, 3318.0], [-118.754809, 37.391075, 3319.2], [-118.754824, 37.391052, 3319.0], [-118.754938, 37.391004, 3318.7], [-118.755055, 37.390996, 3318.9], [-118.755129, 37.390963, 3318.4], [-118.755226, 37.390958, 3318.2], [-118.755291, 37.390996, 3318.1], [-118.755369, 37.391024, 3317.3], [-118.755415, 37.391066, 3316.6], [-118.755449, 37.391083, 3316.0], [-118.755514, 37.391084, 3315.6], [-118.755589, 37.391029, 3316.3], [-118.755722, 37.391002, 3316.7], [-118.755771, 37.390943, 3315.0], [-118.755793, 37.390932, 3314.9], [-118.755891, 37.390928, 3314.9], [-118.755922, 37.390911, 3315.1], [-118.755952, 37.390876, 3315.0], [-118.756025, 37.390861, 3315.6], [-118.756076, 37.390833, 3315.8], [-118.756113, 37.39079, 3316.2], [-118.756123, 37.390743, 3317.3], [-118.756142, 37.390705, 3318.2], [-118.756179, 37.390688, 3319.2], [-118.756247, 37.390636, 3319.6], [-118.756279, 37.390633, 3318.8], [-118.756296, 37.390645, 3318.8], [-118.756392, 37.390633, 3317.6], [-118.756436, 37.390623, 3317.8], [-118.756523, 37.390563, 3318.5], [-118.756595, 37.39055, 3318.6], [-118.75664, 37.390432, 3317.4], [-118.756703, 37.39037, 3317.0], [-118.756791, 37.390308, 3317.1], [-118.756873, 37.39028, 3318.4], [-118.756964, 37.390257, 3318.4], [-118.757, 37.390222, 3319.4], [-118.757006, 37.390166, 3320.9], [-118.757061, 37.390139, 3321.4], [-118.757119, 37.390125, 3321.8], [-118.757238, 37.390118, 3321.5], [-118.757375, 37.390102, 3321.9], [-118.757406, 37.390111, 3323.6], [-118.757402, 37.390142, 3329.4], [-118.757371, 37.390093, 3328.8], [-118.757308, 37.390077, 3327.9], [-118.757289, 37.390031, 3328.3], [-118.757091, 37.38983, 3324.5], [-118.757038, 37.389803, 3323.7], [-118.75698, 37.389719, 3324.0], [-118.756951, 37.389699, 3323.8], [-118.756911, 37.389477, 3326.3], [-118.756902, 37.389454, 3326.7], [-118.75686, 37.389424, 3325.4], [-118.75685, 37.389399, 3326.4], [-118.756811, 37.389365, 3325.2], [-118.756811, 37.389304, 3325.8], [-118.756775, 37.389266, 3328.0], [-118.756697, 37.389221, 3330.6], [-118.75665, 37.389155, 3331.9], [-118.756651, 37.389129, 3333.0], [-118.756614, 37.389086, 3334.9], [-118.756587, 37.389082, 3335.7], [-118.756529, 37.389039, 3336.9], [-118.75653, 37.389016, 3337.8], [-118.756506, 37.388971, 3337.7], [-118.756536, 37.388895, 3340.2], [-118.756545, 37.388856, 3339.7], [-118.756532, 37.388807, 3341.4], [-118.756501, 37.388797, 3342.5], [-118.756488, 37.388752, 3344.6], [-118.756517, 37.388659, 3348.8], [-118.75649, 37.388592, 3353.0], [-118.756509, 37.388511, 3357.0], [-118.75644, 37.388436, 3359.5], [-118.756407, 37.388418, 3359.4], [-118.756407, 37.388365, 3358.7], [-118.756392, 37.38834, 3361.2], [-118.756322, 37.388296, 3366.5], [-118.756287, 37.388239, 3368.9], [-118.756289, 37.388213, 3370.4], [-118.756272, 37.388163, 3374.6], [-118.756233, 37.38809, 3382.9], [-118.756177, 37.388037, 3384.2], [-118.756135, 37.387971, 3384.1], [-118.756131, 37.387931, 3385.8], [-118.756109, 37.387889, 3385.3], [-118.756117, 37.387819, 3386.0], [-118.756104, 37.387759, 3387.0], [-118.756117, 37.387728, 3386.9], [-118.756097, 37.387679, 3388.8], [-118.756098, 37.387632, 3390.6], [-118.756041, 37.387585, 3392.9], [-118.756032, 37.387556, 3392.6], [-118.756056, 37.387511, 3394.3], [-118.756057, 37.387487, 3395.2], [-118.756094, 37.387456, 3393.9], [-118.756119, 37.387374, 3396.2], [-118.756117, 37.38735, 3396.4], [-118.756093, 37.387307, 3397.1], [-118.756134, 37.387265, 3397.9], [-118.75614, 37.3872, 3399.1], [-118.756192, 37.387187, 3402.1], [-118.756276, 37.387134, 3406.9], [-118.756287, 37.387107, 3412.4], [-118.756268, 37.387089, 3413.8], [-118.756273, 37.387067, 3414.0], [-118.756313, 37.387011, 3415.7], [-118.75631, 37.386946, 3416.6], [-118.756364, 37.386925, 3419.3], [-118.756393, 37.386882, 3421.1], [-118.756395, 37.386856, 3423.0], [-118.756373, 37.38683, 3423.9], [-118.756378, 37.386799, 3425.2], [-118.756427, 37.386745, 3427.1], [-118.756427, 37.38672, 3429.0], [-118.756461, 37.386668, 3431.7], [-118.756471, 37.386638, 3433.5], [-118.756469, 37.386564, 3435.8], [-118.75649, 37.386542, 3436.4], [-118.756512, 37.386488, 3438.1], [-118.756509, 37.38646, 3438.9], [-118.756531, 37.386399, 3440.6], [-118.756522, 37.386348, 3441.1], [-118.756527, 37.38632, 3441.0], [-118.756572, 37.386233, 3441.6], [-118.756641, 37.386189, 3443.8], [-118.756666, 37.386154, 3444.3], [-118.756739, 37.385969, 3449.2], [-118.756743, 37.385929, 3450.5], [-118.756775, 37.385892, 3451.6], [-118.756795, 37.385797, 3453.3], [-118.756845, 37.38572, 3456.1], [-118.756862, 37.385707, 3456.5], [-118.75685, 37.385682, 3455.7], [-118.756865, 37.385627, 3456.5], [-118.756866, 37.385586, 3456.0], [-118.756897, 37.385548, 3456.3], [-118.756898, 37.385522, 3457.8], [-118.756934, 37.385445, 3458.0], [-118.756925, 37.385404, 3458.4], [-118.75697, 37.385377, 3458.7], [-118.757045, 37.385299, 3458.3], [-118.757068, 37.385249, 3459.4], [-118.757112, 37.385222, 3458.7], [-118.75716, 37.385154, 3457.3], [-118.757172, 37.385125, 3457.9], [-118.757218, 37.385101, 3457.4], [-118.757217, 37.385025, 3456.8], [-118.757236, 37.384987, 3457.2], [-118.757245, 37.384939, 3459.2], [-118.757229, 37.384897, 3458.6], [-118.757257, 37.38482, 3459.6], [-118.757341, 37.384742, 3462.0], [-118.757402, 37.384729, 3462.8], [-118.757492, 37.384689, 3462.7], [-118.757545, 37.384708, 3461.4], [-118.757565, 37.384726, 3461.2], [-118.757592, 37.384718, 3462.7], [-118.757615, 37.384689, 3462.9], [-118.757708, 37.384661, 3465.3], [-118.757743, 37.384616, 3466.0], [-118.757817, 37.38461, 3465.2], [-118.757934, 37.384581, 3468.6], [-118.758012, 37.384536, 3469.9], [-118.758068, 37.384518, 3469.9], [-118.758107, 37.384488, 3470.5], [-118.758198, 37.384455, 3472.6], [-118.758217, 37.384432, 3473.0], [-118.758219, 37.384358, 3475.2], [-118.758245, 37.384349, 3474.8], [-118.758274, 37.384286, 3475.2], [-118.758269, 37.384259, 3475.8], [-118.758283, 37.384242, 3475.6], [-118.758332, 37.384214, 3475.7], [-118.758349, 37.384191, 3475.8], [-118.758338, 37.384136, 3478.6], [-118.758382, 37.384091, 3479.6], [-118.75844, 37.384079, 3478.4], [-118.758471, 37.384041, 3478.6], [-118.758511, 37.384012, 3481.5], [-118.758498, 37.383961, 3480.5], [-118.758538, 37.383942, 3480.9], [-118.758611, 37.383869, 3481.1], [-118.758643, 37.383814, 3482.4], [-118.758705, 37.383741, 3480.8], [-118.75873, 37.383728, 3480.5], [-118.758729, 37.383711, 3480.0], [-118.758757, 37.383538, 3480.9], [-118.758777, 37.383506, 3482.1], [-118.758782, 37.383463, 3481.4], [-118.758753, 37.383422, 3481.4], [-118.758758, 37.38334, 3480.7], [-118.75874, 37.38329, 3479.2], [-118.758729, 37.383186, 3481.0], [-118.758748, 37.383106, 3482.6], [-118.758733, 37.383061, 3483.1], [-118.758747, 37.383012, 3483.3], [-118.75872, 37.38296, 3483.1], [-118.758718, 37.382935, 3484.0], [-118.758743, 37.382889, 3485.6], [-118.758739, 37.382821, 3486.6], [-118.75876, 37.382741, 3487.3], [-118.758841, 37.382755, 3491.0], [-118.758879, 37.382752, 3490.9], [-118.758967, 37.382771, 3491.7], [-118.759019, 37.382799, 3494.8], [-118.759051, 37.382798, 3495.3], [-118.759096, 37.382823, 3495.4], [-118.759148, 37.382795, 3495.1], [-118.759203, 37.382742, 3495.8], [-118.759227, 37.382732, 3497.9], [-118.759273, 37.382736, 3499.8], [-118.75936, 37.382714, 3500.6], [-118.759389, 37.38272, 3500.9], [-118.759416, 37.382679, 3500.5], [-118.759453, 37.382681, 3500.9], [-118.759485, 37.382666, 3500.9], [-118.759544, 37.382668, 3501.7], [-118.759626, 37.382656, 3501.8], [-118.759665, 37.382631, 3501.8], [-118.759791, 37.382601, 3503.5], [-118.759811, 37.382564, 3503.5], [-118.759847, 37.382539, 3503.8], [-118.75991, 37.382521, 3504.7], [-118.75993, 37.382502, 3505.6], [-118.759942, 37.382458, 3505.4], [-118.759937, 37.382435, 3505.2], [-118.759913, 37.382415, 3504.9], [-118.759889, 37.382322, 3505.8], [-118.759894, 37.382241, 3506.9], [-118.759933, 37.382205, 3507.2], [-118.760014, 37.382183, 3508.0], [-118.760059, 37.382088, 3506.6], [-118.760064, 37.382037, 3507.8], [-118.760043, 37.381996, 3507.4], [-118.760052, 37.38196, 3507.5], [-118.760063, 37.381861, 3508.7], [-118.760103, 37.381782, 3508.6], [-118.760124, 37.381709, 3505.2], [-118.760118, 37.38169, 3504.5], [-118.76013, 37.38164, 3503.5], [-118.760151, 37.381607, 3503.3], [-118.760183, 37.381582, 3509.0], [-118.760235, 37.381566, 3508.6], [-118.760257, 37.381545, 3509.1], [-118.760342, 37.381505, 3509.4], [-118.760373, 37.381475, 3509.8], [-118.760401, 37.381471, 3510.6], [-118.76048, 37.381413, 3510.1], [-118.760529, 37.38141, 3510.4], [-118.76062, 37.381421, 3510.1], [-118.760735, 37.381464, 3510.6], [-118.760785, 37.381474, 3509.9], [-118.760809, 37.381461, 3511.8], [-118.760874, 37.381461, 3511.5], [-118.76097, 37.381424, 3512.2], [-118.761039, 37.381422, 3512.0], [-118.761186, 37.381459, 3511.8], [-118.761291, 37.381457, 3512.1], [-118.761372, 37.381408, 3514.6], [-118.761409, 37.381407, 3516.1], [-118.76158, 37.381355, 3513.7], [-118.761623, 37.381311, 3513.7], [-118.761652, 37.381302, 3512.7], [-118.761757, 37.381222, 3508.1], [-118.761866, 37.381185, 3507.7], [-118.76194, 37.381128, 3507.2], [-118.76199, 37.381097, 3509.0], [-118.762012, 37.381048, 3510.9], [-118.762032, 37.38103, 3511.9], [-118.762034, 37.381005, 3514.9], [-118.762164, 37.380935, 3519.0], [-118.762223, 37.380863, 3519.9], [-118.762256, 37.380847, 3520.2], [-118.762329, 37.380746, 3522.1], [-118.762364, 37.380709, 3522.3], [-118.76243, 37.380653, 3522.3], [-118.762448, 37.380608, 3522.2], [-118.76244, 37.380509, 3522.5], [-118.762463, 37.380429, 3521.7], [-118.762462, 37.380375, 3521.5], [-118.762472, 37.380363, 3521.7], [-118.762453, 37.380342, 3524.7], [-118.762491, 37.380255, 3523.9], [-118.762531, 37.380208, 3523.2], [-118.762587, 37.38019, 3523.6], [-118.7626, 37.38017, 3522.8], [-118.762654, 37.38016, 3519.6], [-118.7627, 37.380123, 3517.4], [-118.762702, 37.380082, 3518.7], [-118.762732, 37.380008, 3516.9], [-118.762719, 37.379928, 3519.4], [-118.762751, 37.379856, 3522.1], [-118.762813, 37.379844, 3520.3], [-118.762844, 37.379849, 3519.8], [-118.762872, 37.379831, 3519.6], [-118.762925, 37.379814, 3519.2], [-118.762968, 37.379778, 3519.0], [-118.763052, 37.379783, 3519.2], [-118.763073, 37.379761, 3520.7], [-118.763113, 37.379744, 3520.1], [-118.763182, 37.379685, 3518.7], [-118.763255, 37.379685, 3518.4], [-118.763282, 37.37965, 3519.3], [-118.763361, 37.37963, 3518.9], [-118.763463, 37.379589, 3520.0], [-118.763498, 37.379568, 3519.4], [-118.763526, 37.379564, 3520.4], [-118.763545, 37.379543, 3520.6], [-118.76363, 37.379511, 3523.0], [-118.763659, 37.379485, 3523.4], [-118.763741, 37.379437, 3523.4], [-118.763767, 37.379395, 3523.0], [-118.763811, 37.379378, 3523.3], [-118.763895, 37.379312, 3522.4], [-118.763868, 37.379304, 3522.7], [-118.76382, 37.379335, 3523.3], [-118.763783, 37.379319, 3523.9], [-118.763743, 37.379314, 3523.8], [-118.76373, 37.379289, 3525.3], [-118.763704, 37.379275, 3526.3], [-118.763705, 37.379256, 3526.8], [-118.763663, 37.379181, 3529.1], [-118.763678, 37.379152, 3529.7], [-118.763708, 37.379141, 3529.0], [-118.763715, 37.379071, 3529.1], [-118.763738, 37.379017, 3528.7], [-118.763735, 37.379005, 3528.8], [-118.763774, 37.378969, 3529.4], [-118.763771, 37.378927, 3530.7], [-118.763801, 37.378928, 3531.3], [-118.763816, 37.378904, 3531.2], [-118.76382, 37.378824, 3531.2], [-118.763836, 37.378803, 3531.1], [-118.763821, 37.378757, 3532.9], [-118.763849, 37.378685, 3533.9], [-118.763826, 37.378673, 3533.7], [-118.763843, 37.378624, 3538.3], [-118.763846, 37.37858, 3537.6], [-118.763886, 37.378535, 3538.1], [-118.7639, 37.378504, 3537.8], [-118.763898, 37.378433, 3540.1], [-118.763924, 37.378349, 3539.4], [-118.76393, 37.378269, 3537.9], [-118.763912, 37.378221, 3538.3], [-118.763923, 37.378165, 3538.6], [-118.76391, 37.378104, 3540.2], [-118.763887, 37.378059, 3539.0], [-118.763839, 37.377998, 3540.6], [-118.76388, 37.377909, 3537.3], [-118.763883, 37.377815, 3535.1], [-118.763875, 37.37778, 3533.5], [-118.763882, 37.377709, 3539.3], [-118.763906, 37.377627, 3539.2], [-118.763893, 37.377574, 3539.0], [-118.763902, 37.377527, 3538.7], [-118.763945, 37.377456, 3539.5], [-118.763959, 37.377421, 3538.1], [-118.763956, 37.377397, 3538.0], [-118.763974, 37.377374, 3538.8], [-118.763964, 37.377354, 3539.0], [-118.764015, 37.377289, 3539.6], [-118.764065, 37.377181, 3540.5], [-118.764054, 37.377134, 3541.1], [-118.764065, 37.377106, 3541.6], [-118.764134, 37.377019, 3547.2], [-118.764207, 37.376961, 3548.0], [-118.764282, 37.37691, 3549.8], [-118.764313, 37.376918, 3554.1], [-118.764415, 37.376879, 3555.6], [-118.764536, 37.376853, 3554.8], [-118.764631, 37.376874, 3552.9], [-118.764723, 37.376888, 3553.1], [-118.764877, 37.376831, 3552.9], [-118.764917, 37.376738, 3557.6], [-118.764918, 37.376683, 3559.0], [-118.764894, 37.37663, 3561.8], [-118.764908, 37.376505, 3562.8], [-118.76493, 37.376486, 3562.7], [-118.764949, 37.376442, 3564.5], [-118.764942, 37.376401, 3566.3], [-118.764972, 37.376358, 3568.4], [-118.764984, 37.376358, 3569.1], [-118.764968, 37.376261, 3578.3], [-118.764971, 37.376234, 3578.0], [-118.76499, 37.376215, 3579.0], [-118.76499, 37.376147, 3582.5], [-118.764966, 37.376137, 3584.1], [-118.764931, 37.3761, 3586.1], [-118.764943, 37.376077, 3586.5], [-118.764931, 37.376026, 3588.5], [-118.764932, 37.375989, 3588.7], [-118.76491, 37.37597, 3588.8], [-118.764858, 37.375957, 3591.3], [-118.764836, 37.375891, 3592.4], [-118.76475, 37.375825, 3594.3], [-118.764751, 37.375803, 3594.3], [-118.764776, 37.375785, 3594.3], [-118.764749, 37.375663, 3591.8], [-118.764778, 37.375594, 3592.9], [-118.764774, 37.375498, 3594.9], [-118.764783, 37.375465, 3597.0], [-118.764766, 37.375446, 3597.4], [-118.7648, 37.375394, 3598.6], [-118.764804, 37.375367, 3599.9], [-118.764757, 37.375332, 3600.8], [-118.764758, 37.37531, 3601.0], [-118.764738, 37.375263, 3601.9], [-118.76475, 37.375196, 3604.0], [-118.764765, 37.375177, 3604.4], [-118.76476, 37.375056, 3606.3], [-118.764754, 37.375018, 3607.6], [-118.76476, 37.374972, 3609.5], [-118.764748, 37.374948, 3611.0], [-118.76475, 37.374902, 3612.6], [-118.764729, 37.374876, 3612.6], [-118.764738, 37.374819, 3616.6], [-118.764704, 37.374751, 3618.5], [-118.764706, 37.374732, 3619.6], [-118.764739, 37.374726, 3621.4], [-118.764675, 37.37467, 3624.1], [-118.764645, 37.374663, 3624.2], [-118.764603, 37.374606, 3625.0], [-118.76461, 37.374548, 3625.3], [-118.76459, 37.374528, 3626.3], [-118.764619, 37.374395, 3630.9], [-118.764728, 37.374272, 3636.2], [-118.76478, 37.374201, 3641.0], [-118.764819, 37.374169, 3643.4], [-118.764843, 37.374117, 3647.2], [-118.764861, 37.374113, 3647.0], [-118.764889, 37.374044, 3651.7], [-118.764958, 37.373956, 3656.5], [-118.764931, 37.373862, 3661.4], [-118.764933, 37.373816, 3664.0], [-118.764906, 37.373735, 3670.7], [-118.764941, 37.373692, 3673.9], [-118.76494, 37.373666, 3674.6], [-118.764915, 37.373615, 3676.4], [-118.764883, 37.373581, 3677.6], [-118.764895, 37.373557, 3678.2], [-118.764897, 37.373516, 3678.1], [-118.764881, 37.373494, 3679.5], [-118.764914, 37.37345, 3680.7], [-118.764929, 37.373447, 3681.0], [-118.764936, 37.373403, 3688.1], [-118.764966, 37.373394, 3687.9], [-118.764984, 37.373373, 3688.2], [-118.765014, 37.373404, 3688.5], [-118.765067, 37.373358, 3685.6], [-118.765076, 37.373334, 3686.0], [-118.765138, 37.373315, 3687.8], [-118.765196, 37.373329, 3687.0], [-118.765247, 37.373321, 3688.7], [-118.765277, 37.373306, 3689.8], [-118.765277, 37.37328, 3690.9], [-118.765316, 37.37324, 3693.4], [-118.765365, 37.373235, 3693.7], [-118.765392, 37.373218, 3694.6], [-118.765372, 37.373189, 3697.0], [-118.765374, 37.373136, 3700.2], [-118.765435, 37.373135, 3700.5], [-118.765465, 37.373123, 3701.2], [-118.765522, 37.373021, 3708.1], [-118.765542, 37.373002, 3708.7], [-118.765531, 37.37296, 3710.8], [-118.765557, 37.372933, 3710.7], [-118.765561, 37.37288, 3712.6], [-118.765584, 37.372868, 3712.6], [-118.765618, 37.372803, 3714.9], [-118.765618, 37.372776, 3715.5], [-118.765656, 37.372757, 3715.5], [-118.765663, 37.372682, 3719.9], [-118.765674, 37.372658, 3721.9], [-118.765621, 37.372637, 3727.2], [-118.765629, 37.372614, 3727.2], [-118.765624, 37.37254, 3731.5], [-118.765644, 37.372499, 3731.2], [-118.765604, 37.372457, 3731.5], [-118.765554, 37.372434, 3731.9], [-118.765515, 37.372396, 3732.7], [-118.765505, 37.372373, 3732.7], [-118.765447, 37.372334, 3733.7], [-118.765392, 37.372317, 3735.6], [-118.765372, 37.372299, 3735.2], [-118.765368, 37.372273, 3734.9], [-118.765319, 37.372238, 3734.6], [-118.76531, 37.372215, 3734.8], [-118.765352, 37.372178, 3735.1], [-118.765368, 37.372134, 3735.3], [-118.765424, 37.372107, 3736.7], [-118.765461, 37.3721, 3737.7], [-118.765559, 37.372029, 3742.3], [-118.765548, 37.371981, 3742.4], [-118.765551, 37.371928, 3741.0], [-118.76561, 37.371913, 3740.2], [-118.765627, 37.371896, 3743.0], [-118.7656, 37.37188, 3750.5], [-118.765614, 37.371848, 3749.8], [-118.765673, 37.371822, 3750.0], [-118.765713, 37.371788, 3750.2], [-118.765767, 37.37177, 3746.8], [-118.765772, 37.371737, 3748.0], [-118.765812, 37.371686, 3748.9], [-118.765859, 37.371651, 3748.1], [-118.765883, 37.37159, 3747.9], [-118.765917, 37.37159, 3746.8], [-118.765973, 37.371563, 3748.3], [-118.76601, 37.371583, 3748.8], [-118.766044, 37.371482, 3751.8], [-118.766121, 37.371477, 3749.9], [-118.766139, 37.371496, 3750.4], [-118.766197, 37.371477, 3753.9], [-118.766222, 37.371491, 3762.2], [-118.766251, 37.371479, 3764.1], [-118.766262, 37.371428, 3764.1], [-118.766321, 37.371444, 3769.6], [-118.76635, 37.37141, 3767.8], [-118.76648, 37.371346, 3768.1], [-118.766511, 37.371355, 3767.2], [-118.766509, 37.371332, 3767.4], [-118.76653, 37.371352, 3765.7], [-118.76655, 37.371314, 3765.2], [-118.766615, 37.371303, 3765.4], [-118.766627, 37.37133, 3767.5], [-118.766666, 37.371264, 3766.5], [-118.766699, 37.371226, 3765.3], [-118.766731, 37.371222, 3764.1], [-118.766753, 37.371198, 3764.5], [-118.766799, 37.37117, 3767.7], [-118.766814, 37.371187, 3768.5], [-118.766877, 37.37117, 3772.0], [-118.766917, 37.37118, 3772.5], [-118.766948, 37.371226, 3779.8], [-118.767003, 37.371228, 3779.4], [-118.767026, 37.371248, 3778.8], [-118.767002, 37.371265, 3781.4], [-118.766976, 37.371249, 3811.6], [-118.76699, 37.371227, 3815.3], [-118.76706, 37.37119, 3816.0], [-118.76709, 37.371147, 3818.4], [-118.767126, 37.371138, 3818.1], [-118.767142, 37.371111, 3818.9], [-118.76712, 37.371042, 3820.7], [-118.76714, 37.371, 3821.5], [-118.767171, 37.370974, 3821.3], [-118.767159, 37.370951, 3821.1], [-118.767188, 37.370957, 3818.2], [-118.767172, 37.370895, 3816.7], [-118.767177, 37.37084, 3819.0], [-118.767159, 37.370833, 3818.8], [-118.767162, 37.370807, 3818.6], [-118.767211, 37.370775, 3818.0], [-118.767223, 37.370755, 3818.7], [-118.767267, 37.370743, 3818.0], [-118.767254, 37.370716, 3817.5], [-118.767303, 37.37066, 3820.3], [-118.767364, 37.37065, 3820.3], [-118.767343, 37.370668, 3821.6], [-118.767344, 37.370618, 3822.3], [-118.767335, 37.370615, 3823.4], [-118.767336, 37.370563, 3843.1], [-118.767324, 37.370573, 3853.7], [-118.767367, 37.370594, 3852.9], [-118.767371, 37.37056, 3851.4], [-118.767288, 37.370604, 3853.1], [-118.767296, 37.370628, 3852.0], [-118.76732, 37.370611, 3850.5], [-118.767324, 37.37058, 3849.3], [-118.767298, 37.370564, 3853.8], [-118.767234, 37.370567, 3855.7], [-118.767208, 37.37055, 3861.3], [-118.767201, 37.370501, 3865.5], [-118.76722, 37.370478, 3865.6], [-118.767209, 37.370458, 3867.5], [-118.767184, 37.37035, 3869.4], [-118.767197, 37.370333, 3869.2], [-118.76718, 37.370299, 3869.5], [-118.767116, 37.370324, 3870.7], [-118.767084, 37.370409, 3875.3], [-118.767096, 37.370397, 3887.0], [-118.767041, 37.370377, 3887.5], [-118.767098, 37.370347, 3888.1], [-118.767106, 37.370414, 3892.2], [-118.767041, 37.370422, 3895.1], [-118.767087, 37.370409, 3890.0], [-118.76708, 37.370385, 3891.1], [-118.76712, 37.370365, 3898.0], [-118.767078, 37.370375, 3898.9], [-118.767115, 37.370333, 3907.6], [-118.767155, 37.370307, 3911.4], [-118.767139, 37.370254, 3908.4], [-118.767147, 37.370209, 3910.1], [-118.767165, 37.370224, 3910.8], [-118.767133, 37.370236, 3908.3], [-118.76712, 37.370275, 3916.8], [-118.767176, 37.370213, 3935.7], [-118.767189, 37.370289, 3942.5], [-118.767246, 37.370369, 3942.3], [-118.767191, 37.370129, 3932.6], [-118.767128, 37.370115, 3938.5], [-118.767141, 37.370161, 3939.8], [-118.767129, 37.370186, 3945.2], [-118.767145, 37.370209, 3945.8], [-118.767113, 37.370204, 3946.4], [-118.767154, 37.370188, 3947.2], [-118.767184, 37.370115, 3945.7], [-118.767134, 37.370135, 3949.6], [-118.767113, 37.370089, 3949.8], [-118.767113, 37.370034, 3951.9], [-118.767125, 37.370016, 3952.0], [-118.767171, 37.369988, 3951.8], [-118.767185, 37.37002, 3954.0], [-118.76717, 37.370042, 3956.6], [-118.767151, 37.37002, 3959.6], [-118.76719, 37.370006, 3966.4], [-118.767189, 37.369945, 3964.8], [-118.767202, 37.369921, 3967.3], [-118.767216, 37.36997, 3970.7], [-118.767248, 37.369958, 3970.9], [-118.767232, 37.369909, 3975.0], [-118.767181, 37.369873, 3996.4], [-118.767149, 37.369887, 3996.4], [-118.767136, 37.3698, 4000.4], [-118.767162, 37.369753, 4000.9], [-118.767263, 37.369762, 4032.1], [-118.76727, 37.369733, 4031.3], [-118.767237, 37.36972, 4035.9], [-118.767221, 37.369679, 4039.2], [-118.767275, 37.369598, 4039.8], [-118.767198, 37.369555, 4038.9], [-118.76723, 37.369537, 4035.6], [-118.767304, 37.369596, 4034.9], [-118.767353, 37.369606, 4033.3], [-118.767408, 37.369568, 4031.8], [-118.767253, 37.369711, 4041.2], [-118.767282, 37.369706, 4043.2], [-118.76729, 37.369676, 4043.2], [-118.767319, 37.36967, 4043.7], [-118.767309, 37.369627, 4043.4], [-118.767315, 37.369609, 4043.3], [-118.767289, 37.369469, 4050.6], [-118.767339, 37.369438, 4056.4], [-118.767388, 37.369471, 4055.9], [-118.767301, 37.369459, 4056.1], [-118.767249, 37.369437, 4063.3], [-118.767215, 37.369461, 4064.4], [-118.767314, 37.369433, 4050.3], [-118.76737, 37.369349, 4048.5], [-118.76735, 37.36933, 4056.3], [-118.767366, 37.369309, 4057.3], [-118.767397, 37.36931, 4057.5], [-118.767345, 37.369278, 4070.0], [-118.76734, 37.369252, 4069.2], [-118.767358, 37.369234, 4069.4], [-118.76735, 37.369309, 4071.9], [-118.767327, 37.36934, 4072.9], [-118.767398, 37.369146, 4067.0], [-118.767382, 37.369196, 4069.7], [-118.767357, 37.369183, 4069.5], [-118.767338, 37.369195, 4071.3], [-118.76736, 37.369222, 4070.9], [-118.767395, 37.36921, 4068.6], [-118.767426, 37.369214, 4068.8], [-118.767439, 37.369239, 4069.6], [-118.767417, 37.369232, 4071.1], [-118.767418, 37.369258, 4071.9], [-118.767399, 37.369227, 4070.2], [-118.767438, 37.3692, 4069.3], [-118.767446, 37.369179, 4068.8], [-118.76747, 37.369207, 4074.1], [-118.767511, 37.369226, 4073.9], [-118.767473, 37.369227, 4076.8], [-118.767379, 37.369203, 4072.0], [-118.767425, 37.369163, 4077.5], [-118.767394, 37.369164, 4079.1], [-118.767449, 37.369184, 4077.8], [-118.767544, 37.369163, 4078.7], [-118.767492, 37.369204, 4080.2], [-118.767518, 37.369202, 4079.9], [-118.767537, 37.369169, 4084.6], [-118.767509, 37.369161, 4089.5], [-118.767507, 37.369135, 4092.8], [-118.767541, 37.369139, 4098.5], [-118.76757, 37.369127, 4098.3], [-118.767546, 37.369109, 4098.2], [-118.767584, 37.369094, 4098.7], [-118.767577, 37.369066, 4105.8], [-118.767633, 37.369065, 4111.7], [-118.767576, 37.369075, 4112.4], [-118.767528, 37.369064, 4112.5], [-118.767517, 37.369037, 4113.0], [-118.767545, 37.36904, 4113.7], [-118.767551, 37.369078, 4118.2], [-118.767628, 37.369048, 4119.1], [-118.767591, 37.369014, 4121.6], [-118.767618, 37.369014, 4122.2], [-118.767598, 37.36896, 4125.5], [-118.767598, 37.36893, 4127.3], [-118.767615, 37.368909, 4129.2], [-118.767595, 37.368888, 4130.1], [-118.767626, 37.368842, 4132.9], [-118.767615, 37.368763, 4137.1], [-118.76763, 37.368741, 4138.2], [-118.767611, 37.36873, 4138.2], [-118.767623, 37.368682, 4138.4], [-118.767651, 37.368664, 4141.3], [-118.767639, 37.368631, 4142.6], [-118.767642, 37.368529, 4144.2], [-118.767621, 37.368485, 4146.4], [-118.767649, 37.368467, 4149.6], [-118.767633, 37.368434, 4151.0], [-118.767646, 37.368384, 4155.9], [-118.767637, 37.368359, 4157.1], [-118.767707, 37.36833, 4157.1], [-118.767772, 37.368374, 4154.4], [-118.767695, 37.368342, 4150.5], [-118.767618, 37.368333, 4157.7], [-118.767622, 37.368307, 4159.6], [-118.767492, 37.368353, 4161.8], [-118.767472, 37.368384, 4162.8], [-118.767423, 37.368404, 4162.6], [-118.767441, 37.368421, 4162.8], [-118.767638, 37.368229, 4158.6], [-118.767646, 37.368266, 4158.5], [-118.767682, 37.368229, 4162.6], [-118.767667, 37.36822, 4162.2], [-118.767739, 37.368195, 4162.8], [-118.767731, 37.368142, 4162.4], [-118.767697, 37.368141, 4162.4], [-118.767689, 37.368117, 4159.8], [-118.767653, 37.368099, 4163.2], [-118.76764, 37.368118, 4163.9], [-118.76764, 37.368074, 4166.8], [-118.767608, 37.368095, 4170.2], [-118.767593, 37.36805, 4174.1], [-118.767564, 37.368042, 4175.1], [-118.767506, 37.36798, 4176.1], [-118.767456, 37.367972, 4176.3], [-118.767472, 37.367923, 4181.5], [-118.767515, 37.367934, 4171.5], [-118.767538, 37.367918, 4169.5], [-118.767592, 37.367916, 4167.8], [-118.76772, 37.367956, 4157.3], [-118.767675, 37.367929, 4151.6], [-118.767675, 37.367903, 4149.0], [-118.767719, 37.367935, 4146.8], [-118.767754, 37.36794, 4145.4], [-118.767809, 37.367928, 4144.5], [-118.767754, 37.367932, 4145.1], [-118.767751, 37.367909, 4144.8], [-118.76773, 37.367923, 4144.5], [-118.76764, 37.367929, 4144.3], [-118.767648, 37.36791, 4143.9], [-118.76768, 37.367893, 4144.8], [-118.767748, 37.367916, 4144.6], [-118.767812, 37.367894, 4143.5], [-118.767903, 37.367902, 4139.1], [-118.767963, 37.367885, 4138.2], [-118.767994, 37.36793, 4136.6], [-118.768037, 37.367887, 4133.4], [-118.768068, 37.367896, 4131.6], [-118.768082, 37.367921, 4130.6], [-118.768129, 37.367949, 4125.6], [-118.76816, 37.367926, 4124.2], [-118.768193, 37.367916, 4123.3], [-118.768293, 37.367948, 4117.9], [-118.76835, 37.367922, 4113.6], [-118.768338, 37.367946, 4109.8], [-118.768381, 37.367974, 4107.9], [-118.768436, 37.367963, 4104.2], [-118.768498, 37.367933, 4104.5], [-118.768518, 37.367966, 4100.3], [-118.768495, 37.368011, 4097.4], [-118.768521, 37.368024, 4094.6], [-118.768608, 37.368022, 4094.5], [-118.768646, 37.368009, 4091.4], [-118.768655, 37.367984, 4091.0], [-118.768715, 37.367967, 4090.0], [-118.768807, 37.367984, 4090.0], [-118.76871, 37.367982, 4088.5], [-118.768668, 37.367969, 4087.5], [-118.768603, 37.367983, 4086.7], [-118.76858, 37.367974, 4085.9], [-118.76855, 37.367984, 4084.4], [-118.7686, 37.368033, 4082.0], [-118.768698, 37.368042, 4084.6], [-118.768835, 37.368072, 4083.7], [-118.76885, 37.368094, 4080.7], [-118.768921, 37.368133, 4076.4], [-118.768957, 37.368168, 4072.6], [-118.768976, 37.368149, 4070.8], [-118.769009, 37.368149, 4070.6], [-118.769062, 37.368173, 4061.3], [-118.769127, 37.368178, 4056.5], [-118.769181, 37.368207, 4049.8], [-118.769206, 37.368249, 4047.3], [-118.769238, 37.368246, 4046.6], [-118.769266, 37.368258, 4046.1], [-118.769308, 37.368327, 4041.6], [-118.769362, 37.36835, 4038.8], [-118.769394, 37.368351, 4038.0], [-118.769409, 37.368367, 4037.6], [-118.76941, 37.368413, 4035.7], [-118.769436, 37.368402, 4032.7], [-118.769457, 37.368445, 4030.9], [-118.76954, 37.368469, 4027.5], [-118.76956, 37.368538, 4023.3], [-118.769599, 37.368577, 4018.3], [-118.769651, 37.368552, 4014.9], [-118.769725, 37.368541, 4007.6], [-118.769756, 37.36855, 4008.0], [-118.769783, 37.368535, 4007.3], [-118.769817, 37.368533, 4004.2], [-118.769836, 37.368555, 4004.0], [-118.769882, 37.368559, 4003.8], [-118.769891, 37.368584, 3997.8], [-118.769975, 37.368636, 3995.5], [-118.770017, 37.368676, 3992.6], [-118.77007, 37.368711, 3990.1], [-118.77009, 37.368758, 3988.4], [-118.770118, 37.368771, 3986.5], [-118.770127, 37.368816, 3983.4], [-118.770164, 37.368823, 3983.8], [-118.770191, 37.368846, 3983.0], [-118.770185, 37.36887, 3981.5], [-118.770155, 37.368898, 3981.4], [-118.770143, 37.368928, 3979.2], [-118.770098, 37.368999, 3978.8], [-118.770096, 37.369024, 3979.9], [-118.770124, 37.369065, 3978.3], [-118.77014, 37.369208, 3974.1], [-118.770164, 37.369248, 3974.4], [-118.770154, 37.369263, 3974.1], [-118.770176, 37.369299, 3973.4], [-118.770164, 37.36937, 3974.1], [-118.770168, 37.369416, 3974.6], [-118.770136, 37.369454, 3975.5], [-118.770148, 37.369491, 3974.2], [-118.770131, 37.369594, 3973.1], [-118.770138, 37.369661, 3972.8], [-118.770161, 37.369701, 3972.9], [-118.770147, 37.369782, 3971.8], [-118.770175, 37.36986, 3970.9], [-118.770123, 37.369951, 3971.1], [-118.770135, 37.370028, 3969.1], [-118.770109, 37.370142, 3969.7], [-118.770096, 37.370221, 3969.6], [-118.770024, 37.37026, 3969.3], [-118.769982, 37.370265, 3969.3], [-118.769928, 37.37029, 3969.4], [-118.769898, 37.370369, 3969.6], [-118.769893, 37.370327, 3974.0], [-118.769909, 37.370289, 3974.3], [-118.769985, 37.370278, 3975.1], [-118.770033, 37.370288, 3974.6], [-118.770185, 37.370381, 3973.0], [-118.770228, 37.370398, 3971.1], [-118.770234, 37.370419, 3970.8], [-118.770199, 37.37048, 3970.7], [-118.770186, 37.370541, 3969.6], [-118.770191, 37.370592, 3970.1], [-118.770287, 37.370698, 3969.5], [-118.770301, 37.370704, 3969.8], [-118.770246, 37.370729, 3971.3], [-118.770231, 37.370771, 3975.5], [-118.770235, 37.370822, 3978.2], [-118.770287, 37.370835, 3978.2], [-118.770365, 37.370844, 3980.0], [-118.770256, 37.370942, 3976.1], [-118.770281, 37.370968, 3975.8], [-118.77032, 37.370964, 3976.8], [-118.770349, 37.370975, 3978.5], [-118.77042, 37.371112, 3974.9], [-118.770427, 37.371177, 3966.6], [-118.770398, 37.371257, 3964.3], [-118.770418, 37.371278, 3963.5], [-118.770412, 37.371327, 3960.2], [-118.770366, 37.37136, 3957.5], [-118.770358, 37.371386, 3956.8], [-118.770317, 37.371387, 3956.2], [-118.770273, 37.37136, 3952.2], [-118.770279, 37.371327, 3949.1], [-118.770257, 37.371306, 3945.5], [-118.770044, 37.371221, 3938.9], [-118.770001, 37.371164, 3934.2], [-118.769973, 37.371171, 3931.7], [-118.769962, 37.371147, 3928.7], [-118.769912, 37.371122, 3926.1], [-118.76988, 37.371115, 3923.1], [-118.769842, 37.371202, 3919.5], [-118.769836, 37.371251, 3918.5], [-118.769786, 37.371321, 3918.9], [-118.769759, 37.371324, 3912.4], [-118.76972, 37.37136, 3910.4], [-118.769673, 37.371371, 3904.5], [-118.769625, 37.371351, 3900.0], [-118.769614, 37.371324, 3899.4], [-118.769554, 37.371309, 3897.8], [-118.769498, 37.371342, 3891.9], [-118.769469, 37.371398, 3891.3], [-118.769387, 37.371447, 3887.0], [-118.769371, 37.371469, 3887.1], [-118.769356, 37.371518, 3884.9], [-118.769331, 37.371546, 3883.4], [-118.769319, 37.371584, 3883.1], [-118.769323, 37.37161, 3881.9], [-118.769295, 37.37162, 3881.5], [-118.769269, 37.371722, 3877.6], [-118.769234, 37.371735, 3875.8], [-118.769142, 37.371824, 3874.1], [-118.769131, 37.371856, 3872.4], [-118.769088, 37.371915, 3868.0], [-118.769062, 37.371931, 3865.0], [-118.769055, 37.371957, 3860.1], [-118.769088, 37.37192, 3859.3], [-118.76907, 37.371965, 3860.2], [-118.769007, 37.37202, 3858.8], [-118.768997, 37.372046, 3857.6], [-118.768966, 37.372051, 3855.5], [-118.76894, 37.37209, 3854.9], [-118.768915, 37.372108, 3854.1], [-118.768894, 37.372072, 3853.3], [-118.76886, 37.37206, 3852.9], [-118.76863, 37.372096, 3848.6], [-118.768573, 37.372132, 3847.0], [-118.768562, 37.37215, 3846.9], [-118.768508, 37.372157, 3844.7], [-118.768427, 37.372188, 3841.5], [-118.768439, 37.372211, 3838.6], [-118.768404, 37.372276, 3835.0], [-118.768384, 37.372291, 3834.9], [-118.768312, 37.3723, 3834.9], [-118.76827, 37.372344, 3834.8], [-118.768252, 37.372387, 3833.8], [-118.768231, 37.372407, 3832.5], [-118.768156, 37.37239, 3831.8], [-118.768094, 37.372446, 3828.4], [-118.768064, 37.372439, 3827.6], [-118.768035, 37.372515, 3822.8], [-118.76799, 37.372531, 3820.7], [-118.767989, 37.372581, 3818.9], [-118.76796, 37.37259, 3817.1], [-118.767898, 37.372655, 3814.3], [-118.767838, 37.372739, 3813.1], [-118.767844, 37.372786, 3810.7], [-118.767766, 37.372852, 3808.1], [-118.76774, 37.372995, 3802.7], [-118.767701, 37.37308, 3799.1], [-118.767685, 37.373177, 3796.1], [-118.76766, 37.373221, 3793.9], [-118.767627, 37.373226, 3790.4], [-118.767619, 37.37325, 3790.5], [-118.767566, 37.373293, 3788.9], [-118.767549, 37.373323, 3789.2], [-118.767496, 37.373355, 3786.6], [-118.767486, 37.373379, 3786.3], [-118.767456, 37.373388, 3783.2], [-118.76743, 37.37343, 3782.9], [-118.76738, 37.373445, 3781.4], [-118.767367, 37.373467, 3781.0], [-118.767308, 37.373513, 3779.8], [-118.767283, 37.373525, 3779.2], [-118.76724, 37.373516, 3778.1], [-118.767182, 37.373539, 3776.7], [-118.767154, 37.373524, 3775.3], [-118.767133, 37.373535, 3774.5], [-118.767078, 37.373521, 3771.7], [-118.766995, 37.373546, 3767.5], [-118.766933, 37.373533, 3765.5], [-118.766921, 37.373556, 3764.8], [-118.76684, 37.373605, 3758.6], [-118.766781, 37.373596, 3757.7], [-118.766705, 37.373558, 3756.2], [-118.766629, 37.373546, 3750.5], [-118.76659, 37.373548, 3747.2], [-118.766537, 37.373579, 3744.5], [-118.766504, 37.37358, 3742.0], [-118.766485, 37.373598, 3741.9], [-118.766419, 37.373581, 3736.0], [-118.766334, 37.373579, 3732.2], [-118.766279, 37.373558, 3729.1], [-118.766248, 37.373559, 3728.4], [-118.766214, 37.373578, 3727.1], [-118.766196, 37.373623, 3719.0], [-118.766173, 37.373606, 3719.4], [-118.766123, 37.373614, 3718.8], [-118.766062, 37.373673, 3714.9], [-118.76601, 37.373661, 3711.7], [-118.765993, 37.373639, 3711.1], [-118.765943, 37.373716, 3707.0], [-118.765945, 37.373749, 3706.6], [-118.765858, 37.37378, 3702.2], [-118.765825, 37.373783, 3698.6], [-118.765828, 37.373838, 3695.5], [-118.765849, 37.373865, 3694.8], [-118.765831, 37.373888, 3694.1], [-118.765798, 37.37389, 3695.1], [-118.765791, 37.373939, 3689.7], [-118.765764, 37.373954, 3688.4], [-118.765782, 37.373984, 3685.2], [-118.765765, 37.374053, 3684.3], [-118.765769, 37.37408, 3683.1], [-118.765728, 37.374118, 3678.8], [-118.765685, 37.374126, 3678.0], [-118.765628, 37.37415, 3676.0], [-118.765603, 37.374188, 3675.2], [-118.765573, 37.374198, 3674.7], [-118.765507, 37.374188, 3673.1], [-118.765504, 37.374176, 3672.6], [-118.765441, 37.374166, 3670.9], [-118.765417, 37.374207, 3668.6], [-118.765389, 37.374217, 3667.3], [-118.765387, 37.374257, 3664.7], [-118.76533, 37.374323, 3660.3], [-118.765234, 37.374381, 3656.1], [-118.765172, 37.374409, 3652.3], [-118.765114, 37.374465, 3648.9], [-118.765094, 37.374476, 3647.9], [-118.765053, 37.374475, 3645.4], [-118.765024, 37.374462, 3644.4], [-118.765001, 37.374474, 3643.5], [-118.76499, 37.374523, 3643.5], [-118.764968, 37.374544, 3643.4], [-118.764911, 37.374563, 3639.1], [-118.764923, 37.374612, 3636.7], [-118.764885, 37.374637, 3635.5], [-118.764883, 37.374664, 3634.6], [-118.7649, 37.374684, 3634.0], [-118.76488, 37.3747, 3633.5], [-118.764879, 37.37473, 3631.7], [-118.764906, 37.374783, 3631.4], [-118.764928, 37.374798, 3630.6], [-118.764977, 37.374858, 3627.8], [-118.765002, 37.374941, 3624.8], [-118.765029, 37.374977, 3623.3], [-118.764995, 37.37501, 3620.5], [-118.764989, 37.375039, 3618.5], [-118.765003, 37.375083, 3617.6], [-118.764968, 37.375121, 3615.2], [-118.764962, 37.375166, 3613.6], [-118.764931, 37.375183, 3612.5], [-118.764917, 37.375206, 3612.5], [-118.764876, 37.375237, 3610.6], [-118.764846, 37.375239, 3608.1], [-118.764832, 37.375261, 3606.7], [-118.764829, 37.375327, 3606.6], [-118.764816, 37.375376, 3603.7], [-118.764825, 37.37547, 3603.1], [-118.764859, 37.375522, 3602.2], [-118.764834, 37.375539, 3605.5], [-118.764835, 37.375561, 3604.1], [-118.764801, 37.375678, 3602.2], [-118.764731, 37.37572, 3599.5], [-118.76471, 37.375767, 3598.1], [-118.764629, 37.375826, 3596.9], [-118.764647, 37.375849, 3595.6], [-118.764678, 37.375861, 3596.0], [-118.764707, 37.375887, 3595.7], [-118.764704, 37.375912, 3594.6], [-118.76468, 37.375938, 3594.0], [-118.764693, 37.375957, 3593.8], [-118.764672, 37.375977, 3601.3], [-118.764649, 37.376052, 3594.1], [-118.764661, 37.376102, 3593.9], [-118.764637, 37.376166, 3592.3], [-118.76469, 37.376233, 3591.5], [-118.764712, 37.376333, 3590.0], [-118.764691, 37.37637, 3587.9], [-118.764666, 37.376385, 3587.6], [-118.764652, 37.376474, 3586.6], [-118.764667, 37.376515, 3585.3], [-118.764694, 37.376538, 3585.5], [-118.764771, 37.376571, 3585.3], [-118.764796, 37.376564, 3583.9], [-118.764854, 37.376566, 3581.6], [-118.76487, 37.376587, 3579.6], [-118.764899, 37.376594, 3576.0], [-118.764977, 37.376642, 3574.1], [-118.76502, 37.376649, 3573.1], [-118.765109, 37.376706, 3573.1], [-118.765225, 37.37674, 3573.6], [-118.765223, 37.376822, 3568.3], [-118.765185, 37.376862, 3565.7], [-118.76519, 37.376919, 3563.9], [-118.765164, 37.376962, 3561.7], [-118.765162, 37.376987, 3561.8], [-118.765131, 37.377023, 3560.2], [-118.765126, 37.377079, 3558.7], [-118.765106, 37.377115, 3557.6], [-118.765063, 37.377147, 3554.7], [-118.765023, 37.377247, 3551.4], [-118.764966, 37.377271, 3544.5], [-118.764948, 37.37729, 3545.1], [-118.764918, 37.377282, 3544.7], [-118.764893, 37.377295, 3544.0], [-118.764862, 37.377346, 3542.9], [-118.764833, 37.377352, 3539.8], [-118.764824, 37.377374, 3538.8], [-118.764771, 37.377421, 3537.5], [-118.76476, 37.377481, 3537.3], [-118.764705, 37.377493, 3537.6], [-118.764675, 37.377523, 3536.2], [-118.76469, 37.377611, 3533.8], [-118.764667, 37.377634, 3532.7], [-118.764623, 37.377649, 3530.8], [-118.764597, 37.377695, 3532.2], [-118.764546, 37.377711, 3531.8], [-118.76455, 37.377726, 3531.5], [-118.764519, 37.377732, 3530.5], [-118.764493, 37.377823, 3530.5], [-118.764369, 37.37786, 3530.2], [-118.764357, 37.377884, 3530.9], [-118.764315, 37.37791, 3530.6], [-118.764324, 37.378001, 3529.6], [-118.764364, 37.378034, 3529.5], [-118.76436, 37.378095, 3528.7], [-118.764387, 37.378206, 3527.5], [-118.764383, 37.378255, 3526.2], [-118.764355, 37.378265, 3525.3], [-118.764356, 37.378291, 3525.0], [-118.764381, 37.378337, 3525.1], [-118.764327, 37.378472, 3523.7], [-118.764321, 37.378562, 3520.7], [-118.764275, 37.378668, 3518.6], [-118.764162, 37.378789, 3516.8], [-118.764108, 37.378884, 3515.7], [-118.76408, 37.378919, 3516.5], [-118.764062, 37.378978, 3518.8], [-118.764034, 37.37901, 3519.6], [-118.764034, 37.379073, 3520.4], [-118.764001, 37.379109, 3518.0], [-118.763961, 37.379208, 3516.4], [-118.763925, 37.379238, 3515.1], [-118.763898, 37.379275, 3516.1], [-118.763897, 37.379324, 3516.7], [-118.763882, 37.379346, 3517.3], [-118.763825, 37.379395, 3518.5], [-118.763765, 37.379394, 3518.1], [-118.76371, 37.379413, 3518.2], [-118.763676, 37.379475, 3518.6], [-118.763649, 37.379488, 3518.8], [-118.763543, 37.379503, 3520.0], [-118.76344, 37.379562, 3518.1], [-118.763384, 37.379589, 3517.6], [-118.763304, 37.379584, 3517.9], [-118.763252, 37.379612, 3517.4], [-118.763223, 37.379642, 3516.2], [-118.763203, 37.379681, 3516.2], [-118.763109, 37.379733, 3517.2], [-118.762962, 37.379791, 3517.0], [-118.762927, 37.379818, 3517.4], [-118.762861, 37.379855, 3517.4], [-118.762845, 37.379878, 3517.0], [-118.762821, 37.379963, 3516.8], [-118.762836, 37.380013, 3516.2], [-118.762804, 37.380046, 3515.4], [-118.762788, 37.380113, 3516.6], [-118.762738, 37.380175, 3517.6], [-118.762722, 37.380272, 3517.9], [-118.762731, 37.380276, 3518.4], [-118.762695, 37.380344, 3519.5], [-118.762659, 37.380376, 3519.5], [-118.762624, 37.380441, 3519.3], [-118.762577, 37.380478, 3519.1], [-118.762565, 37.380541, 3519.5], [-118.762587, 37.380601, 3520.1], [-118.762595, 37.380651, 3520.1], [-118.76254, 37.380762, 3522.0], [-118.762529, 37.380768, 3522.2], [-118.7624, 37.380785, 3521.6], [-118.762304, 37.380811, 3519.9], [-118.762155, 37.380879, 3517.4], [-118.762127, 37.380934, 3516.6], [-118.762038, 37.380981, 3517.3], [-118.761973, 37.380978, 3517.4], [-118.761946, 37.381025, 3516.3], [-118.761887, 37.381067, 3514.7], [-118.761869, 37.381119, 3516.2], [-118.76185, 37.381135, 3516.1], [-118.761811, 37.381127, 3515.8], [-118.761733, 37.381155, 3513.1], [-118.761681, 37.381145, 3511.4], [-118.761659, 37.381129, 3512.5], [-118.761632, 37.381169, 3511.7], [-118.761557, 37.381197, 3510.9], [-118.761526, 37.381191, 3511.3], [-118.761445, 37.381253, 3507.6], [-118.761383, 37.381258, 3506.4], [-118.761255, 37.381305, 3506.0], [-118.761166, 37.38136, 3508.1], [-118.761142, 37.3814, 3508.9], [-118.761114, 37.38139, 3509.4], [-118.761097, 37.381365, 3509.6], [-118.761059, 37.381352, 3510.0], [-118.760954, 37.381362, 3509.7], [-118.76093, 37.381375, 3510.0], [-118.760909, 37.381405, 3509.0], [-118.760875, 37.38142, 3508.2], [-118.760813, 37.381419, 3508.0], [-118.760717, 37.381491, 3507.2], [-118.760667, 37.381487, 3508.5], [-118.76062, 37.381507, 3509.4], [-118.760584, 37.381551, 3511.4], [-118.760537, 37.381564, 3509.4], [-118.760539, 37.381636, 3509.8], [-118.760555, 37.38168, 3510.5], [-118.760523, 37.381721, 3509.6], [-118.760524, 37.381761, 3509.2], [-118.760503, 37.38181, 3510.2], [-118.760482, 37.381827, 3512.6], [-118.760472, 37.38188, 3512.1], [-118.760452, 37.381904, 3509.8], [-118.760445, 37.381971, 3508.2], [-118.760458, 37.382045, 3505.0], [-118.760476, 37.382068, 3504.0], [-118.76047, 37.382088, 3503.3], [-118.760365, 37.382173, 3505.6], [-118.760309, 37.382281, 3502.6], [-118.760271, 37.382312, 3502.5], [-118.760244, 37.382355, 3503.8], [-118.760214, 37.382376, 3502.9], [-118.760192, 37.382442, 3503.6], [-118.760162, 37.38249, 3503.6], [-118.760149, 37.382541, 3503.8], [-118.760055, 37.382582, 3503.7], [-118.760054, 37.382629, 3503.8], [-118.75997, 37.382694, 3503.1], [-118.759895, 37.382728, 3502.6], [-118.759849, 37.382756, 3502.8], [-118.759782, 37.382733, 3501.6], [-118.759683, 37.382732, 3502.5], [-118.759632, 37.382749, 3502.9], [-118.759593, 37.382804, 3503.0], [-118.759574, 37.382865, 3501.1], [-118.759542, 37.382903, 3500.7], [-118.759451, 37.382931, 3501.4], [-118.759419, 37.382972, 3501.1], [-118.759417, 37.382993, 3500.5], [-118.759347, 37.383042, 3502.5], [-118.759208, 37.383068, 3500.3], [-118.759125, 37.38312, 3498.0], [-118.759072, 37.383166, 3496.1], [-118.759043, 37.38317, 3495.2], [-118.758997, 37.383206, 3493.5], [-118.758883, 37.383353, 3491.8], [-118.758811, 37.38344, 3487.9], [-118.758821, 37.383528, 3486.1], [-118.758774, 37.383582, 3485.6], [-118.758687, 37.383643, 3483.9], [-118.758671, 37.383665, 3483.9], [-118.758677, 37.383689, 3484.1], [-118.758632, 37.383764, 3484.0], [-118.758618, 37.383836, 3483.1], [-118.758589, 37.383861, 3482.5], [-118.758573, 37.383902, 3482.6], [-118.758477, 37.384055, 3481.4], [-118.758438, 37.384074, 3480.8], [-118.758395, 37.384082, 3481.7], [-118.758391, 37.384113, 3482.7], [-118.758363, 37.384155, 3483.1], [-118.758342, 37.38425, 3481.6], [-118.758322, 37.384271, 3480.9], [-118.758292, 37.384263, 3480.0], [-118.758268, 37.38428, 3479.1], [-118.758264, 37.38436, 3479.2], [-118.75828, 37.384386, 3479.7], [-118.758265, 37.384426, 3479.7], [-118.758267, 37.384476, 3479.3], [-118.75818, 37.384528, 3477.5], [-118.758183, 37.384553, 3476.6], [-118.758125, 37.384566, 3479.2], [-118.758022, 37.38461, 3476.8], [-118.757946, 37.384653, 3475.0], [-118.757941, 37.384675, 3474.3], [-118.757912, 37.384685, 3474.3], [-118.75788, 37.384676, 3473.9], [-118.757842, 37.384712, 3473.9], [-118.757776, 37.384735, 3472.0], [-118.757745, 37.384776, 3471.8], [-118.75769, 37.384792, 3470.5], [-118.757654, 37.384816, 3470.9], [-118.75757, 37.384857, 3469.1], [-118.757515, 37.384853, 3467.2], [-118.757419, 37.384886, 3465.7], [-118.75736, 37.384869, 3462.1], [-118.757294, 37.384894, 3460.4], [-118.757196, 37.384905, 3459.7], [-118.757161, 37.384966, 3459.7], [-118.757136, 37.384983, 3459.7], [-118.757102, 37.384984, 3458.6], [-118.757067, 37.385008, 3458.3], [-118.757039, 37.385044, 3457.9], [-118.757035, 37.385076, 3457.1], [-118.756998, 37.385117, 3457.9], [-118.756984, 37.385148, 3457.3], [-118.756987, 37.385193, 3456.7], [-118.756913, 37.385305, 3454.8], [-118.756888, 37.385395, 3454.3], [-118.756857, 37.38543, 3454.2], [-118.75683, 37.385445, 3454.8], [-118.756824, 37.385485, 3456.2], [-118.756774, 37.385534, 3456.0], [-118.756767, 37.385556, 3455.5], [-118.756776, 37.385603, 3454.4], [-118.756751, 37.385634, 3454.4], [-118.756706, 37.385651, 3455.3], [-118.756696, 37.385676, 3456.0], [-118.756707, 37.385722, 3456.1], [-118.756663, 37.385795, 3455.7], [-118.756713, 37.385805, 3454.9], [-118.756699, 37.385857, 3452.3], [-118.756701, 37.385906, 3451.5], [-118.756673, 37.385933, 3449.9], [-118.756679, 37.385984, 3448.9], [-118.756645, 37.38603, 3447.1], [-118.756557, 37.386084, 3446.5], [-118.756482, 37.386122, 3445.5], [-118.756479, 37.386148, 3446.0], [-118.756387, 37.386192, 3445.7], [-118.756383, 37.386222, 3445.2], [-118.756346, 37.386264, 3444.3], [-118.756331, 37.386308, 3443.9], [-118.756337, 37.386333, 3443.5], [-118.756368, 37.386352, 3444.3], [-118.756379, 37.386382, 3444.0], [-118.756369, 37.386407, 3443.5], [-118.756376, 37.386449, 3443.8], [-118.756371, 37.386524, 3442.7], [-118.756407, 37.38658, 3441.8], [-118.756398, 37.386604, 3441.3], [-118.756401, 37.386653, 3441.2], [-118.756362, 37.386665, 3440.2], [-118.756338, 37.386706, 3438.5], [-118.756387, 37.386789, 3437.1], [-118.756377, 37.386855, 3436.0], [-118.756343, 37.386886, 3435.5], [-118.756345, 37.386919, 3434.5], [-118.756313, 37.38697, 3433.1], [-118.756272, 37.387061, 3429.7], [-118.756265, 37.38715, 3425.7], [-118.756238, 37.387201, 3423.4], [-118.756245, 37.387221, 3422.3], [-118.75621, 37.387279, 3420.4], [-118.756248, 37.387388, 3418.0], [-118.756242, 37.387413, 3417.1], [-118.756201, 37.38745, 3414.4], [-118.756179, 37.387518, 3412.2], [-118.756209, 37.387546, 3411.6], [-118.756204, 37.387592, 3407.9], [-118.756183, 37.387645, 3407.2], [-118.756203, 37.387685, 3405.3], [-118.756202, 37.38771, 3405.3], [-118.756219, 37.387729, 3404.4], [-118.756251, 37.387728, 3402.8], [-118.756262, 37.387767, 3398.8], [-118.756297, 37.38779, 3398.4], [-118.756323, 37.387854, 3396.4], [-118.756318, 37.387921, 3394.6], [-118.756353, 37.387996, 3390.5], [-118.756334, 37.388015, 3387.8], [-118.756366, 37.388056, 3386.0], [-118.756372, 37.388148, 3382.8], [-118.756332, 37.388189, 3380.0], [-118.756356, 37.388229, 3379.0], [-118.756346, 37.388252, 3378.3], [-118.756371, 37.388277, 3376.9], [-118.756411, 37.388453, 3376.1], [-118.756468, 37.388468, 3374.8], [-118.756489, 37.388485, 3374.0], [-118.756509, 37.388529, 3371.4], [-118.756496, 37.388569, 3370.6], [-118.756523, 37.388608, 3367.5], [-118.756535, 37.388648, 3360.5], [-118.756512, 37.388711, 3358.8], [-118.756506, 37.388787, 3356.3], [-118.756528, 37.388859, 3353.1], [-118.756573, 37.388921, 3351.5], [-118.756538, 37.388961, 3349.9], [-118.756535, 37.388985, 3349.0], [-118.75658, 37.389036, 3346.8], [-118.756568, 37.389061, 3347.0], [-118.756637, 37.389099, 3345.4], [-118.756686, 37.389188, 3343.7], [-118.756666, 37.389207, 3343.8], [-118.756695, 37.389209, 3342.4], [-118.756733, 37.389237, 3340.3], [-118.75678, 37.389296, 3339.4], [-118.756825, 37.38932, 3337.7], [-118.756835, 37.389338, 3336.0], [-118.756837, 37.38941, 3335.5], [-118.756793, 37.389465, 3335.2], [-118.756794, 37.389489, 3334.0], [-118.756841, 37.389507, 3332.6], [-118.756874, 37.38954, 3332.5], [-118.756916, 37.389533, 3332.7], [-118.756965, 37.389551, 3331.1], [-118.75699, 37.389533, 3330.7], [-118.75705, 37.389533, 3330.3], [-118.757103, 37.389577, 3330.6], [-118.757153, 37.389592, 3329.7], [-118.757173, 37.389611, 3329.7], [-118.757157, 37.389674, 3327.3], [-118.757134, 37.389721, 3325.2], [-118.757151, 37.389785, 3325.3], [-118.757123, 37.389791, 3325.2], [-118.757098, 37.389851, 3325.2], [-118.757094, 37.389931, 3323.7], [-118.757109, 37.389951, 3323.8], [-118.757119, 37.389994, 3324.2], [-118.757075, 37.390041, 3325.1], [-118.757105, 37.390053, 3335.2], [-118.757075, 37.390058, 3328.5], [-118.757016, 37.390117, 3328.0], [-118.756953, 37.39019, 3326.3], [-118.756866, 37.390251, 3325.9], [-118.756769, 37.390298, 3323.6], [-118.756747, 37.390335, 3322.7], [-118.756682, 37.390383, 3320.6], [-118.75654, 37.39052, 3319.6], [-118.756466, 37.390532, 3319.2], [-118.756476, 37.390581, 3328.1], [-118.756449, 37.390589, 3320.9], [-118.75646, 37.390564, 3320.7], [-118.756431, 37.390575, 3322.2], [-118.756391, 37.390629, 3320.8], [-118.75632, 37.390642, 3320.3], [-118.756265, 37.390629, 3322.1], [-118.756198, 37.39066, 3321.5], [-118.756172, 37.390702, 3321.7], [-118.756136, 37.390734, 3321.5], [-118.756134, 37.390811, 3321.3], [-118.756128, 37.39082, 3320.9], [-118.755937, 37.390902, 3320.1], [-118.755868, 37.390927, 3319.9], [-118.755818, 37.39092, 3319.0], [-118.755794, 37.390928, 3319.0], [-118.75576, 37.39098, 3318.3], [-118.755658, 37.391041, 3319.2], [-118.755587, 37.391059, 3319.3], [-118.755488, 37.391122, 3319.0], [-118.755456, 37.391129, 3318.9], [-118.755415, 37.391113, 3318.6], [-118.75541, 37.391074, 3318.5], [-118.755375, 37.391032, 3318.9], [-118.755318, 37.391029, 3319.7], [-118.755234, 37.390953, 3318.7], [-118.755201, 37.390935, 3318.7], [-118.755148, 37.39094, 3319.1], [-118.755092, 37.390955, 3318.1], [-118.755023, 37.391005, 3318.8], [-118.754935, 37.391011, 3319.4], [-118.754793, 37.391089, 3321.1], [-118.754767, 37.391157, 3320.6], [-118.754745, 37.391185, 3321.9], [-118.754745, 37.391346, 3321.7], [-118.754762, 37.391374, 3321.4], [-118.754729, 37.391419, 3321.9], [-118.754687, 37.391443, 3322.2], [-118.754641, 37.391435, 3323.0], [-118.754615, 37.391449, 3322.8], [-118.754486, 37.391434, 3321.3], [-118.754401, 37.391441, 3321.5], [-118.754323, 37.391458, 3322.0], [-118.754275, 37.391458, 3320.7], [-118.75419, 37.391495, 3320.4], [-118.754096, 37.391587, 3321.2], [-118.754038, 37.391661, 3322.4], [-118.754028, 37.391724, 3323.0], [-118.754046, 37.391766, 3322.6], [-118.754021, 37.391862, 3321.8], [-118.754113, 37.391974, 3321.0], [-118.754132, 37.392023, 3320.4], [-118.754123, 37.392104, 3318.5], [-118.754129, 37.392151, 3317.3], [-118.754186, 37.392232, 3317.5], [-118.754223, 37.392268, 3316.1], [-118.75423, 37.392315, 3315.2], [-118.754289, 37.392399, 3313.7], [-118.754315, 37.392464, 3313.9], [-118.754403, 37.392545, 3314.2], [-118.754443, 37.392563, 3314.4], [-118.754502, 37.392566, 3314.7], [-118.754575, 37.392589, 3314.2], [-118.754736, 37.392575, 3314.8], [-118.754793, 37.39258, 3314.5], [-118.754848, 37.392613, 3314.1], [-118.754874, 37.392657, 3313.8], [-118.754911, 37.392692, 3312.9], [-118.755034, 37.392838, 3311.5], [-118.755043, 37.392925, 3310.8], [-118.754972, 37.393016, 3312.8], [-118.754885, 37.393079, 3312.9], [-118.754841, 37.393185, 3311.3], [-118.754831, 37.393232, 3310.8], [-118.754757, 37.393331, 3309.9], [-118.754728, 37.393397, 3310.5], [-118.754699, 37.393433, 3310.3], [-118.754657, 37.393535, 3310.6], [-118.754646, 37.393615, 3310.0], [-118.754656, 37.393644, 3310.6], [-118.754649, 37.393775, 3310.5], [-118.754666, 37.393831, 3310.4], [-118.75469, 37.393878, 3309.8], [-118.754675, 37.393926, 3309.8], [-118.754717, 37.394004, 3312.1], [-118.754759, 37.394147, 3312.6], [-118.754755, 37.394217, 3312.0], [-118.7548, 37.394356, 3311.6], [-118.754749, 37.394507, 3311.1], [-118.754695, 37.394603, 3311.0], [-118.754667, 37.394698, 3309.2], [-118.754642, 37.394808, 3309.2], [-118.754651, 37.394868, 3307.3], [-118.754713, 37.394968, 3307.4], [-118.754737, 37.394984, 3308.5], [-118.754753, 37.39504, 3308.7], [-118.754744, 37.395086, 3307.5], [-118.754794, 37.3952, 3306.0], [-118.754834, 37.395378, 3302.1], [-118.754891, 37.395473, 3301.3], [-118.755009, 37.395555, 3300.3], [-118.755068, 37.395627, 3298.6], [-118.755072, 37.395659, 3298.6], [-118.755144, 37.395726, 3297.7], [-118.755237, 37.395778, 3295.3], [-118.755371, 37.39587, 3294.2], [-118.7554, 37.395914, 3294.3], [-118.755469, 37.39595, 3293.4], [-118.755522, 37.395962, 3292.3], [-118.755615, 37.396023, 3289.9], [-118.75567, 37.396042, 3289.1], [-118.755758, 37.396107, 3288.2], [-118.755798, 37.396116, 3288.1], [-118.755959, 37.396221, 3289.0], [-118.756013, 37.396277, 3288.6], [-118.75612, 37.396343, 3290.9], [-118.756135, 37.396343, 3290.9], [-118.75622, 37.396386, 3291.1], [-118.756281, 37.396464, 3292.9], [-118.75632, 37.396543, 3292.9], [-118.756333, 37.396618, 3293.4], [-118.756362, 37.396686, 3293.7], [-118.756357, 37.396745, 3293.0], [-118.756368, 37.396797, 3292.8], [-118.756366, 37.396922, 3295.1], [-118.756348, 37.396993, 3293.8], [-118.756361, 37.39709, 3292.8], [-118.756337, 37.397154, 3291.7], [-118.756297, 37.397235, 3291.3], [-118.756307, 37.397327, 3291.7], [-118.756285, 37.39737, 3291.2], [-118.756281, 37.397455, 3290.9], [-118.756258, 37.397528, 3291.3], [-118.756244, 37.397617, 3291.2], [-118.756224, 37.397642, 3290.3], [-118.756217, 37.397727, 3289.2], [-118.756226, 37.397776, 3289.1], [-118.756285, 37.397919, 3288.3], [-118.756363, 37.39803, 3287.3], [-118.756435, 37.398194, 3285.3], [-118.756446, 37.398293, 3284.0], [-118.756439, 37.398344, 3283.2], [-118.756549, 37.398551, 3281.5], [-118.756586, 37.398628, 3279.1], [-118.756594, 37.398664, 3278.8], [-118.756589, 37.398695, 3278.9], [-118.756596, 37.398767, 3277.3], [-118.756647, 37.39882, 3276.5], [-118.756676, 37.398901, 3276.9], [-118.756668, 37.398929, 3276.8], [-118.756671, 37.398979, 3276.7], [-118.75669, 37.399024, 3277.2], [-118.756697, 37.399087, 3277.2], [-118.756688, 37.3992, 3275.8], [-118.756702, 37.399281, 3275.3], [-118.756739, 37.399319, 3275.4], [-118.756742, 37.399351, 3276.0], [-118.756774, 37.399406, 3275.3], [-118.756807, 37.399434, 3274.0], [-118.756857, 37.39952, 3272.6], [-118.75696, 37.399611, 3270.0], [-118.756986, 37.399609, 3269.3], [-118.757046, 37.399627, 3268.8], [-118.757046, 37.399606, 3267.7], [-118.757114, 37.399666, 3266.4], [-118.75718, 37.399699, 3264.1], [-118.757245, 37.399716, 3262.7], [-118.757359, 37.399791, 3261.2], [-118.757445, 37.399829, 3260.9], [-118.757484, 37.399925, 3260.0], [-118.757517, 37.399971, 3256.9], [-118.757613, 37.40002, 3258.3], [-118.757644, 37.400074, 3258.3], [-118.75771, 37.400121, 3259.8], [-118.757737, 37.400181, 3256.9], [-118.757721, 37.400344, 3254.5], [-118.757707, 37.400421, 3253.6], [-118.757721, 37.400446, 3254.4], [-118.757689, 37.400493, 3252.5], [-118.757677, 37.400549, 3253.0], [-118.75767, 37.40064, 3250.8], [-118.757682, 37.400737, 3249.8], [-118.757654, 37.400826, 3249.3], [-118.757659, 37.400855, 3249.4], [-118.757693, 37.400885, 3249.1], [-118.757695, 37.400936, 3247.5], [-118.75771, 37.400971, 3247.2], [-118.757757, 37.40114, 3243.4], [-118.757753, 37.401198, 3243.7], [-118.757869, 37.401358, 3245.1], [-118.757921, 37.401471, 3246.0], [-118.757918, 37.40156, 3245.7], [-118.757899, 37.401586, 3245.2], [-118.757909, 37.40161, 3244.8], [-118.75788, 37.401787, 3244.1], [-118.757846, 37.40186, 3243.8], [-118.757864, 37.401898, 3242.2], [-118.757927, 37.401962, 3242.4], [-118.75798, 37.402001, 3242.4], [-118.758002, 37.402054, 3241.4], [-118.758013, 37.402135, 3241.5], [-118.758037, 37.402182, 3240.4], [-118.758035, 37.402222, 3239.8], [-118.758017, 37.402258, 3239.7], [-118.758022, 37.402486, 3234.0], [-118.757987, 37.402544, 3230.9], [-118.757977, 37.402576, 3230.9], [-118.757993, 37.402623, 3229.7], [-118.757995, 37.402709, 3226.8], [-118.758007, 37.402791, 3225.5], [-118.757941, 37.402979, 3222.3], [-118.757929, 37.403076, 3222.3], [-118.757905, 37.403185, 3221.1], [-118.757901, 37.403266, 3219.5], [-118.757882, 37.403423, 3217.4], [-118.757948, 37.403584, 3218.7], [-118.757971, 37.403632, 3219.3], [-118.757999, 37.403863, 3216.1], [-118.758023, 37.403918, 3214.9], [-118.758027, 37.404008, 3213.3], [-118.758042, 37.404051, 3213.4], [-118.758071, 37.404091, 3213.6], [-118.75808, 37.404165, 3214.0], [-118.758064, 37.40426, 3213.3], [-118.758052, 37.404429, 3213.1], [-118.758045, 37.404475, 3214.1], [-118.758028, 37.404497, 3213.9], [-118.758015, 37.404646, 3214.3], [-118.757957, 37.404717, 3213.4], [-118.757956, 37.404751, 3213.3], [-118.757906, 37.404865, 3213.1], [-118.757903, 37.404921, 3213.5], [-118.757861, 37.404988, 3212.9], [-118.757854, 37.405074, 3212.7], [-118.757822, 37.405185, 3212.4], [-118.757794, 37.405243, 3211.5], [-118.757798, 37.40529, 3212.2], [-118.75779, 37.405382, 3212.4], [-118.757804, 37.405476, 3210.5], [-118.757848, 37.405551, 3211.3], [-118.757879, 37.40557, 3212.6], [-118.757911, 37.405608, 3214.1], [-118.75799, 37.405739, 3216.0], [-118.758022, 37.405831, 3215.8], [-118.758017, 37.405876, 3215.3], [-118.757989, 37.405923, 3213.8], [-118.757984, 37.405964, 3214.8], [-118.757951, 37.406001, 3213.7], [-118.757906, 37.406098, 3212.8], [-118.757904, 37.406203, 3214.1], [-118.757866, 37.406229, 3214.6], [-118.757824, 37.406335, 3214.2], [-118.757815, 37.406397, 3215.5], [-118.75778, 37.406444, 3216.4], [-118.75777, 37.406505, 3217.9], [-118.757721, 37.406586, 3217.4], [-118.757702, 37.406682, 3218.1], [-118.757717, 37.406749, 3220.4], [-118.757705, 37.406772, 3220.2], [-118.757705, 37.406815, 3220.6], [-118.757729, 37.406921, 3221.5], [-118.757717, 37.406948, 3221.7], [-118.757677, 37.406981, 3221.0], [-118.757677, 37.407035, 3222.3], [-118.757691, 37.407055, 3221.9], [-118.757712, 37.407122, 3217.8], [-118.757709, 37.407145, 3215.8], [-118.757729, 37.407167, 3215.6], [-118.757717, 37.407217, 3216.1], [-118.757718, 37.407365, 3220.7], [-118.757651, 37.40746, 3222.4], [-118.757658, 37.407526, 3223.0], [-118.757674, 37.407554, 3224.1], [-118.757685, 37.407619, 3222.4], [-118.757721, 37.40771, 3223.0], [-118.757722, 37.407768, 3222.1], [-118.757731, 37.407791, 3222.8], [-118.757726, 37.407855, 3222.8], [-118.757712, 37.407911, 3220.4], [-118.757648, 37.407966, 3216.0], [-118.757626, 37.408031, 3215.3], [-118.757598, 37.40808, 3215.5], [-118.757535, 37.408263, 3217.7], [-118.757527, 37.408276, 3217.3], [-118.757464, 37.408443, 3215.8], [-118.757437, 37.408473, 3215.4], [-118.757438, 37.408492, 3215.4], [-118.757409, 37.408565, 3214.8], [-118.75742, 37.408608, 3215.2], [-118.757419, 37.408646, 3214.9], [-118.757498, 37.408815, 3216.4], [-118.757517, 37.408919, 3218.9], [-118.757508, 37.408965, 3218.5], [-118.757492, 37.408995, 3218.1], [-118.757482, 37.409044, 3217.8], [-118.757491, 37.409134, 3220.1], [-118.75746, 37.409188, 3219.1], [-118.757454, 37.409238, 3219.7], [-118.757417, 37.409263, 3218.8], [-118.757386, 37.409254, 3219.7], [-118.757367, 37.409231, 3219.3], [-118.757331, 37.409141, 3217.7], [-118.757332, 37.409122, 3215.4], [-118.757299, 37.409081, 3212.6], [-118.757256, 37.409101, 3212.2], [-118.757255, 37.409141, 3210.5], [-118.757232, 37.409195, 3208.1], [-118.757234, 37.409241, 3207.1], [-118.757189, 37.409291, 3203.9], [-118.757165, 37.40938, 3202.4], [-118.757164, 37.40946, 3202.9], [-118.75714, 37.409557, 3200.8], [-118.757137, 37.40963, 3199.1], [-118.757117, 37.409656, 3197.0], [-118.757063, 37.409795, 3192.8], [-118.756988, 37.410055, 3190.4], [-118.75695, 37.410355, 3192.1], [-118.756942, 37.410439, 3192.8], [-118.756897, 37.410623, 3191.0], [-118.756874, 37.410869, 3191.5], [-118.756844, 37.410965, 3192.4], [-118.756812, 37.411182, 3193.8], [-118.756788, 37.411171, 3192.9], [-118.756789, 37.41121, 3193.2], [-118.756738, 37.411391, 3193.6], [-118.756653, 37.411516, 3191.5], [-118.756555, 37.411638, 3190.3], [-118.75654, 37.411691, 3190.5], [-118.756565, 37.411726, 3190.7], [-118.756523, 37.4118, 3190.4], [-118.756475, 37.412081, 3193.9], [-118.756424, 37.412304, 3187.5], [-118.756394, 37.412377, 3186.0], [-118.756375, 37.412463, 3185.5], [-118.756346, 37.412515, 3184.2], [-118.756341, 37.412593, 3184.4], [-118.756321, 37.412644, 3185.4], [-118.756269, 37.412814, 3185.8], [-118.756241, 37.41286, 3185.8], [-118.756225, 37.412924, 3187.5], [-118.756238, 37.412988, 3189.4], [-118.756227, 37.413013, 3190.0], [-118.756192, 37.413034, 3191.2], [-118.756215, 37.413076, 3192.2], [-118.756208, 37.413177, 3192.6], [-118.756093, 37.413359, 3195.0], [-118.756106, 37.413403, 3195.4], [-118.756101, 37.413427, 3195.1], [-118.756062, 37.413496, 3196.5], [-118.756015, 37.41356, 3199.0], [-118.75604, 37.4136, 3198.4], [-118.756017, 37.413696, 3197.4], [-118.755985, 37.41378, 3198.4], [-118.755979, 37.413846, 3199.4], [-118.755914, 37.413901, 3198.8], [-118.755892, 37.413939, 3198.6], [-118.755865, 37.413952, 3197.5], [-118.7558, 37.414011, 3196.6], [-118.755673, 37.414055, 3197.5], [-118.75562, 37.414089, 3196.9], [-118.755599, 37.414126, 3196.2], [-118.755596, 37.414183, 3195.8], [-118.755561, 37.414237, 3196.3], [-118.75557, 37.414289, 3196.2], [-118.755535, 37.414399, 3197.6], [-118.755471, 37.414474, 3198.9], [-118.755455, 37.414463, 3199.0], [-118.755431, 37.414547, 3201.4], [-118.755454, 37.414581, 3201.7], [-118.75548, 37.414597, 3201.5], [-118.755486, 37.414622, 3202.0], [-118.75549, 37.41471, 3201.7], [-118.755514, 37.414765, 3202.5], [-118.755543, 37.414813, 3202.7], [-118.7556, 37.414874, 3202.8], [-118.755627, 37.414946, 3202.0], [-118.755682, 37.41503, 3203.4], [-118.755724, 37.41513, 3202.3], [-118.755734, 37.41524, 3200.8], [-118.755716, 37.415298, 3200.7], [-118.755675, 37.415237, 3197.6], [-118.75566, 37.415196, 3196.5], [-118.75568, 37.415158, 3192.0], [-118.755617, 37.415193, 3187.4], [-118.755569, 37.415297, 3185.2], [-118.755568, 37.415319, 3185.3], [-118.755545, 37.415382, 3184.5], [-118.755541, 37.41551, 3183.6], [-118.755513, 37.415609, 3181.7], [-118.755536, 37.41569, 3179.7], [-118.755516, 37.415821, 3178.7], [-118.755439, 37.416115, 3175.9], [-118.755391, 37.416249, 3173.2], [-118.755389, 37.416285, 3173.4], [-118.755311, 37.41651, 3173.1], [-118.755221, 37.4166, 3172.8], [-118.755219, 37.416635, 3173.7], [-118.755182, 37.416732, 3173.7], [-118.754919, 37.417095, 3175.4], [-118.754875, 37.417256, 3176.8], [-118.75488, 37.417332, 3175.0], [-118.754877, 37.417375, 3174.5], [-118.754908, 37.417481, 3175.8], [-118.754952, 37.417548, 3175.6], [-118.755037, 37.417595, 3173.1], [-118.755085, 37.417648, 3172.0], [-118.755112, 37.41771, 3170.4], [-118.755122, 37.417773, 3171.1], [-118.755148, 37.417825, 3169.4], [-118.755151, 37.417917, 3168.1], [-118.755176, 37.417951, 3166.8], [-118.75522, 37.417982, 3166.0], [-118.755347, 37.418027, 3166.3], [-118.755387, 37.418051, 3165.4], [-118.75544, 37.418054, 3167.7], [-118.755496, 37.418076, 3168.5], [-118.75557, 37.418129, 3169.4], [-118.755672, 37.418227, 3171.6], [-118.75569, 37.418254, 3171.8], [-118.755811, 37.418308, 3172.0], [-118.755826, 37.418327, 3173.0], [-118.755829, 37.418412, 3173.3], [-118.755757, 37.418584, 3173.6], [-118.755721, 37.418679, 3172.8], [-118.755677, 37.41874, 3172.0], [-118.755636, 37.418867, 3171.3], [-118.755584, 37.418923, 3171.5], [-118.755514, 37.418984, 3171.0], [-118.755495, 37.419023, 3171.2], [-118.755337, 37.419231, 3168.1], [-118.755244, 37.419337, 3168.8], [-118.755198, 37.419443, 3170.7], [-118.755133, 37.419495, 3170.7], [-118.755102, 37.419543, 3171.7], [-118.755053, 37.419577, 3171.6], [-118.755009, 37.419697, 3172.7], [-118.755005, 37.419728, 3172.5], [-118.754962, 37.41979, 3173.5], [-118.754951, 37.419837, 3173.7], [-118.754915, 37.419861, 3174.0], [-118.754835, 37.419962, 3174.2], [-118.754864, 37.420036, 3174.8], [-118.754874, 37.420044, 3175.1], [-118.754883, 37.420112, 3177.2], [-118.754849, 37.42015, 3177.1], [-118.75485, 37.420201, 3177.6], [-118.754832, 37.420244, 3177.6], [-118.754833, 37.42034, 3178.3], [-118.754859, 37.420426, 3178.7], [-118.75484, 37.420459, 3179.8], [-118.754854, 37.420477, 3181.0], [-118.754828, 37.42055, 3180.0], [-118.754711, 37.420635, 3178.7], [-118.754698, 37.420673, 3178.7], [-118.754631, 37.420742, 3178.3], [-118.754547, 37.420781, 3178.8], [-118.754488, 37.42085, 3179.8], [-118.754417, 37.420977, 3180.2], [-118.754361, 37.421028, 3181.1], [-118.75433, 37.421084, 3180.3], [-118.754285, 37.421188, 3182.1], [-118.754267, 37.4213, 3182.5], [-118.754276, 37.421383, 3182.2], [-118.754227, 37.421538, 3180.8], [-118.754186, 37.421615, 3180.5], [-118.754151, 37.421708, 3180.2], [-118.754138, 37.42177, 3180.1], [-118.754161, 37.421824, 3179.6], [-118.754162, 37.421888, 3178.8], [-118.754105, 37.421927, 3178.3], [-118.75406, 37.421981, 3176.6], [-118.754002, 37.422102, 3174.5], [-118.753994, 37.42224, 3173.8], [-118.75401, 37.422301, 3173.0], [-118.753996, 37.422378, 3172.5], [-118.754009, 37.42244, 3172.2], [-118.754009, 37.422546, 3172.0], [-118.75403, 37.422589, 3172.9], [-118.754029, 37.422648, 3173.1], [-118.753983, 37.42272, 3174.0], [-118.753915, 37.422815, 3172.7], [-118.753869, 37.422859, 3171.9], [-118.753768, 37.423013, 3172.2], [-118.753733, 37.423049, 3172.2], [-118.753725, 37.423074, 3171.4], [-118.753638, 37.423134, 3171.6], [-118.753552, 37.42324, 3172.2], [-118.753481, 37.423308, 3172.7], [-118.75348, 37.423363, 3174.5], [-118.753452, 37.423476, 3173.4], [-118.753452, 37.423511, 3173.6], [-118.753432, 37.42357, 3174.7], [-118.753421, 37.423655, 3174.9], [-118.753381, 37.423732, 3175.7], [-118.75331, 37.423766, 3176.9], [-118.753276, 37.423801, 3177.8], [-118.75324, 37.423958, 3177.4], [-118.75322, 37.423995, 3177.3], [-118.753166, 37.424039, 3177.1], [-118.753134, 37.424093, 3177.6], [-118.753115, 37.424139, 3178.2], [-118.753117, 37.424224, 3178.3], [-118.75315, 37.424293, 3178.9], [-118.753152, 37.424332, 3178.9], [-118.753115, 37.424447, 3177.6], [-118.753126, 37.424508, 3177.1], [-118.753088, 37.424572, 3176.4], [-118.753063, 37.42465, 3175.3], [-118.753058, 37.424735, 3174.9], [-118.753048, 37.424747, 3175.0], [-118.753041, 37.424859, 3173.6], [-118.753018, 37.424884, 3173.8], [-118.752959, 37.425087, 3172.2], [-118.752888, 37.425175, 3171.0], [-118.75284, 37.425195, 3169.2], [-118.752772, 37.425242, 3168.9], [-118.752749, 37.425247, 3169.1], [-118.752672, 37.425297, 3170.0], [-118.752566, 37.425426, 3169.5], [-118.752496, 37.425457, 3169.4], [-118.752397, 37.425555, 3169.2], [-118.752264, 37.425726, 3169.3], [-118.752238, 37.425817, 3168.3], [-118.752178, 37.42586, 3168.4], [-118.752178, 37.425905, 3168.6], [-118.752152, 37.425949, 3168.7], [-118.752113, 37.425997, 3168.2], [-118.752108, 37.426033, 3168.2], [-118.752068, 37.426066, 3168.5], [-118.752059, 37.426088, 3169.2], [-118.752074, 37.426136, 3168.1], [-118.75206, 37.426223, 3170.0], [-118.752013, 37.426308, 3166.5], [-118.751982, 37.426352, 3165.6], [-118.751968, 37.426409, 3165.3], [-118.751971, 37.426431, 3165.1], [-118.752022, 37.426489, 3164.2], [-118.752059, 37.426628, 3164.4], [-118.752081, 37.426674, 3163.8], [-118.752093, 37.426736, 3162.8], [-118.752072, 37.426788, 3163.1], [-118.75206, 37.426861, 3163.7], [-118.752066, 37.426888, 3164.4], [-118.752048, 37.426928, 3165.1], [-118.752069, 37.427026, 3166.7], [-118.752044, 37.427135, 3168.6], [-118.752022, 37.427166, 3168.8], [-118.751997, 37.427276, 3169.4], [-118.751965, 37.427299, 3169.4], [-118.751959, 37.427317, 3168.7], [-118.751873, 37.427385, 3169.0], [-118.751766, 37.427425, 3170.4], [-118.751642, 37.427566, 3171.6], [-118.751613, 37.427617, 3172.0], [-118.751554, 37.427671, 3172.5], [-118.751538, 37.427724, 3174.2], [-118.751508, 37.427751, 3175.0], [-118.751499, 37.427818, 3176.5], [-118.751484, 37.427855, 3175.4], [-118.751456, 37.427886, 3176.1], [-118.75144, 37.427948, 3176.4], [-118.751421, 37.427952, 3177.2], [-118.751369, 37.427996, 3176.9], [-118.751364, 37.428011, 3177.3], [-118.751232, 37.428163, 3177.6], [-118.75122, 37.428208, 3177.3], [-118.751176, 37.428267, 3178.0], [-118.751181, 37.428347, 3179.0], [-118.751164, 37.428401, 3180.0], [-118.751111, 37.428456, 3182.3], [-118.751083, 37.428507, 3182.5], [-118.751047, 37.428598, 3182.1], [-118.751079, 37.428777, 3182.6], [-118.751064, 37.4288, 3183.0], [-118.751064, 37.428843, 3183.3], [-118.75105, 37.428879, 3183.0], [-118.751015, 37.428907, 3182.9], [-118.750989, 37.428996, 3182.5], [-118.750985, 37.429052, 3181.4], [-118.750952, 37.42912, 3182.1], [-118.750945, 37.429163, 3181.7], [-118.750915, 37.429211, 3181.5], [-118.750844, 37.429278, 3180.8], [-118.75068, 37.429365, 3179.3], [-118.75063, 37.429417, 3179.2], [-118.75052, 37.429513, 3177.0], [-118.750512, 37.429554, 3176.4], [-118.750448, 37.429643, 3174.9], [-118.750431, 37.429707, 3175.2], [-118.750408, 37.429759, 3174.6], [-118.750417, 37.429853, 3173.5], [-118.7504, 37.429905, 3172.3], [-118.750356, 37.429966, 3172.5], [-118.750341, 37.430037, 3171.7], [-118.750347, 37.430077, 3171.9], [-118.750335, 37.430121, 3170.6], [-118.750343, 37.430186, 3168.6], [-118.750311, 37.430273, 3167.0], [-118.750273, 37.430298, 3165.6], [-118.75027, 37.430314, 3165.2], [-118.750202, 37.430387, 3164.1], [-118.75017, 37.430439, 3161.9], [-118.750026, 37.430509, 3161.3], [-118.750009, 37.430557, 3160.9], [-118.749934, 37.430635, 3159.3], [-118.749938, 37.43067, 3158.6], [-118.74986, 37.430741, 3155.8], [-118.74983, 37.430804, 3154.5], [-118.749771, 37.430833, 3153.4], [-118.749668, 37.430943, 3153.5], [-118.749635, 37.430969, 3153.9], [-118.749606, 37.431037, 3153.4], [-118.749611, 37.431061, 3152.3], [-118.749586, 37.431075, 3150.3], [-118.749569, 37.431123, 3148.1], [-118.74955, 37.43121, 3143.9], [-118.749519, 37.431276, 3142.5], [-118.749519, 37.431319, 3141.5], [-118.749531, 37.431374, 3141.4], [-118.749518, 37.431412, 3141.2], [-118.749486, 37.431433, 3140.6], [-118.749454, 37.431478, 3139.0], [-118.749412, 37.431603, 3138.8], [-118.749371, 37.431657, 3138.8], [-118.74937, 37.431705, 3138.3], [-118.749335, 37.431761, 3137.7], [-118.749294, 37.431855, 3136.0], [-118.749282, 37.431916, 3135.2], [-118.749265, 37.431944, 3135.1], [-118.749252, 37.432001, 3133.9], [-118.7492, 37.432062, 3134.1], [-118.749173, 37.432114, 3133.0], [-118.749124, 37.432153, 3132.4], [-118.7491, 37.432193, 3131.9], [-118.749017, 37.432236, 3132.8], [-118.748883, 37.432377, 3132.8], [-118.748839, 37.432444, 3134.1], [-118.74876, 37.432505, 3133.0], [-118.748737, 37.432572, 3133.1], [-118.748654, 37.432666, 3133.3], [-118.748453, 37.432962, 3132.8], [-118.748398, 37.433058, 3133.0], [-118.748375, 37.433131, 3132.6], [-118.748351, 37.433172, 3132.1], [-118.74826, 37.433249, 3131.9], [-118.748235, 37.433324, 3131.6], [-118.748192, 37.433407, 3133.4], [-118.748172, 37.433458, 3133.4], [-118.748162, 37.433531, 3132.7], [-118.748095, 37.433677, 3130.8], [-118.748106, 37.433722, 3130.3], [-118.748093, 37.433781, 3129.8], [-118.748073, 37.433807, 3130.1], [-118.748059, 37.433863, 3129.8], [-118.748058, 37.433946, 3131.0], [-118.747964, 37.434048, 3128.7], [-118.747955, 37.434105, 3127.6], [-118.747906, 37.434254, 3127.2], [-118.747851, 37.434342, 3125.7], [-118.747825, 37.4344, 3126.0], [-118.747681, 37.43459, 3122.8], [-118.747567, 37.434712, 3120.8], [-118.747525, 37.434786, 3117.8], [-118.747468, 37.43483, 3117.1], [-118.747463, 37.434869, 3116.2], [-118.747394, 37.434982, 3116.7], [-118.747372, 37.435043, 3116.2], [-118.747333, 37.435084, 3115.2], [-118.747294, 37.435154, 3113.6], [-118.747277, 37.435164, 3113.3], [-118.747232, 37.435224, 3112.8], [-118.747209, 37.435236, 3112.2], [-118.747102, 37.43523, 3111.9], [-118.746995, 37.435207, 3109.9], [-118.746902, 37.435247, 3109.9], [-118.746823, 37.435346, 3108.2], [-118.746762, 37.435387, 3109.0], [-118.746747, 37.435408, 3115.3], [-118.746685, 37.435357, 3114.9], [-118.746716, 37.435354, 3115.0], [-118.746762, 37.435376, 3115.0], [-118.746765, 37.435399, 3115.3], [-118.74671, 37.435403, 3116.1], [-118.746676, 37.435383, 3115.5], [-118.746648, 37.435391, 3113.9], [-118.746637, 37.435359, 3111.4]]}}