{"type": "Feature", "properties": {}, "geometry": {"type": "LineString", "coordinates": [[-121.52297870256007, 47.402790896594524, 762.46], [-121.52285766787827, 47.402702048420906, 765.83], [-121.52283855713904, 47.402665335685015, 762.46], [-121.52278994210064, 47.402667934075, 762.46], [-121.52267863042653, 47.40259383805096, 761.5], [-121.52268189936876, 47.40243047475815, 761.5], [-121.52281450107694, 47.40238655358553, 760.06], [-121.52282891795039, 47.40228647366166, 761.02], [-121.52284786105156, 47.402055552229285, 759.58], [-121.52280033566058, 47.40184566937387, 763.42], [-121.52275490574539, 47.40158566273749, 763.9], [-121.52264962904155, 47.40144744515419, 762.46], [-121.52240848168731, 47.40138692781329, 764.87], [-121.52213674038649, 47.40134526975453, 766.31], [-121.52186214923859, 47.40131593309343, 768.71], [-121.52162049897015, 47.40124988369644, 773.04], [-121.52146954089403, 47.40119087509811, 777.84], [-121.52129452675581, 47.40109188482165, 784.57], [-121.52112730778754, 47.40097009576857, 788.42], [-121.52089730836451, 47.400754848495126, 788.9], [-121.52066672220826, 47.40069332532585, 786.98], [-121.5204226411879, 47.40063490346074, 787.94], [-121.52028299868107, 47.40061780437827, 792.74], [-121.5202154405415, 47.400568686425686, 800.92], [-121.51997311972082, 47.4006075784564, 803.32], [-121.51981269009411, 47.400670275092125, 802.36], [-121.51955008506775, 47.4006852786988, 798.03], [-121.51930994354188, 47.400735318660736, 794.19], [-121.51906753890216, 47.40083875134587, 790.34], [-121.51880443096161, 47.40093380212784, 785.53], [-121.5186598431319, 47.4010325409472, 784.09], [-121.51837527751923, 47.40120646543801, 782.65], [-121.5184045303613, 47.401270754635334, 781.21], [-121.5183178614825, 47.401281064376235, 784.09], [-121.51824435219169, 47.401251308619976, 785.05], [-121.51843319647014, 47.40113362669945, 786.02], [-121.51824493892491, 47.40117528475821, 786.02], [-121.51814963668585, 47.40122708491981, 792.26], [-121.51817369274795, 47.40124217234552, 797.55], [-121.51819079183042, 47.40108895115554, 799.95], [-121.51814376935363, 47.401103703305125, 801.88], [-121.51808073744178, 47.40115969441831, 805.72], [-121.51812834665179, 47.401193557307124, 807.64], [-121.51790404692292, 47.40132054314017, 804.28], [-121.51774135418236, 47.401367062702775, 802.36], [-121.51763163506985, 47.40134937688708, 800.44], [-121.5173788368702, 47.401406122371554, 797.07], [-121.51716811582446, 47.40148063749075, 794.19], [-121.51700760237873, 47.40162740461528, 793.22], [-121.51696510612965, 47.401753133162856, 786.5], [-121.51698580943048, 47.401855140924454, 811.01], [-121.51686728931963, 47.40185690112412, 812.45], [-121.51662429794669, 47.40182655863464, 812.93], [-121.51652673259377, 47.40187265910208, 810.53], [-121.51628416031599, 47.40193007513881, 809.09], [-121.51598509401083, 47.40196536295116, 809.09], [-121.51594955474138, 47.40202839486301, 813.41], [-121.51603588834405, 47.40217298269272, 818.7], [-121.51605013757944, 47.40229167044163, 824.47], [-121.51602247729897, 47.40241647697985, 822.55], [-121.5158172044903, 47.40254698321223, 826.87], [-121.51583765633404, 47.40265351720154, 833.6], [-121.5157757140696, 47.40266860462725, 834.56], [-121.51581636629999, 47.402857868000865, 834.56], [-121.51584235019982, 47.40291545167565, 838.41], [-121.51597637683153, 47.40294462069869, 843.21], [-121.51589054614305, 47.40299306809902, 840.33], [-121.51586774736643, 47.403044030070305, 839.37], [-121.51558167301118, 47.403010251000524, 836.48], [-121.5155066549778, 47.40304294042289, 836.96], [-121.51528855785728, 47.40316975861788, 834.56], [-121.51518763974309, 47.40312835201621, 836.0], [-121.51512024924159, 47.40315894596279, 844.18], [-121.51493584737182, 47.40327646024525, 843.69], [-121.51481380686164, 47.40338425152004, 846.58], [-121.51472244411707, 47.40341434255242, 845.14], [-121.51471707969904, 47.40348407998681, 848.5], [-121.51468212716281, 47.403585501015186, 856.19], [-121.5146514493972, 47.40359941497445, 859.56], [-121.51476535946131, 47.403726652264595, 857.15], [-121.51478866115212, 47.40376395173371, 861.0], [-121.51495571248233, 47.40386419929564, 872.05], [-121.51495185680687, 47.403981713578105, 873.5], [-121.51515897363424, 47.40410014986992, 878.78], [-121.51517640799284, 47.40419654175639, 878.78], [-121.51522460393608, 47.40421196445823, 874.94], [-121.51522921398282, 47.40414516068995, 872.53], [-121.51517506688833, 47.40424834191799, 872.53], [-121.51511580683291, 47.40442084148526, 874.46], [-121.51514237746596, 47.40452351979911, 875.42], [-121.51515712961555, 47.404700545594096, 875.42], [-121.51512712240219, 47.40483105182648, 893.2], [-121.51516517624259, 47.40495233796537, 891.76], [-121.51515671052039, 47.40501872263849, 897.05], [-121.51512242853642, 47.40505987778306, 900.89], [-121.515126619488, 47.40509357303381, 901.37], [-121.51500139385462, 47.405098685994744, 903.3], [-121.51497457176447, 47.40516188554466, 905.22], [-121.5148816164583, 47.40544309839606, 900.89], [-121.5148160699755, 47.40578013472259, 896.09], [-121.51483794674277, 47.40591801702976, 900.41], [-121.51495018042624, 47.40582061931491, 902.82], [-121.51504841633141, 47.40571022965014, 903.78], [-121.51513801887631, 47.40558475255966, 905.22], [-121.5152334049344, 47.40547670982778, 908.1], [-121.51543800719082, 47.40538484416902, 910.03], [-121.51565853506327, 47.40544896572828, 910.99], [-121.5155788231641, 47.40549037232995, 916.75], [-121.51554152369499, 47.40546531043947, 918.68], [-121.51538268662989, 47.40549850277603, 915.79], [-121.51532116346061, 47.405640073120594, 913.87], [-121.51526676490903, 47.40572188049555, 912.43], [-121.51519048959017, 47.40608565509319, 903.78], [-121.51516534388065, 47.406240636482835, 902.82], [-121.5150214266032, 47.40657079964876, 910.03], [-121.51492771692574, 47.40673407912254, 913.39], [-121.5148155670613, 47.406859807670116, 918.68], [-121.51469302363694, 47.40700992755592, 922.04], [-121.51464382186532, 47.407214948907495, 926.37], [-121.51458749547601, 47.40736389532685, 932.14], [-121.51453544385731, 47.40755575709045, 937.9], [-121.51434668339789, 47.40765893831849, 942.71], [-121.51424643583596, 47.40779422223568, 949.92], [-121.514135543257, 47.40784929133952, 952.8], [-121.51409832760692, 47.4080088827759, 949.92], [-121.51402574032545, 47.40814408287406, 954.73], [-121.51401710696518, 47.40823209285736, 957.13], [-121.51408801786602, 47.40839688107371, 959.53], [-121.51420092210174, 47.40852219052613, 962.42], [-121.51415012776852, 47.40865361876786, 959.53], [-121.5140943042934, 47.40869494155049, 957.61], [-121.51400269009173, 47.40873374976218, 952.8], [-121.51409229263663, 47.40879996679723, 948.96], [-121.51401903480291, 47.4088429659605, 951.36], [-121.5139883570373, 47.408893844112754, 951.36], [-121.51398098096251, 47.4089967738837, 946.07], [-121.51400478556752, 47.40902409888804, 938.38], [-121.51391786523163, 47.409058045595884, 936.46], [-121.51378618553281, 47.40918972529471, 936.94], [-121.51358652859926, 47.40927874110639, 941.27], [-121.51350614614785, 47.40945643745363, 942.71], [-121.51349223218858, 47.40961301140487, 947.04], [-121.51355165988207, 47.40960328839719, 948.48], [-121.51375953108072, 47.40951770916581, 955.21], [-121.51385139673948, 47.409594152122736, 961.46], [-121.51377403177321, 47.40961544215679, 973.47], [-121.51367286220193, 47.4096738640219, 968.67], [-121.51366028934717, 47.40978869609535, 966.74], [-121.51379917748272, 47.409717701375484, 963.38], [-121.51381158269942, 47.40987226366997, 960.01], [-121.5141424164176, 47.409619046375155, 959.53], [-121.51419337838888, 47.40962742827833, 960.01], [-121.51411861181259, 47.409729436039925, 960.49], [-121.51400025933981, 47.40986756980419, 963.86], [-121.51392406783998, 47.41001165471971, 967.22], [-121.51390411891043, 47.41016747429967, 967.7], [-121.51391451247036, 47.410328490659595, 968.18], [-121.51390210725367, 47.41052186116576, 968.18], [-121.51382583193481, 47.41072713397443, 968.18], [-121.51371762156487, 47.410889491438866, 968.18], [-121.51365207508206, 47.41095285862684, 968.18], [-121.51358946226537, 47.41095227189362, 968.18], [-121.51371384970844, 47.410993091762066, 968.18], [-121.51398818939924, 47.410852275788784, 968.18], [-121.51402230374515, 47.410893850028515, 968.18], [-121.51397184468806, 47.41099870763719, 968.18], [-121.51388634927571, 47.41108470596373, 968.18], [-121.51388484053314, 47.411211440339684, 968.18], [-121.51409153826535, 47.41131294518709, 968.18], [-121.51423185132444, 47.41135150194168, 968.67], [-121.51426018215716, 47.41130732931197, 968.18], [-121.51429052464664, 47.41136407479644, 968.67], [-121.5141770336777, 47.41140766069293, 968.18], [-121.51438943110406, 47.41149407811463, 967.7], [-121.51448582299054, 47.41157923825085, 967.7], [-121.51458632200956, 47.411629194393754, 967.7], [-121.51471557095647, 47.41161578334868, 967.7], [-121.51484959758818, 47.41162542253733, 967.7], [-121.51489410549402, 47.411637995392084, 967.7], [-121.51494481600821, 47.41170220077038, 967.7], [-121.5149180777371, 47.4117493070662, 967.7], [-121.5149712190032, 47.411759281530976, 967.7], [-121.51497708633542, 47.411781242117286, 967.7], [-121.5149091091007, 47.411770513281226, 967.7], [-121.51484138332307, 47.411815859377384, 967.7], [-121.51478447020054, 47.41181954741478, 967.7], [-121.5147066861391, 47.41185441613197, 967.7], [-121.51461104862392, 47.41207159124315, 967.7], [-121.51461381465197, 47.412115428596735, 967.7], [-121.51470978744328, 47.412186339497566, 967.7], [-121.51470727287233, 47.41227904334664, 967.7], [-121.51466209441423, 47.4123521335423, 967.7], [-121.51465564034879, 47.412424301728606, 967.7], [-121.5147188398987, 47.41251306608319, 967.7], [-121.51469193398952, 47.4126058537513, 967.7], [-121.5146794449538, 47.412749603390694, 967.7], [-121.51475194841623, 47.412822023034096, 967.7], [-121.51485119014978, 47.412890922278166, 967.7], [-121.5149572212249, 47.41290383040905, 968.18], [-121.51510164141655, 47.412939285859466, 968.18], [-121.51521722786129, 47.41303039714694, 968.18], [-121.51526056230068, 47.41309694945812, 968.18], [-121.51522032916546, 47.413203567266464, 968.18], [-121.51524941436946, 47.413348238915205, 968.18], [-121.51538184843957, 47.4135797470808, 968.18], [-121.51536298915744, 47.413680078461766, 968.18], [-121.51554219424725, 47.41373296827078, 968.18], [-121.51572056114674, 47.4138493090868, 968.18], [-121.51589549146593, 47.41393145173788, 968.18], [-121.51613580062985, 47.41401803679764, 968.18], [-121.51637158356607, 47.41413773037493, 968.18], [-121.516455989331, 47.41419757716358, 968.18], [-121.51641382835805, 47.41427946835756, 986.93], [-121.51644400320947, 47.41425398737192, 989.33], [-121.51655816473067, 47.41408140398562, 995.1], [-121.51656403206289, 47.41405894048512, 993.18], [-121.5163542330265, 47.41417762823403, 997.51], [-121.51625909842551, 47.41429740563035, 1002.79], [-121.51622431352735, 47.414322048425674, 1005.2], [-121.51605919003487, 47.41432774811983, 1007.12], [-121.51602423749864, 47.414401676505804, 1016.73], [-121.51594108901918, 47.4144088011235, 1013.37], [-121.51582013815641, 47.41443872451782, 1011.44], [-121.5158068947494, 47.41443034261465, 1009.04], [-121.51552693918347, 47.41436764597893, 1010.48], [-121.51549483649433, 47.41438910365105, 1016.25], [-121.51548335328698, 47.414352893829346, 1013.85], [-121.51526450179517, 47.41437619552016, 1017.69], [-121.51511823758483, 47.41437653079629, 1020.1], [-121.51494842022657, 47.41438935510814, 1021.06], [-121.51493727229536, 47.414466720074415, 1023.94], [-121.51483417488635, 47.41450225934386, 1023.46], [-121.51484691537917, 47.414536122232676, 1042.21], [-121.51480752043426, 47.414453476667404, 1039.8], [-121.51462655514479, 47.414411986246705, 1037.4], [-121.5146065223962, 47.41439304314554, 1035.96], [-121.51445715688169, 47.41433906368911, 1035.96], [-121.51438205502927, 47.41427200846374, 1034.52], [-121.5142560750246, 47.4141947273165, 1034.52], [-121.51422179304063, 47.41419330239296, 1031.63], [-121.5141595993191, 47.4142742715776, 1034.52], [-121.51403496041894, 47.414274690672755, 1037.88], [-121.5138559229672, 47.41419388912618, 1043.17], [-121.51376171037555, 47.41412867791951, 1041.73], [-121.51369289495051, 47.41416145116091, 1034.52], [-121.51363623328507, 47.41422154940665, 1028.27], [-121.5134949143976, 47.41426379419863, 1023.94], [-121.5133551042527, 47.41424661129713, 1054.7], [-121.51333205401897, 47.41423185914755, 1058.55], [-121.5130805131048, 47.41428843699396, 1059.03], [-121.51300381869078, 47.414416847750545, 1057.59], [-121.51302569545805, 47.41459395736456, 1054.22], [-121.51302066631615, 47.414791183546185, 1053.26], [-121.51313533075154, 47.414912385866046, 1050.86], [-121.5132256038487, 47.41502948105335, 1050.38], [-121.5132390987128, 47.41516753099859, 1052.3], [-121.51328545063734, 47.41534095257521, 1050.86], [-121.51326323859394, 47.41540851071477, 1060.95], [-121.51321060024202, 47.41539929062128, 1059.51], [-121.51318738237023, 47.4155328143388, 1055.18], [-121.51325175538659, 47.41562250070274, 1051.82], [-121.51338569819927, 47.41576876491308, 1052.3], [-121.51349617168307, 47.41599457338452, 1050.38], [-121.51377285830677, 47.41623840294778, 1053.74], [-121.51388308033347, 47.41637469269335, 1055.18], [-121.51402154937387, 47.41645113565028, 1058.55], [-121.51406530290842, 47.41641073487699, 1079.7], [-121.51405373588204, 47.416471000760794, 1080.66], [-121.51411500759423, 47.416686583310366, 1081.62], [-121.51412674225867, 47.416819017380476, 1083.06], [-121.51410813443363, 47.41695497184992, 1081.14], [-121.5141783747822, 47.41709536872804, 1080.66], [-121.51416756212711, 47.41715672425926, 1092.68], [-121.5141284186393, 47.4170905072242, 1097.0], [-121.51399816386402, 47.417148258537054, 1100.85], [-121.51400294154882, 47.41730357520282, 1101.81], [-121.51399497874081, 47.41739594377577, 1102.29], [-121.51404803618789, 47.417552350088954, 1098.44], [-121.51410260237753, 47.41767757572234, 1099.4], [-121.51402523741126, 47.417756617069244, 1104.21], [-121.51382356882095, 47.41790547966957, 1107.1], [-121.51370337232947, 47.418009750545025, 1107.1], [-121.51356565766037, 47.418078649789095, 1109.02], [-121.51347337290645, 47.418175460770726, 1107.1], [-121.51348980143666, 47.41819851100445, 1107.58], [-121.513583175838, 47.418203791603446, 1106.13], [-121.51346021331847, 47.418314684182405, 1111.9], [-121.51350270956755, 47.41826523095369, 1117.19], [-121.51337589137256, 47.418345948681235, 1116.71], [-121.51332249864936, 47.418445609509945, 1119.59], [-121.51329676620662, 47.41856077685952, 1121.52], [-121.51338167488575, 47.418673848733306, 1121.03], [-121.51346800848842, 47.41862037219107, 1125.36], [-121.51330112479627, 47.418760349974036, 1125.36], [-121.51324245147407, 47.418988002464175, 1122.0], [-121.51317271403968, 47.41909101605415, 1120.07], [-121.51320230215788, 47.41913124918938, 1122.0], [-121.51307917200029, 47.41921657696366, 1122.0], [-121.51305729523301, 47.41931573487818, 1124.4], [-121.51304262690246, 47.41952075622976, 1131.61], [-121.51301748119295, 47.41967028938234, 1136.9], [-121.51296073570848, 47.419809848070145, 1140.26], [-121.51285948231816, 47.419923171401024, 1137.86], [-121.51278111152351, 47.42006381973624, 1138.34], [-121.51263845153153, 47.420190554112196, 1140.26], [-121.51259327307343, 47.4202991835773, 1139.3], [-121.51247290894389, 47.42037101648748, 1140.26], [-121.51223938912153, 47.4205824919045, 1137.86], [-121.51217241771519, 47.42069254629314, 1135.45], [-121.51209840551019, 47.4207931291312, 1135.45], [-121.51207895949483, 47.420902932062745, 1135.45], [-121.51198768056929, 47.421012315899134, 1135.45], [-121.51204166002572, 47.42109236307442, 1153.72], [-121.51191777549684, 47.421056823804975, 1154.2], [-121.51203562505543, 47.42106847465038, 1153.24], [-121.51206295005977, 47.42116562090814, 1152.28], [-121.51206177659333, 47.42123066447675, 1150.35], [-121.51209823787212, 47.421339796856046, 1148.43], [-121.51202229782939, 47.42139327339828, 1145.55], [-121.51208834722638, 47.42148270830512, 1143.14], [-121.51206973940134, 47.42154959589243, 1141.7], [-121.51204174384475, 47.42156434804201, 1143.63], [-121.51204031892121, 47.42161313071847, 1145.55], [-121.51206915266812, 47.42153878323734, 1146.99], [-121.51213050819933, 47.421548338606954, 1135.94], [-121.5120513830334, 47.42150282487273, 1139.3], [-121.5120685659349, 47.4215701315552, 1140.26], [-121.51208952069283, 47.421565437689424, 1140.26], [-121.51202078908682, 47.421524450182915, 1140.26], [-121.51207258924842, 47.42152746766806, 1143.14], [-121.51204484514892, 47.421560073271394, 1145.55], [-121.51206571608782, 47.42165118455887, 1146.99], [-121.51228934526443, 47.42165336385369, 1145.55], [-121.51220845989883, 47.42160198278725, 1142.18], [-121.51204526424408, 47.42153752595186, 1141.7], [-121.5120720025152, 47.421561079099774, 1141.7], [-121.5120564121753, 47.42149301804602, 1140.74], [-121.51203704997897, 47.42149285040796, 1129.69], [-121.51208398863673, 47.421427220106125, 1130.65], [-121.51208566501737, 47.42138002999127, 1133.53], [-121.51211206801236, 47.42127198725939, 1133.53], [-121.51212464086711, 47.42116453126073, 1134.97], [-121.51214408688247, 47.421119939535856, 1135.94], [-121.5120564121753, 47.421056907624006, 1136.9], [-121.51207024231553, 47.42096554487944, 1136.9], [-121.51215121150017, 47.42086848244071, 1136.9], [-121.51221432723105, 47.42077561095357, 1137.86], [-121.51220661588013, 47.42061727680266, 1139.78], [-121.51238087564707, 47.42053655907512, 1139.3], [-121.51250819675624, 47.42043111473322, 1139.78], [-121.51264222338796, 47.42033153772354, 1141.22], [-121.51275370270014, 47.420173455029726, 1140.26], [-121.5128780901432, 47.4200140312314, 1142.18], [-121.51300725527108, 47.41986332461238, 1141.22], [-121.5130609832704, 47.41972200572491, 1141.7], [-121.51307942345738, 47.419574903324246, 1140.74], [-121.51312426663935, 47.41940944455564, 1141.22], [-121.51310523971915, 47.41925404407084, 1142.18], [-121.51330439373851, 47.41897710599005, 1138.34], [-121.51331445202231, 47.41889211349189, 1137.86], [-121.51326273567975, 47.41887392476201, 1137.38], [-121.5132980234921, 47.41891105659306, 1135.94], [-121.51335569098592, 47.418795973062515, 1134.49], [-121.513382345438, 47.41859204135835, 1132.57], [-121.51342031545937, 47.4184962362051, 1132.57], [-121.51342710480094, 47.418361622840166, 1132.09], [-121.51345283724368, 47.418265314772725, 1131.13], [-121.51359591633081, 47.41815760731697, 1130.17], [-121.51374612003565, 47.418053252622485, 1128.24], [-121.51387235149741, 47.417932553216815, 1125.84], [-121.5139917936176, 47.417745385318995, 1123.92], [-121.51411802507937, 47.41747146472335, 1120.07], [-121.51416571810842, 47.41735948249698, 1118.15], [-121.51419572532177, 47.41715915501118, 1112.86], [-121.51421659626067, 47.4169522896409, 1111.9], [-121.51424040086567, 47.416774509474635, 1110.46], [-121.51419471949339, 47.41659387946129, 1106.61], [-121.51417250744998, 47.41643277928233, 1102.77], [-121.51401551440358, 47.416271762922406, 1096.04], [-121.51391543447971, 47.41617972962558, 1090.75], [-121.51377084665, 47.41603136993945, 1085.47], [-121.513612261042, 47.41592408157885, 1085.47], [-121.51349516585469, 47.4157783202827, 1084.5], [-121.51339827105403, 47.41563180461526, 1082.58], [-121.51321579702199, 47.41545896977186, 1080.18], [-121.51329576037824, 47.415359979495406, 1077.78], [-121.5133096743375, 47.41518219932914, 1077.78], [-121.51320749893785, 47.41503031924367, 1073.93], [-121.51311563327909, 47.41487391293049, 1071.53], [-121.51309124194086, 47.414644584059715, 1070.08], [-121.51308788917959, 47.41439966484904, 1068.64], [-121.51323616504669, 47.414294220507145, 1067.2], [-121.5134224947542, 47.414224902167916, 1065.28], [-121.5135966707021, 47.41415424272418, 1062.39], [-121.51380789466202, 47.41414493881166, 1059.99], [-121.51395776309073, 47.41422758437693, 1059.03], [-121.5140713378787, 47.414300087839365, 1058.07], [-121.51427283883095, 47.41422473452985, 1058.07], [-121.51443217881024, 47.414270332083106, 1059.03], [-121.51456595398486, 47.414224902167916, 1059.03], [-121.5146601665765, 47.414216520264745, 1059.03], [-121.51474390178919, 47.41415608674288, 1058.07], [-121.51483677327633, 47.41411023773253, 1058.07], [-121.5149968676269, 47.41401552222669, 1058.55], [-121.51515369303524, 47.41384604014456, 1057.59], [-121.5152738057077, 47.413742104545236, 1056.63], [-121.51560103520751, 47.413648227229714, 1052.78], [-121.51578828692436, 47.41366901434958, 1051.82], [-121.51596405543387, 47.41365208290517, 1050.38], [-121.51610981673002, 47.41364864632487, 1049.42], [-121.51621844619513, 47.4135556910187, 1047.97], [-121.51630444452167, 47.41353649646044, 1000.39], [-121.51601837016642, 47.41329459473491, 1002.79], [-121.51596380397677, 47.41325964219868, 1002.79], [-121.5158206410706, 47.41319887340069, 1004.23], [-121.51576423086226, 47.41313533857465, 1008.56], [-121.51575442403555, 47.413013046607375, 1010.0], [-121.51562450453639, 47.412996953353286, 1009.52], [-121.51559206657112, 47.4129132181406, 1010.48], [-121.5154942497611, 47.41284163668752, 1008.08], [-121.51536114513874, 47.412665113806725, 1001.83], [-121.51537296362221, 47.41255044937134, 999.91], [-121.51505855843425, 47.41252027451992, 1000.39], [-121.51492536999285, 47.412447184324265, 998.95], [-121.5147896669805, 47.4123346991837, 998.47], [-121.5146329253912, 47.41215532645583, 998.95], [-121.51464633643627, 47.412044098600745, 997.51], [-121.51474541053176, 47.41196287795901, 994.62], [-121.51485127396882, 47.41191434673965, 994.62], [-121.51478245854378, 47.411830695346, 996.06], [-121.51499795727432, 47.411803621798754, 996.06], [-121.51493777520955, 47.41158535704017, 994.62], [-121.51464633643627, 47.411488462239504, 993.18], [-121.51451013050973, 47.411474883556366, 992.22], [-121.51434735395014, 47.41140556521714, 988.37], [-121.51383287273347, 47.41125284694135, 983.57], [-121.51387461461127, 47.411133321002126, 982.12], [-121.5139888599515, 47.41096400655806, 978.76], [-121.5140665601939, 47.41081883199513, 972.99], [-121.51396220549941, 47.4108065944165, 971.55], [-121.51376171037555, 47.41084079258144, 973.95], [-121.51356163434684, 47.41095805540681, 975.88], [-121.5136654023081, 47.41084213368595, 970.59], [-121.51389137841761, 47.41066636517644, 969.63], [-121.51398936286569, 47.410493195056915, 971.55], [-121.51393110863864, 47.41029747761786, 970.59], [-121.5139677375555, 47.4100554920733, 970.11], [-121.51414669118822, 47.40984845906496, 969.63], [-121.51421961374581, 47.40966866724193, 966.74], [-121.51391627267003, 47.4096804857254, 961.94], [-121.51368007063866, 47.40971066057682, 954.25], [-121.51386019773781, 47.40962038747966, 951.36], [-121.51385625824332, 47.409483678638935, 948.48], [-121.51359893381596, 47.40953849628568, 945.59], [-121.51340858079493, 47.409657686948776, 946.07], [-121.51351427659392, 47.40945006720722, 944.15], [-121.51363556273282, 47.40923280827701, 937.9], [-121.51357588358223, 47.40910372696817, 935.02], [-121.51334973983467, 47.40928268060088, 933.1], [-121.51319274678826, 47.409483678638935, 931.17], [-121.51312443427742, 47.40938770584762, 931.65], [-121.5132908988744, 47.409211937338114, 932.14], [-121.51338309980929, 47.40901378914714, 931.65], [-121.5135535877198, 47.40890926681459, 931.65], [-121.51332660578191, 47.40875847637653, 929.25], [-121.51305452920496, 47.40851699374616, 925.41], [-121.51302301324904, 47.40838447585702, 926.37], [-121.51305209845304, 47.408230332657695, 923.48], [-121.51300750672817, 47.40829160436988, 928.29], [-121.51294682174921, 47.40829504095018, 923.96], [-121.51325175538659, 47.4081539735198, 925.89], [-121.51329886168242, 47.40790846757591, 926.37], [-121.5133873745799, 47.40786672569811, 927.33], [-121.5136125124991, 47.40770428441465, 935.5], [-121.51384100317955, 47.407436817884445, 935.98], [-121.51413428597152, 47.40722148679197, 916.75], [-121.51424475945532, 47.40722986869514, 918.68], [-121.51438297703862, 47.407100619748235, 920.6], [-121.5144807100296, 47.40688260644674, 922.52], [-121.51454986073077, 47.40679778158665, 922.52], [-121.5146744158119, 47.40675344131887, 922.52], [-121.51485538110137, 47.40662301890552, 923.0], [-121.51496702805161, 47.4066258687526, 922.52], [-121.51505294255912, 47.40652637556195, 921.08], [-121.51508797891438, 47.40645789541304, 919.64], [-121.51510851457715, 47.40624692291021, 918.68], [-121.51516911573708, 47.40600837394595, 918.68], [-121.51526877656579, 47.4057780392468, 916.75], [-121.51539727114141, 47.40561936981976, 916.75], [-121.51554680429399, 47.40552658215165, 913.39], [-121.51556658558547, 47.40546707063913, 910.51], [-121.51539475657046, 47.40544360131025, 905.7], [-121.51517003774643, 47.405545357614756, 900.89], [-121.51497272774577, 47.40565784275532, 901.37], [-121.51480601169169, 47.40583495236933, 898.49], [-121.5147949475795, 47.405790612101555, 898.49], [-121.51488488540053, 47.40556262433529, 898.01], [-121.51504078879952, 47.40531452000141, 895.61], [-121.51508806273341, 47.40513598546386, 895.12], [-121.51523977518082, 47.40503054112196, 889.84], [-121.51537966914475, 47.40501930937171, 884.55], [-121.51568669825792, 47.4050594586879, 878.78], [-121.51566616259515, 47.40500866435468, 879.74], [-121.51574788615108, 47.404981004074216, 883.11], [-121.51568661443889, 47.405061135068536, 886.95], [-121.5156723652035, 47.40504621528089, 896.57], [-121.5157468803227, 47.40503439679742, 896.09], [-121.51579071767628, 47.405063565820456, 896.57], [-121.51572818867862, 47.405066918581724, 902.33], [-121.51586866937578, 47.4050422757864, 900.41], [-121.51605801656842, 47.40513171069324, 899.93], [-121.5162701625377, 47.40520882420242, 898.49], [-121.51651147753, 47.40528652444482, 896.57], [-121.51669939979911, 47.405275627970695, 898.01], [-121.51683149859309, 47.40527596324682, 902.33], [-121.51691833510995, 47.405238412320614, 904.26], [-121.51681532151997, 47.405177894979715, 901.37], [-121.51669336482882, 47.40509441122413, 898.97], [-121.5168428979814, 47.40503313951194, 896.57], [-121.51689017191529, 47.40492853336036, 889.36], [-121.51694708503783, 47.40476215258241, 885.99], [-121.51696745306253, 47.40494253113866, 885.03], [-121.5172247774899, 47.40483448840678, 878.78], [-121.51734665036201, 47.404697528108954, 875.9], [-121.51737364009023, 47.40472334437072, 870.13], [-121.5172194968909, 47.40464254282415, 872.53], [-121.51732611469924, 47.40448814816773, 865.8], [-121.51755996979773, 47.40454338490963, 860.04], [-121.51774034835398, 47.40462385118008, 856.19], [-121.51776767335832, 47.40450759418309, 856.67], [-121.51767672970891, 47.40433182567358, 853.79], [-121.51769047603011, 47.404183465987444, 854.75], [-121.51784839108586, 47.403911305591464, 864.36], [-121.51796096004546, 47.40383259952068, 859.56], [-121.51808962225914, 47.40375280380249, 861.0], [-121.5180638898164, 47.40361467003822, 862.44], [-121.51815097779036, 47.4035416636616, 861.0], [-121.51829003356397, 47.403406547382474, 858.59], [-121.51820269413292, 47.40308434702456, 847.06], [-121.51806556619704, 47.40300036035478, 845.14], [-121.51782777160406, 47.40286239422858, 859.56], [-121.51769676245749, 47.402895921841264, 859.56], [-121.51747522875667, 47.40279223769903, 853.31], [-121.51742502115667, 47.40264052525163, 846.58], [-121.51769885793328, 47.40254748612642, 838.41], [-121.5179203916341, 47.40254555828869, 826.87], [-121.51802038773894, 47.402614541351795, 823.03], [-121.51832113042474, 47.40256525576115, 824.47], [-121.51859647594392, 47.4025019723922, 823.03], [-121.51884935796261, 47.4024554528296, 817.74], [-121.51915244758129, 47.402453776448965, 819.66], [-121.51928295381367, 47.4023706279695, 824.47], [-121.51952586136758, 47.40230893716216, 831.68], [-121.51962242089212, 47.40227909758687, 835.52], [-121.51971579529345, 47.40223408676684, 839.37], [-121.51970238424838, 47.402195781469345, 838.89], [-121.5195391047746, 47.40211598575115, 837.45], [-121.51943692937493, 47.40208555944264, 838.41], [-121.51934053748846, 47.40203040651977, 837.93], [-121.51923316530883, 47.40200936794281, 836.0], [-121.51896938681602, 47.40197843872011, 830.72], [-121.51873008348048, 47.401849860325456, 826.87], [-121.51854149065912, 47.401777021586895, 824.95], [-121.51831635273993, 47.40172354504466, 818.22], [-121.51817193254828, 47.401553224772215, 812.45], [-121.51814678683877, 47.40140587091446, 807.16], [-121.51814192533493, 47.40126974880695, 805.72], [-121.51835105381906, 47.401186767965555, 804.76], [-121.51837293058634, 47.40129011683166, 802.84], [-121.51841257698834, 47.401268323883414, 806.2], [-121.51836136355996, 47.40117243491113, 809.09], [-121.51849639602005, 47.40112105384469, 803.8], [-121.51868783868849, 47.40101728588343, 802.84], [-121.51889252476394, 47.40088694728911, 795.63], [-121.51904390193522, 47.40080145187676, 793.22], [-121.51921204291284, 47.40073557011783, 793.22], [-121.51945939287543, 47.40073858760297, 791.3], [-121.51962535455823, 47.40071293897927, 789.86], [-121.5199276059866, 47.40069785155356, 785.05], [-121.5201187133789, 47.4006749689579, 781.69], [-121.52036589570343, 47.400678070262074, 780.25], [-121.52058290317655, 47.40074931643903, 779.29], [-121.52076579630375, 47.40082886070013, 777.36], [-121.52086914516985, 47.40094754844904, 774.0], [-121.52093779295683, 47.40111032500863, 771.11], [-121.52110610157251, 47.401331858709455, 768.71], [-121.52131363749504, 47.401376785710454, 771.6], [-121.52163642458618, 47.401353400200605, 774.96], [-121.52199877426028, 47.40136882290244, 776.88], [-121.52235182002187, 47.401399752125144, 776.88], [-121.52257519774139, 47.401471585035324, 774.48], [-121.52263563126326, 47.4016594234854, 769.67], [-121.5226764511317, 47.401760844513774, 766.79], [-121.52272313833237, 47.40198656916618, 763.9], [-121.52281433343887, 47.40221220999956, 761.98], [-121.5227562468499, 47.40235327742994, 760.06], [-121.52261978946626, 47.40249367430806, 755.73], [-121.52258357964456, 47.40274412557483, 757.18], [-121.52281894348562, 47.40285560488701, 756.21], [-121.52308188378811, 47.402771450579166, 762.46], [-121.52316587045789, 47.40273255854845, 762.94], [-121.52336862869561, 47.40242896601558, 757.66], [-121.52349787764251, 47.40220885723829, 756.21], [-121.52361027896404, 47.40196242928505, 757.66], [-121.52371832169592, 47.401755983009934, 762.94], [-121.52381236664951, 47.40144057199359, 765.83], [-121.52361111715436, 47.401253152638674, 763.9], [-121.52344590984285, 47.40120017901063, 763.9], [-121.52338136918843, 47.40105022676289, 768.23], [-121.52350014075637, 47.40087663754821, 763.9], [-121.52363986708224, 47.400581343099475, 760.54], [-121.52384254150093, 47.40040867589414, 752.85], [-121.52391110546887, 47.40039492957294, 750.93], [-121.5240287873894, 47.400459218770266, 750.45], [-121.52410916984081, 47.400640435516834, 748.52], [-121.52405854314566, 47.400911590084434, 745.16], [-121.52412786148489, 47.40118307992816, 736.99], [-121.52449985034764, 47.4012656416744, 732.18], [-121.52468324638903, 47.401329008862376, 731.7], [-121.52483923360705, 47.40152061916888, 728.82], [-121.52496538124979, 47.40178397856653, 724.01], [-121.52517409063876, 47.40195220336318, 718.72], [-121.52539771981537, 47.402014061808586, 720.16], [-121.52564439922571, 47.40204256027937, 718.24], [-121.52596827596426, 47.40212093107402, 711.99], [-121.52618234977126, 47.402147417888045, 705.26], [-121.52672390453517, 47.402117662131786, 701.9], [-121.52703856118023, 47.40210374817252, 702.86], [-121.52724810875952, 47.40212964825332, 704.3], [-121.52749420143664, 47.402189411222935, 704.3], [-121.52775638736784, 47.40224448032677, 705.26], [-121.52788731269538, 47.402206007391214, 705.75], [-121.5281783323735, 47.40205932408571, 706.71], [-121.52839911170304, 47.40195471793413, 705.75], [-121.52870999649167, 47.40192814730108, 703.34], [-121.52890839613974, 47.40190593525767, 700.46], [-121.52923403307796, 47.40191783756018, 695.65], [-121.52941198088229, 47.40191993303597, 692.77], [-121.5296805370599, 47.40185430273414, 693.25], [-121.52990550734103, 47.40169554948807, 690.36], [-121.53014849871397, 47.401457000523806, 690.84], [-121.53035092167556, 47.40134476684034, 690.36], [-121.53066893108189, 47.401263965293765, 688.44], [-121.53086858801544, 47.40113144740462, 687.0], [-121.5307582821697, 47.40094989538193, 683.63], [-121.53057237155735, 47.40092030726373, 679.79], [-121.53053616173565, 47.40092542022467, 679.31], [-121.53024916537106, 47.40099499002099, 676.42], [-121.5300573874265, 47.40109724923968, 674.5], [-121.52979059144855, 47.40121400915086, 672.58], [-121.52950409799814, 47.40128978155553, 670.66], [-121.5292645432055, 47.40122448652983, 667.77], [-121.52895097620785, 47.40117344073951, 665.85], [-121.52892423793674, 47.40115801803768, 665.85], [-121.52875986881554, 47.40101368166506, 665.85], [-121.52856809087098, 47.400797344744205, 664.89], [-121.52823348529637, 47.40072039887309, 662.01], [-121.52800122275949, 47.40057220682502, 663.93], [-121.52821018360555, 47.400401551276445, 658.16], [-121.52846658602357, 47.40043885074556, 657.2], [-121.52875492349267, 47.40054689347744, 655.28], [-121.52890294790268, 47.40058436058462, 653.83], [-121.5291588474065, 47.40058243274689, 653.35], [-121.52943377383053, 47.40049006417394, 654.8], [-121.52949772775173, 47.40050691179931, 654.8], [-121.52952932752669, 47.400482688099146, 655.28], [-121.52953636832535, 47.40043641999364, 654.8], [-121.52944844216108, 47.40043516270816, 651.91], [-121.52947937138379, 47.400467433035374, 651.91]]}}