{"type": "Feature", "properties": {}, "geometry": {"type": "LineString", "coordinates": [[121.547113, 25.176245, 814.3], [121.547143, 25.176302, 814.5], [121.547104, 25.176526, 815.3], [121.547159, 25.176611, 815.5], [121.54723, 25.176649, 815.5], [121.547399, 25.176805, 815.6], [121.547562, 25.17689, 815.8], [121.54763, 25.176863, 815.7], [121.54776, 25.176724, 815.4], [121.547831, 25.176756, 815.4], [121.547934, 25.176857, 815.3], [121.548051, 25.17687, 815.4], [121.548155, 25.176778, 817.2], [121.5482, 25.176682, 818.6], [121.548325, 25.176655, 820.3], [121.548244, 25.176528, 823.0], [121.548173, 25.176471, 824.9], [121.54808, 25.176442, 827.2], [121.54802, 25.17635, 830.3], [121.548059, 25.176246, 833.5], [121.548167, 25.17613, 837.5], [121.548235, 25.175767, 848.1], [121.548254, 25.175735, 849.4], [121.548334, 25.17574, 852.4], [121.548358, 25.175691, 854.2], [121.548345, 25.175867, 859.9], [121.548397, 25.17577, 863.5], [121.54842, 25.17561, 869.8], [121.548446, 25.175611, 871.6], [121.548475, 25.175497, 876.0], [121.548525, 25.175426, 878.9], [121.548528, 25.175078, 886.2], [121.548544, 25.175055, 886.8], [121.548452, 25.174756, 891.4], [121.548516, 25.174598, 891.6], [121.548484, 25.174528, 891.3], [121.54846, 25.174355, 891.3], [121.548428, 25.17424, 891.9], [121.548541, 25.174111, 893.6], [121.548572, 25.173973, 896.7], [121.548611, 25.173971, 897.8], [121.548686, 25.17388, 901.6], [121.548646, 25.173749, 906.4], [121.54859, 25.173665, 909.6], [121.548596, 25.173546, 912.8], [121.548646, 25.173509, 914.1], [121.548757, 25.173519, 916.5], [121.548855, 25.173455, 919.8], [121.548928, 25.173445, 923.2], [121.548914, 25.173376, 925.9], [121.548995, 25.173346, 929.7], [121.548929, 25.173216, 936.2], [121.548925, 25.173167, 939.9], [121.549006, 25.173143, 943.7], [121.549022, 25.173071, 946.6], [121.549091, 25.172947, 951.0], [121.549006, 25.172798, 955.8], [121.54906, 25.172356, 969.9], [121.549018, 25.172461, 968.6], [121.549003, 25.172613, 965.9], [121.548909, 25.172725, 963.4], [121.548866, 25.172906, 961.7], [121.54889, 25.172982, 961.1], [121.548929, 25.172978, 960.3], [121.548981, 25.172835, 956.5], [121.549032, 25.17287, 954.1], [121.549096, 25.172981, 950.6], [121.54899, 25.173127, 944.6], [121.549027, 25.173165, 942.4], [121.548987, 25.173198, 940.3], [121.548911, 25.173184, 937.1], [121.548935, 25.173236, 934.7], [121.54893, 25.173408, 925.5], [121.548866, 25.173462, 922.2], [121.548768, 25.173487, 918.8], [121.548743, 25.17356, 915.4], [121.548662, 25.17355, 913.7], [121.548559, 25.173619, 910.9], [121.548526, 25.173698, 908.5], [121.54859, 25.173807, 904.2], [121.548682, 25.173874, 900.6], [121.548691, 25.173924, 899.0], [121.548631, 25.173957, 897.0], [121.54861, 25.174015, 894.9], [121.548544, 25.174013, 894.0], [121.548526, 25.174128, 892.7], [121.54854, 25.174193, 892.1], [121.548439, 25.174255, 891.4], [121.548433, 25.174378, 891.1], [121.548523, 25.174586, 891.7], [121.548498, 25.174801, 891.0], [121.548598, 25.175102, 886.0], [121.54855, 25.17514, 884.9], [121.548546, 25.175249, 882.7], [121.548571, 25.175296, 881.6], [121.548522, 25.175407, 878.9], [121.548533, 25.175504, 875.3], [121.548512, 25.175573, 872.2], [121.548407, 25.175674, 863.5], [121.548379, 25.175727, 859.6], [121.548345, 25.175925, 851.7], [121.54828, 25.175973, 848.1], [121.548201, 25.175979, 843.0], [121.548082, 25.176129, 837.5], [121.548067, 25.176198, 835.4], [121.548151, 25.176362, 829.3], [121.548167, 25.176475, 825.6], [121.548129, 25.176636, 821.4], [121.548102, 25.176852, 817.6], [121.548027, 25.176944, 815.6], [121.5478, 25.176828, 815.4], [121.547606, 25.176813, 815.7], [121.547563, 25.176743, 815.8], [121.54717, 25.176619, 815.5], [121.547146, 25.176626, 815.5]]}}