<?xml version="1.0" encoding="UTF-8"?>
<gpx xmlns="http://www.topografix.com/GPX/1/1" xmlns:topografix="http://www.topografix.com/GPX/Private/TopoGrafix/0/1" xmlns:xsi="http://www.w3.org/2001/XMLSchema-instance" xsi:schemaLocation="http://www.topografix.com/GPX/1/1 http://www.topografix.com/GPX/1/1/gpx.xsd http://www.topografix.com/GPX/Private/TopoGrafix/0/1 http://www.topografix.com/GPX/Private/TopoGrafix/0/1/topografix.xsd" version="1.1" creator="GaiaGPS for Android">
  <trk>
    <name>New Track 12/24/19 13:23:04</name>
    <number>35</number>
    <extensions>
      <topografix:color>c0c0c0</topografix:color>
    </extensions>
    <trkseg>
      <trkpt lat="37.81558" lon="-122.047184">
        <ele>284.3</ele>
        <time>2019-12-24T21:23:06Z</time>
      </trkpt>
      <trkpt lat="37.815557" lon="-122.047087">
        <ele>285.9</ele>
        <time>2019-12-24T21:23:11Z</time>
      </trkpt>
      <trkpt lat="37.815525" lon="-122.047047">
        <ele>285.5</ele>
        <time>2019-12-24T21:23:16Z</time>
      </trkpt>
      <trkpt lat="37.815534" lon="-122.047012">
        <ele>284.2</ele>
        <time>2019-12-24T21:23:24Z</time>
      </trkpt>
      <trkpt lat="37.815505" lon="-122.047011">
        <ele>281.5</ele>
        <time>2019-12-24T21:23:30Z</time>
      </trkpt>
      <trkpt lat="37.815494" lon="-122.046909">
        <ele>280.6</ele>
        <time>2019-12-24T21:23:36Z</time>
      </trkpt>
      <trkpt lat="37.815452" lon="-122.046831">
        <ele>280.6</ele>
        <time>2019-12-24T21:23:40Z</time>
      </trkpt>
      <trkpt lat="37.815402" lon="-122.046755">
        <ele>282.6</ele>
        <time>2019-12-24T21:23:45Z</time>
      </trkpt>
      <trkpt lat="37.815366" lon="-122.046655">
        <ele>282.3</ele>
        <time>2019-12-24T21:23:50Z</time>
      </trkpt>
      <trkpt lat="37.8153" lon="-122.046521">
        <ele>284.2</ele>
        <time>2019-12-24T21:23:57Z</time>
      </trkpt>
      <trkpt lat="37.815248" lon="-122.04645">
        <ele>286.9</ele>
        <time>2019-12-24T21:24:01Z</time>
      </trkpt>
      <trkpt lat="37.815237" lon="-122.04641">
        <ele>289.3</ele>
        <time>2019-12-24T21:24:03Z</time>
      </trkpt>
      <trkpt lat="37.815259" lon="-122.046357">
        <ele>292.2</ele>
        <time>2019-12-24T21:24:06Z</time>
      </trkpt>
      <trkpt lat="37.815274" lon="-122.046352">
        <ele>291.7</ele>
        <time>2019-12-24T21:24:07Z</time>
      </trkpt>
      <trkpt lat="37.815299" lon="-122.046359">
        <ele>292.3</ele>
        <time>2019-12-24T21:24:09Z</time>
      </trkpt>
      <trkpt lat="37.815348" lon="-122.046395">
        <ele>294.1</ele>
        <time>2019-12-24T21:24:13Z</time>
      </trkpt>
      <trkpt lat="37.815486" lon="-122.046469">
        <ele>295.9</ele>
        <time>2019-12-24T21:24:23Z</time>
      </trkpt>
      <trkpt lat="37.815632" lon="-122.046503">
        <ele>298.3</ele>
        <time>2019-12-24T21:24:33Z</time>
      </trkpt>
      <trkpt lat="37.815706" lon="-122.046493">
        <ele>300.4</ele>
        <time>2019-12-24T21:24:38Z</time>
      </trkpt>
      <trkpt lat="37.815723" lon="-122.046447">
        <ele>302.4</ele>
        <time>2019-12-24T21:24:40Z</time>
      </trkpt>
      <trkpt lat="37.815709" lon="-122.046393">
        <ele>303.0</ele>
        <time>2019-12-24T21:24:43Z</time>
      </trkpt>
      <trkpt lat="37.815698" lon="-122.046373">
        <ele>302.7</ele>
        <time>2019-12-24T21:24:44Z</time>
      </trkpt>
      <trkpt lat="37.815603" lon="-122.046244">
        <ele>306.9</ele>
        <time>2019-12-24T21:24:53Z</time>
      </trkpt>
      <trkpt lat="37.815529" lon="-122.046164">
        <ele>312.3</ele>
        <time>2019-12-24T21:25:00Z</time>
      </trkpt>
      <trkpt lat="37.815527" lon="-122.046135">
        <ele>312.8</ele>
        <time>2019-12-24T21:25:02Z</time>
      </trkpt>
      <trkpt lat="37.815546" lon="-122.046117">
        <ele>313.0</ele>
        <time>2019-12-24T21:25:04Z</time>
      </trkpt>
      <trkpt lat="37.815587" lon="-122.046101">
        <ele>313.6</ele>
        <time>2019-12-24T21:25:07Z</time>
      </trkpt>
      <trkpt lat="37.815593" lon="-122.046109">
        <ele>313.9</ele>
        <time>2019-12-24T21:25:08Z</time>
      </trkpt>
      <trkpt lat="37.815643" lon="-122.046106">
        <ele>315.5</ele>
        <time>2019-12-24T21:25:11Z</time>
      </trkpt>
      <trkpt lat="37.815687" lon="-122.046074">
        <ele>315.6</ele>
        <time>2019-12-24T21:25:15Z</time>
      </trkpt>
      <trkpt lat="37.815755" lon="-122.046053">
        <ele>316.7</ele>
        <time>2019-12-24T21:25:22Z</time>
      </trkpt>
      <trkpt lat="37.815874" lon="-122.046019">
        <ele>323.2</ele>
        <time>2019-12-24T21:25:33Z</time>
      </trkpt>
      <trkpt lat="37.815901" lon="-122.04599">
        <ele>324.4</ele>
        <time>2019-12-24T21:25:36Z</time>
      </trkpt>
      <trkpt lat="37.815907" lon="-122.045952">
        <ele>324.8</ele>
        <time>2019-12-24T21:25:38Z</time>
      </trkpt>
      <trkpt lat="37.815775" lon="-122.045781">
        <ele>327.6</ele>
        <time>2019-12-24T21:25:55Z</time>
      </trkpt>
      <trkpt lat="37.815723" lon="-122.045693">
        <ele>327.4</ele>
        <time>2019-12-24T21:26:02Z</time>
      </trkpt>
      <trkpt lat="37.815679" lon="-122.045637">
        <ele>328.3</ele>
        <time>2019-12-24T21:26:07Z</time>
      </trkpt>
      <trkpt lat="37.815653" lon="-122.045619">
        <ele>330.8</ele>
        <time>2019-12-24T21:26:10Z</time>
      </trkpt>
      <trkpt lat="37.815609" lon="-122.045609">
        <ele>328.9</ele>
        <time>2019-12-24T21:26:14Z</time>
      </trkpt>
      <trkpt lat="37.815515" lon="-122.045622">
        <ele>330.4</ele>
        <time>2019-12-24T21:26:21Z</time>
      </trkpt>
      <trkpt lat="37.815479" lon="-122.045609">
        <ele>329.8</ele>
        <time>2019-12-24T21:26:24Z</time>
      </trkpt>
      <trkpt lat="37.815459" lon="-122.045609">
        <ele>330.5</ele>
        <time>2019-12-24T21:26:26Z</time>
      </trkpt>
      <trkpt lat="37.815448" lon="-122.045588">
        <ele>331.0</ele>
        <time>2019-12-24T21:26:29Z</time>
      </trkpt>
      <trkpt lat="37.815511" lon="-122.045542">
        <ele>332.9</ele>
        <time>2019-12-24T21:26:33Z</time>
      </trkpt>
      <trkpt lat="37.815545" lon="-122.045497">
        <ele>335.5</ele>
        <time>2019-12-24T21:26:36Z</time>
      </trkpt>
      <trkpt lat="37.815554" lon="-122.045478">
        <ele>336.7</ele>
        <time>2019-12-24T21:26:37Z</time>
      </trkpt>
      <trkpt lat="37.815595" lon="-122.045425">
        <ele>340.1</ele>
        <time>2019-12-24T21:26:41Z</time>
      </trkpt>
      <trkpt lat="37.815655" lon="-122.045308">
        <ele>340.9</ele>
        <time>2019-12-24T21:26:51Z</time>
      </trkpt>
      <trkpt lat="37.815713" lon="-122.045311">
        <ele>343.0</ele>
        <time>2019-12-24T21:26:55Z</time>
      </trkpt>
      <trkpt lat="37.81576" lon="-122.045335">
        <ele>344.5</ele>
        <time>2019-12-24T21:26:58Z</time>
      </trkpt>
      <trkpt lat="37.815833" lon="-122.045285">
        <ele>343.5</ele>
        <time>2019-12-24T21:27:03Z</time>
      </trkpt>
      <trkpt lat="37.815869" lon="-122.045276">
        <ele>345.6</ele>
        <time>2019-12-24T21:27:06Z</time>
      </trkpt>
      <trkpt lat="37.815903" lon="-122.045291">
        <ele>345.0</ele>
        <time>2019-12-24T21:27:08Z</time>
      </trkpt>
      <trkpt lat="37.815983" lon="-122.045386">
        <ele>351.4</ele>
        <time>2019-12-24T21:27:14Z</time>
      </trkpt>
      <trkpt lat="37.816086" lon="-122.045455">
        <ele>352.9</ele>
        <time>2019-12-24T21:27:21Z</time>
      </trkpt>
      <trkpt lat="37.816138" lon="-122.04551">
        <ele>355.8</ele>
        <time>2019-12-24T21:27:25Z</time>
      </trkpt>
      <trkpt lat="37.816206" lon="-122.045568">
        <ele>357.4</ele>
        <time>2019-12-24T21:27:30Z</time>
      </trkpt>
      <trkpt lat="37.816274" lon="-122.045571">
        <ele>356.2</ele>
        <time>2019-12-24T21:27:35Z</time>
      </trkpt>
      <trkpt lat="37.81631" lon="-122.045568">
        <ele>358.5</ele>
        <time>2019-12-24T21:27:39Z</time>
      </trkpt>
      <trkpt lat="37.816403" lon="-122.045661">
        <ele>359.8</ele>
        <time>2019-12-24T21:27:47Z</time>
      </trkpt>
      <trkpt lat="37.816414" lon="-122.045676">
        <ele>361.0</ele>
        <time>2019-12-24T21:27:48Z</time>
      </trkpt>
      <trkpt lat="37.816461" lon="-122.045705">
        <ele>363.0</ele>
        <time>2019-12-24T21:27:51Z</time>
      </trkpt>
      <trkpt lat="37.816519" lon="-122.045676">
        <ele>362.2</ele>
        <time>2019-12-24T21:27:55Z</time>
      </trkpt>
      <trkpt lat="37.816562" lon="-122.045671">
        <ele>363.2</ele>
        <time>2019-12-24T21:27:57Z</time>
      </trkpt>
      <trkpt lat="37.816583" lon="-122.045664">
        <ele>360.6</ele>
        <time>2019-12-24T21:27:58Z</time>
      </trkpt>
      <trkpt lat="37.816703" lon="-122.045586">
        <ele>355.0</ele>
        <time>2019-12-24T21:28:03Z</time>
      </trkpt>
      <trkpt lat="37.816718" lon="-122.045543">
        <ele>352.7</ele>
        <time>2019-12-24T21:28:10Z</time>
      </trkpt>
      <trkpt lat="37.81688" lon="-122.045529">
        <ele>357.0</ele>
        <time>2019-12-24T21:28:18Z</time>
      </trkpt>
      <trkpt lat="37.816965" lon="-122.045556">
        <ele>360.1</ele>
        <time>2019-12-24T21:28:24Z</time>
      </trkpt>
      <trkpt lat="37.816975" lon="-122.045586">
        <ele>358.9</ele>
        <time>2019-12-24T21:28:42Z</time>
      </trkpt>
      <trkpt lat="37.817001" lon="-122.04558">
        <ele>356.2</ele>
        <time>2019-12-24T21:29:17Z</time>
      </trkpt>
      <trkpt lat="37.817033" lon="-122.045586">
        <ele>358.8</ele>
        <time>2019-12-24T21:29:19Z</time>
      </trkpt>
      <trkpt lat="37.817065" lon="-122.045567">
        <ele>356.4</ele>
        <time>2019-12-24T21:29:21Z</time>
      </trkpt>
      <trkpt lat="37.817092" lon="-122.04553">
        <ele>358.4</ele>
        <time>2019-12-24T21:29:24Z</time>
      </trkpt>
      <trkpt lat="37.817129" lon="-122.045489">
        <ele>361.3</ele>
        <time>2019-12-24T21:29:27Z</time>
      </trkpt>
      <trkpt lat="37.817156" lon="-122.045419">
        <ele>361.5</ele>
        <time>2019-12-24T21:29:31Z</time>
      </trkpt>
      <trkpt lat="37.817191" lon="-122.045395">
        <ele>361.8</ele>
        <time>2019-12-24T21:29:33Z</time>
      </trkpt>
      <trkpt lat="37.817272" lon="-122.045355">
        <ele>365.7</ele>
        <time>2019-12-24T21:29:38Z</time>
      </trkpt>
      <trkpt lat="37.817324" lon="-122.045263">
        <ele>366.3</ele>
        <time>2019-12-24T21:29:45Z</time>
      </trkpt>
      <trkpt lat="37.817333" lon="-122.045256">
        <ele>366.9</ele>
        <time>2019-12-24T21:29:46Z</time>
      </trkpt>
      <trkpt lat="37.817487" lon="-122.045199">
        <ele>368.7</ele>
        <time>2019-12-24T21:29:56Z</time>
      </trkpt>
      <trkpt lat="37.817543" lon="-122.045175">
        <ele>372.6</ele>
        <time>2019-12-24T21:30:01Z</time>
      </trkpt>
      <trkpt lat="37.817641" lon="-122.045231">
        <ele>376.5</ele>
        <time>2019-12-24T21:30:11Z</time>
      </trkpt>
      <trkpt lat="37.817671" lon="-122.045216">
        <ele>377.2</ele>
        <time>2019-12-24T21:30:15Z</time>
      </trkpt>
      <trkpt lat="37.817711" lon="-122.045109">
        <ele>379.4</ele>
        <time>2019-12-24T21:30:25Z</time>
      </trkpt>
      <trkpt lat="37.817727" lon="-122.045091">
        <ele>381.7</ele>
        <time>2019-12-24T21:30:27Z</time>
      </trkpt>
      <trkpt lat="37.817778" lon="-122.045079">
        <ele>385.0</ele>
        <time>2019-12-24T21:30:31Z</time>
      </trkpt>
      <trkpt lat="37.817794" lon="-122.04508">
        <ele>385.3</ele>
        <time>2019-12-24T21:30:32Z</time>
      </trkpt>
      <trkpt lat="37.817869" lon="-122.04516">
        <ele>384.6</ele>
        <time>2019-12-24T21:30:42Z</time>
      </trkpt>
      <trkpt lat="37.817888" lon="-122.045256">
        <ele>385.2</ele>
        <time>2019-12-24T21:30:49Z</time>
      </trkpt>
      <trkpt lat="37.817897" lon="-122.04533">
        <ele>386.4</ele>
        <time>2019-12-24T21:30:56Z</time>
      </trkpt>
      <trkpt lat="37.817919" lon="-122.045345">
        <ele>385.8</ele>
        <time>2019-12-24T21:30:58Z</time>
      </trkpt>
      <trkpt lat="37.818028" lon="-122.045338">
        <ele>386.0</ele>
        <time>2019-12-24T21:31:06Z</time>
      </trkpt>
      <trkpt lat="37.818144" lon="-122.045248">
        <ele>388.6</ele>
        <time>2019-12-24T21:31:19Z</time>
      </trkpt>
      <trkpt lat="37.818166" lon="-122.045244">
        <ele>389.1</ele>
        <time>2019-12-24T21:31:21Z</time>
      </trkpt>
      <trkpt lat="37.818197" lon="-122.045283">
        <ele>388.6</ele>
        <time>2019-12-24T21:31:26Z</time>
      </trkpt>
      <trkpt lat="37.818211" lon="-122.045344">
        <ele>390.4</ele>
        <time>2019-12-24T21:31:31Z</time>
      </trkpt>
      <trkpt lat="37.818226" lon="-122.045368">
        <ele>391.4</ele>
        <time>2019-12-24T21:31:34Z</time>
      </trkpt>
      <trkpt lat="37.818306" lon="-122.045444">
        <ele>396.0</ele>
        <time>2019-12-24T21:31:45Z</time>
      </trkpt>
      <trkpt lat="37.818315" lon="-122.045446">
        <ele>396.0</ele>
        <time>2019-12-24T21:31:46Z</time>
      </trkpt>
      <trkpt lat="37.818463" lon="-122.045523">
        <ele>402.3</ele>
        <time>2019-12-24T21:32:04Z</time>
      </trkpt>
      <trkpt lat="37.818477" lon="-122.045526">
        <ele>404.8</ele>
        <time>2019-12-24T21:32:05Z</time>
      </trkpt>
      <trkpt lat="37.818526" lon="-122.045495">
        <ele>405.5</ele>
        <time>2019-12-24T21:32:08Z</time>
      </trkpt>
      <trkpt lat="37.818549" lon="-122.045439">
        <ele>410.0</ele>
        <time>2019-12-24T21:32:13Z</time>
      </trkpt>
      <trkpt lat="37.818615" lon="-122.045389">
        <ele>411.0</ele>
        <time>2019-12-24T21:32:20Z</time>
      </trkpt>
      <trkpt lat="37.818631" lon="-122.045386">
        <ele>410.6</ele>
        <time>2019-12-24T21:32:21Z</time>
      </trkpt>
      <trkpt lat="37.818719" lon="-122.045391">
        <ele>412.8</ele>
        <time>2019-12-24T21:32:27Z</time>
      </trkpt>
      <trkpt lat="37.818776" lon="-122.045409">
        <ele>415.3</ele>
        <time>2019-12-24T21:32:36Z</time>
      </trkpt>
      <trkpt lat="37.818809" lon="-122.045445">
        <ele>416.6</ele>
        <time>2019-12-24T21:32:39Z</time>
      </trkpt>
      <trkpt lat="37.818848" lon="-122.0455">
        <ele>414.6</ele>
        <time>2019-12-24T21:32:44Z</time>
      </trkpt>
      <trkpt lat="37.818876" lon="-122.045591">
        <ele>404.1</ele>
        <time>2019-12-24T21:32:49Z</time>
      </trkpt>
      <trkpt lat="37.818892" lon="-122.045637">
        <ele>409.6</ele>
        <time>2019-12-24T21:32:52Z</time>
      </trkpt>
      <trkpt lat="37.818943" lon="-122.045669">
        <ele>414.7</ele>
        <time>2019-12-24T21:32:55Z</time>
      </trkpt>
      <trkpt lat="37.818967" lon="-122.045674">
        <ele>413.5</ele>
        <time>2019-12-24T21:32:57Z</time>
      </trkpt>
      <trkpt lat="37.819025" lon="-122.045665">
        <ele>414.8</ele>
        <time>2019-12-24T21:33:01Z</time>
      </trkpt>
      <trkpt lat="37.819072" lon="-122.045654">
        <ele>395.9</ele>
        <time>2019-12-24T21:33:06Z</time>
      </trkpt>
      <trkpt lat="37.819166" lon="-122.045675">
        <ele>408.0</ele>
        <time>2019-12-24T21:33:10Z</time>
      </trkpt>
      <trkpt lat="37.819244" lon="-122.045658">
        <ele>409.6</ele>
        <time>2019-12-24T21:33:15Z</time>
      </trkpt>
      <trkpt lat="37.819307" lon="-122.045666">
        <ele>411.3</ele>
        <time>2019-12-24T21:33:20Z</time>
      </trkpt>
      <trkpt lat="37.819415" lon="-122.045731">
        <ele>409.3</ele>
        <time>2019-12-24T21:33:32Z</time>
      </trkpt>
      <trkpt lat="37.819472" lon="-122.04578">
        <ele>407.6</ele>
        <time>2019-12-24T21:33:42Z</time>
      </trkpt>
      <trkpt lat="37.819551" lon="-122.045895">
        <ele>406.5</ele>
        <time>2019-12-24T21:33:57Z</time>
      </trkpt>
      <trkpt lat="37.819575" lon="-122.045923">
        <ele>408.4</ele>
        <time>2019-12-24T21:34:01Z</time>
      </trkpt>
      <trkpt lat="37.81962" lon="-122.045943">
        <ele>409.9</ele>
        <time>2019-12-24T21:34:05Z</time>
      </trkpt>
      <trkpt lat="37.819635" lon="-122.045937">
        <ele>410.6</ele>
        <time>2019-12-24T21:34:06Z</time>
      </trkpt>
      <trkpt lat="37.819701" lon="-122.045946">
        <ele>413.7</ele>
        <time>2019-12-24T21:34:11Z</time>
      </trkpt>
      <trkpt lat="37.819716" lon="-122.045951">
        <ele>413.4</ele>
        <time>2019-12-24T21:34:12Z</time>
      </trkpt>
      <trkpt lat="37.819866" lon="-122.04604">
        <ele>416.6</ele>
        <time>2019-12-24T21:34:24Z</time>
      </trkpt>
      <trkpt lat="37.819999" lon="-122.046127">
        <ele>389.2</ele>
        <time>2019-12-24T21:34:34Z</time>
      </trkpt>
      <trkpt lat="37.82006" lon="-122.046151">
        <ele>405.1</ele>
        <time>2019-12-24T21:34:41Z</time>
      </trkpt>
      <trkpt lat="37.820088" lon="-122.046182">
        <ele>403.2</ele>
        <time>2019-12-24T21:34:45Z</time>
      </trkpt>
      <trkpt lat="37.820132" lon="-122.046195">
        <ele>402.5</ele>
        <time>2019-12-24T21:34:49Z</time>
      </trkpt>
      <trkpt lat="37.820178" lon="-122.046248">
        <ele>409.5</ele>
        <time>2019-12-24T21:34:53Z</time>
      </trkpt>
      <trkpt lat="37.820234" lon="-122.04634">
        <ele>413.2</ele>
        <time>2019-12-24T21:35:00Z</time>
      </trkpt>
      <trkpt lat="37.820267" lon="-122.046425">
        <ele>413.0</ele>
        <time>2019-12-24T21:35:06Z</time>
      </trkpt>
      <trkpt lat="37.820271" lon="-122.046453">
        <ele>413.9</ele>
        <time>2019-12-24T21:35:06Z</time>
      </trkpt>
      <trkpt lat="37.82033" lon="-122.046662">
        <ele>400.6</ele>
        <time>2019-12-24T21:35:24Z</time>
      </trkpt>
      <trkpt lat="37.820372" lon="-122.046755">
        <ele>414.5</ele>
        <time>2019-12-24T21:35:30Z</time>
      </trkpt>
      <trkpt lat="37.820449" lon="-122.046819">
        <ele>402.4</ele>
        <time>2019-12-24T21:35:38Z</time>
      </trkpt>
      <trkpt lat="37.820632" lon="-122.046906">
        <ele>428.6</ele>
        <time>2019-12-24T21:35:52Z</time>
      </trkpt>
      <trkpt lat="37.820671" lon="-122.046918">
        <ele>439.9</ele>
        <time>2019-12-24T21:35:56Z</time>
      </trkpt>
      <trkpt lat="37.820714" lon="-122.046944">
        <ele>440.9</ele>
        <time>2019-12-24T21:36:01Z</time>
      </trkpt>
      <trkpt lat="37.820734" lon="-122.046975">
        <ele>443.9</ele>
        <time>2019-12-24T21:36:04Z</time>
      </trkpt>
      <trkpt lat="37.820783" lon="-122.04699">
        <ele>449.5</ele>
        <time>2019-12-24T21:36:11Z</time>
      </trkpt>
      <trkpt lat="37.820783" lon="-122.046962">
        <ele>447.8</ele>
        <time>2019-12-24T21:36:20Z</time>
      </trkpt>
      <trkpt lat="37.820821" lon="-122.046901">
        <ele>448.7</ele>
        <time>2019-12-24T21:36:24Z</time>
      </trkpt>
      <trkpt lat="37.820824" lon="-122.046803">
        <ele>446.6</ele>
        <time>2019-12-24T21:36:30Z</time>
      </trkpt>
      <trkpt lat="37.820829" lon="-122.046784">
        <ele>446.7</ele>
        <time>2019-12-24T21:36:31Z</time>
      </trkpt>
      <trkpt lat="37.820859" lon="-122.046748">
        <ele>447.4</ele>
        <time>2019-12-24T21:36:34Z</time>
      </trkpt>
      <trkpt lat="37.820892" lon="-122.046746">
        <ele>446.0</ele>
        <time>2019-12-24T21:36:36Z</time>
      </trkpt>
      <trkpt lat="37.82091" lon="-122.046723">
        <ele>448.1</ele>
        <time>2019-12-24T21:36:38Z</time>
      </trkpt>
      <trkpt lat="37.8209" lon="-122.04665">
        <ele>448.7</ele>
        <time>2019-12-24T21:36:42Z</time>
      </trkpt>
      <trkpt lat="37.820894" lon="-122.046636">
        <ele>448.5</ele>
        <time>2019-12-24T21:36:43Z</time>
      </trkpt>
      <trkpt lat="37.820892" lon="-122.046592">
        <ele>447.4</ele>
        <time>2019-12-24T21:36:45Z</time>
      </trkpt>
      <trkpt lat="37.820903" lon="-122.046578">
        <ele>446.7</ele>
        <time>2019-12-24T21:36:46Z</time>
      </trkpt>
      <trkpt lat="37.82096" lon="-122.046558">
        <ele>443.9</ele>
        <time>2019-12-24T21:36:49Z</time>
      </trkpt>
      <trkpt lat="37.820986" lon="-122.046536">
        <ele>443.0</ele>
        <time>2019-12-24T21:36:50Z</time>
      </trkpt>
      <trkpt lat="37.821031" lon="-122.046464">
        <ele>442.7</ele>
        <time>2019-12-24T21:36:53Z</time>
      </trkpt>
      <trkpt lat="37.821073" lon="-122.046424">
        <ele>442.6</ele>
        <time>2019-12-24T21:36:55Z</time>
      </trkpt>
      <trkpt lat="37.821083" lon="-122.046396">
        <ele>442.8</ele>
        <time>2019-12-24T21:36:56Z</time>
      </trkpt>
      <trkpt lat="37.821081" lon="-122.04637">
        <ele>444.0</ele>
        <time>2019-12-24T21:36:57Z</time>
      </trkpt>
      <trkpt lat="37.821046" lon="-122.046313">
        <ele>444.9</ele>
        <time>2019-12-24T21:37:00Z</time>
      </trkpt>
      <trkpt lat="37.821042" lon="-122.046249">
        <ele>447.1</ele>
        <time>2019-12-24T21:37:02Z</time>
      </trkpt>
      <trkpt lat="37.821045" lon="-122.04622">
        <ele>447.4</ele>
        <time>2019-12-24T21:37:03Z</time>
      </trkpt>
      <trkpt lat="37.821057" lon="-122.046171">
        <ele>449.0</ele>
        <time>2019-12-24T21:37:05Z</time>
      </trkpt>
      <trkpt lat="37.821055" lon="-122.046133">
        <ele>449.7</ele>
        <time>2019-12-24T21:37:08Z</time>
      </trkpt>
      <trkpt lat="37.821142" lon="-122.045986">
        <ele>447.5</ele>
        <time>2019-12-24T21:37:13Z</time>
      </trkpt>
      <trkpt lat="37.821156" lon="-122.045954">
        <ele>448.2</ele>
        <time>2019-12-24T21:37:14Z</time>
      </trkpt>
      <trkpt lat="37.821232" lon="-122.045825">
        <ele>451.0</ele>
        <time>2019-12-24T21:37:19Z</time>
      </trkpt>
      <trkpt lat="37.821228" lon="-122.045685">
        <ele>454.2</ele>
        <time>2019-12-24T21:37:25Z</time>
      </trkpt>
      <trkpt lat="37.821237" lon="-122.04558">
        <ele>450.1</ele>
        <time>2019-12-24T21:37:29Z</time>
      </trkpt>
      <trkpt lat="37.821197" lon="-122.045459">
        <ele>452.4</ele>
        <time>2019-12-24T21:37:35Z</time>
      </trkpt>
      <trkpt lat="37.821168" lon="-122.045405">
        <ele>451.8</ele>
        <time>2019-12-24T21:37:38Z</time>
      </trkpt>
      <trkpt lat="37.821197" lon="-122.045312">
        <ele>452.0</ele>
        <time>2019-12-24T21:37:42Z</time>
      </trkpt>
      <trkpt lat="37.821173" lon="-122.045243">
        <ele>454.4</ele>
        <time>2019-12-24T21:37:45Z</time>
      </trkpt>
      <trkpt lat="37.821165" lon="-122.045158">
        <ele>455.8</ele>
        <time>2019-12-24T21:37:48Z</time>
      </trkpt>
      <trkpt lat="37.821109" lon="-122.045062">
        <ele>458.3</ele>
        <time>2019-12-24T21:37:52Z</time>
      </trkpt>
      <trkpt lat="37.821118" lon="-122.045004">
        <ele>458.3</ele>
        <time>2019-12-24T21:37:54Z</time>
      </trkpt>
      <trkpt lat="37.821134" lon="-122.044974">
        <ele>458.3</ele>
        <time>2019-12-24T21:37:55Z</time>
      </trkpt>
      <trkpt lat="37.821194" lon="-122.044796">
        <ele>456.2</ele>
        <time>2019-12-24T21:38:00Z</time>
      </trkpt>
      <trkpt lat="37.821197" lon="-122.044765">
        <ele>456.5</ele>
        <time>2019-12-24T21:38:01Z</time>
      </trkpt>
      <trkpt lat="37.82118" lon="-122.044678">
        <ele>452.9</ele>
        <time>2019-12-24T21:38:04Z</time>
      </trkpt>
      <trkpt lat="37.821171" lon="-122.044651">
        <ele>452.0</ele>
        <time>2019-12-24T21:38:05Z</time>
      </trkpt>
      <trkpt lat="37.821137" lon="-122.044575">
        <ele>451.8</ele>
        <time>2019-12-24T21:38:08Z</time>
      </trkpt>
      <trkpt lat="37.821129" lon="-122.044457">
        <ele>447.7</ele>
        <time>2019-12-24T21:38:12Z</time>
      </trkpt>
      <trkpt lat="37.821106" lon="-122.044389">
        <ele>449.3</ele>
        <time>2019-12-24T21:38:14Z</time>
      </trkpt>
      <trkpt lat="37.821044" lon="-122.044258">
        <ele>410.4</ele>
        <time>2019-12-24T21:38:18Z</time>
      </trkpt>
      <trkpt lat="37.820964" lon="-122.044141">
        <ele>444.1</ele>
        <time>2019-12-24T21:38:24Z</time>
      </trkpt>
      <trkpt lat="37.820954" lon="-122.04412">
        <ele>449.9</ele>
        <time>2019-12-24T21:38:25Z</time>
      </trkpt>
      <trkpt lat="37.820853" lon="-122.043936">
        <ele>453.8</ele>
        <time>2019-12-24T21:38:34Z</time>
      </trkpt>
      <trkpt lat="37.820793" lon="-122.04379">
        <ele>459.9</ele>
        <time>2019-12-24T21:38:42Z</time>
      </trkpt>
      <trkpt lat="37.820793" lon="-122.043721">
        <ele>458.0</ele>
        <time>2019-12-24T21:38:45Z</time>
      </trkpt>
      <trkpt lat="37.820798" lon="-122.043685">
        <ele>459.1</ele>
        <time>2019-12-24T21:38:46Z</time>
      </trkpt>
      <trkpt lat="37.820795" lon="-122.043618">
        <ele>455.2</ele>
        <time>2019-12-24T21:38:50Z</time>
      </trkpt>
      <trkpt lat="37.820804" lon="-122.043543">
        <ele>454.2</ele>
        <time>2019-12-24T21:38:54Z</time>
      </trkpt>
      <trkpt lat="37.820767" lon="-122.043481">
        <ele>456.2</ele>
        <time>2019-12-24T21:38:57Z</time>
      </trkpt>
      <trkpt lat="37.82075" lon="-122.043459">
        <ele>457.7</ele>
        <time>2019-12-24T21:38:58Z</time>
      </trkpt>
      <trkpt lat="37.820726" lon="-122.043412">
        <ele>458.9</ele>
        <time>2019-12-24T21:39:00Z</time>
      </trkpt>
      <trkpt lat="37.820731" lon="-122.043318">
        <ele>457.1</ele>
        <time>2019-12-24T21:39:06Z</time>
      </trkpt>
      <trkpt lat="37.820707" lon="-122.043265">
        <ele>454.7</ele>
        <time>2019-12-24T21:39:10Z</time>
      </trkpt>
      <trkpt lat="37.8207" lon="-122.043171">
        <ele>456.8</ele>
        <time>2019-12-24T21:39:15Z</time>
      </trkpt>
      <trkpt lat="37.820722" lon="-122.043108">
        <ele>455.8</ele>
        <time>2019-12-24T21:39:18Z</time>
      </trkpt>
      <trkpt lat="37.820729" lon="-122.043057">
        <ele>455.0</ele>
        <time>2019-12-24T21:39:20Z</time>
      </trkpt>
      <trkpt lat="37.820722" lon="-122.042981">
        <ele>455.4</ele>
        <time>2019-12-24T21:39:23Z</time>
      </trkpt>
      <trkpt lat="37.820674" lon="-122.042922">
        <ele>457.8</ele>
        <time>2019-12-24T21:39:28Z</time>
      </trkpt>
      <trkpt lat="37.820668" lon="-122.042845">
        <ele>459.8</ele>
        <time>2019-12-24T21:39:31Z</time>
      </trkpt>
      <trkpt lat="37.820659" lon="-122.042818">
        <ele>460.3</ele>
        <time>2019-12-24T21:39:32Z</time>
      </trkpt>
      <trkpt lat="37.820578" lon="-122.04267">
        <ele>465.2</ele>
        <time>2019-12-24T21:39:39Z</time>
      </trkpt>
      <trkpt lat="37.820468" lon="-122.042589">
        <ele>461.5</ele>
        <time>2019-12-24T21:39:47Z</time>
      </trkpt>
      <trkpt lat="37.820413" lon="-122.042472">
        <ele>464.0</ele>
        <time>2019-12-24T21:39:54Z</time>
      </trkpt>
      <trkpt lat="37.820401" lon="-122.04245">
        <ele>464.3</ele>
        <time>2019-12-24T21:39:55Z</time>
      </trkpt>
      <trkpt lat="37.820304" lon="-122.042295">
        <ele>469.8</ele>
        <time>2019-12-24T21:40:04Z</time>
      </trkpt>
      <trkpt lat="37.820279" lon="-122.042182">
        <ele>462.7</ele>
        <time>2019-12-24T21:40:10Z</time>
      </trkpt>
      <trkpt lat="37.82026" lon="-122.04215">
        <ele>466.3</ele>
        <time>2019-12-24T21:40:12Z</time>
      </trkpt>
      <trkpt lat="37.820221" lon="-122.042122">
        <ele>471.7</ele>
        <time>2019-12-24T21:40:15Z</time>
      </trkpt>
      <trkpt lat="37.820154" lon="-122.042033">
        <ele>475.0</ele>
        <time>2019-12-24T21:40:27Z</time>
      </trkpt>
      <trkpt lat="37.820122" lon="-122.04195">
        <ele>474.9</ele>
        <time>2019-12-24T21:40:34Z</time>
      </trkpt>
      <trkpt lat="37.820115" lon="-122.04194">
        <ele>475.7</ele>
        <time>2019-12-24T21:40:35Z</time>
      </trkpt>
      <trkpt lat="37.820068" lon="-122.041906">
        <ele>479.3</ele>
        <time>2019-12-24T21:40:44Z</time>
      </trkpt>
      <trkpt lat="37.820037" lon="-122.041851">
        <ele>479.6</ele>
        <time>2019-12-24T21:40:48Z</time>
      </trkpt>
      <trkpt lat="37.819992" lon="-122.041823">
        <ele>478.3</ele>
        <time>2019-12-24T21:40:51Z</time>
      </trkpt>
      <trkpt lat="37.819982" lon="-122.041804">
        <ele>477.7</ele>
        <time>2019-12-24T21:40:52Z</time>
      </trkpt>
      <trkpt lat="37.819965" lon="-122.041698">
        <ele>478.6</ele>
        <time>2019-12-24T21:40:57Z</time>
      </trkpt>
      <trkpt lat="37.819775" lon="-122.041481">
        <ele>476.3</ele>
        <time>2019-12-24T21:41:06Z</time>
      </trkpt>
      <trkpt lat="37.819726" lon="-122.04141">
        <ele>473.6</ele>
        <time>2019-12-24T21:41:11Z</time>
      </trkpt>
      <trkpt lat="37.819714" lon="-122.041401">
        <ele>473.8</ele>
        <time>2019-12-24T21:41:12Z</time>
      </trkpt>
      <trkpt lat="37.819666" lon="-122.041344">
        <ele>473.6</ele>
        <time>2019-12-24T21:41:16Z</time>
      </trkpt>
      <trkpt lat="37.819613" lon="-122.041311">
        <ele>480.0</ele>
        <time>2019-12-24T21:41:38Z</time>
      </trkpt>
      <trkpt lat="37.819608" lon="-122.041253">
        <ele>477.9</ele>
        <time>2019-12-24T21:41:41Z</time>
      </trkpt>
      <trkpt lat="37.819595" lon="-122.041212">
        <ele>477.7</ele>
        <time>2019-12-24T21:41:44Z</time>
      </trkpt>
      <trkpt lat="37.819491" lon="-122.041136">
        <ele>477.6</ele>
        <time>2019-12-24T21:41:51Z</time>
      </trkpt>
      <trkpt lat="37.819356" lon="-122.041006">
        <ele>481.2</ele>
        <time>2019-12-24T21:42:01Z</time>
      </trkpt>
      <trkpt lat="37.819319" lon="-122.040975">
        <ele>465.0</ele>
        <time>2019-12-24T21:42:16Z</time>
      </trkpt>
      <trkpt lat="37.819269" lon="-122.040866">
        <ele>469.2</ele>
        <time>2019-12-24T21:42:18Z</time>
      </trkpt>
      <trkpt lat="37.819276" lon="-122.040838">
        <ele>474.4</ele>
        <time>2019-12-24T21:42:20Z</time>
      </trkpt>
      <trkpt lat="37.819259" lon="-122.040813">
        <ele>475.9</ele>
        <time>2019-12-24T21:42:21Z</time>
      </trkpt>
      <trkpt lat="37.81927" lon="-122.040774">
        <ele>467.1</ele>
        <time>2019-12-24T21:42:24Z</time>
      </trkpt>
      <trkpt lat="37.81927" lon="-122.040745">
        <ele>472.7</ele>
        <time>2019-12-24T21:42:26Z</time>
      </trkpt>
      <trkpt lat="37.81937" lon="-122.040722">
        <ele>473.6</ele>
        <time>2019-12-24T21:42:34Z</time>
      </trkpt>
      <trkpt lat="37.819394" lon="-122.040683">
        <ele>473.4</ele>
        <time>2019-12-24T21:42:36Z</time>
      </trkpt>
      <trkpt lat="37.819393" lon="-122.040654">
        <ele>475.0</ele>
        <time>2019-12-24T21:42:37Z</time>
      </trkpt>
      <trkpt lat="37.819384" lon="-122.040637">
        <ele>474.7</ele>
        <time>2019-12-24T21:42:38Z</time>
      </trkpt>
      <trkpt lat="37.819317" lon="-122.040579">
        <ele>474.9</ele>
        <time>2019-12-24T21:42:42Z</time>
      </trkpt>
      <trkpt lat="37.819295" lon="-122.04057">
        <ele>474.6</ele>
        <time>2019-12-24T21:42:43Z</time>
      </trkpt>
      <trkpt lat="37.819251" lon="-122.040576">
        <ele>470.5</ele>
        <time>2019-12-24T21:42:46Z</time>
      </trkpt>
      <trkpt lat="37.819238" lon="-122.040569">
        <ele>470.5</ele>
        <time>2019-12-24T21:42:47Z</time>
      </trkpt>
      <trkpt lat="37.819236" lon="-122.040552">
        <ele>468.3</ele>
        <time>2019-12-24T21:42:48Z</time>
      </trkpt>
      <trkpt lat="37.819257" lon="-122.040525">
        <ele>465.7</ele>
        <time>2019-12-24T21:42:50Z</time>
      </trkpt>
      <trkpt lat="37.819294" lon="-122.040517">
        <ele>466.1</ele>
        <time>2019-12-24T21:42:52Z</time>
      </trkpt>
      <trkpt lat="37.819359" lon="-122.040529">
        <ele>464.9</ele>
        <time>2019-12-24T21:42:55Z</time>
      </trkpt>
      <trkpt lat="37.819373" lon="-122.040526">
        <ele>464.8</ele>
        <time>2019-12-24T21:42:56Z</time>
      </trkpt>
      <trkpt lat="37.81939" lon="-122.040506">
        <ele>463.7</ele>
        <time>2019-12-24T21:42:57Z</time>
      </trkpt>
      <trkpt lat="37.819393" lon="-122.04048">
        <ele>464.3</ele>
        <time>2019-12-24T21:42:58Z</time>
      </trkpt>
      <trkpt lat="37.819383" lon="-122.040455">
        <ele>463.3</ele>
        <time>2019-12-24T21:42:59Z</time>
      </trkpt>
      <trkpt lat="37.819345" lon="-122.040416">
        <ele>463.3</ele>
        <time>2019-12-24T21:43:01Z</time>
      </trkpt>
      <trkpt lat="37.819253" lon="-122.040351">
        <ele>459.8</ele>
        <time>2019-12-24T21:43:05Z</time>
      </trkpt>
      <trkpt lat="37.819236" lon="-122.040389">
        <ele>468.5</ele>
        <time>2019-12-24T21:43:08Z</time>
      </trkpt>
      <trkpt lat="37.819358" lon="-122.040324">
        <ele>462.2</ele>
        <time>2019-12-24T21:43:13Z</time>
      </trkpt>
      <trkpt lat="37.819369" lon="-122.040302">
        <ele>460.9</ele>
        <time>2019-12-24T21:43:14Z</time>
      </trkpt>
      <trkpt lat="37.81937" lon="-122.040278">
        <ele>459.9</ele>
        <time>2019-12-24T21:43:15Z</time>
      </trkpt>
      <trkpt lat="37.819281" lon="-122.040233">
        <ele>459.4</ele>
        <time>2019-12-24T21:43:18Z</time>
      </trkpt>
      <trkpt lat="37.81926" lon="-122.040219">
        <ele>458.6</ele>
        <time>2019-12-24T21:43:19Z</time>
      </trkpt>
      <trkpt lat="37.819231" lon="-122.040182">
        <ele>462.7</ele>
        <time>2019-12-24T21:43:21Z</time>
      </trkpt>
      <trkpt lat="37.819242" lon="-122.040154">
        <ele>457.0</ele>
        <time>2019-12-24T21:43:24Z</time>
      </trkpt>
      <trkpt lat="37.819267" lon="-122.040129">
        <ele>457.2</ele>
        <time>2019-12-24T21:43:26Z</time>
      </trkpt>
      <trkpt lat="37.819315" lon="-122.040102">
        <ele>455.2</ele>
        <time>2019-12-24T21:43:28Z</time>
      </trkpt>
      <trkpt lat="37.819432" lon="-122.040073">
        <ele>453.1</ele>
        <time>2019-12-24T21:43:29Z</time>
      </trkpt>
      <trkpt lat="37.819374" lon="-122.040061">
        <ele>449.2</ele>
        <time>2019-12-24T21:43:30Z</time>
      </trkpt>
      <trkpt lat="37.819332" lon="-122.040043">
        <ele>448.0</ele>
        <time>2019-12-24T21:43:31Z</time>
      </trkpt>
      <trkpt lat="37.81933" lon="-122.040021">
        <ele>447.4</ele>
        <time>2019-12-24T21:43:32Z</time>
      </trkpt>
      <trkpt lat="37.819313" lon="-122.04">
        <ele>446.4</ele>
        <time>2019-12-24T21:43:34Z</time>
      </trkpt>
      <trkpt lat="37.819274" lon="-122.039903">
        <ele>443.4</ele>
        <time>2019-12-24T21:43:38Z</time>
      </trkpt>
      <trkpt lat="37.819282" lon="-122.039847">
        <ele>443.4</ele>
        <time>2019-12-24T21:43:42Z</time>
      </trkpt>
      <trkpt lat="37.819263" lon="-122.039822">
        <ele>439.9</ele>
        <time>2019-12-24T21:43:46Z</time>
      </trkpt>
      <trkpt lat="37.819227" lon="-122.039825">
        <ele>439.4</ele>
        <time>2019-12-24T21:43:48Z</time>
      </trkpt>
      <trkpt lat="37.81912" lon="-122.039852">
        <ele>441.7</ele>
        <time>2019-12-24T21:43:53Z</time>
      </trkpt>
      <trkpt lat="37.819078" lon="-122.039841">
        <ele>443.1</ele>
        <time>2019-12-24T21:43:57Z</time>
      </trkpt>
      <trkpt lat="37.818995" lon="-122.039883">
        <ele>444.0</ele>
        <time>2019-12-24T21:44:03Z</time>
      </trkpt>
      <trkpt lat="37.818949" lon="-122.039887">
        <ele>446.2</ele>
        <time>2019-12-24T21:44:06Z</time>
      </trkpt>
      <trkpt lat="37.818876" lon="-122.039937">
        <ele>451.2</ele>
        <time>2019-12-24T21:44:10Z</time>
      </trkpt>
      <trkpt lat="37.81883" lon="-122.03995">
        <ele>444.6</ele>
        <time>2019-12-24T21:44:18Z</time>
      </trkpt>
      <trkpt lat="37.818813" lon="-122.039973">
        <ele>444.7</ele>
        <time>2019-12-24T21:44:20Z</time>
      </trkpt>
      <trkpt lat="37.818764" lon="-122.039986">
        <ele>429.9</ele>
        <time>2019-12-24T21:44:27Z</time>
      </trkpt>
      <trkpt lat="37.818726" lon="-122.040053">
        <ele>437.4</ele>
        <time>2019-12-24T21:44:32Z</time>
      </trkpt>
      <trkpt lat="37.818673" lon="-122.040101">
        <ele>435.5</ele>
        <time>2019-12-24T21:44:36Z</time>
      </trkpt>
      <trkpt lat="37.818643" lon="-122.040109">
        <ele>434.6</ele>
        <time>2019-12-24T21:44:38Z</time>
      </trkpt>
      <trkpt lat="37.818627" lon="-122.0401">
        <ele>434.6</ele>
        <time>2019-12-24T21:44:39Z</time>
      </trkpt>
      <trkpt lat="37.818603" lon="-122.040069">
        <ele>434.2</ele>
        <time>2019-12-24T21:44:40Z</time>
      </trkpt>
      <trkpt lat="37.818562" lon="-122.039993">
        <ele>431.6</ele>
        <time>2019-12-24T21:44:46Z</time>
      </trkpt>
      <trkpt lat="37.818529" lon="-122.04">
        <ele>433.6</ele>
        <time>2019-12-24T21:44:49Z</time>
      </trkpt>
      <trkpt lat="37.818468" lon="-122.040043">
        <ele>429.7</ele>
        <time>2019-12-24T21:44:55Z</time>
      </trkpt>
      <trkpt lat="37.818383" lon="-122.04003">
        <ele>429.0</ele>
        <time>2019-12-24T21:45:03Z</time>
      </trkpt>
      <trkpt lat="37.818309" lon="-122.040061">
        <ele>426.7</ele>
        <time>2019-12-24T21:45:06Z</time>
      </trkpt>
      <trkpt lat="37.818285" lon="-122.04009">
        <ele>426.6</ele>
        <time>2019-12-24T21:45:09Z</time>
      </trkpt>
      <trkpt lat="37.818278" lon="-122.040109">
        <ele>426.8</ele>
        <time>2019-12-24T21:45:10Z</time>
      </trkpt>
      <trkpt lat="37.818267" lon="-122.040171">
        <ele>426.8</ele>
        <time>2019-12-24T21:45:14Z</time>
      </trkpt>
      <trkpt lat="37.818242" lon="-122.04021">
        <ele>428.2</ele>
        <time>2019-12-24T21:45:16Z</time>
      </trkpt>
      <trkpt lat="37.818179" lon="-122.040221">
        <ele>424.2</ele>
        <time>2019-12-24T21:45:20Z</time>
      </trkpt>
      <trkpt lat="37.817989" lon="-122.040219">
        <ele>415.3</ele>
        <time>2019-12-24T21:45:36Z</time>
      </trkpt>
      <trkpt lat="37.81798" lon="-122.040224">
        <ele>415.7</ele>
        <time>2019-12-24T21:45:37Z</time>
      </trkpt>
      <trkpt lat="37.817957" lon="-122.04026">
        <ele>416.9</ele>
        <time>2019-12-24T21:45:40Z</time>
      </trkpt>
      <trkpt lat="37.817925" lon="-122.040256">
        <ele>415.2</ele>
        <time>2019-12-24T21:45:42Z</time>
      </trkpt>
      <trkpt lat="37.817909" lon="-122.040242">
        <ele>415.4</ele>
        <time>2019-12-24T21:45:44Z</time>
      </trkpt>
      <trkpt lat="37.817855" lon="-122.040271">
        <ele>415.2</ele>
        <time>2019-12-24T21:45:48Z</time>
      </trkpt>
      <trkpt lat="37.817806" lon="-122.04026">
        <ele>412.8</ele>
        <time>2019-12-24T21:45:52Z</time>
      </trkpt>
      <trkpt lat="37.8177" lon="-122.040266">
        <ele>410.6</ele>
        <time>2019-12-24T21:45:59Z</time>
      </trkpt>
      <trkpt lat="37.817655" lon="-122.04028">
        <ele>408.7</ele>
        <time>2019-12-24T21:46:03Z</time>
      </trkpt>
      <trkpt lat="37.817629" lon="-122.040271">
        <ele>409.6</ele>
        <time>2019-12-24T21:46:21Z</time>
      </trkpt>
      <trkpt lat="37.81761" lon="-122.040284">
        <ele>409.0</ele>
        <time>2019-12-24T21:46:23Z</time>
      </trkpt>
      <trkpt lat="37.817558" lon="-122.040293">
        <ele>407.3</ele>
        <time>2019-12-24T21:46:27Z</time>
      </trkpt>
      <trkpt lat="37.817507" lon="-122.040329">
        <ele>407.1</ele>
        <time>2019-12-24T21:46:31Z</time>
      </trkpt>
      <trkpt lat="37.817492" lon="-122.040336">
        <ele>406.8</ele>
        <time>2019-12-24T21:46:32Z</time>
      </trkpt>
      <trkpt lat="37.81745" lon="-122.040371">
        <ele>406.2</ele>
        <time>2019-12-24T21:46:36Z</time>
      </trkpt>
      <trkpt lat="37.817416" lon="-122.040482">
        <ele>404.3</ele>
        <time>2019-12-24T21:46:43Z</time>
      </trkpt>
      <trkpt lat="37.817413" lon="-122.040511">
        <ele>403.4</ele>
        <time>2019-12-24T21:46:45Z</time>
      </trkpt>
      <trkpt lat="37.817445" lon="-122.0406">
        <ele>403.6</ele>
        <time>2019-12-24T21:46:51Z</time>
      </trkpt>
      <trkpt lat="37.81739" lon="-122.040676">
        <ele>407.3</ele>
        <time>2019-12-24T21:46:57Z</time>
      </trkpt>
      <trkpt lat="37.817343" lon="-122.040697">
        <ele>407.6</ele>
        <time>2019-12-24T21:46:59Z</time>
      </trkpt>
      <trkpt lat="37.817293" lon="-122.04075">
        <ele>407.8</ele>
        <time>2019-12-24T21:47:04Z</time>
      </trkpt>
      <trkpt lat="37.817257" lon="-122.040821">
        <ele>408.0</ele>
        <time>2019-12-24T21:47:09Z</time>
      </trkpt>
      <trkpt lat="37.817175" lon="-122.040878">
        <ele>408.1</ele>
        <time>2019-12-24T21:47:16Z</time>
      </trkpt>
      <trkpt lat="37.817115" lon="-122.040939">
        <ele>409.9</ele>
        <time>2019-12-24T21:47:20Z</time>
      </trkpt>
      <trkpt lat="37.817061" lon="-122.041035">
        <ele>410.8</ele>
        <time>2019-12-24T21:47:26Z</time>
      </trkpt>
      <trkpt lat="37.817071" lon="-122.041084">
        <ele>409.4</ele>
        <time>2019-12-24T21:47:29Z</time>
      </trkpt>
      <trkpt lat="37.817194" lon="-122.041198">
        <ele>406.2</ele>
        <time>2019-12-24T21:47:39Z</time>
      </trkpt>
      <trkpt lat="37.817201" lon="-122.041261">
        <ele>405.7</ele>
        <time>2019-12-24T21:47:42Z</time>
      </trkpt>
      <trkpt lat="37.817165" lon="-122.041369">
        <ele>406.7</ele>
        <time>2019-12-24T21:47:47Z</time>
      </trkpt>
      <trkpt lat="37.817122" lon="-122.041426">
        <ele>407.2</ele>
        <time>2019-12-24T21:47:51Z</time>
      </trkpt>
      <trkpt lat="37.817101" lon="-122.041474">
        <ele>408.3</ele>
        <time>2019-12-24T21:47:53Z</time>
      </trkpt>
      <trkpt lat="37.817091" lon="-122.041506">
        <ele>408.9</ele>
        <time>2019-12-24T21:47:54Z</time>
      </trkpt>
      <trkpt lat="37.817059" lon="-122.041627">
        <ele>407.9</ele>
        <time>2019-12-24T21:48:00Z</time>
      </trkpt>
      <trkpt lat="37.817026" lon="-122.041668">
        <ele>408.4</ele>
        <time>2019-12-24T21:48:03Z</time>
      </trkpt>
      <trkpt lat="37.817012" lon="-122.041678">
        <ele>406.8</ele>
        <time>2019-12-24T21:48:04Z</time>
      </trkpt>
      <trkpt lat="37.816961" lon="-122.041696">
        <ele>403.5</ele>
        <time>2019-12-24T21:48:08Z</time>
      </trkpt>
      <trkpt lat="37.816929" lon="-122.041694">
        <ele>403.8</ele>
        <time>2019-12-24T21:48:10Z</time>
      </trkpt>
      <trkpt lat="37.816889" lon="-122.041723">
        <ele>402.0</ele>
        <time>2019-12-24T21:48:14Z</time>
      </trkpt>
      <trkpt lat="37.816846" lon="-122.041737">
        <ele>401.8</ele>
        <time>2019-12-24T21:48:18Z</time>
      </trkpt>
      <trkpt lat="37.816819" lon="-122.041864">
        <ele>401.4</ele>
        <time>2019-12-24T21:48:24Z</time>
      </trkpt>
      <trkpt lat="37.816817" lon="-122.041924">
        <ele>401.3</ele>
        <time>2019-12-24T21:48:27Z</time>
      </trkpt>
      <trkpt lat="37.816809" lon="-122.041964">
        <ele>399.7</ele>
        <time>2019-12-24T21:48:29Z</time>
      </trkpt>
      <trkpt lat="37.816792" lon="-122.04197">
        <ele>397.3</ele>
        <time>2019-12-24T21:48:30Z</time>
      </trkpt>
      <trkpt lat="37.816773" lon="-122.041964">
        <ele>396.2</ele>
        <time>2019-12-24T21:48:31Z</time>
      </trkpt>
      <trkpt lat="37.816721" lon="-122.041901">
        <ele>393.1</ele>
        <time>2019-12-24T21:48:35Z</time>
      </trkpt>
      <trkpt lat="37.816683" lon="-122.04189">
        <ele>390.6</ele>
        <time>2019-12-24T21:48:38Z</time>
      </trkpt>
      <trkpt lat="37.816671" lon="-122.041894">
        <ele>390.8</ele>
        <time>2019-12-24T21:48:39Z</time>
      </trkpt>
      <trkpt lat="37.816666" lon="-122.041924">
        <ele>390.0</ele>
        <time>2019-12-24T21:48:43Z</time>
      </trkpt>
      <trkpt lat="37.816677" lon="-122.041972">
        <ele>390.6</ele>
        <time>2019-12-24T21:48:46Z</time>
      </trkpt>
      <trkpt lat="37.816667" lon="-122.042003">
        <ele>389.0</ele>
        <time>2019-12-24T21:48:48Z</time>
      </trkpt>
      <trkpt lat="37.81664" lon="-122.04201">
        <ele>388.5</ele>
        <time>2019-12-24T21:48:50Z</time>
      </trkpt>
      <trkpt lat="37.816613" lon="-122.042039">
        <ele>386.2</ele>
        <time>2019-12-24T21:48:53Z</time>
      </trkpt>
      <trkpt lat="37.8166" lon="-122.042092">
        <ele>386.0</ele>
        <time>2019-12-24T21:48:56Z</time>
      </trkpt>
      <trkpt lat="37.81662" lon="-122.042115">
        <ele>385.0</ele>
        <time>2019-12-24T21:48:58Z</time>
      </trkpt>
      <trkpt lat="37.816662" lon="-122.042121">
        <ele>382.1</ele>
        <time>2019-12-24T21:49:01Z</time>
      </trkpt>
      <trkpt lat="37.816689" lon="-122.042152">
        <ele>379.7</ele>
        <time>2019-12-24T21:49:03Z</time>
      </trkpt>
      <trkpt lat="37.816724" lon="-122.042222">
        <ele>380.2</ele>
        <time>2019-12-24T21:49:05Z</time>
      </trkpt>
      <trkpt lat="37.816737" lon="-122.042255">
        <ele>379.8</ele>
        <time>2019-12-24T21:49:06Z</time>
      </trkpt>
      <trkpt lat="37.816712" lon="-122.042353">
        <ele>379.2</ele>
        <time>2019-12-24T21:49:08Z</time>
      </trkpt>
      <trkpt lat="37.81677" lon="-122.042497">
        <ele>379.1</ele>
        <time>2019-12-24T21:49:13Z</time>
      </trkpt>
      <trkpt lat="37.816802" lon="-122.042529">
        <ele>375.6</ele>
        <time>2019-12-24T21:49:15Z</time>
      </trkpt>
      <trkpt lat="37.816895" lon="-122.042586">
        <ele>375.7</ele>
        <time>2019-12-24T21:49:19Z</time>
      </trkpt>
      <trkpt lat="37.816946" lon="-122.042645">
        <ele>374.4</ele>
        <time>2019-12-24T21:49:22Z</time>
      </trkpt>
      <trkpt lat="37.817006" lon="-122.042673">
        <ele>371.5</ele>
        <time>2019-12-24T21:49:25Z</time>
      </trkpt>
      <trkpt lat="37.817032" lon="-122.042676">
        <ele>371.3</ele>
        <time>2019-12-24T21:49:26Z</time>
      </trkpt>
      <trkpt lat="37.817124" lon="-122.042704">
        <ele>371.7</ele>
        <time>2019-12-24T21:49:30Z</time>
      </trkpt>
      <trkpt lat="37.817158" lon="-122.042662">
        <ele>370.1</ele>
        <time>2019-12-24T21:49:33Z</time>
      </trkpt>
      <trkpt lat="37.817176" lon="-122.042656">
        <ele>368.5</ele>
        <time>2019-12-24T21:49:34Z</time>
      </trkpt>
      <trkpt lat="37.817202" lon="-122.04268">
        <ele>369.0</ele>
        <time>2019-12-24T21:49:36Z</time>
      </trkpt>
      <trkpt lat="37.817308" lon="-122.042767">
        <ele>364.2</ele>
        <time>2019-12-24T21:49:44Z</time>
      </trkpt>
      <trkpt lat="37.817378" lon="-122.04288">
        <ele>364.4</ele>
        <time>2019-12-24T21:49:54Z</time>
      </trkpt>
      <trkpt lat="37.817394" lon="-122.043005">
        <ele>354.9</ele>
        <time>2019-12-24T21:50:01Z</time>
      </trkpt>
      <trkpt lat="37.8174" lon="-122.043117">
        <ele>356.4</ele>
        <time>2019-12-24T21:50:06Z</time>
      </trkpt>
      <trkpt lat="37.817387" lon="-122.043197">
        <ele>355.9</ele>
        <time>2019-12-24T21:50:12Z</time>
      </trkpt>
      <trkpt lat="37.817387" lon="-122.043211">
        <ele>356.6</ele>
        <time>2019-12-24T21:50:13Z</time>
      </trkpt>
      <trkpt lat="37.8174" lon="-122.04326">
        <ele>354.6</ele>
        <time>2019-12-24T21:50:16Z</time>
      </trkpt>
      <trkpt lat="37.817404" lon="-122.043359">
        <ele>353.3</ele>
        <time>2019-12-24T21:50:30Z</time>
      </trkpt>
      <trkpt lat="37.817389" lon="-122.043451">
        <ele>354.0</ele>
        <time>2019-12-24T21:50:38Z</time>
      </trkpt>
      <trkpt lat="37.817391" lon="-122.043466">
        <ele>354.7</ele>
        <time>2019-12-24T21:50:39Z</time>
      </trkpt>
      <trkpt lat="37.817355" lon="-122.04352">
        <ele>349.9</ele>
        <time>2019-12-24T21:50:46Z</time>
      </trkpt>
      <trkpt lat="37.817339" lon="-122.043587">
        <ele>343.4</ele>
        <time>2019-12-24T21:50:51Z</time>
      </trkpt>
      <trkpt lat="37.81738" lon="-122.043592">
        <ele>345.2</ele>
        <time>2019-12-24T21:51:03Z</time>
      </trkpt>
      <trkpt lat="37.81747" lon="-122.043669">
        <ele>345.9</ele>
        <time>2019-12-24T21:51:11Z</time>
      </trkpt>
      <trkpt lat="37.817492" lon="-122.04371">
        <ele>347.5</ele>
        <time>2019-12-24T21:51:14Z</time>
      </trkpt>
      <trkpt lat="37.817536" lon="-122.043741">
        <ele>343.2</ele>
        <time>2019-12-24T21:51:23Z</time>
      </trkpt>
      <trkpt lat="37.817556" lon="-122.043788">
        <ele>342.6</ele>
        <time>2019-12-24T21:51:32Z</time>
      </trkpt>
      <trkpt lat="37.817546" lon="-122.043777">
        <ele>341.9</ele>
        <time>2019-12-24T21:51:36Z</time>
      </trkpt>
      <trkpt lat="37.817544" lon="-122.043739">
        <ele>339.5</ele>
        <time>2019-12-24T21:51:38Z</time>
      </trkpt>
      <trkpt lat="37.817562" lon="-122.043688">
        <ele>343.1</ele>
        <time>2019-12-24T21:51:44Z</time>
      </trkpt>
      <trkpt lat="37.817595" lon="-122.043656">
        <ele>343.0</ele>
        <time>2019-12-24T21:51:47Z</time>
      </trkpt>
      <trkpt lat="37.81762" lon="-122.043645">
        <ele>343.9</ele>
        <time>2019-12-24T21:51:49Z</time>
      </trkpt>
      <trkpt lat="37.817641" lon="-122.043653">
        <ele>350.6</ele>
        <time>2019-12-24T21:52:26Z</time>
      </trkpt>
      <trkpt lat="37.81766" lon="-122.04364">
        <ele>345.4</ele>
        <time>2019-12-24T21:52:27Z</time>
      </trkpt>
      <trkpt lat="37.817714" lon="-122.043642">
        <ele>346.7</ele>
        <time>2019-12-24T21:52:30Z</time>
      </trkpt>
      <trkpt lat="37.817802" lon="-122.043687">
        <ele>352.8</ele>
        <time>2019-12-24T21:52:37Z</time>
      </trkpt>
      <trkpt lat="37.817854" lon="-122.043665">
        <ele>349.1</ele>
        <time>2019-12-24T21:52:41Z</time>
      </trkpt>
      <trkpt lat="37.817908" lon="-122.043628">
        <ele>350.7</ele>
        <time>2019-12-24T21:52:45Z</time>
      </trkpt>
      <trkpt lat="37.81794" lon="-122.043583">
        <ele>352.0</ele>
        <time>2019-12-24T21:52:50Z</time>
      </trkpt>
      <trkpt lat="37.81796" lon="-122.043572">
        <ele>352.7</ele>
        <time>2019-12-24T21:52:53Z</time>
      </trkpt>
      <trkpt lat="37.818004" lon="-122.043576">
        <ele>353.5</ele>
        <time>2019-12-24T21:52:56Z</time>
      </trkpt>
      <trkpt lat="37.818035" lon="-122.043603">
        <ele>356.2</ele>
        <time>2019-12-24T21:53:19Z</time>
      </trkpt>
      <trkpt lat="37.818087" lon="-122.043591">
        <ele>354.5</ele>
        <time>2019-12-24T21:53:23Z</time>
      </trkpt>
      <trkpt lat="37.818165" lon="-122.043536">
        <ele>354.0</ele>
        <time>2019-12-24T21:53:27Z</time>
      </trkpt>
      <trkpt lat="37.818184" lon="-122.043537">
        <ele>355.1</ele>
        <time>2019-12-24T21:53:28Z</time>
      </trkpt>
      <trkpt lat="37.818251" lon="-122.043562">
        <ele>354.6</ele>
        <time>2019-12-24T21:53:33Z</time>
      </trkpt>
      <trkpt lat="37.81831" lon="-122.043604">
        <ele>361.5</ele>
        <time>2019-12-24T21:53:39Z</time>
      </trkpt>
      <trkpt lat="37.81836" lon="-122.043624">
        <ele>363.6</ele>
        <time>2019-12-24T21:53:45Z</time>
      </trkpt>
      <trkpt lat="37.81844" lon="-122.043689">
        <ele>365.8</ele>
        <time>2019-12-24T21:53:51Z</time>
      </trkpt>
      <trkpt lat="37.818475" lon="-122.043732">
        <ele>369.1</ele>
        <time>2019-12-24T21:53:55Z</time>
      </trkpt>
      <trkpt lat="37.818526" lon="-122.0438">
        <ele>370.2</ele>
        <time>2019-12-24T21:54:02Z</time>
      </trkpt>
      <trkpt lat="37.818575" lon="-122.043823">
        <ele>374.6</ele>
        <time>2019-12-24T21:54:06Z</time>
      </trkpt>
      <trkpt lat="37.818599" lon="-122.043881">
        <ele>374.8</ele>
        <time>2019-12-24T21:54:11Z</time>
      </trkpt>
      <trkpt lat="37.818652" lon="-122.043942">
        <ele>377.1</ele>
        <time>2019-12-24T21:54:15Z</time>
      </trkpt>
      <trkpt lat="37.818745" lon="-122.044">
        <ele>380.4</ele>
        <time>2019-12-24T21:54:22Z</time>
      </trkpt>
      <trkpt lat="37.8188" lon="-122.044016">
        <ele>376.6</ele>
        <time>2019-12-24T21:54:26Z</time>
      </trkpt>
      <trkpt lat="37.818818" lon="-122.044036">
        <ele>377.6</ele>
        <time>2019-12-24T21:54:28Z</time>
      </trkpt>
      <trkpt lat="37.818835" lon="-122.044092">
        <ele>379.0</ele>
        <time>2019-12-24T21:54:34Z</time>
      </trkpt>
      <trkpt lat="37.818886" lon="-122.04412">
        <ele>380.9</ele>
        <time>2019-12-24T21:54:37Z</time>
      </trkpt>
      <trkpt lat="37.818942" lon="-122.044112">
        <ele>381.0</ele>
        <time>2019-12-24T21:54:41Z</time>
      </trkpt>
      <trkpt lat="37.819057" lon="-122.044161">
        <ele>380.6</ele>
        <time>2019-12-24T21:54:48Z</time>
      </trkpt>
      <trkpt lat="37.819088" lon="-122.04418">
        <ele>382.6</ele>
        <time>2019-12-24T21:54:50Z</time>
      </trkpt>
      <trkpt lat="37.819153" lon="-122.044182">
        <ele>377.6</ele>
        <time>2019-12-24T21:54:56Z</time>
      </trkpt>
      <trkpt lat="37.819204" lon="-122.044128">
        <ele>378.6</ele>
        <time>2019-12-24T21:55:01Z</time>
      </trkpt>
      <trkpt lat="37.819217" lon="-122.044079">
        <ele>379.7</ele>
        <time>2019-12-24T21:55:04Z</time>
      </trkpt>
      <trkpt lat="37.819241" lon="-122.044063">
        <ele>380.2</ele>
        <time>2019-12-24T21:55:06Z</time>
      </trkpt>
      <trkpt lat="37.819274" lon="-122.044063">
        <ele>380.9</ele>
        <time>2019-12-24T21:55:09Z</time>
      </trkpt>
      <trkpt lat="37.819299" lon="-122.044072">
        <ele>381.3</ele>
        <time>2019-12-24T21:55:11Z</time>
      </trkpt>
      <trkpt lat="37.819317" lon="-122.044094">
        <ele>381.6</ele>
        <time>2019-12-24T21:55:13Z</time>
      </trkpt>
      <trkpt lat="37.819334" lon="-122.044154">
        <ele>380.7</ele>
        <time>2019-12-24T21:55:16Z</time>
      </trkpt>
      <trkpt lat="37.819356" lon="-122.044189">
        <ele>382.9</ele>
        <time>2019-12-24T21:55:18Z</time>
      </trkpt>
      <trkpt lat="37.819434" lon="-122.044234">
        <ele>385.0</ele>
        <time>2019-12-24T21:55:24Z</time>
      </trkpt>
      <trkpt lat="37.819441" lon="-122.044277">
        <ele>384.2</ele>
        <time>2019-12-24T21:55:28Z</time>
      </trkpt>
      <trkpt lat="37.819462" lon="-122.044354">
        <ele>387.3</ele>
        <time>2019-12-24T21:55:38Z</time>
      </trkpt>
      <trkpt lat="37.819494" lon="-122.04439">
        <ele>390.8</ele>
        <time>2019-12-24T21:55:42Z</time>
      </trkpt>
      <trkpt lat="37.81952" lon="-122.044472">
        <ele>394.7</ele>
        <time>2019-12-24T21:55:48Z</time>
      </trkpt>
      <trkpt lat="37.819474" lon="-122.044538">
        <ele>388.2</ele>
        <time>2019-12-24T21:56:13Z</time>
      </trkpt>
      <trkpt lat="37.819422" lon="-122.044584">
        <ele>389.9</ele>
        <time>2019-12-24T21:56:17Z</time>
      </trkpt>
      <trkpt lat="37.819408" lon="-122.04459">
        <ele>389.3</ele>
        <time>2019-12-24T21:56:18Z</time>
      </trkpt>
      <trkpt lat="37.819297" lon="-122.044597">
        <ele>390.3</ele>
        <time>2019-12-24T21:56:24Z</time>
      </trkpt>
      <trkpt lat="37.819282" lon="-122.044619">
        <ele>389.3</ele>
        <time>2019-12-24T21:56:26Z</time>
      </trkpt>
      <trkpt lat="37.819289" lon="-122.044661">
        <ele>372.4</ele>
        <time>2019-12-24T21:56:30Z</time>
      </trkpt>
      <trkpt lat="37.819329" lon="-122.044747">
        <ele>391.7</ele>
        <time>2019-12-24T21:56:38Z</time>
      </trkpt>
      <trkpt lat="37.819332" lon="-122.044846">
        <ele>376.0</ele>
        <time>2019-12-24T21:56:45Z</time>
      </trkpt>
      <trkpt lat="37.819322" lon="-122.044857">
        <ele>379.0</ele>
        <time>2019-12-24T21:56:46Z</time>
      </trkpt>
      <trkpt lat="37.819283" lon="-122.04486">
        <ele>386.3</ele>
        <time>2019-12-24T21:56:50Z</time>
      </trkpt>
      <trkpt lat="37.819271" lon="-122.044883">
        <ele>389.7</ele>
        <time>2019-12-24T21:56:52Z</time>
      </trkpt>
      <trkpt lat="37.81925" lon="-122.044864">
        <ele>400.9</ele>
        <time>2019-12-24T21:57:00Z</time>
      </trkpt>
      <trkpt lat="37.819229" lon="-122.044863">
        <ele>394.7</ele>
        <time>2019-12-24T21:57:05Z</time>
      </trkpt>
      <trkpt lat="37.819182" lon="-122.044888">
        <ele>388.3</ele>
        <time>2019-12-24T21:57:23Z</time>
      </trkpt>
      <trkpt lat="37.819142" lon="-122.044864">
        <ele>389.2</ele>
        <time>2019-12-24T21:57:26Z</time>
      </trkpt>
      <trkpt lat="37.819075" lon="-122.044838">
        <ele>393.7</ele>
        <time>2019-12-24T21:57:31Z</time>
      </trkpt>
      <trkpt lat="37.819026" lon="-122.044852">
        <ele>394.8</ele>
        <time>2019-12-24T21:57:35Z</time>
      </trkpt>
      <trkpt lat="37.818982" lon="-122.0449">
        <ele>395.6</ele>
        <time>2019-12-24T21:57:40Z</time>
      </trkpt>
      <trkpt lat="37.818852" lon="-122.044916">
        <ele>397.6</ele>
        <time>2019-12-24T21:57:50Z</time>
      </trkpt>
      <trkpt lat="37.818795" lon="-122.044997">
        <ele>399.4</ele>
        <time>2019-12-24T21:58:00Z</time>
      </trkpt>
      <trkpt lat="37.81873" lon="-122.045043">
        <ele>401.2</ele>
        <time>2019-12-24T21:58:06Z</time>
      </trkpt>
      <trkpt lat="37.818764" lon="-122.045072">
        <ele>403.2</ele>
        <time>2019-12-24T21:58:21Z</time>
      </trkpt>
      <trkpt lat="37.818794" lon="-122.045117">
        <ele>403.3</ele>
        <time>2019-12-24T21:58:28Z</time>
      </trkpt>
      <trkpt lat="37.818874" lon="-122.045149">
        <ele>404.3</ele>
        <time>2019-12-24T21:58:35Z</time>
      </trkpt>
      <trkpt lat="37.818966" lon="-122.045256">
        <ele>406.1</ele>
        <time>2019-12-24T21:58:44Z</time>
      </trkpt>
      <trkpt lat="37.818986" lon="-122.045354">
        <ele>410.1</ele>
        <time>2019-12-24T21:58:50Z</time>
      </trkpt>
      <trkpt lat="37.819008" lon="-122.045407">
        <ele>414.0</ele>
        <time>2019-12-24T21:58:54Z</time>
      </trkpt>
      <trkpt lat="37.819008" lon="-122.045427">
        <ele>413.6</ele>
        <time>2019-12-24T21:58:56Z</time>
      </trkpt>
      <trkpt lat="37.818988" lon="-122.04544">
        <ele>415.7</ele>
        <time>2019-12-24T21:58:59Z</time>
      </trkpt>
      <trkpt lat="37.818994" lon="-122.045469">
        <ele>414.9</ele>
        <time>2019-12-24T21:59:03Z</time>
      </trkpt>
      <trkpt lat="37.819073" lon="-122.045579">
        <ele>419.5</ele>
        <time>2019-12-24T21:59:13Z</time>
      </trkpt>
      <trkpt lat="37.819121" lon="-122.045607">
        <ele>420.9</ele>
        <time>2019-12-24T21:59:17Z</time>
      </trkpt>
      <trkpt lat="37.819135" lon="-122.04563">
        <ele>419.4</ele>
        <time>2019-12-24T21:59:22Z</time>
      </trkpt>
      <trkpt lat="37.819133" lon="-122.045659">
        <ele>419.7</ele>
        <time>2019-12-24T21:59:27Z</time>
      </trkpt>
      <trkpt lat="37.819119" lon="-122.045681">
        <ele>419.3</ele>
        <time>2019-12-24T21:59:31Z</time>
      </trkpt>
      <trkpt lat="37.819057" lon="-122.045726">
        <ele>420.2</ele>
        <time>2019-12-24T21:59:36Z</time>
      </trkpt>
      <trkpt lat="37.819043" lon="-122.045723">
        <ele>418.7</ele>
        <time>2019-12-24T21:59:37Z</time>
      </trkpt>
      <trkpt lat="37.818919" lon="-122.045683">
        <ele>418.6</ele>
        <time>2019-12-24T21:59:49Z</time>
      </trkpt>
      <trkpt lat="37.818888" lon="-122.045661">
        <ele>420.2</ele>
        <time>2019-12-24T21:59:51Z</time>
      </trkpt>
      <trkpt lat="37.818876" lon="-122.04564">
        <ele>420.0</ele>
        <time>2019-12-24T21:59:52Z</time>
      </trkpt>
      <trkpt lat="37.81884" lon="-122.045522">
        <ele>418.2</ele>
        <time>2019-12-24T21:59:58Z</time>
      </trkpt>
      <trkpt lat="37.818779" lon="-122.045468">
        <ele>416.5</ele>
        <time>2019-12-24T22:00:03Z</time>
      </trkpt>
      <trkpt lat="37.818764" lon="-122.04545">
        <ele>415.4</ele>
        <time>2019-12-24T22:00:04Z</time>
      </trkpt>
      <trkpt lat="37.818728" lon="-122.045427">
        <ele>415.1</ele>
        <time>2019-12-24T22:00:06Z</time>
      </trkpt>
      <trkpt lat="37.818607" lon="-122.045435">
        <ele>413.0</ele>
        <time>2019-12-24T22:00:13Z</time>
      </trkpt>
      <trkpt lat="37.818587" lon="-122.045443">
        <ele>412.9</ele>
        <time>2019-12-24T22:00:14Z</time>
      </trkpt>
      <trkpt lat="37.818542" lon="-122.045483">
        <ele>412.3</ele>
        <time>2019-12-24T22:00:17Z</time>
      </trkpt>
      <trkpt lat="37.818511" lon="-122.045564">
        <ele>410.5</ele>
        <time>2019-12-24T22:00:21Z</time>
      </trkpt>
      <trkpt lat="37.818475" lon="-122.045565">
        <ele>409.0</ele>
        <time>2019-12-24T22:00:23Z</time>
      </trkpt>
      <trkpt lat="37.818455" lon="-122.04555">
        <ele>408.8</ele>
        <time>2019-12-24T22:00:24Z</time>
      </trkpt>
      <trkpt lat="37.818292" lon="-122.045393">
        <ele>401.8</ele>
        <time>2019-12-24T22:00:33Z</time>
      </trkpt>
      <trkpt lat="37.81819" lon="-122.045261">
        <ele>399.5</ele>
        <time>2019-12-24T22:00:38Z</time>
      </trkpt>
      <trkpt lat="37.818164" lon="-122.045241">
        <ele>399.1</ele>
        <time>2019-12-24T22:00:39Z</time>
      </trkpt>
      <trkpt lat="37.818135" lon="-122.045238">
        <ele>398.5</ele>
        <time>2019-12-24T22:00:40Z</time>
      </trkpt>
      <trkpt lat="37.818109" lon="-122.045253">
        <ele>398.5</ele>
        <time>2019-12-24T22:00:41Z</time>
      </trkpt>
      <trkpt lat="37.818069" lon="-122.0453">
        <ele>397.1</ele>
        <time>2019-12-24T22:00:43Z</time>
      </trkpt>
      <trkpt lat="37.818044" lon="-122.045321">
        <ele>397.0</ele>
        <time>2019-12-24T22:00:44Z</time>
      </trkpt>
      <trkpt lat="37.817992" lon="-122.045342">
        <ele>394.4</ele>
        <time>2019-12-24T22:00:46Z</time>
      </trkpt>
      <trkpt lat="37.817963" lon="-122.045338">
        <ele>394.4</ele>
        <time>2019-12-24T22:00:47Z</time>
      </trkpt>
      <trkpt lat="37.817942" lon="-122.045324">
        <ele>393.2</ele>
        <time>2019-12-24T22:00:48Z</time>
      </trkpt>
      <trkpt lat="37.817903" lon="-122.045208">
        <ele>390.8</ele>
        <time>2019-12-24T22:00:51Z</time>
      </trkpt>
      <trkpt lat="37.81786" lon="-122.045131">
        <ele>388.6</ele>
        <time>2019-12-24T22:00:53Z</time>
      </trkpt>
      <trkpt lat="37.817788" lon="-122.045052">
        <ele>384.9</ele>
        <time>2019-12-24T22:00:57Z</time>
      </trkpt>
      <trkpt lat="37.817763" lon="-122.045046">
        <ele>383.8</ele>
        <time>2019-12-24T22:00:58Z</time>
      </trkpt>
      <trkpt lat="37.817748" lon="-122.045053">
        <ele>383.7</ele>
        <time>2019-12-24T22:00:59Z</time>
      </trkpt>
      <trkpt lat="37.817697" lon="-122.045143">
        <ele>381.6</ele>
        <time>2019-12-24T22:01:04Z</time>
      </trkpt>
      <trkpt lat="37.81768" lon="-122.045216">
        <ele>380.1</ele>
        <time>2019-12-24T22:01:06Z</time>
      </trkpt>
      <trkpt lat="37.817648" lon="-122.045253">
        <ele>378.7</ele>
        <time>2019-12-24T22:01:09Z</time>
      </trkpt>
      <trkpt lat="37.817608" lon="-122.045262">
        <ele>377.9</ele>
        <time>2019-12-24T22:01:11Z</time>
      </trkpt>
      <trkpt lat="37.817563" lon="-122.045237">
        <ele>376.7</ele>
        <time>2019-12-24T22:01:13Z</time>
      </trkpt>
      <trkpt lat="37.817525" lon="-122.045204">
        <ele>376.2</ele>
        <time>2019-12-24T22:01:15Z</time>
      </trkpt>
      <trkpt lat="37.817503" lon="-122.045204">
        <ele>374.5</ele>
        <time>2019-12-24T22:01:16Z</time>
      </trkpt>
      <trkpt lat="37.817346" lon="-122.045294">
        <ele>370.0</ele>
        <time>2019-12-24T22:01:23Z</time>
      </trkpt>
      <trkpt lat="37.817298" lon="-122.04533">
        <ele>369.6</ele>
        <time>2019-12-24T22:01:25Z</time>
      </trkpt>
      <trkpt lat="37.817265" lon="-122.045388">
        <ele>365.0</ele>
        <time>2019-12-24T22:01:28Z</time>
      </trkpt>
      <trkpt lat="37.817189" lon="-122.045445">
        <ele>364.2</ele>
        <time>2019-12-24T22:01:31Z</time>
      </trkpt>
      <trkpt lat="37.817138" lon="-122.045501">
        <ele>364.3</ele>
        <time>2019-12-24T22:01:33Z</time>
      </trkpt>
      <trkpt lat="37.817119" lon="-122.045529">
        <ele>363.9</ele>
        <time>2019-12-24T22:01:34Z</time>
      </trkpt>
      <trkpt lat="37.817078" lon="-122.045575">
        <ele>366.1</ele>
        <time>2019-12-24T22:01:36Z</time>
      </trkpt>
      <trkpt lat="37.817005" lon="-122.045609">
        <ele>366.4</ele>
        <time>2019-12-24T22:01:39Z</time>
      </trkpt>
      <trkpt lat="37.816909" lon="-122.045593">
        <ele>360.4</ele>
        <time>2019-12-24T22:01:43Z</time>
      </trkpt>
      <trkpt lat="37.816875" lon="-122.045596">
        <ele>359.3</ele>
        <time>2019-12-24T22:01:44Z</time>
      </trkpt>
      <trkpt lat="37.816729" lon="-122.045598">
        <ele>358.4</ele>
        <time>2019-12-24T22:01:49Z</time>
      </trkpt>
      <trkpt lat="37.816589" lon="-122.045676">
        <ele>358.4</ele>
        <time>2019-12-24T22:01:54Z</time>
      </trkpt>
      <trkpt lat="37.816526" lon="-122.045695">
        <ele>357.3</ele>
        <time>2019-12-24T22:01:56Z</time>
      </trkpt>
      <trkpt lat="37.816463" lon="-122.045692">
        <ele>358.0</ele>
        <time>2019-12-24T22:01:58Z</time>
      </trkpt>
      <trkpt lat="37.81642" lon="-122.045656">
        <ele>357.3</ele>
        <time>2019-12-24T22:02:00Z</time>
      </trkpt>
      <trkpt lat="37.816393" lon="-122.045602">
        <ele>356.0</ele>
        <time>2019-12-24T22:02:03Z</time>
      </trkpt>
      <trkpt lat="37.816366" lon="-122.045577">
        <ele>354.8</ele>
        <time>2019-12-24T22:02:04Z</time>
      </trkpt>
      <trkpt lat="37.816304" lon="-122.045537">
        <ele>353.8</ele>
        <time>2019-12-24T22:02:06Z</time>
      </trkpt>
      <trkpt lat="37.816219" lon="-122.045452">
        <ele>354.0</ele>
        <time>2019-12-24T22:02:09Z</time>
      </trkpt>
      <trkpt lat="37.816076" lon="-122.045382">
        <ele>352.2</ele>
        <time>2019-12-24T22:02:13Z</time>
      </trkpt>
      <trkpt lat="37.816038" lon="-122.045357">
        <ele>352.1</ele>
        <time>2019-12-24T22:02:14Z</time>
      </trkpt>
      <trkpt lat="37.815968" lon="-122.045301">
        <ele>351.3</ele>
        <time>2019-12-24T22:02:15Z</time>
      </trkpt>
      <trkpt lat="37.815938" lon="-122.045262">
        <ele>351.5</ele>
        <time>2019-12-24T22:02:16Z</time>
      </trkpt>
      <trkpt lat="37.815879" lon="-122.045231">
        <ele>350.8</ele>
        <time>2019-12-24T22:02:18Z</time>
      </trkpt>
      <trkpt lat="37.815865" lon="-122.045312">
        <ele>345.6</ele>
        <time>2019-12-24T22:02:20Z</time>
      </trkpt>
      <trkpt lat="37.815835" lon="-122.045341">
        <ele>344.9</ele>
        <time>2019-12-24T22:02:21Z</time>
      </trkpt>
      <trkpt lat="37.815759" lon="-122.045374">
        <ele>344.6</ele>
        <time>2019-12-24T22:02:22Z</time>
      </trkpt>
      <trkpt lat="37.815734" lon="-122.045354">
        <ele>344.6</ele>
        <time>2019-12-24T22:02:23Z</time>
      </trkpt>
      <trkpt lat="37.815695" lon="-122.04535">
        <ele>344.3</ele>
        <time>2019-12-24T22:02:24Z</time>
      </trkpt>
      <trkpt lat="37.815673" lon="-122.045355">
        <ele>344.5</ele>
        <time>2019-12-24T22:02:25Z</time>
      </trkpt>
      <trkpt lat="37.815634" lon="-122.045383">
        <ele>345.7</ele>
        <time>2019-12-24T22:02:27Z</time>
      </trkpt>
      <trkpt lat="37.815556" lon="-122.045546">
        <ele>344.0</ele>
        <time>2019-12-24T22:02:33Z</time>
      </trkpt>
      <trkpt lat="37.815536" lon="-122.045563">
        <ele>343.7</ele>
        <time>2019-12-24T22:02:34Z</time>
      </trkpt>
      <trkpt lat="37.815474" lon="-122.045602">
        <ele>342.1</ele>
        <time>2019-12-24T22:02:37Z</time>
      </trkpt>
      <trkpt lat="37.815461" lon="-122.045619">
        <ele>341.1</ele>
        <time>2019-12-24T22:02:38Z</time>
      </trkpt>
      <trkpt lat="37.815463" lon="-122.045638">
        <ele>340.1</ele>
        <time>2019-12-24T22:02:39Z</time>
      </trkpt>
      <trkpt lat="37.815498" lon="-122.04565">
        <ele>338.5</ele>
        <time>2019-12-24T22:02:41Z</time>
      </trkpt>
      <trkpt lat="37.815588" lon="-122.045631">
        <ele>334.7</ele>
        <time>2019-12-24T22:02:44Z</time>
      </trkpt>
      <trkpt lat="37.815629" lon="-122.045631">
        <ele>333.2</ele>
        <time>2019-12-24T22:02:46Z</time>
      </trkpt>
      <trkpt lat="37.815666" lon="-122.045647">
        <ele>332.3</ele>
        <time>2019-12-24T22:02:48Z</time>
      </trkpt>
      <trkpt lat="37.815788" lon="-122.045785">
        <ele>331.5</ele>
        <time>2019-12-24T22:02:54Z</time>
      </trkpt>
      <trkpt lat="37.815843" lon="-122.04588">
        <ele>327.3</ele>
        <time>2019-12-24T22:02:58Z</time>
      </trkpt>
      <trkpt lat="37.815912" lon="-122.045959">
        <ele>326.3</ele>
        <time>2019-12-24T22:03:01Z</time>
      </trkpt>
      <trkpt lat="37.815951" lon="-122.046037">
        <ele>324.9</ele>
        <time>2019-12-24T22:03:04Z</time>
      </trkpt>
      <trkpt lat="37.815892" lon="-122.046079">
        <ele>324.1</ele>
        <time>2019-12-24T22:03:06Z</time>
      </trkpt>
      <trkpt lat="37.81573" lon="-122.046082">
        <ele>324.2</ele>
        <time>2019-12-24T22:03:09Z</time>
      </trkpt>
      <trkpt lat="37.815674" lon="-122.0461">
        <ele>324.1</ele>
        <time>2019-12-24T22:03:11Z</time>
      </trkpt>
      <trkpt lat="37.815627" lon="-122.046136">
        <ele>326.5</ele>
        <time>2019-12-24T22:03:14Z</time>
      </trkpt>
      <trkpt lat="37.815572" lon="-122.04617">
        <ele>326.6</ele>
        <time>2019-12-24T22:03:17Z</time>
      </trkpt>
      <trkpt lat="37.815537" lon="-122.046169">
        <ele>325.7</ele>
        <time>2019-12-24T22:03:20Z</time>
      </trkpt>
      <trkpt lat="37.815505" lon="-122.046181">
        <ele>326.7</ele>
        <time>2019-12-24T22:03:22Z</time>
      </trkpt>
      <trkpt lat="37.815491" lon="-122.046205">
        <ele>323.9</ele>
        <time>2019-12-24T22:03:28Z</time>
      </trkpt>
      <trkpt lat="37.815495" lon="-122.046217">
        <ele>322.4</ele>
        <time>2019-12-24T22:03:29Z</time>
      </trkpt>
      <trkpt lat="37.815543" lon="-122.046292">
        <ele>318.2</ele>
        <time>2019-12-24T22:03:34Z</time>
      </trkpt>
      <trkpt lat="37.815589" lon="-122.046307">
        <ele>316.2</ele>
        <time>2019-12-24T22:03:37Z</time>
      </trkpt>
      <trkpt lat="37.815621" lon="-122.046334">
        <ele>316.5</ele>
        <time>2019-12-24T22:03:39Z</time>
      </trkpt>
      <trkpt lat="37.815675" lon="-122.046436">
        <ele>316.2</ele>
        <time>2019-12-24T22:03:44Z</time>
      </trkpt>
      <trkpt lat="37.815743" lon="-122.046512">
        <ele>314.2</ele>
        <time>2019-12-24T22:03:50Z</time>
      </trkpt>
      <trkpt lat="37.815745" lon="-122.046525">
        <ele>313.4</ele>
        <time>2019-12-24T22:03:51Z</time>
      </trkpt>
      <trkpt lat="37.815723" lon="-122.046571">
        <ele>315.8</ele>
        <time>2019-12-24T22:03:53Z</time>
      </trkpt>
      <trkpt lat="37.815683" lon="-122.046587">
        <ele>314.9</ele>
        <time>2019-12-24T22:03:55Z</time>
      </trkpt>
      <trkpt lat="37.815578" lon="-122.046544">
        <ele>312.5</ele>
        <time>2019-12-24T22:04:01Z</time>
      </trkpt>
      <trkpt lat="37.815498" lon="-122.046493">
        <ele>309.0</ele>
        <time>2019-12-24T22:04:06Z</time>
      </trkpt>
      <trkpt lat="37.815495" lon="-122.046467">
        <ele>308.1</ele>
        <time>2019-12-24T22:04:06Z</time>
      </trkpt>
      <trkpt lat="37.815441" lon="-122.046447">
        <ele>305.5</ele>
        <time>2019-12-24T22:04:10Z</time>
      </trkpt>
      <trkpt lat="37.815356" lon="-122.046391">
        <ele>302.3</ele>
        <time>2019-12-24T22:04:16Z</time>
      </trkpt>
      <trkpt lat="37.815302" lon="-122.046379">
        <ele>301.5</ele>
        <time>2019-12-24T22:04:19Z</time>
      </trkpt>
      <trkpt lat="37.815259" lon="-122.046384">
        <ele>300.5</ele>
        <time>2019-12-24T22:04:22Z</time>
      </trkpt>
      <trkpt lat="37.815238" lon="-122.046398">
        <ele>302.5</ele>
        <time>2019-12-24T22:04:40Z</time>
      </trkpt>
      <trkpt lat="37.815241" lon="-122.046443">
        <ele>300.4</ele>
        <time>2019-12-24T22:04:42Z</time>
      </trkpt>
      <trkpt lat="37.81529" lon="-122.046607">
        <ele>298.4</ele>
        <time>2019-12-24T22:04:47Z</time>
      </trkpt>
      <trkpt lat="37.815298" lon="-122.046639">
        <ele>298.5</ele>
        <time>2019-12-24T22:04:48Z</time>
      </trkpt>
      <trkpt lat="37.815332" lon="-122.046735">
        <ele>296.7</ele>
        <time>2019-12-24T22:04:51Z</time>
      </trkpt>
      <trkpt lat="37.815415" lon="-122.046884">
        <ele>296.6</ele>
        <time>2019-12-24T22:04:57Z</time>
      </trkpt>
      <trkpt lat="37.815471" lon="-122.047024">
        <ele>294.6</ele>
        <time>2019-12-24T22:05:04Z</time>
      </trkpt>
      <trkpt lat="37.815454" lon="-122.047043">
        <ele>294.5</ele>
        <time>2019-12-24T22:05:09Z</time>
      </trkpt>
      <trkpt lat="37.815485" lon="-122.04711">
        <ele>294.7</ele>
        <time>2019-12-24T22:05:13Z</time>
      </trkpt>
      <trkpt lat="37.815548" lon="-122.047275">
        <ele>297.3</ele>
        <time>2019-12-24T22:05:23Z</time>
      </trkpt>
      <trkpt lat="37.815547" lon="-122.047302">
        <ele>300.0</ele>
        <time>2019-12-24T22:05:45Z</time>
      </trkpt>
      <trkpt lat="37.815505" lon="-122.047306">
        <ele>299.1</ele>
        <time>2019-12-24T22:05:47Z</time>
      </trkpt>
      <trkpt lat="37.815437" lon="-122.047268">
        <ele>297.3</ele>
        <time>2019-12-24T22:05:49Z</time>
      </trkpt>
      <trkpt lat="37.815409" lon="-122.047203">
        <ele>295.9</ele>
        <time>2019-12-24T22:05:50Z</time>
      </trkpt>
      <trkpt lat="37.815328" lon="-122.047096">
        <ele>295.4</ele>
        <time>2019-12-24T22:05:52Z</time>
      </trkpt>
      <trkpt lat="37.815287" lon="-122.047054">
        <ele>295.2</ele>
        <time>2019-12-24T22:05:53Z</time>
      </trkpt>
      <trkpt lat="37.815134" lon="-122.046869">
        <ele>295.2</ele>
        <time>2019-12-24T22:05:57Z</time>
      </trkpt>
      <trkpt lat="37.814854" lon="-122.04657">
        <ele>293.7</ele>
        <time>2019-12-24T22:06:02Z</time>
      </trkpt>
      <trkpt lat="37.814784" lon="-122.046507">
        <ele>293.3</ele>
        <time>2019-12-24T22:06:03Z</time>
      </trkpt>
      <trkpt lat="37.814719" lon="-122.046439">
        <ele>293.8</ele>
        <time>2019-12-24T22:06:04Z</time>
      </trkpt>
      <trkpt lat="37.814507" lon="-122.046273">
        <ele>293.3</ele>
        <time>2019-12-24T22:06:06Z</time>
      </trkpt>
      <trkpt lat="37.814423" lon="-122.046193">
        <ele>293.7</ele>
        <time>2019-12-24T22:06:08Z</time>
      </trkpt>
      <trkpt lat="37.814185" lon="-122.045899">
        <ele>291.0</ele>
        <time>2019-12-24T22:06:11Z</time>
      </trkpt>
      <trkpt lat="37.814103" lon="-122.045817">
        <ele>290.4</ele>
        <time>2019-12-24T22:06:12Z</time>
      </trkpt>
      <trkpt lat="37.814019" lon="-122.045725">
        <ele>291.6</ele>
        <time>2019-12-24T22:06:13Z</time>
      </trkpt>
      <trkpt lat="37.813942" lon="-122.04563">
        <ele>293.0</ele>
        <time>2019-12-24T22:06:14Z</time>
      </trkpt>
      <trkpt lat="37.81365" lon="-122.045343">
        <ele>293.7</ele>
        <time>2019-12-24T22:06:18Z</time>
      </trkpt>
      <trkpt lat="37.813635" lon="-122.04531">
        <ele>293.3</ele>
        <time>2019-12-24T22:06:19Z</time>
      </trkpt>
      <trkpt lat="37.813545" lon="-122.045243">
        <ele>293.1</ele>
        <time>2019-12-24T22:06:21Z</time>
      </trkpt>
      <trkpt lat="37.813498" lon="-122.045192">
        <ele>293.2</ele>
        <time>2019-12-24T22:06:22Z</time>
      </trkpt>
      <trkpt lat="37.813454" lon="-122.045132">
        <ele>292.4</ele>
        <time>2019-12-24T22:06:23Z</time>
      </trkpt>
      <trkpt lat="37.813316" lon="-122.044966">
        <ele>289.8</ele>
        <time>2019-12-24T22:06:25Z</time>
      </trkpt>
      <trkpt lat="37.813242" lon="-122.044905">
        <ele>288.6</ele>
        <time>2019-12-24T22:06:26Z</time>
      </trkpt>
      <trkpt lat="37.812904" lon="-122.044539">
        <ele>287.1</ele>
        <time>2019-12-24T22:06:31Z</time>
      </trkpt>
      <trkpt lat="37.812841" lon="-122.044485">
        <ele>287.4</ele>
        <time>2019-12-24T22:06:32Z</time>
      </trkpt>
      <trkpt lat="37.812776" lon="-122.044455">
        <ele>287.2</ele>
        <time>2019-12-24T22:06:33Z</time>
      </trkpt>
      <trkpt lat="37.812675" lon="-122.044403">
        <ele>287.4</ele>
        <time>2019-12-24T22:06:34Z</time>
      </trkpt>
      <trkpt lat="37.812504" lon="-122.044147">
        <ele>287.8</ele>
        <time>2019-12-24T22:06:36Z</time>
      </trkpt>
      <trkpt lat="37.812455" lon="-122.04415">
        <ele>286.7</ele>
        <time>2019-12-24T22:06:37Z</time>
      </trkpt>
      <trkpt lat="37.812364" lon="-122.044028">
        <ele>287.3</ele>
        <time>2019-12-24T22:06:39Z</time>
      </trkpt>
      <trkpt lat="37.812318" lon="-122.043981">
        <ele>286.9</ele>
        <time>2019-12-24T22:06:40Z</time>
      </trkpt>
      <trkpt lat="37.812274" lon="-122.043947">
        <ele>286.3</ele>
        <time>2019-12-24T22:06:41Z</time>
      </trkpt>
      <trkpt lat="37.812178" lon="-122.043904">
        <ele>285.1</ele>
        <time>2019-12-24T22:06:43Z</time>
      </trkpt>
      <trkpt lat="37.812156" lon="-122.043876">
        <ele>284.5</ele>
        <time>2019-12-24T22:06:44Z</time>
      </trkpt>
      <trkpt lat="37.812081" lon="-122.043791">
        <ele>285.5</ele>
        <time>2019-12-24T22:06:46Z</time>
      </trkpt>
      <trkpt lat="37.811895" lon="-122.043617">
        <ele>285.5</ele>
        <time>2019-12-24T22:06:49Z</time>
      </trkpt>
      <trkpt lat="37.811831" lon="-122.043528">
        <ele>285.2</ele>
        <time>2019-12-24T22:06:50Z</time>
      </trkpt>
      <trkpt lat="37.811755" lon="-122.043496">
        <ele>284.1</ele>
        <time>2019-12-24T22:06:51Z</time>
      </trkpt>
      <trkpt lat="37.811627" lon="-122.043355">
        <ele>282.8</ele>
        <time>2019-12-24T22:06:53Z</time>
      </trkpt>
      <trkpt lat="37.811561" lon="-122.04326">
        <ele>283.6</ele>
        <time>2019-12-24T22:06:54Z</time>
      </trkpt>
      <trkpt lat="37.811452" lon="-122.043191">
        <ele>283.3</ele>
        <time>2019-12-24T22:06:55Z</time>
      </trkpt>
      <trkpt lat="37.81136" lon="-122.043069">
        <ele>280.5</ele>
        <time>2019-12-24T22:06:56Z</time>
      </trkpt>
      <trkpt lat="37.811288" lon="-122.043043">
        <ele>280.2</ele>
        <time>2019-12-24T22:06:57Z</time>
      </trkpt>
      <trkpt lat="37.811193" lon="-122.042931">
        <ele>279.0</ele>
        <time>2019-12-24T22:06:58Z</time>
      </trkpt>
      <trkpt lat="37.811083" lon="-122.042842">
        <ele>277.3</ele>
        <time>2019-12-24T22:06:59Z</time>
      </trkpt>
      <trkpt lat="37.810662" lon="-122.04243">
        <ele>276.7</ele>
        <time>2019-12-24T22:07:03Z</time>
      </trkpt>
      <trkpt lat="37.810562" lon="-122.042312">
        <ele>273.2</ele>
        <time>2019-12-24T22:07:04Z</time>
      </trkpt>
      <trkpt lat="37.810365" lon="-122.042064">
        <ele>274.5</ele>
        <time>2019-12-24T22:07:06Z</time>
      </trkpt>
      <trkpt lat="37.810281" lon="-122.041975">
        <ele>275.6</ele>
        <time>2019-12-24T22:07:06Z</time>
      </trkpt>
      <trkpt lat="37.810181" lon="-122.041833">
        <ele>275.7</ele>
        <time>2019-12-24T22:07:08Z</time>
      </trkpt>
      <trkpt lat="37.810042" lon="-122.041595">
        <ele>274.7</ele>
        <time>2019-12-24T22:07:10Z</time>
      </trkpt>
      <trkpt lat="37.809976" lon="-122.041453">
        <ele>275.4</ele>
        <time>2019-12-24T22:07:11Z</time>
      </trkpt>
      <trkpt lat="37.809897" lon="-122.04134">
        <ele>275.7</ele>
        <time>2019-12-24T22:07:12Z</time>
      </trkpt>
      <trkpt lat="37.809829" lon="-122.041207">
        <ele>274.6</ele>
        <time>2019-12-24T22:07:13Z</time>
      </trkpt>
      <trkpt lat="37.809764" lon="-122.041067">
        <ele>274.1</ele>
        <time>2019-12-24T22:07:14Z</time>
      </trkpt>
      <trkpt lat="37.809646" lon="-122.040798">
        <ele>272.2</ele>
        <time>2019-12-24T22:07:16Z</time>
      </trkpt>
      <trkpt lat="37.809596" lon="-122.040639">
        <ele>272.2</ele>
        <time>2019-12-24T22:07:17Z</time>
      </trkpt>
      <trkpt lat="37.809537" lon="-122.040536">
        <ele>270.6</ele>
        <time>2019-12-24T22:07:18Z</time>
      </trkpt>
      <trkpt lat="37.809261" lon="-122.039919">
        <ele>263.5</ele>
        <time>2019-12-24T22:07:23Z</time>
      </trkpt>
      <trkpt lat="37.809206" lon="-122.039802">
        <ele>262.9</ele>
        <time>2019-12-24T22:07:22Z</time>
      </trkpt>
    </trkseg>
  </trk>
</gpx>