{"type": "Feature", "properties": {}, "geometry": {"type": "LineString", "coordinates": [[-121.48795684799552, 47.39920914173126, 637.49], [-121.48793580941856, 47.399320621043444, 620.19], [-121.48761964403093, 47.39941919222474, 608.17], [-121.48744680918753, 47.399451211094856, 610.57], [-121.48737397044897, 47.39947082474828, 615.86], [-121.48724346421659, 47.39946571178734, 623.55], [-121.48681439459324, 47.399551374837756, 633.17], [-121.48660358972847, 47.39961273036897, 631.72], [-121.4863314293325, 47.39974558353424, 628.36], [-121.48619346320629, 47.39979160018265, 628.84], [-121.48602716624737, 47.39980911836028, 630.76], [-121.48583798669279, 47.399868462234735, 628.84], [-121.48570890538394, 47.39984038285911, 629.8], [-121.48554772138596, 47.39982412196696, 635.57], [-121.48526919074357, 47.399885477498174, 637.49], [-121.48504237644374, 47.39997424185276, 636.05], [-121.48487138561904, 47.399997375905514, 636.53], [-121.48472109809518, 47.40004641003907, 637.97], [-121.48443259298801, 47.4000948574394, 641.82], [-121.48425271734595, 47.400090750306845, 644.22], [-121.48406194522977, 47.40009888075292, 645.18], [-121.48392867296934, 47.40012528374791, 646.62], [-121.48369850590825, 47.400189489126205, 650.47], [-121.48328955285251, 47.40025612525642, 659.12], [-121.48315141908824, 47.40028269588947, 664.89], [-121.48304421454668, 47.400280348956585, 670.18], [-121.48297858424485, 47.40024556405842, 676.91], [-121.48286442272365, 47.40023760125041, 675.94], [-121.48288554511964, 47.4002864677459, 674.02], [-121.48290851153433, 47.40040582604706, 666.33], [-121.48279896005988, 47.40032670088112, 661.52], [-121.48281111381948, 47.40034690126777, 661.04], [-121.4826790150255, 47.40038168616593, 664.89], [-121.48246686905622, 47.40037548355758, 667.77], [-121.48235253989697, 47.40045787766576, 665.85], [-121.48202740587294, 47.40049425512552, 661.04], [-121.48175122216344, 47.400560807436705, 656.72], [-121.48162423633039, 47.40054932422936, 656.72], [-121.48147713392973, 47.40055778995156, 652.39], [-121.48129994049668, 47.40052979439497, 653.83], [-121.48115484975278, 47.4005177244544, 655.76], [-121.48116323165596, 47.400487046688795, 656.72], [-121.4810158777982, 47.40043809637427, 657.2], [-121.48090448230505, 47.400418147444725, 658.64], [-121.48072762414813, 47.4004209972918, 658.16], [-121.48051891475916, 47.40029786713421, 658.16], [-121.48051765747368, 47.400270542129874, 659.6], [-121.480394275859, 47.40022737532854, 660.08], [-121.48030475713313, 47.400230057537556, 659.6], [-121.48043383844197, 47.40025914274156, 660.56], [-121.48037332110107, 47.40021916106343, 661.04], [-121.47997903637588, 47.400328712537885, 662.49], [-121.47978440858424, 47.400278337299824, 663.45], [-121.47978918626904, 47.400350756943226, 666.81], [-121.47990234196186, 47.40039601922035, 667.77], [-121.47981701418757, 47.40040926262736, 667.77], [-121.47973981685936, 47.40028110332787, 667.77], [-121.47970100864768, 47.40028219297528, 668.25], [-121.47970276884735, 47.40031320601702, 668.73], [-121.47984425537288, 47.40035494789481, 670.66], [-121.4799777790904, 47.40040867589414, 672.1], [-121.48010493256152, 47.40046986378729, 676.42], [-121.48018104024231, 47.400547647848725, 676.42], [-121.480399556458, 47.40074872970581, 680.75], [-121.48049687035382, 47.400833470746875, 682.19], [-121.48065218701959, 47.400986943393946, 691.33], [-121.48078428581357, 47.40102608688176, 695.65], [-121.4809989463538, 47.401176458224654, 695.65], [-121.48111218586564, 47.40123890340328, 698.05], [-121.48117488250136, 47.401346527040005, 698.05], [-121.48121897131205, 47.40138944238424, 699.02], [-121.48129583336413, 47.40141240879893, 699.02], [-121.48152281530201, 47.40146018564701, 699.5], [-121.4815648086369, 47.40148256532848, 698.53], [-121.48172431625426, 47.40153872407973, 699.5], [-121.4818658027798, 47.401579627767205, 700.46], [-121.48202673532069, 47.40160318091512, 702.38], [-121.48206227459013, 47.40162614732981, 702.38], [-121.48232404142618, 47.40164517425001, 702.38], [-121.48233124986291, 47.40165866911411, 703.34], [-121.4825511071831, 47.401789678260684, 703.82], [-121.4827427174896, 47.401775596663356, 706.23], [-121.48302879184484, 47.40182261914015, 709.11], [-121.48312920704484, 47.401867881417274, 711.99], [-121.48342617787421, 47.401934852823615, 727.86], [-121.48341922089458, 47.40189009346068, 729.3], [-121.48347856476903, 47.40199117921293, 726.89], [-121.48358015343547, 47.4019942805171, 726.41], [-121.48350220173597, 47.40196687169373, 725.93], [-121.48359909653664, 47.40196988917887, 725.45], [-121.48363430052996, 47.40198698826134, 723.05], [-121.48373865522444, 47.40199025720358, 724.01], [-121.48382700048387, 47.40201565437019, 726.41], [-121.48396253585815, 47.40207290276885, 723.53], [-121.48389983922243, 47.40206049755216, 722.09], [-121.48410427384079, 47.402077093720436, 724.01], [-121.48424441926181, 47.40219846367836, 725.45], [-121.48422656580806, 47.402197206392884, 727.37], [-121.48440040647984, 47.40229770541191, 731.22], [-121.48452102206647, 47.40230952389538, 732.66], [-121.48447542451322, 47.40232109092176, 732.66], [-121.48469150997698, 47.40231631323695, 735.55], [-121.48478094488382, 47.40232536569238, 737.95], [-121.48498839698732, 47.402412286028266, 736.99], [-121.4849907439202, 47.40242804400623, 738.43], [-121.48510239087045, 47.402532985433936, 737.95], [-121.485296767205, 47.40255385637283, 738.91], [-121.48539315909147, 47.40255083888769, 738.43], [-121.48547270335257, 47.40253449417651, 738.43], [-121.48568912409246, 47.40256039425731, 741.79], [-121.48589179851115, 47.40260934457183, 748.52], [-121.48606421425939, 47.40264597348869, 749.49], [-121.48619673214853, 47.40265376865864, 751.41], [-121.48635456338525, 47.402716130018234, 752.37], [-121.48636185564101, 47.40271160379052, 752.85], [-121.48654826916754, 47.402759632095695, 756.69], [-121.48667827248573, 47.40282869897783, 761.02], [-121.48679838515818, 47.40290053188801, 763.9], [-121.48706836625934, 47.40294990129769, 769.67], [-121.48741780780256, 47.40296029485762, 769.67], [-121.48771318607032, 47.40303824655712, 774.48], [-121.48786196485162, 47.40310287103057, 777.36], [-121.4879892859608, 47.403098260983825, 777.36], [-121.48820713162422, 47.40315165370703, 780.73], [-121.48848147131503, 47.40322784520686, 782.17], [-121.48872940801084, 47.40328182466328, 784.09], [-121.48883334361017, 47.40331510081887, 785.05], [-121.48901724256575, 47.40339598618448, 787.46], [-121.4892060868442, 47.40345465950668, 791.78], [-121.48936584591866, 47.40359438583255, 792.26], [-121.48958184756339, 47.403636295348406, 797.07], [-121.48966600187123, 47.4036746006459, 798.51], [-121.48990572430193, 47.4037575814873, 803.32], [-121.49013681337237, 47.40374584682286, 801.4], [-121.4904463570565, 47.403795551508665, 797.07], [-121.49066093377769, 47.40380032919347, 798.99], [-121.49089177139103, 47.4038765206933, 801.4], [-121.49105857126415, 47.4039645306766, 801.88], [-121.4911562204361, 47.40409009158611, 802.84], [-121.49116032756865, 47.40414272993803, 803.32], [-121.49123668670654, 47.40433911792934, 802.36], [-121.49127130396664, 47.40436736494303, 803.8], [-121.49136568419635, 47.404351104050875, 804.28], [-121.49154145270586, 47.404345320537686, 804.76], [-121.49161085486412, 47.40439871326089, 803.32], [-121.49165418930352, 47.40447599440813, 801.4], [-121.49180405773222, 47.40458303131163, 800.44], [-121.49186097085476, 47.40460163913667, 802.36], [-121.49181445129216, 47.40454539656639, 814.85], [-121.49183431640267, 47.40449342876673, 816.78], [-121.49189818650484, 47.40443835966289, 817.26], [-121.49191888980567, 47.40436761640012, 818.22], [-121.49199860170484, 47.40427969023585, 818.7], [-121.49225651286542, 47.404278768226504, 815.34], [-121.49242825806141, 47.40429771132767, 815.34], [-121.49277694523335, 47.40443148650229, 817.74], [-121.4928653743118, 47.404443472623825, 818.22], [-121.49285104125738, 47.404474318027496, 822.55], [-121.4931314997375, 47.40455210208893, 822.06], [-121.49305941537023, 47.40458395332098, 822.06], [-121.49311699904501, 47.40458931773901, 821.58], [-121.49305639788508, 47.40464740432799, 822.55], [-121.49302806705236, 47.40463776513934, 825.91], [-121.49284483864903, 47.40463374182582, 827.83], [-121.4928135741502, 47.40461421199143, 829.27], [-121.49265113286674, 47.40466995164752, 829.27], [-121.49261869490147, 47.40472703240812, 831.2], [-121.49263344705105, 47.40476030856371, 834.56], [-121.49250344373286, 47.4048107676208, 837.45], [-121.4924065489322, 47.40490397438407, 835.52], [-121.49253445677459, 47.404881343245506, 836.0], [-121.49260696023703, 47.40488100796938, 839.85], [-121.49267208762467, 47.40489919669926, 839.85], [-121.49276093579829, 47.40486994385719, 839.37], [-121.4929948747158, 47.404922749847174, 841.77], [-121.49318271316588, 47.40492358803749, 841.29], [-121.49345696903765, 47.40497698076069, 838.41], [-121.49337298236787, 47.405023500323296, 842.25], [-121.49332604371011, 47.40502576343715, 844.18], [-121.49319050833583, 47.40512332879007, 847.54], [-121.49306897073984, 47.40515769459307, 849.46], [-121.49295665323734, 47.405228689312935, 852.35], [-121.49271827191114, 47.40529934875667, 853.31], [-121.49276185780764, 47.405262384563684, 861.96], [-121.49299982003868, 47.40523631684482, 867.25], [-121.49308254942298, 47.40525241009891, 871.09], [-121.49333409033716, 47.40528350695968, 873.5], [-121.49381152354181, 47.40532516501844, 887.91], [-121.49392023682594, 47.405316196382046, 892.72], [-121.49403045885265, 47.405259450897574, 891.76], [-121.49424168281257, 47.40523933432996, 892.24], [-121.49453957565129, 47.40523396991193, 893.2], [-121.49475079961121, 47.405241345986724, 889.84], [-121.49478415958583, 47.405248219147325, 889.84], [-121.49490016512573, 47.4052114225924, 892.72], [-121.49508842267096, 47.40517470985651, 893.2], [-121.49531649425626, 47.40515216253698, 894.64], [-121.49552294053137, 47.405232628807425, 893.68], [-121.49577146396041, 47.405361626297235, 895.12], [-121.49586634710431, 47.40544385276735, 898.01], [-121.49619290605187, 47.40553286857903, 897.53], [-121.49632215499878, 47.40558525547385, 901.85], [-121.4962746296078, 47.405611826106906, 904.26], [-121.49634562432766, 47.40560260601342, 904.74], [-121.49646003730595, 47.40565750747919, 904.74], [-121.49646364152431, 47.40569740533829, 907.62], [-121.49655617773533, 47.40575674921274, 897.05], [-121.49665617384017, 47.40595322102308, 898.49], [-121.49672775529325, 47.40618162788451, 900.89], [-121.49668551050127, 47.4062563944608, 905.7], [-121.4967836625874, 47.406345745548606, 919.64], [-121.49691877886653, 47.40652436390519, 924.93], [-121.49686806835234, 47.406565602868795, 935.02], [-121.49685004726052, 47.40661748684943, 938.86], [-121.4969239756465, 47.40666442550719, 941.75], [-121.49685373529792, 47.4066448956728, 941.75], [-121.49683831259608, 47.40657792426646, 938.86], [-121.49686018936336, 47.40653635002673, 940.31], [-121.49688801728189, 47.406402826309204, 939.83], [-121.49708658456802, 47.40625840611756, 935.98], [-121.49721834808588, 47.40619202144444, 931.65], [-121.49736293591559, 47.40613594651222, 929.25], [-121.49749587289989, 47.40612446330488, 926.37], [-121.49765496142209, 47.406129660084844, 925.89], [-121.49778429418802, 47.40615379996598, 926.85], [-121.49793139658868, 47.40619788877666, 927.81], [-121.49804874323308, 47.406273828819394, 928.77], [-121.49815242737532, 47.40630241110921, 929.73], [-121.49847144261003, 47.406332083046436, 930.21], [-121.498619383201, 47.406397545710206, 933.1], [-121.49877713061869, 47.40647977218032, 935.02], [-121.49881644174457, 47.40650877356529, 940.31], [-121.49878609925508, 47.40669543854892, 945.59], [-121.49868945591152, 47.40671840496361, 947.52], [-121.49871577508748, 47.40663659758866, 949.44], [-121.49879531934857, 47.40670306608081, 948.0], [-121.49883940815926, 47.406682362779975, 946.56], [-121.49913688190281, 47.406676998361945, 946.07], [-121.4990496262908, 47.406697450205684, 948.96], [-121.49915465153754, 47.40664263255894, 949.92], [-121.49925347417593, 47.40662486292422, 949.92], [-121.49939730763435, 47.406646236777306, 949.44], [-121.49964499287307, 47.40659871138632, 948.0], [-121.49981925264001, 47.40659041330218, 946.56], [-121.50003366172314, 47.40655110217631, 945.59], [-121.500263242051, 47.40657348185778, 943.67], [-121.50044546462595, 47.40664439275861, 943.19], [-121.50049240328372, 47.406615475192666, 943.67], [-121.5006070677191, 47.406604243442416, 941.75], [-121.50082709267735, 47.40661279298365, 942.23], [-121.50098148733377, 47.40662653930485, 942.23], [-121.50113856419921, 47.406682362779975, 941.27], [-121.50132204405963, 47.40673298947513, 941.75], [-121.50143100880086, 47.40678613074124, 944.63], [-121.50160619057715, 47.40681177936494, 950.88], [-121.50183049030602, 47.4068314768374, 956.17], [-121.50193777866662, 47.40685310214758, 961.46], [-121.50211916305125, 47.40682854317129, 966.74], [-121.50231395848095, 47.40685410797596, 971.07], [-121.50242837145925, 47.406855365261436, 972.99], [-121.5026156231761, 47.406831393018365, 975.39], [-121.50281611829996, 47.40689668804407, 977.32], [-121.50311174802482, 47.40695854648948, 983.09], [-121.503233788535, 47.40701696835458, 983.57], [-121.50329380296171, 47.40703482180834, 985.49], [-121.5034274943173, 47.40703624673188, 983.57], [-121.50354601442814, 47.40700917318463, 985.01], [-121.50368548929691, 47.40706994198263, 985.49], [-121.50388984009624, 47.40707396529615, 986.45], [-121.50408681482077, 47.40711688064039, 986.93], [-121.50423685088754, 47.407139679417014, 988.85], [-121.50436668656766, 47.4071523360908, 988.37], [-121.50443164631724, 47.40722534246743, 986.93], [-121.50465636514127, 47.407318549230695, 988.37], [-121.50495115667582, 47.40735459141433, 990.3], [-121.50535709224641, 47.40741209127009, 994.14], [-121.50544434785843, 47.40744452923536, 991.26], [-121.50555113330483, 47.40751342847943, 990.78], [-121.50570686906576, 47.407560870051384, 988.37], [-121.50578188709915, 47.40762356668711, 988.85], [-121.50592781603336, 47.4076119158417, 987.89], [-121.50610978715122, 47.40767486393452, 984.05], [-121.50618606247008, 47.40767989307642, 985.01], [-121.50630324147642, 47.40777477622032, 988.85], [-121.5065148845315, 47.407843340188265, 989.33], [-121.50654648430645, 47.40783822722733, 990.3], [-121.5066512580961, 47.407860020175576, 990.78], [-121.5069789905101, 47.40790461190045, 997.51], [-121.50707580149174, 47.40797828882933, 999.91], [-121.50711863301694, 47.408037800341845, 1002.79], [-121.50726112537086, 47.40814450196922, 1007.6], [-121.50733748450875, 47.408189848065376, 1013.85], [-121.50742859579623, 47.40821901708841, 1018.17], [-121.50777191855013, 47.40818867459893, 1024.9], [-121.50793234817684, 47.408219100907445, 1025.86], [-121.50804215110838, 47.408263524994254, 1030.67], [-121.50811507366598, 47.40827081725001, 1028.27], [-121.50826385244727, 47.408323204144835, 1022.02], [-121.50815446861088, 47.408334435895085, 1022.98], [-121.50839234702289, 47.40842345170677, 1022.02], [-121.50853433646262, 47.40851984359324, 1023.46], [-121.50859158486128, 47.40863165818155, 1025.38], [-121.50861857458949, 47.40876719355583, 1026.83], [-121.50858052074909, 47.40900783799589, 1028.75], [-121.50857532396913, 47.409105487167835, 1032.11], [-121.50862033478916, 47.409215457737446, 1037.88], [-121.50859317742288, 47.40942274220288, 1048.94], [-121.5085992962122, 47.409562887623906, 1055.18], [-121.50867573916912, 47.40964922122657, 1061.91], [-121.50872728787363, 47.40980294533074, 1067.2], [-121.50865729898214, 47.409845693036914, 1072.01], [-121.50864967145026, 47.40983236581087, 1058.55], [-121.50858982466161, 47.40991626866162, 1055.18], [-121.50864455848932, 47.41017837077379, 1054.22], [-121.50872502475977, 47.41043904796243, 1052.78], [-121.50879107415676, 47.41059503518045, 1053.74], [-121.50892124511302, 47.410733085125685, 1056.15], [-121.50905535556376, 47.41084381006658, 1058.55], [-121.50912291370332, 47.410976495593786, 1059.51], [-121.50920983403921, 47.411125442013144, 1061.43], [-121.50923615321517, 47.411330714821815, 1062.87], [-121.50928686372936, 47.41146834567189, 1062.39], [-121.50944695807993, 47.4116266798228, 1063.36], [-121.50963680818677, 47.411671690642834, 1076.81], [-121.50961585342884, 47.41175509057939, 1078.74], [-121.5096971578896, 47.411923399195075, 1077.78], [-121.50989136658609, 47.41213286295533, 1080.66], [-121.51003654114902, 47.412251215428114, 1087.39], [-121.51018054224551, 47.412311397492886, 1087.39], [-121.51030333712697, 47.41253301501274, 1082.1], [-121.51024835184216, 47.41272797808051, 1080.66], [-121.51011759415269, 47.41291061975062, 1087.87], [-121.5099788736552, 47.41315294057131, 1087.87], [-121.50984786450863, 47.413270538672805, 1097.48], [-121.50981425307691, 47.41344295442104, 1104.21], [-121.50977745652199, 47.41344538517296, 1105.65], [-121.50986454449594, 47.41356306709349, 1104.69], [-121.50986923836172, 47.41379650309682, 1103.25], [-121.50982783176005, 47.41399456746876, 1098.44], [-121.50986161082983, 47.414168156683445, 1090.27], [-121.50989228859544, 47.414296148344874, 1097.0], [-121.50994157418609, 47.414442244917154, 1097.48], [-121.51007015258074, 47.414562525227666, 1096.04], [-121.5100705716759, 47.41470702923834, 1095.56], [-121.51004542596638, 47.414893778041005, 1096.04], [-121.51002799160779, 47.41506803780794, 1097.0], [-121.5100880060345, 47.415265683084726, 1098.92], [-121.5100565738976, 47.41539862006903, 1099.4], [-121.51005967520177, 47.41555653512478, 1100.85], [-121.51005037128925, 47.41576264612377, 1101.33], [-121.51010049507022, 47.41596071049571, 1101.81], [-121.51010250672698, 47.4161546677351, 1101.81], [-121.51008171960711, 47.41632708348334, 1103.73], [-121.51007325388491, 47.41645239293575, 1106.13], [-121.51007618755102, 47.41654492914677, 1125.36], [-121.51010359637439, 47.41658918559551, 1130.65], [-121.51009764522314, 47.41662279702723, 1129.69], [-121.51014173403382, 47.416735952720046, 1129.69], [-121.51020987890661, 47.41687182337046, 1128.73], [-121.51029143482447, 47.41698338650167, 1131.13], [-121.51044205762446, 47.417074078693986, 1135.94], [-121.51041858829558, 47.417154209688306, 1142.66], [-121.51040509343147, 47.41711523383856, 1143.63], [-121.51049964129925, 47.417129734531045, 1135.45], [-121.5107735618949, 47.417227467522025, 1132.57], [-121.51100565679371, 47.41738353855908, 1132.09], [-121.51117840781808, 47.417455622926354, 1133.05], [-121.51129776611924, 47.41752862930298, 1135.94], [-121.51147889904678, 47.41772325709462, 1133.53], [-121.51162340305746, 47.41779291070998, 1130.17], [-121.51185298338532, 47.41786742582917, 1126.8], [-121.51213126257062, 47.41785787045956, 1118.63], [-121.51262579485774, 47.418005894869566, 1110.94], [-121.5128056704998, 47.41811050102115, 1109.02], [-121.51291664689779, 47.418217957019806, 1110.94], [-121.51309358887374, 47.4182855989784, 1109.98], [-121.51322225108743, 47.41829331032932, 1110.94], [-121.51327061466873, 47.41827537305653, 1108.54], [-121.51343297213316, 47.41828501224518, 1110.46], [-121.51357613503933, 47.4183305259794, 1114.79], [-121.51381309144199, 47.41832432337105, 1117.67], [-121.51400160044432, 47.418480310589075, 1118.63], [-121.5142150875181, 47.41868332028389, 1117.19], [-121.51431013830006, 47.418681643903255, 1122.96], [-121.5141955576837, 47.41873009130359, 1122.48], [-121.51414987631142, 47.41884618066251, 1124.88], [-121.51417552493513, 47.419006526470184, 1128.24], [-121.51414224877954, 47.41905472241342, 1132.57], [-121.51411718688905, 47.41900132969022, 1134.01], [-121.51404191739857, 47.41902085952461, 1134.97], [-121.51392272673547, 47.419132590293884, 1137.38], [-121.51378065347672, 47.41919361054897, 1140.74], [-121.51363698765635, 47.41928597912192, 1142.66], [-121.51355928741395, 47.41935554891825, 1141.7], [-121.51344696991146, 47.419432159513235, 1143.14], [-121.51338209398091, 47.419545063748956, 1144.11], [-121.51330724358559, 47.419659309089184, 1146.03], [-121.5132031403482, 47.419771710410714, 1147.95], [-121.51314178481698, 47.419939348474145, 1148.43], [-121.51308981701732, 47.4200642388314, 1147.95], [-121.51300356723368, 47.420195415616035, 1151.8], [-121.51291807182133, 47.42027319967747, 1154.68], [-121.51283425278962, 47.42038023658097, 1153.72], [-121.51277993805707, 47.420517867431045, 1154.2], [-121.51276619173586, 47.420654743909836, 1153.72], [-121.51276803575456, 47.42072481662035, 1156.6], [-121.51267399080098, 47.42075574584305, 1161.41], [-121.51264448650181, 47.42066413164139, 1161.89], [-121.51255320757627, 47.42061618715525, 1160.93], [-121.5125191770494, 47.42069263011217, 1159.49], [-121.51242387481034, 47.42078005336225, 1154.2], [-121.51233066804707, 47.420886754989624, 1150.35], [-121.51222455315292, 47.42095003835857, 1148.91], [-121.51199849322438, 47.42099018767476, 1146.51], [-121.51198457926512, 47.420964539051056, 1140.26], [-121.51182976551354, 47.42094811052084, 1143.63], [-121.51173781603575, 47.4208932928741, 1144.59], [-121.51182473637164, 47.420921958982944, 1138.82], [-121.51186044327915, 47.42100250907242, 1142.18], [-121.51179816573858, 47.4209588393569, 1146.51], [-121.5118180308491, 47.42093302309513, 1140.74], [-121.51174234226346, 47.42092816159129, 1140.74], [-121.51187812909484, 47.42100661620498, 1143.63], [-121.51198499836028, 47.42094534449279, 1140.74], [-121.51204878464341, 47.42100661620498, 1140.26], [-121.51205372996628, 47.42114994674921, 1143.63], [-121.51207502000034, 47.421263521537185, 1144.11], [-121.51205305941403, 47.42138690315187, 1145.07], [-121.51207024231553, 47.42145085707307, 1144.59], [-121.51219865307212, 47.42144364863634, 1146.99], [-121.51222589425743, 47.421474661678076, 1151.8], [-121.51213369332254, 47.42149050347507, 1156.6], [-121.51200737804174, 47.42145722731948, 1156.12], [-121.51206194423139, 47.421485893428326, 1148.91], [-121.51211475022137, 47.421632492914796, 1148.43], [-121.5121219586581, 47.42172108963132, 1146.99], [-121.51205976493657, 47.42174506187439, 1145.07], [-121.51206160895526, 47.42187548428774, 1143.63], [-121.51211567223072, 47.422153763473034, 1141.22], [-121.512071499601, 47.4222799949348, 1142.18], [-121.5119596850127, 47.42244436405599, 1138.82], [-121.51206605136395, 47.422259878367186, 1136.42], [-121.51210946962237, 47.42213557474315, 1135.45], [-121.51213905774057, 47.42201764136553, 1134.01], [-121.51210050098598, 47.42189249955118, 1134.49], [-121.51207979768515, 47.421792754903436, 1135.45], [-121.5120149217546, 47.42163626477122, 1134.97], [-121.51197074912488, 47.4215944390744, 1134.97], [-121.51199840940535, 47.42152134887874, 1134.97], [-121.51206093840301, 47.421499555930495, 1135.94], [-121.51201156899333, 47.42147055454552, 1137.38], [-121.51201349683106, 47.42143233306706, 1138.34], [-121.51206202805042, 47.42132177576423, 1140.26], [-121.51206454262137, 47.42122613824904, 1142.66], [-121.51199874468148, 47.421024553477764, 1142.66], [-121.5120857488364, 47.42097300477326, 1140.26], [-121.51224869303405, 47.420990439131856, 1146.03], [-121.51239990256727, 47.420937968418, 1146.99], [-121.51252747513354, 47.42088566534221, 1147.47], [-121.51259352453053, 47.420923970639706, 1153.72], [-121.51252781040967, 47.42095003835857, 1156.6], [-121.51250258088112, 47.42085373029113, 1151.32], [-121.51247123256326, 47.420804696157575, 1147.47], [-121.5125329233706, 47.42079212330282, 1151.32], [-121.51277876459062, 47.42071928456426, 1152.76], [-121.51278748176992, 47.4206995870918, 1153.24], [-121.51274523697793, 47.420601435005665, 1154.2], [-121.51276065967977, 47.42052851244807, 1154.68], [-121.5128664392978, 47.42030999623239, 1147.95], [-121.51295713149011, 47.42021385580301, 1146.99], [-121.51297448202968, 47.420163145288825, 1147.95], [-121.51306768879294, 47.42010095156729, 1145.07], [-121.51309107430279, 47.42001285776496, 1143.63], [-121.51313088834286, 47.41990674287081, 1141.7], [-121.51330959051847, 47.419693507254124, 1139.78], [-121.51331881061196, 47.41966593079269, 1139.78], [-121.51342987082899, 47.419577250257134, 1138.82], [-121.5136088244617, 47.419351525604725, 1136.9], [-121.51373044587672, 47.419241638854146, 1134.97], [-121.51388492435217, 47.419146336615086, 1134.01], [-121.51405951939523, 47.41901708766818, 1133.05], [-121.51411240920424, 47.418818436563015, 1129.69], [-121.514235958457, 47.41873545572162, 1129.21], [-121.5141839068383, 47.418638141825795, 1126.8], [-121.51403445750475, 47.41856119595468, 1122.96], [-121.513900347054, 47.41846153512597, 1122.0], [-121.51371653191745, 47.418335722759366, 1120.07], [-121.51349365711212, 47.418332705274224, 1116.23], [-121.51339726522565, 47.41831644438207, 1113.34], [-121.51324815116823, 47.41831686347723, 1110.94], [-121.51303885504603, 47.41827621124685, 1113.34], [-121.51305352337658, 47.41818308830261, 1115.27], [-121.5131267812103, 47.41831426508725, 1114.31], [-121.5130385197699, 47.41830110549927, 1112.38], [-121.51296802796423, 47.41822558455169, 1119.11], [-121.51286677457392, 47.418138245120645, 1118.63], [-121.51264113374054, 47.41799449548125, 1122.48], [-121.51259201578796, 47.41801109164953, 1121.03], [-121.51242186315358, 47.41798133589327, 1122.0], [-121.51223729364574, 47.41793431341648, 1122.48], [-121.51197745464742, 47.41795007139444, 1126.8], [-121.51176053099334, 47.41787027567625, 1130.17], [-121.51159004308283, 47.41774764843285, 1132.09], [-121.5114810783416, 47.41765804588795, 1131.61], [-121.51130245998502, 47.41758587770164, 1133.53], [-121.5110531821847, 47.417452773079276, 1132.57], [-121.51093969121575, 47.417282201349735, 1129.21], [-121.51063886471093, 47.417147755622864, 1129.69], [-121.51045680977404, 47.41708296351135, 1133.53], [-121.51038103736937, 47.41693359799683, 1140.74], [-121.5102513693273, 47.41683184169233, 1141.7], [-121.51013075374067, 47.41644753143191, 1132.09], [-121.51011927053332, 47.41624653339386, 1130.65], [-121.51013259775937, 47.4160819966346, 1128.24], [-121.5101881697774, 47.41590555757284, 1129.21], [-121.51015581563115, 47.41586297750473, 1129.21], [-121.51015179231763, 47.41566172800958, 1128.73], [-121.51018163189292, 47.41557807661593, 1127.28], [-121.51009714230895, 47.415476152673364, 1125.36], [-121.51015279814601, 47.415326200425625, 1125.36], [-121.51011482812464, 47.41501799784601, 1122.96], [-121.51009672321379, 47.414803840219975, 1121.52], [-121.51012262329459, 47.414527321234345, 1118.15], [-121.50990536436439, 47.41441793739796, 1118.15], [-121.50986186228693, 47.414200427010655, 1113.82], [-121.50990067049861, 47.41404519416392, 1110.94], [-121.50969271548092, 47.41397981531918, 1107.58], [-121.50980184786022, 47.413740092888474, 1108.06], [-121.50983713567257, 47.41354647092521, 1102.29], [-121.50986068882048, 47.413356117904186, 1096.52], [-121.50985775515437, 47.413242710754275, 1091.23], [-121.5100478567183, 47.41303190588951, 1089.31], [-121.51013997383416, 47.412816071882844, 1091.71], [-121.51020904071629, 47.41260333918035, 1092.68], [-121.510128993541, 47.41245103999972, 1089.31], [-121.50998398661613, 47.41228323429823, 1080.66], [-121.50979748927057, 47.412177454680204, 1071.05], [-121.50967134162784, 47.41199464537203, 1067.68], [-121.50962540879846, 47.41181041114032, 1068.64], [-121.50952130556107, 47.411692813038826, 1068.16], [-121.50935660116374, 47.41159860044718, 1066.24], [-121.50918854400516, 47.41139676421881, 1064.8], [-121.5091860294342, 47.41112762130797, 1061.91], [-121.5091651584953, 47.41101287305355, 1063.84], [-121.50905460119247, 47.410839116200805, 1062.39], [-121.50886802002788, 47.410642644390464, 1058.07], [-121.50872745551169, 47.41046427749097, 1057.11], [-121.50871329009533, 47.41023981012404, 1052.3], [-121.50860340334475, 47.409946862608194, 1047.97], [-121.50860608555377, 47.40974158979952, 1046.53], [-121.50856803171337, 47.40931084379554, 1037.4], [-121.50859611108899, 47.408830309286714, 1026.83], [-121.50857046246529, 47.4086254555732, 1023.94], [-121.50845973752439, 47.40850894711912, 1021.06], [-121.50816075503826, 47.40836159326136, 1019.13], [-121.50789496488869, 47.40830241702497, 1016.73], [-121.50761819444597, 47.408282635733485, 1011.44], [-121.50738584809005, 47.40827961824834, 1009.52], [-121.50718032382429, 47.40814810618758, 1009.04], [-121.50702140294015, 47.407981641590595, 1010.48], [-121.50669652037323, 47.40787586197257, 1009.52], [-121.50648420676589, 47.40779028274119, 1009.04], [-121.50665637105703, 47.40777360275388, 1007.6], [-121.5067183971405, 47.40774594247341, 1010.0], [-121.50668486952782, 47.40778257139027, 1011.93], [-121.50655277073383, 47.40785817615688, 1008.56], [-121.50665134191513, 47.40782322362065, 1010.0], [-121.50665662251413, 47.40772909484804, 1013.85], [-121.5066356677562, 47.407696740701795, 1015.29], [-121.50659535080194, 47.40780729800463, 1012.41], [-121.50657875463367, 47.407744601368904, 1016.25], [-121.50648990646005, 47.407759772613645, 1016.73], [-121.50629100389779, 47.40775424055755, 1018.17], [-121.50600484572351, 47.40768710151315, 1015.29], [-121.50593837723136, 47.40766782313585, 1014.33], [-121.50570561178029, 47.407658183947206, 1012.89], [-121.50547343306243, 47.40759238600731, 1010.0], [-121.50533848442137, 47.40752608515322, 1010.0], [-121.50509960018098, 47.40746975876391, 1007.12], [-121.50501502677798, 47.40746045485139, 1007.12], [-121.50491192936897, 47.40742583759129, 1006.64], [-121.50476424023509, 47.407403038814664, 1007.12], [-121.50455435737967, 47.40732802078128, 1006.64], [-121.50433047674596, 47.40727320313454, 1005.68], [-121.50415202602744, 47.40721528418362, 1004.72], [-121.50378783233464, 47.40718795917928, 1004.23], [-121.50364550761878, 47.40712911821902, 1004.23], [-121.50355942547321, 47.40708050318062, 1003.75], [-121.50329355150461, 47.407030211761594, 1000.87], [-121.50305558927357, 47.40698930807412, 998.95], [-121.5028524119407, 47.406984362751245, 997.02], [-121.50239501148462, 47.4069126136601, 994.14], [-121.5022458974272, 47.40689962171018, 993.18], [-121.50215361267328, 47.4068777449429, 993.18], [-121.50200416333973, 47.406853437423706, 992.22], [-121.50196116417646, 47.40686039440334, 992.22], [-121.50171129964292, 47.406839774921536, 988.37], [-121.50152530521154, 47.406841116026044, 986.93], [-121.50129731744528, 47.406804068014026, 985.97], [-121.50087939575315, 47.40670231170952, 981.16], [-121.50066297501326, 47.406663252040744, 979.72], [-121.50038167834282, 47.40666124038398, 978.76], [-121.50016291067004, 47.406639866530895, 978.76], [-121.49977608583868, 47.40664238110185, 978.76], [-121.49944449774921, 47.406656965613365, 978.76], [-121.49913269095123, 47.40667532198131, 978.76], [-121.49885977618396, 47.406698288396, 978.76], [-121.49869197048247, 47.4066602345556, 978.76], [-121.49867353029549, 47.40652243606746, 978.76], [-121.49844805710018, 47.40642889402807, 978.28], [-121.49819073267281, 47.40631766617298, 978.28], [-121.49768396280706, 47.40613971836865, 977.8], [-121.49735958315432, 47.40610392764211, 977.8], [-121.4970616903156, 47.40614466369152, 977.8], [-121.49692514911294, 47.40625714883208, 977.32], [-121.49683864787221, 47.40643291734159, 977.32], [-121.4967963192612, 47.40654925815761, 977.32], [-121.49668576195836, 47.40655889734626, 977.32], [-121.49664217606187, 47.406455632299185, 976.84], [-121.49661568924785, 47.40635722875595, 976.36], [-121.49677528068423, 47.40631330758333, 976.36], [-121.49662625044584, 47.40619646385312, 975.88], [-121.49644570425153, 47.406005859375, 975.88], [-121.49635224603117, 47.405811147764325, 975.39], [-121.49622769095004, 47.40565658546984, 974.91], [-121.49608603678644, 47.405561869964004, 974.91], [-121.49584329687059, 47.4054498039186, 974.91], [-121.49556057527661, 47.405365984886885, 974.43], [-121.49533887393773, 47.405207650735974, 973.95], [-121.49529268965125, 47.40516892634332, 973.95], [-121.49501164443791, 47.40506951697171, 973.47], [-121.49466597475111, 47.40512743592262, 972.51], [-121.49440370500088, 47.405263390392065, 968.18], [-121.49423916824162, 47.40519734099507, 958.09], [-121.49403682909906, 47.40515811368823, 947.52], [-121.49378621019423, 47.40530873648822, 937.9], [-121.49355939589441, 47.40527981892228, 935.02], [-121.49341044947505, 47.40524277091026, 933.58], [-121.49320626631379, 47.40521963685751, 929.73], [-121.49291885085404, 47.4052322935313, 925.89], [-121.49280661717057, 47.405159790068865, 917.72], [-121.49281424470246, 47.40500573068857, 908.58], [-121.49278348311782, 47.404890982434154, 902.33], [-121.49273143149912, 47.40476332604885, 897.05], [-121.49271240457892, 47.40465922281146, 889.84], [-121.4926896058023, 47.40462343208492, 886.47], [-121.49271768517792, 47.40451882593334, 882.15], [-121.49276135489345, 47.40443148650229, 874.46], [-121.49271776899695, 47.40439200773835, 872.05], [-121.49249866604805, 47.40435998886824, 869.17], [-121.49229330942035, 47.40424959920347, 869.17], [-121.49200916290283, 47.40418715402484, 858.11], [-121.4918779861182, 47.404260244220495, 856.19], [-121.4917791634798, 47.40445537492633, 855.71], [-121.49167045019567, 47.404550509527326, 854.27], [-121.49160507135093, 47.40447398275137, 851.38], [-121.49163574911654, 47.4043998029083, 846.58], [-121.49175778962672, 47.40436594001949, 843.69], [-121.49145553819835, 47.40428052842617, 841.77], [-121.49116912856698, 47.404262674972415, 838.89], [-121.49104985408485, 47.40404164418578, 834.08], [-121.49099168367684, 47.40391734056175, 826.39], [-121.49088841862977, 47.40387115627527, 824.95], [-121.49055465124547, 47.40381231531501, 818.7], [-121.49025206454098, 47.40381742827594, 814.85], [-121.49013387970626, 47.4037869181484, 815.34], [-121.4898971747607, 47.403788175433874, 814.37], [-121.4896418619901, 47.403753474354744, 814.85], [-121.48943885229528, 47.403692873194814, 814.85], [-121.48923165164888, 47.403675355017185, 812.45], [-121.48911799304187, 47.403555074706674, 809.57], [-121.4888696372509, 47.403454491868615, 808.61], [-121.4886727463454, 47.40335734561086, 808.13], [-121.4884362090379, 47.40329875610769, 806.2], [-121.4882533159107, 47.40320077165961, 803.8], [-121.48810529150069, 47.40318216383457, 802.84], [-121.48794720880687, 47.403152575716376, 801.4], [-121.48773271590471, 47.403140338137746, 799.95], [-121.48744203150272, 47.40304537117481, 797.55], [-121.48741437122226, 47.40302483551204, 797.07], [-121.48724061436951, 47.402937496080995, 795.15], [-121.48715017363429, 47.40293590351939, 794.19], [-121.48695747368038, 47.40296741947532, 793.71], [-121.48680391721427, 47.40294998511672, 794.67], [-121.48667198605835, 47.40296079777181, 793.71], [-121.48661356419325, 47.40291570313275, 792.74], [-121.48636319674551, 47.40279735065997, 790.82], [-121.48629555478692, 47.40271822549403, 788.9], [-121.48618700914085, 47.402665335685015, 787.94], [-121.48596061393619, 47.402617475017905, 783.13], [-121.48566959425807, 47.40258302539587, 778.32], [-121.4855766389519, 47.40245847031474, 775.44], [-121.48538041859865, 47.40242913365364, 774.48], [-121.48519165813923, 47.40247162990272, 773.52], [-121.4850097708404, 47.40237322635949, 773.52], [-121.4846719801426, 47.40224967710674, 772.08], [-121.48449000902474, 47.4022205080837, 767.75], [-121.48435648530722, 47.40219318307936, 759.1], [-121.48422363214195, 47.4021013174206, 749.49], [-121.48400570265949, 47.40203183144331, 742.76], [-121.48384250700474, 47.40200098603964, 739.87], [-121.48341352120042, 47.401877688243985, 738.91], [-121.48317874409258, 47.40182287059724, 737.95], [-121.48294455371797, 47.40173033438623, 736.03], [-121.48264129646122, 47.401743829250336, 733.62], [-121.48244474083185, 47.40166001021862, 732.66], [-121.48215539753437, 47.40155917592347, 731.22], [-121.4820191077888, 47.401554649695754, 731.22], [-121.48179438896477, 47.401536125689745, 731.7], [-121.48163538426161, 47.40144241601229, 727.37], [-121.48158735595644, 47.40142682567239, 727.86], [-121.48128585889935, 47.401354322209954, 727.86], [-121.48109793663025, 47.40128508768976, 726.41], [-121.48097841069102, 47.401216020807624, 725.93], [-121.48079157806933, 47.40108040161431, 723.05], [-121.48053634911776, 47.40091728977859, 719.2], [-121.4802769292146, 47.40071386098862, 715.36], [-121.48009998723865, 47.400515377521515, 708.15], [-121.47993955761194, 47.40037280134857, 699.02], [-121.48005162365735, 47.400301303714514, 694.69], [-121.4801019988954, 47.40017607808113, 690.36], [-121.48020534776151, 47.400117572396994, 686.04], [-121.480513215065, 47.40021069534123, 683.15], [-121.48129055276513, 47.4004693608731, 674.98], [-121.48186706006527, 47.40052979439497, 664.89], [-121.48225832730532, 47.40050406195223, 656.24], [-121.48255093954504, 47.40045368671417, 654.31], [-121.48282318376005, 47.40042611025274, 653.35], [-121.48305108770728, 47.40043222904205, 651.91], [-121.48335258476436, 47.40033784881234, 650.95], [-121.48361602798104, 47.40024019964039, 652.39], [-121.48390813730657, 47.40016174502671, 649.99], [-121.48410687223077, 47.400112207978964, 647.59], [-121.48437224328518, 47.400062922388315, 646.14], [-121.48450342006981, 47.40007180720568, 644.22], [-121.48455723188818, 47.40012813359499, 640.38], [-121.48466234095395, 47.400062084198, 636.05], [-121.48503759875894, 47.399963261559606, 634.13], [-121.48516978137195, 47.39994985051453, 633.65], [-121.48551754653454, 47.39988128654659, 630.28], [-121.48592297919095, 47.39985262043774, 626.44], [-121.48622003383934, 47.39980869926512, 623.55], [-121.48647719062865, 47.399722365662456, 618.26], [-121.48687776178122, 47.39963863044977, 611.54], [-121.48707021027803, 47.399595296010375, 608.65], [-121.4873312227428, 47.39947778172791, 608.65], [-121.48762953467667, 47.399416007101536, 608.65], [-121.48788744583726, 47.39931500516832, 605.29], [-121.48786833509803, 47.399300672113895, 600.96], [-121.48784637451172, 47.399340653792024, 599.52], [-121.4876697678119, 47.39928005263209, 595.19], [-121.48748880252242, 47.39919573068619, 592.79], [-121.48712276481092, 47.39910830743611, 590.39], [-121.48689896799624, 47.399036809802055, 591.35], [-121.4867215231061, 47.39891778677702, 590.39], [-121.48657400161028, 47.39885249175131, 589.43], [-121.48652027361095, 47.39876003935933, 587.02], [-121.48659847676754, 47.39871603436768, 587.5], [-121.48656796664, 47.39879423752427, 585.58], [-121.48662647232413, 47.39878132939339, 584.14], [-121.48655908182263, 47.39864227361977, 583.66], [-121.48663602769375, 47.39856641739607, 581.73], [-121.48678698576987, 47.39835393615067, 575.01], [-121.48684155195951, 47.39807238802314, 572.12], [-121.4868283085525, 47.39800499752164, 567.32], [-121.48681204766035, 47.39802494645119, 562.03], [-121.48672780953348, 47.39802855066955, 561.07], [-121.48652320727706, 47.39794800058007, 561.55], [-121.48638356477022, 47.39779159426689, 563.47], [-121.48628231137991, 47.39773208275437, 567.8], [-121.48618432693183, 47.39771808497608, 566.35], [-121.48626890033484, 47.397747337818146, 571.16], [-121.48623562417924, 47.3977910913527, 569.72]]}}