{"type": "Feature", "properties": {}, "geometry": {"type": "LineString", "coordinates": [[-119.374769, 37.87264, 2616.4], [-119.374773, 37.872683, 2616.4], [-119.374756, 37.872657, 2616.4], [-119.374798, 37.872574, 2616.4], [-119.374874, 37.872531, 2617.5], [-119.37495, 37.872455, 2617.5], [-119.374949, 37.872412, 2618.4], [-119.374982, 37.872361, 2618.4], [-119.375124, 37.872263, 2619.7], [-119.375209, 37.872293, 2618.8], [-119.375444, 37.872268, 2620.6], [-119.375594, 37.872277, 2620.8], [-119.375762, 37.872223, 2620.8], [-119.375799, 37.872196, 2620.8], [-119.375916, 37.872201, 2621.0], [-119.376016, 37.872184, 2621.0], [-119.376046, 37.872136, 2623.2], [-119.376103, 37.872111, 2624.4], [-119.37624, 37.872118, 2626.9], [-119.376063, 37.87219, 2621.0], [-119.376133, 37.872185, 2621.6], [-119.376388, 37.872214, 2623.1], [-119.376593, 37.872246, 2627.2], [-119.37669, 37.87222, 2627.2], [-119.376806, 37.872205, 2629.3], [-119.376826, 37.872189, 2629.3], [-119.376911, 37.872181, 2629.3], [-119.376964, 37.872195, 2631.5], [-119.377075, 37.872192, 2631.5], [-119.377184, 37.872155, 2633.7], [-119.377315, 37.872161, 2635.8], [-119.377438, 37.872129, 2639.8], [-119.377397, 37.872106, 2639.8], [-119.377413, 37.872083, 2639.8], [-119.37747, 37.872073, 2641.6], [-119.377501, 37.872053, 2641.6], [-119.377564, 37.872038, 2641.6], [-119.377612, 37.872009, 2641.6], [-119.37769, 37.871991, 2647.4], [-119.377731, 37.871971, 2647.4], [-119.377831, 37.871946, 2648.9], [-119.378037, 37.871968, 2650.0], [-119.378008, 37.871989, 2650.0], [-119.378092, 37.871985, 2650.0], [-119.378297, 37.871928, 2651.1], [-119.37835, 37.871948, 2651.3], [-119.378404, 37.871925, 2651.3], [-119.378345, 37.871828, 2655.0], [-119.37834, 37.871807, 2655.0], [-119.378262, 37.871641, 2657.9], [-119.378264, 37.871597, 2659.5], [-119.378206, 37.871512, 2659.5], [-119.378166, 37.87149, 2659.5], [-119.378108, 37.871436, 2659.7], [-119.378119, 37.871381, 2659.7], [-119.37811, 37.87129, 2658.2], [-119.378146, 37.871254, 2657.5], [-119.378217, 37.871239, 2656.6], [-119.378244, 37.871242, 2656.2], [-119.378277, 37.871281, 2655.3], [-119.378393, 37.871322, 2653.5], [-119.37845, 37.871333, 2652.8], [-119.378469, 37.87129, 2652.2], [-119.378533, 37.871294, 2651.7], [-119.378564, 37.871282, 2651.4], [-119.378626, 37.871296, 2651.0], [-119.378758, 37.871308, 2650.2], [-119.37884, 37.871326, 2649.6], [-119.378964, 37.871405, 2648.3], [-119.379073, 37.871409, 2647.3], [-119.379198, 37.871453, 2645.9], [-119.379308, 37.871453, 2644.6], [-119.379419, 37.871467, 2643.1], [-119.379494, 37.871461, 2642.1], [-119.379547, 37.871488, 2641.2], [-119.379649, 37.871466, 2640.0], [-119.379708, 37.87147, 2639.5], [-119.379807, 37.871442, 2638.7], [-119.379876, 37.871444, 2638.2], [-119.380037, 37.871359, 2637.0], [-119.380106, 37.871344, 2636.4], [-119.380205, 37.871355, 2635.7], [-119.38032, 37.871388, 2634.9], [-119.380399, 37.871451, 2634.0], [-119.380422, 37.871536, 2633.1], [-119.380498, 37.87157, 2632.2], [-119.380552, 37.87158, 2631.7], [-119.381104, 37.871745, 2626.8], [-119.381126, 37.871783, 2626.2], [-119.381192, 37.871806, 2625.5], [-119.381242, 37.871776, 2624.8], [-119.381317, 37.871766, 2623.9], [-119.38137, 37.871787, 2623.2], [-119.381439, 37.87186, 2621.9], [-119.381473, 37.871874, 2621.5], [-119.381519, 37.871916, 2620.7], [-119.381559, 37.871937, 2620.1], [-119.38162, 37.871951, 2619.5], [-119.381665, 37.871997, 2618.8], [-119.381771, 37.872041, 2617.6], [-119.381862, 37.872033, 2616.8], [-119.382014, 37.872039, 2615.9], [-119.382071, 37.872092, 2615.6], [-119.382058, 37.872067, 2615.6], [-119.382106, 37.872065, 2615.7], [-119.382148, 37.872048, 2615.8], [-119.382189, 37.872011, 2616.1], [-119.382245, 37.871997, 2616.3], [-119.382295, 37.871968, 2616.6], [-119.382349, 37.871902, 2617.1], [-119.382512, 37.871806, 2618.0], [-119.382639, 37.871747, 2618.7], [-119.382883, 37.871687, 2620.1], [-119.382911, 37.871661, 2620.5], [-119.382979, 37.871654, 2620.9], [-119.383201, 37.871606, 2621.9], [-119.38325, 37.871614, 2622.0], [-119.383295, 37.871639, 2622.0], [-119.383419, 37.871686, 2621.8], [-119.383805, 37.871959, 2621.1], [-119.383814, 37.871978, 2621.0], [-119.38387, 37.871999, 2620.9], [-119.383915, 37.871993, 2621.5], [-119.384235, 37.871641, 2627.1], [-119.384244, 37.871621, 2627.5], [-119.384291, 37.871614, 2628.3], [-119.384362, 37.871568, 2629.8], [-119.384407, 37.871461, 2632.2], [-119.384428, 37.871432, 2632.9], [-119.384413, 37.871365, 2634.1], [-119.384473, 37.871354, 2634.9], [-119.384518, 37.871324, 2635.6], [-119.384514, 37.8713, 2636.0], [-119.38455, 37.871266, 2636.7], [-119.384581, 37.871159, 2638.5], [-119.384624, 37.871097, 2639.7], [-119.384678, 37.871048, 2641.0], [-119.384781, 37.871004, 2642.9], [-119.384809, 37.871004, 2643.4], [-119.384936, 37.870953, 2645.8], [-119.384994, 37.870885, 2647.5], [-119.384984, 37.870849, 2648.3], [-119.385048, 37.870864, 2649.5], [-119.385072, 37.870854, 2650.0], [-119.38508, 37.870824, 2650.7], [-119.385058, 37.870768, 2651.8], [-119.385085, 37.870739, 2652.6], [-119.385101, 37.870698, 2653.4], [-119.385145, 37.870678, 2654.3], [-119.385328, 37.870659, 2657.5], [-119.385297, 37.870598, 2658.6], [-119.385287, 37.870533, 2659.7], [-119.385572, 37.870224, 2668.1], [-119.385583, 37.870177, 2669.3], [-119.38562, 37.87016, 2670.0], [-119.385648, 37.870172, 2670.5], [-119.385706, 37.870154, 2671.6], [-119.386367, 37.869816, 2683.3], [-119.386406, 37.869841, 2683.8], [-119.386441, 37.869841, 2684.2], [-119.386469, 37.869821, 2684.6], [-119.386523, 37.869839, 2685.8], [-119.38653, 37.869795, 2686.3], [-119.386594, 37.869781, 2687.1], [-119.386608, 37.869754, 2687.4], [-119.386654, 37.869746, 2687.8], [-119.386698, 37.869764, 2688.2], [-119.386716, 37.869746, 2688.5], [-119.386732, 37.869768, 2688.8], [-119.386765, 37.869774, 2689.1], [-119.386796, 37.869842, 2690.0], [-119.386816, 37.869827, 2690.2], [-119.386672, 37.869749, 2692.2], [-119.386662, 37.869684, 2693.4], [-119.386673, 37.869647, 2694.1], [-119.386728, 37.869631, 2695.0], [-119.386757, 37.869574, 2696.1], [-119.386743, 37.869509, 2697.2], [-119.386795, 37.869498, 2697.9], [-119.386841, 37.869461, 2698.7], [-119.386857, 37.869422, 2699.3], [-119.386788, 37.869342, 2700.7], [-119.386756, 37.869323, 2700.6], [-119.386653, 37.869294, 2700.5], [-119.38656, 37.869215, 2700.3], [-119.386428, 37.869066, 2700.6], [-119.386333, 37.868995, 2700.9], [-119.38632, 37.868974, 2700.9], [-119.386326, 37.868931, 2700.9], [-119.386302, 37.868856, 2700.6], [-119.386304, 37.868807, 2700.3], [-119.38629, 37.868783, 2700.1], [-119.386248, 37.868759, 2699.7], [-119.386185, 37.86868, 2699.2], [-119.386164, 37.868596, 2699.1], [-119.386131, 37.868522, 2699.4], [-119.386179, 37.868406, 2700.6], [-119.386211, 37.868354, 2701.4], [-119.386416, 37.868281, 2704.3], [-119.38644, 37.868217, 2705.4], [-119.386503, 37.868175, 2706.4], [-119.386549, 37.868126, 2707.4], [-119.386603, 37.868104, 2708.1], [-119.386619, 37.868085, 2708.5], [-119.386605, 37.868013, 2709.6], [-119.386617, 37.867969, 2710.3], [-119.386672, 37.867922, 2711.3], [-119.386713, 37.867872, 2712.1], [-119.38676, 37.867878, 2712.6], [-119.386795, 37.867824, 2713.3], [-119.386778, 37.867808, 2713.5], [-119.386748, 37.867647, 2714.6], [-119.386838, 37.866982, 2718.5], [-119.386864, 37.866934, 2719.0], [-119.386867, 37.86687, 2719.6], [-119.386893, 37.866843, 2720.0], [-119.386901, 37.866811, 2720.3], [-119.38694, 37.866774, 2720.8], [-119.387006, 37.866764, 2721.2], [-119.387058, 37.866698, 2721.7], [-119.387046, 37.866637, 2722.0], [-119.387068, 37.866525, 2722.7], [-119.387158, 37.866398, 2723.6], [-119.387199, 37.866378, 2723.9], [-119.387214, 37.86635, 2724.1], [-119.387263, 37.86635, 2724.3], [-119.387338, 37.866296, 2724.8], [-119.387399, 37.866269, 2725.2], [-119.387409, 37.866235, 2725.4], [-119.387408, 37.866158, 2725.9], [-119.387394, 37.866085, 2726.5], [-119.387442, 37.866034, 2726.9], [-119.387453, 37.865995, 2727.2], [-119.387442, 37.865908, 2727.9], [-119.387464, 37.865857, 2728.3], [-119.387525, 37.865789, 2729.0], [-119.387591, 37.865757, 2729.7], [-119.387639, 37.865702, 2730.6], [-119.387646, 37.865677, 2731.0], [-119.387608, 37.865617, 2731.8], [-119.387605, 37.865505, 2733.1], [-119.387627, 37.865474, 2733.5], [-119.387639, 37.865429, 2734.0], [-119.387611, 37.865376, 2734.5], [-119.387623, 37.865325, 2734.9], [-119.387666, 37.865287, 2735.3], [-119.38768, 37.865235, 2735.6], [-119.387643, 37.86515, 2736.1], [-119.387634, 37.865102, 2736.3], [-119.387607, 37.865057, 2736.5], [-119.387645, 37.864989, 2736.8], [-119.387752, 37.864927, 2737.1], [-119.387784, 37.8649, 2737.2], [-119.387796, 37.864839, 2737.3], [-119.387835, 37.864809, 2737.3], [-119.387846, 37.864764, 2737.4], [-119.387894, 37.864668, 2737.6], [-119.387885, 37.864598, 2737.9], [-119.387861, 37.864533, 2738.2], [-119.387865, 37.864476, 2738.5], [-119.387905, 37.864368, 2739.4], [-119.38789, 37.864358, 2739.6], [-119.387961, 37.864322, 2740.3], [-119.387943, 37.864257, 2741.1], [-119.387964, 37.864195, 2741.9], [-119.387968, 37.8641, 2742.9], [-119.388024, 37.864074, 2743.3], [-119.38807, 37.864022, 2743.6], [-119.38806, 37.863998, 2743.6], [-119.388107, 37.863979, 2743.5], [-119.388125, 37.863955, 2743.4], [-119.38811, 37.863935, 2743.3], [-119.388047, 37.863903, 2743.0], [-119.388056, 37.863792, 2742.5], [-119.388076, 37.863754, 2742.4], [-119.388027, 37.863693, 2742.3], [-119.388029, 37.863609, 2742.3], [-119.388007, 37.863586, 2742.3], [-119.387952, 37.863492, 2742.6], [-119.38792, 37.863414, 2742.9], [-119.38793, 37.863383, 2743.1], [-119.388009, 37.863335, 2743.4], [-119.388029, 37.863236, 2744.0], [-119.38802, 37.863187, 2744.3], [-119.387898, 37.86308, 2745.0], [-119.387769, 37.862952, 2745.8], [-119.387692, 37.862887, 2746.2], [-119.387665, 37.862815, 2746.7], [-119.387679, 37.862782, 2746.9], [-119.38778, 37.862695, 2747.7], [-119.387808, 37.862655, 2748.0], [-119.387813, 37.862578, 2748.6], [-119.387867, 37.862517, 2749.2], [-119.387851, 37.862462, 2749.8], [-119.387635, 37.862324, 2751.8], [-119.387585, 37.862279, 2752.2], [-119.387567, 37.862249, 2752.4], [-119.387564, 37.862208, 2752.7], [-119.387581, 37.862189, 2752.8], [-119.387714, 37.862129, 2753.5], [-119.387768, 37.86202, 2754.1], [-119.387754, 37.861963, 2754.4], [-119.387763, 37.861877, 2754.8], [-119.387837, 37.861833, 2755.1], [-119.387854, 37.861804, 2755.2], [-119.387838, 37.861739, 2755.6], [-119.387845, 37.861689, 2756.0], [-119.387897, 37.861612, 2756.5], [-119.387963, 37.861562, 2756.9], [-119.388093, 37.861534, 2757.3], [-119.388093, 37.861503, 2757.6], [-119.388062, 37.861426, 2758.7], [-119.388073, 37.861392, 2759.2], [-119.388107, 37.861352, 2759.9], [-119.388094, 37.861275, 2761.1], [-119.38814, 37.861188, 2762.4], [-119.38817, 37.861165, 2762.9], [-119.388211, 37.861106, 2763.9], [-119.388246, 37.860994, 2765.5], [-119.388256, 37.860877, 2767.2], [-119.388293, 37.86079, 2768.6], [-119.38837, 37.86073, 2769.8], [-119.388403, 37.860722, 2770.2], [-119.388484, 37.860645, 2771.6], [-119.388495, 37.860599, 2772.3], [-119.388525, 37.860567, 2773.4], [-119.388567, 37.860547, 2773.9], [-119.388591, 37.860551, 2774.2], [-119.388685, 37.860503, 2775.5], [-119.388725, 37.860456, 2776.3], [-119.388712, 37.86041, 2777.0], [-119.388778, 37.860365, 2778.0], [-119.388875, 37.860365, 2779.1], [-119.388895, 37.860343, 2779.5], [-119.388934, 37.860239, 2781.1], [-119.389069, 37.86016, 2783.0], [-119.389099, 37.860122, 2783.6], [-119.389103, 37.860056, 2784.6], [-119.389282, 37.859683, 2790.3], [-119.389298, 37.859629, 2791.1], [-119.389298, 37.859261, 2796.5], [-119.389316, 37.859208, 2797.2], [-119.389386, 37.858833, 2802.7], [-119.389437, 37.858804, 2803.4], [-119.389441, 37.858759, 2804.1], [-119.389508, 37.858662, 2805.7], [-119.389577, 37.858634, 2806.6], [-119.389588, 37.858606, 2812.0], [-119.389643, 37.858589, 2813.6], [-119.38973, 37.858491, 2815.3], [-119.389769, 37.858425, 2816.3], [-119.389764, 37.858358, 2817.3], [-119.389809, 37.858311, 2818.2], [-119.390027, 37.858018, 2823.1], [-119.390057, 37.857966, 2823.9], [-119.390187, 37.857492, 2830.9], [-119.390282, 37.857413, 2832.5], [-119.39069, 37.857107, 2838.9], [-119.39071, 37.857089, 2839.3], [-119.390732, 37.857033, 2840.1], [-119.390763, 37.856994, 2840.8], [-119.390786, 37.856988, 2841.1], [-119.390813, 37.856909, 2842.4], [-119.390813, 37.856865, 2843.0], [-119.390835, 37.856831, 2843.6], [-119.390881, 37.856809, 2844.2], [-119.390922, 37.856749, 2845.2], [-119.390907, 37.856702, 2845.9], [-119.390924, 37.85667, 2846.4], [-119.39092, 37.856634, 2846.9], [-119.390945, 37.856633, 2847.2], [-119.390955, 37.856593, 2847.8], [-119.391011, 37.856567, 2848.6], [-119.391041, 37.856483, 2849.9], [-119.391022, 37.856445, 2850.4], [-119.391021, 37.856409, 2851.0], [-119.391061, 37.856358, 2851.8], [-119.391168, 37.856258, 2853.7], [-119.391516, 37.855838, 2861.0], [-119.391552, 37.855847, 2861.4], [-119.391572, 37.85582, 2861.9], [-119.391636, 37.855816, 2862.6], [-119.391708, 37.855831, 2863.4], [-119.391907, 37.855399, 2870.1], [-119.391954, 37.855376, 2870.7], [-119.391955, 37.855354, 2871.0], [-119.392047, 37.855297, 2872.4], [-119.392173, 37.855189, 2874.5], [-119.392208, 37.855146, 2875.2], [-119.39225, 37.855118, 2875.9], [-119.392262, 37.855068, 2876.6], [-119.392289, 37.855024, 2877.3], [-119.392304, 37.854976, 2878.0], [-119.392286, 37.854939, 2878.6], [-119.392265, 37.854855, 2879.8], [-119.392354, 37.854799, 2881.1], [-119.392375, 37.854742, 2882.0], [-119.392451, 37.854706, 2883.0], [-119.392477, 37.854671, 2883.6], [-119.392531, 37.854548, 2885.5], [-119.392549, 37.854526, 2885.8], [-119.392642, 37.854479, 2887.1], [-119.392678, 37.854433, 2887.9], [-119.392705, 37.854376, 2888.8], [-119.392821, 37.854337, 2890.2], [-119.392891, 37.854277, 2891.4], [-119.392919, 37.854212, 2892.4], [-119.392948, 37.8542, 2892.8], [-119.393094, 37.85421, 2894.3], [-119.393115, 37.854192, 2894.5], [-119.393087, 37.854142, 2895.0], [-119.393096, 37.854051, 2895.7], [-119.39314, 37.853955, 2896.2], [-119.393192, 37.853886, 2896.6], [-119.393253, 37.853831, 2896.9], [-119.393253, 37.853798, 2896.9], [-119.393221, 37.853708, 2897.1], [-119.393281, 37.853641, 2897.3], [-119.393298, 37.853579, 2897.6], [-119.39332, 37.853549, 2897.8], [-119.393319, 37.853485, 2898.2], [-119.393341, 37.85343, 2898.6], [-119.393393, 37.853397, 2899.1], [-119.393483, 37.853318, 2900.1], [-119.393507, 37.853243, 2900.8], [-119.393491, 37.853198, 2901.4], [-119.3935, 37.853164, 2901.8], [-119.393607, 37.853165, 2902.6], [-119.393669, 37.853159, 2903.0], [-119.393706, 37.853126, 2903.3], [-119.393657, 37.853105, 2903.4], [-119.393608, 37.853059, 2903.5], [-119.39361, 37.852971, 2903.5], [-119.393598, 37.852953, 2903.4], [-119.393662, 37.852829, 2903.2], [-119.393765, 37.852644, 2905.7], [-119.393802, 37.852621, 2906.3], [-119.393901, 37.852596, 2907.4], [-119.393931, 37.852535, 2908.3], [-119.394027, 37.852477, 2909.6], [-119.394085, 37.852467, 2910.3], [-119.394099, 37.852448, 2910.6], [-119.394166, 37.85245, 2911.3], [-119.394173, 37.852428, 2911.6], [-119.394213, 37.852407, 2912.1], [-119.394275, 37.852336, 2913.3], [-119.394517, 37.852231, 2916.2], [-119.394547, 37.852225, 2916.5], [-119.394551, 37.852185, 2917.1], [-119.394601, 37.852131, 2918.0], [-119.394875, 37.851911, 2922.1], [-119.394914, 37.851903, 2922.7], [-119.394966, 37.851859, 2923.6], [-119.394976, 37.851838, 2923.9], [-119.39498, 37.851723, 2925.4], [-119.395115, 37.851655, 2927.1], [-119.395182, 37.851599, 2928.2], [-119.395207, 37.851562, 2928.7], [-119.395225, 37.851493, 2929.7], [-119.395239, 37.851385, 2931.2], [-119.395263, 37.851398, 2931.5], [-119.395296, 37.851336, 2932.4], [-119.395303, 37.851272, 2933.3], [-119.395358, 37.851247, 2934.0], [-119.395388, 37.851205, 2934.6], [-119.395388, 37.851159, 2935.2], [-119.395411, 37.851116, 2935.9], [-119.395426, 37.851043, 2936.9], [-119.395448, 37.851014, 2937.3], [-119.395542, 37.850976, 2938.4], [-119.395567, 37.850956, 2938.8], [-119.395581, 37.850896, 2939.7], [-119.395588, 37.850934, 2940.2], [-119.395614, 37.850923, 2940.5], [-119.395652, 37.850883, 2941.2], [-119.395705, 37.850864, 2941.8], [-119.395791, 37.850849, 2942.8], [-119.395998, 37.850733, 2945.5], [-119.395988, 37.850695, 2946.2], [-119.396009, 37.850676, 2946.5], [-119.396077, 37.850651, 2947.3], [-119.396123, 37.850674, 2947.9], [-119.396169, 37.850669, 2948.4], [-119.396211, 37.850618, 2949.2], [-119.39627, 37.850604, 2949.8], [-119.396284, 37.850535, 2950.8], [-119.396331, 37.850509, 2951.4], [-119.396356, 37.85046, 2952.1], [-119.39642, 37.850402, 2953.2], [-119.396446, 37.850322, 2954.3], [-119.396509, 37.850256, 2955.4], [-119.396789, 37.849911, 2960.9], [-119.39683, 37.849883, 2961.6], [-119.396868, 37.849883, 2962.0], [-119.396954, 37.84982, 2963.3], [-119.396959, 37.84972, 2964.6], [-119.396978, 37.84968, 2965.2], [-119.397008, 37.849671, 2965.6], [-119.396967, 37.849706, 2966.2], [-119.396939, 37.849682, 2966.7], [-119.39696, 37.849655, 2967.1], [-119.396986, 37.849584, 2968.1], [-119.39701, 37.84956, 2968.6], [-119.397061, 37.849539, 2969.2], [-119.397092, 37.849456, 2970.3], [-119.397135, 37.84942, 2971.0], [-119.397182, 37.849405, 2971.5], [-119.397231, 37.849405, 2972.1], [-119.397243, 37.849424, 2972.4], [-119.397366, 37.849447, 2973.7], [-119.397399, 37.849414, 2974.3], [-119.397421, 37.849371, 2974.9], [-119.397527, 37.849321, 2976.2], [-119.397557, 37.849274, 2977.0], [-119.397649, 37.849175, 2978.6], [-119.397648, 37.849113, 2979.4], [-119.397702, 37.849108, 2980.0], [-119.397753, 37.849075, 2980.7], [-119.397774, 37.849048, 2981.2], [-119.397837, 37.849029, 2981.9], [-119.39792, 37.848976, 2983.1], [-119.397942, 37.848907, 2984.0], [-119.398066, 37.848772, 2986.3], [-119.398159, 37.848731, 2987.4], [-119.398226, 37.848723, 2988.7], [-119.398283, 37.848698, 2989.4], [-119.398317, 37.848664, 2990.0], [-119.398334, 37.848696, 2990.5], [-119.398366, 37.848702, 2990.8], [-119.398404, 37.848669, 2991.4], [-119.39845, 37.848663, 2991.9], [-119.398467, 37.848626, 2992.5], [-119.39851, 37.848587, 2993.2], [-119.39855, 37.848613, 2993.8], [-119.398578, 37.848613, 2994.1], [-119.398715, 37.848526, 2996.0], [-119.39875, 37.848429, 2997.3], [-119.398788, 37.848406, 2997.8], [-119.398815, 37.848364, 2998.5], [-119.398866, 37.848312, 2999.3], [-119.398881, 37.848266, 3000.0], [-119.398921, 37.848216, 3000.8], [-119.398997, 37.84816, 3001.9], [-119.399053, 37.848082, 3003.1], [-119.399157, 37.848019, 3004.5], [-119.399196, 37.847927, 3005.8], [-119.399243, 37.847875, 3006.7], [-119.399306, 37.847761, 3008.4], [-119.399371, 37.847738, 3009.2], [-119.399387, 37.847709, 3009.6], [-119.399518, 37.847638, 3011.3], [-119.399561, 37.847568, 3012.3], [-119.399574, 37.847528, 3012.9], [-119.39962, 37.847477, 3013.7], [-119.39965, 37.84742, 3014.6], [-119.399734, 37.847345, 3015.9], [-119.399837, 37.847317, 3017.1], [-119.399927, 37.847272, 3018.2], [-119.399972, 37.84724, 3018.9], [-119.400054, 37.847244, 3019.7], [-119.400102, 37.847175, 3020.8], [-119.400162, 37.847048, 3022.6], [-119.400201, 37.846948, 3024.0], [-119.400257, 37.846925, 3024.7], [-119.400361, 37.846922, 3025.8], [-119.401019, 37.846672, 3033.6], [-119.401029, 37.846658, 3034.1], [-119.401137, 37.846607, 3035.1], [-119.401211, 37.846531, 3036.0], [-119.401298, 37.846468, 3037.1], [-119.401321, 37.846428, 3037.7], [-119.40137, 37.846408, 3038.3], [-119.401609, 37.846398, 3041.1], [-119.401735, 37.846412, 3042.5], [-119.401806, 37.846382, 3043.4], [-119.401938, 37.846362, 3044.6], [-119.401976, 37.846332, 3045.0], [-119.402039, 37.846319, 3045.5], [-119.402071, 37.846274, 3045.8], [-119.402168, 37.846232, 3046.2], [-119.402197, 37.84623, 3046.4], [-119.402223, 37.846202, 3046.5], [-119.402215, 37.846187, 3046.6], [-119.402241, 37.846128, 3046.9], [-119.402344, 37.846077, 3047.6], [-119.402426, 37.846043, 3048.2], [-119.402488, 37.846034, 3048.5], [-119.402552, 37.845992, 3049.1], [-119.402697, 37.845933, 3050.6], [-119.402783, 37.845927, 3051.7], [-119.402877, 37.845862, 3053.7], [-119.402921, 37.845886, 3054.9], [-119.403001, 37.845904, 3056.8], [-119.403029, 37.845983, 3059.4], [-119.403095, 37.846007, 3062.0], [-119.403133, 37.84599, 3063.2], [-119.40322, 37.845982, 3065.6], [-119.403234, 37.846006, 3066.4], [-119.403316, 37.84603, 3068.6], [-119.40338, 37.846035, 3070.3], [-119.403398, 37.846061, 3071.2], [-119.403452, 37.846038, 3072.8], [-119.403478, 37.84601, 3073.9], [-119.403489, 37.84606, 3075.4], [-119.40354, 37.846116, 3077.5], [-119.403525, 37.846151, 3077.3], [-119.403502, 37.846162, 3077.3], [-119.403554, 37.846188, 3081.0], [-119.403611, 37.846179, 3081.0], [-119.403636, 37.846109, 3077.5], [-119.403724, 37.846064, 3080.9], [-119.403766, 37.846023, 3080.9], [-119.403785, 37.845987, 3080.9], [-119.403885, 37.845942, 3081.2], [-119.403902, 37.845886, 3081.2], [-119.403962, 37.845852, 3081.2], [-119.404014, 37.845846, 3078.6], [-119.404041, 37.84577, 3078.6], [-119.404038, 37.845719, 3078.6], [-119.404062, 37.845612, 3079.3], [-119.404058, 37.845595, 3079.3], [-119.404097, 37.845524, 3077.4], [-119.404173, 37.845482, 3077.4], [-119.404201, 37.845446, 3077.4], [-119.404222, 37.845386, 3078.8], [-119.404226, 37.845337, 3078.8], [-119.404267, 37.845315, 3078.8], [-119.404282, 37.845271, 3078.1], [-119.404336, 37.845218, 3078.1], [-119.404353, 37.845213, 3078.1], [-119.404312, 37.845172, 3077.6], [-119.404313, 37.845153, 3077.6], [-119.404376, 37.845094, 3077.6], [-119.40436, 37.845053, 3077.6], [-119.404401, 37.844995, 3079.0], [-119.404399, 37.844951, 3079.0], [-119.404435, 37.844918, 3079.0], [-119.404453, 37.844879, 3078.7], [-119.404487, 37.844845, 3078.7], [-119.404524, 37.844739, 3078.8], [-119.404623, 37.844698, 3080.8], [-119.404683, 37.844598, 3081.1], [-119.404723, 37.844565, 3081.1], [-119.404751, 37.844492, 3082.8], [-119.40478, 37.844451, 3082.8], [-119.404737, 37.844386, 3082.8], [-119.404784, 37.84432, 3083.3], [-119.404792, 37.844265, 3083.3], [-119.404785, 37.844228, 3083.3], [-119.404802, 37.844157, 3084.8], [-119.404836, 37.844114, 3084.8], [-119.404845, 37.844072, 3086.4], [-119.404874, 37.844043, 3086.4], [-119.404879, 37.843963, 3086.4], [-119.404928, 37.843882, 3088.6], [-119.404923, 37.84384, 3088.6], [-119.404885, 37.843807, 3090.6], [-119.40489, 37.843764, 3090.6], [-119.404873, 37.84369, 3090.6], [-119.404895, 37.843644, 3093.3], [-119.40494, 37.843593, 3093.3], [-119.404985, 37.84341, 3098.1], [-119.404988, 37.843351, 3098.1], [-119.405002, 37.843285, 3098.1], [-119.405092, 37.843177, 3100.0], [-119.40514, 37.84306, 3103.3], [-119.405149, 37.843008, 3103.3], [-119.405163, 37.843012, 3103.3], [-119.40518, 37.84294, 3107.2], [-119.405207, 37.842919, 3107.2], [-119.405226, 37.842881, 3107.2], [-119.405194, 37.842818, 3110.9], [-119.405192, 37.84268, 3114.2], [-119.405154, 37.842657, 3114.2], [-119.405168, 37.842573, 3117.2], [-119.405226, 37.842426, 3119.9], [-119.405222, 37.842392, 3119.9], [-119.405248, 37.842319, 3122.6], [-119.405176, 37.842144, 3125.1], [-119.405183, 37.8421, 3125.1], [-119.405148, 37.841985, 3127.0], [-119.405126, 37.841949, 3127.0], [-119.405144, 37.841915, 3128.7], [-119.405117, 37.841898, 3128.7], [-119.405134, 37.84186, 3128.7], [-119.405165, 37.84185, 3128.7], [-119.405167, 37.841781, 3130.5], [-119.405135, 37.841675, 3130.5], [-119.405155, 37.841632, 3132.7], [-119.405131, 37.84151, 3135.0], [-119.405135, 37.841454, 3135.0], [-119.405108, 37.841394, 3135.0], [-119.405111, 37.841338, 3137.0], [-119.405152, 37.841242, 3137.0], [-119.405123, 37.841155, 3138.2], [-119.405075, 37.841103, 3138.1], [-119.405103, 37.841055, 3138.2], [-119.405082, 37.840964, 3138.0], [-119.405061, 37.840924, 3138.0], [-119.405071, 37.840893, 3138.0], [-119.405054, 37.840844, 3138.0], [-119.405071, 37.840775, 3138.1], [-119.405099, 37.840715, 3137.9], [-119.405128, 37.840617, 3138.0], [-119.40514, 37.840551, 3138.2], [-119.405183, 37.840401, 3138.2], [-119.405229, 37.840367, 3138.2], [-119.40535, 37.840176, 3138.7], [-119.405412, 37.840028, 3139.5], [-119.405399, 37.839987, 3140.5], [-119.405436, 37.839858, 3142.6], [-119.405475, 37.839799, 3142.6], [-119.405492, 37.839797, 3142.6], [-119.405528, 37.83971, 3144.0], [-119.40553, 37.839671, 3144.0], [-119.405514, 37.83965, 3144.0], [-119.405468, 37.839637, 3144.0], [-119.405464, 37.839589, 3144.1], [-119.405448, 37.839552, 3144.1], [-119.405439, 37.839476, 3143.6], [-119.405444, 37.83936, 3143.6], [-119.40546, 37.839266, 3142.9], [-119.405438, 37.839191, 3142.2], [-119.405444, 37.839141, 3142.2], [-119.405486, 37.839094, 3142.2], [-119.405513, 37.839036, 3141.3], [-119.40549, 37.838981, 3141.3], [-119.405477, 37.838898, 3140.2], [-119.405476, 37.838817, 3140.2], [-119.405454, 37.838771, 3139.3], [-119.405464, 37.838694, 3139.3], [-119.405488, 37.838661, 3138.4], [-119.405514, 37.838588, 3138.4], [-119.405509, 37.838539, 3138.4], [-119.405545, 37.838467, 3137.3], [-119.405584, 37.838427, 3137.3], [-119.405585, 37.838315, 3136.5], [-119.4056, 37.838264, 3139.3], [-119.405605, 37.838149, 3138.2], [-119.405624, 37.838074, 3137.8], [-119.405666, 37.838009, 3137.8], [-119.405678, 37.837952, 3139.0], [-119.40569, 37.837823, 3141.3], [-119.405751, 37.837673, 3143.6], [-119.405745, 37.837623, 3143.6], [-119.405773, 37.837502, 3146.4], [-119.405767, 37.837456, 3146.4], [-119.405859, 37.837238, 3145.9], [-119.405907, 37.837182, 3145.9], [-119.405934, 37.837051, 3144.7], [-119.405937, 37.836979, 3144.3], [-119.405965, 37.836884, 3141.6], [-119.406011, 37.83682, 3141.6], [-119.406037, 37.836725, 3140.2], [-119.406117, 37.836536, 3137.1], [-119.406136, 37.836452, 3135.8], [-119.406171, 37.836386, 3135.8], [-119.406201, 37.836353, 3135.9], [-119.406219, 37.836295, 3135.9], [-119.406244, 37.836255, 3135.9], [-119.406242, 37.836229, 3135.9], [-119.406274, 37.836192, 3136.6], [-119.406303, 37.836101, 3134.7], [-119.406364, 37.836027, 3134.9], [-119.406468, 37.835722, 3132.2], [-119.406456, 37.835686, 3132.2], [-119.40647, 37.835649, 3131.0], [-119.406454, 37.835581, 3131.0], [-119.406431, 37.835524, 3133.1], [-119.406463, 37.835451, 3130.1], [-119.406458, 37.835318, 3130.0], [-119.406465, 37.835272, 3130.5], [-119.406544, 37.835147, 3130.5], [-119.406545, 37.835118, 3130.8], [-119.406523, 37.835088, 3130.8], [-119.406502, 37.835031, 3130.8], [-119.406458, 37.835002, 3130.9], [-119.406492, 37.834922, 3130.9], [-119.406466, 37.834906, 3130.9], [-119.406498, 37.834826, 3131.2], [-119.406485, 37.834781, 3131.2], [-119.406518, 37.834657, 3131.8], [-119.406531, 37.834586, 3132.7], [-119.406519, 37.834555, 3132.7], [-119.406533, 37.83442, 3133.5], [-119.406573, 37.834335, 3133.5], [-119.406601, 37.834294, 3134.2], [-119.406598, 37.834268, 3134.2], [-119.406643, 37.834205, 3130.1], [-119.406644, 37.834169, 3130.8], [-119.406682, 37.834109, 3130.8], [-119.406724, 37.834078, 3130.8], [-119.406734, 37.834053, 3131.5], [-119.406732, 37.833875, 3132.2], [-119.406754, 37.833798, 3132.2], [-119.406743, 37.833699, 3132.8], [-119.406793, 37.833611, 3133.4], [-119.40679, 37.833558, 3133.4], [-119.406818, 37.833478, 3130.3], [-119.406857, 37.833428, 3130.3], [-119.406901, 37.83341, 3130.3], [-119.406961, 37.833343, 3130.9], [-119.406993, 37.833232, 3127.7], [-119.40698, 37.833208, 3127.7], [-119.407026, 37.833122, 3127.7], [-119.407007, 37.833058, 3128.1], [-119.407028, 37.83299, 3128.1], [-119.407017, 37.832937, 3128.6], [-119.407063, 37.832873, 3128.6], [-119.407083, 37.832819, 3129.0], [-119.407047, 37.832725, 3129.0], [-119.407087, 37.832667, 3129.7], [-119.40709, 37.832626, 3129.7], [-119.407116, 37.832554, 3130.5], [-119.407113, 37.832488, 3130.5], [-119.407133, 37.83245, 3130.5], [-119.407167, 37.832351, 3127.8], [-119.407192, 37.832308, 3127.8], [-119.407196, 37.832201, 3128.7], [-119.407188, 37.832178, 3128.7], [-119.407216, 37.832039, 3129.4], [-119.407205, 37.831901, 3130.1], [-119.407195, 37.83186, 3130.7], [-119.407205, 37.831808, 3130.7], [-119.407245, 37.831727, 3131.3], [-119.407318, 37.831543, 3128.6], [-119.407311, 37.831515, 3128.6], [-119.407272, 37.831464, 3132.4], [-119.407297, 37.831422, 3132.4], [-119.407314, 37.831347, 3129.2], [-119.407287, 37.831222, 3132.8], [-119.407284, 37.831161, 3133.1], [-119.407305, 37.831083, 3133.1], [-119.407304, 37.830939, 3133.4], [-119.407283, 37.830872, 3133.6], [-119.407083, 37.830429, 3135.8], [-119.407025, 37.830451, 3135.8], [-119.406998, 37.830475, 3135.8], [-119.40696, 37.830475, 3137.1], [-119.406881, 37.830495, 3137.1], [-119.406867, 37.830515, 3137.1], [-119.406911, 37.830553, 3139.2], [-119.406895, 37.830587, 3139.2], [-119.406725, 37.830654, 3140.6], [-119.406691, 37.83068, 3142.7], [-119.406671, 37.830767, 3142.7], [-119.406624, 37.830851, 3144.1], [-119.406569, 37.830901, 3147.9], [-119.406535, 37.830974, 3149.4], [-119.406446, 37.831059, 3152.9], [-119.406415, 37.831124, 3153.8], [-119.406383, 37.831111, 3153.8], [-119.405952, 37.83082, 3160.3], [-119.405944, 37.830765, 3157.5], [-119.406007, 37.830532, 3153.0], [-119.406017, 37.830505, 3146.9], [-119.406074, 37.830127, 3134.4], [-119.405485, 37.8296, 3113.0], [-119.405416, 37.829548, 3105.7], [-119.405315, 37.829511, 3105.7], [-119.40525, 37.829449, 3105.1], [-119.405103, 37.829414, 3097.8], [-119.405051, 37.829375, 3096.6], [-119.405017, 37.829377, 3096.6], [-119.404983, 37.829401, 3096.6], [-119.40495, 37.829326, 3096.6], [-119.404904, 37.829249, 3088.3], [-119.404935, 37.829205, 3090.2], [-119.404921, 37.829169, 3084.9], [-119.404833, 37.829178, 3088.3], [-119.404613, 37.82927, 3087.6], [-119.404574, 37.829266, 3087.6], [-119.40455, 37.829247, 3089.1], [-119.404463, 37.829254, 3089.1], [-119.404351, 37.829224, 3090.3], [-119.404292, 37.829184, 3090.3], [-119.404104, 37.829122, 3086.1], [-119.403907, 37.829091, 3085.9], [-119.403858, 37.829068, 3085.2], [-119.403713, 37.829047, 3085.2], [-119.403631, 37.829026, 3079.4], [-119.40359, 37.828973, 3079.4], [-119.403531, 37.828941, 3077.6], [-119.403535, 37.828918, 3079.4], [-119.403393, 37.828841, 3074.2], [-119.403272, 37.828694, 3070.1], [-119.403165, 37.828627, 3066.4], [-119.403136, 37.828618, 3066.4], [-119.403065, 37.828536, 3066.4], [-119.402918, 37.828478, 3062.8], [-119.402911, 37.828433, 3062.8], [-119.402883, 37.828445, 3062.8], [-119.402806, 37.828397, 3061.8], [-119.40268, 37.828257, 3060.5], [-119.402663, 37.828165, 3058.2], [-119.402624, 37.828058, 3055.7], [-119.40249, 37.827907, 3054.3], [-119.402477, 37.827898, 3054.3], [-119.402408, 37.827762, 3053.0], [-119.402366, 37.82773, 3053.0], [-119.402261, 37.827583, 3053.3], [-119.402198, 37.827434, 3052.1], [-119.402133, 37.827356, 3051.1], [-119.402116, 37.827288, 3051.1], [-119.402153, 37.827245, 3048.1], [-119.402166, 37.827191, 3046.9], [-119.402189, 37.827148, 3046.9], [-119.402195, 37.827041, 3044.3], [-119.402145, 37.826897, 3042.3], [-119.402042, 37.826769, 3040.1], [-119.40196, 37.826579, 3037.6], [-119.401906, 37.826514, 3037.6], [-119.401853, 37.826377, 3037.3], [-119.401796, 37.826323, 3039.5], [-119.401749, 37.826237, 3039.5], [-119.401732, 37.826158, 3038.8], [-119.401747, 37.826061, 3038.8], [-119.401761, 37.826016, 3037.8], [-119.401726, 37.825931, 3037.8], [-119.401697, 37.825828, 3036.4], [-119.401619, 37.825713, 3036.6], [-119.401566, 37.825649, 3036.3], [-119.401541, 37.825585, 3036.3], [-119.401495, 37.825523, 3036.3], [-119.401391, 37.825499, 3038.2], [-119.401366, 37.825458, 3038.2], [-119.401388, 37.825414, 3038.2], [-119.401402, 37.825351, 3038.6], [-119.401368, 37.825312, 3038.6], [-119.401363, 37.825281, 3038.6], [-119.401405, 37.825204, 3039.1], [-119.401396, 37.825161, 3039.1], [-119.401305, 37.825035, 3039.6], [-119.401287, 37.824992, 3044.8], [-119.401289, 37.824921, 3045.6], [-119.401259, 37.824809, 3046.4], [-119.401286, 37.824693, 3047.1], [-119.401304, 37.824678, 3041.2], [-119.401289, 37.824635, 3047.1], [-119.401284, 37.824576, 3047.1], [-119.401267, 37.824523, 3047.7], [-119.401277, 37.82448, 3047.7], [-119.401264, 37.824433, 3047.7], [-119.401274, 37.824307, 3048.4], [-119.401257, 37.824212, 3049.1], [-119.401299, 37.824219, 3049.1], [-119.401257, 37.824183, 3049.1], [-119.401235, 37.82413, 3049.7], [-119.401229, 37.824044, 3049.7], [-119.40124, 37.823992, 3050.0], [-119.401218, 37.823937, 3050.0], [-119.401219, 37.82387, 3050.2], [-119.401234, 37.823832, 3050.2], [-119.40122, 37.823749, 3050.1], [-119.40123, 37.823697, 3050.1], [-119.401239, 37.823501, 3050.4], [-119.401231, 37.82346, 3051.6], [-119.401262, 37.823368, 3051.6], [-119.401249, 37.823297, 3053.1], [-119.40122, 37.823257, 3053.1], [-119.401156, 37.823221, 3053.1], [-119.401128, 37.823217, 3060.5], [-119.401053, 37.823103, 3061.5], [-119.40103, 37.823048, 3062.3], [-119.401062, 37.82305, 3062.3], [-119.401034, 37.823023, 3062.3], [-119.400996, 37.82286, 3063.6], [-119.400969, 37.822854, 3063.6], [-119.400983, 37.822803, 3063.6], [-119.400962, 37.82266, 3066.4], [-119.400984, 37.822556, 3066.4], [-119.401024, 37.82243, 3067.4], [-119.400861, 37.822172, 3077.3], [-119.40085, 37.822091, 3078.2], [-119.400826, 37.82203, 3078.2], [-119.400839, 37.821988, 3078.7], [-119.400827, 37.821948, 3078.7], [-119.400802, 37.821925, 3078.7], [-119.400831, 37.821892, 3078.7], [-119.400788, 37.821761, 3079.0], [-119.400752, 37.82169, 3088.7], [-119.400755, 37.821619, 3088.7], [-119.400723, 37.821469, 3089.1], [-119.400694, 37.821438, 3089.3], [-119.400678, 37.821368, 3089.3], [-119.400688, 37.821307, 3089.2], [-119.400656, 37.821239, 3089.2], [-119.400676, 37.821189, 3089.2], [-119.400671, 37.821098, 3088.4], [-119.400693, 37.821063, 3088.4], [-119.400732, 37.821042, 3088.4], [-119.400761, 37.820974, 3087.2], [-119.400735, 37.820939, 3087.2], [-119.400732, 37.820902, 3086.2], [-119.400746, 37.820827, 3086.2], [-119.400768, 37.820786, 3086.2], [-119.400735, 37.82067, 3086.1], [-119.400735, 37.820612, 3086.9], [-119.400699, 37.820573, 3086.9], [-119.400712, 37.820489, 3088.2], [-119.400733, 37.820407, 3088.2], [-119.400748, 37.820298, 3089.7], [-119.400739, 37.820248, 3089.7], [-119.400759, 37.82021, 3091.2], [-119.40076, 37.820155, 3091.2], [-119.400744, 37.820111, 3091.2], [-119.400768, 37.82007, 3092.7], [-119.400771, 37.819991, 3092.7], [-119.400796, 37.819973, 3083.6], [-119.400802, 37.819921, 3085.2], [-119.400784, 37.819878, 3094.1], [-119.40079, 37.819847, 3085.2], [-119.400759, 37.819464, 3098.6], [-119.400746, 37.819426, 3098.6], [-119.400631, 37.81931, 3100.4], [-119.400576, 37.819301, 3108.1], [-119.400572, 37.819275, 3110.2], [-119.400539, 37.819276, 3110.2], [-119.4005, 37.819198, 3110.2], [-119.400474, 37.819103, 3112.9], [-119.40048, 37.819057, 3112.9], [-119.400469, 37.819025, 3112.9], [-119.400428, 37.818997, 3126.5], [-119.400462, 37.818998, 3116.2], [-119.400344, 37.818931, 3126.5], [-119.400287, 37.818929, 3126.5], [-119.400258, 37.81894, 3136.8], [-119.400164, 37.81887, 3140.1], [-119.400141, 37.818889, 3136.8], [-119.400065, 37.818919, 3145.7], [-119.4, 37.8189, 3145.7], [-119.399914, 37.818913, 3154.8], [-119.399892, 37.818897, 3154.8], [-119.399829, 37.818891, 3154.8], [-119.399816, 37.818911, 3154.8], [-119.399791, 37.818898, 3154.8], [-119.39978, 37.818853, 3157.1], [-119.399731, 37.818824, 3165.6], [-119.399737, 37.818801, 3165.6], [-119.399678, 37.818714, 3167.8], [-119.399635, 37.818694, 3167.8], [-119.399579, 37.818683, 3182.9], [-119.39957, 37.818638, 3182.9], [-119.399491, 37.818634, 3182.9], [-119.399478, 37.818671, 3182.9], [-119.399513, 37.818658, 3182.9], [-119.399427, 37.818668, 3182.9], [-119.399449, 37.818638, 3182.9], [-119.399339, 37.818681, 3209.6], [-119.399369, 37.818638, 3209.6], [-119.399372, 37.818658, 3209.6], [-119.399254, 37.818609, 3210.1], [-119.399246, 37.818622, 3210.1], [-119.399194, 37.818629, 3229.4], [-119.399168, 37.818618, 3229.3], [-119.399163, 37.818562, 3214.4], [-119.399132, 37.818573, 3214.9], [-119.399172, 37.818535, 3214.4], [-119.399185, 37.818567, 3215.0], [-119.39917, 37.818616, 3228.9], [-119.399202, 37.818622, 3228.6], [-119.399165, 37.81864, 3229.4], [-119.399055, 37.818638, 3231.2], [-119.398989, 37.818646, 3231.2], [-119.398903, 37.818876, 3252.5], [-119.398984, 37.818885, 3251.9], [-119.399005, 37.818872, 3251.0], [-119.39894, 37.818846, 3249.3], [-119.398931, 37.818861, 3249.3], [-119.398863, 37.818904, 3255.8], [-119.398933, 37.818832, 3246.9], [-119.398901, 37.818823, 3246.9], [-119.398961, 37.818883, 3252.0], [-119.398915, 37.818906, 3254.4], [-119.398882, 37.818945, 3257.2], [-119.398898, 37.818976, 3258.0], [-119.398567, 37.81937, 3284.1], [-119.398591, 37.819389, 3285.1], [-119.39858, 37.819435, 3286.3], [-119.398554, 37.81945, 3288.7], [-119.398555, 37.819501, 3289.8], [-119.398523, 37.819514, 3289.8], [-119.398542, 37.819549, 3288.2], [-119.398493, 37.819581, 3289.1], [-119.398507, 37.819612, 3288.0], [-119.398511, 37.819668, 3285.3], [-119.398477, 37.819744, 3281.7], [-119.398475, 37.819699, 3283.5], [-119.398441, 37.819703, 3288.1], [-119.39843, 37.819733, 3287.8], [-119.398362, 37.819713, 3290.0], [-119.398358, 37.819783, 3290.6], [-119.398347, 37.819809, 3288.9], [-119.398375, 37.819851, 3286.4], [-119.398333, 37.819837, 3286.2], [-119.398316, 37.819849, 3286.2], [-119.398257, 37.819842, 3284.8], [-119.398276, 37.81989, 3285.3], [-119.398266, 37.819918, 3285.3], [-119.398228, 37.819947, 3285.0], [-119.398244, 37.819997, 3285.1], [-119.398283, 37.820016, 3284.9], [-119.39827, 37.820041, 3284.7], [-119.398293, 37.820072, 3284.5], [-119.398235, 37.820098, 3284.2], [-119.398248, 37.820075, 3284.5], [-119.398344, 37.820113, 3284.1], [-119.39832, 37.820119, 3284.2], [-119.398277, 37.8201, 3284.1], [-119.39826, 37.820078, 3284.5], [-119.398269, 37.820136, 3283.7], [-119.398228, 37.82027, 3283.6], [-119.398208, 37.820318, 3284.4], [-119.39822, 37.820368, 3284.2], [-119.398187, 37.820372, 3284.7], [-119.398154, 37.820421, 3285.4], [-119.398158, 37.820468, 3286.8], [-119.398143, 37.820489, 3286.8], [-119.398133, 37.820546, 3289.7], [-119.398139, 37.820576, 3291.4], [-119.398108, 37.820612, 3292.1], [-119.398139, 37.820621, 3293.2], [-119.398119, 37.820642, 3294.2], [-119.398121, 37.820687, 3296.1], [-119.398142, 37.820712, 3297.5], [-119.398127, 37.820732, 3297.5], [-119.398127, 37.820778, 3298.7], [-119.398106, 37.82085, 3299.0], [-119.398141, 37.820854, 3299.1], [-119.398112, 37.8209, 3298.7], [-119.398104, 37.820953, 3297.2], [-119.398114, 37.820974, 3296.8], [-119.398062, 37.821056, 3297.0], [-119.398048, 37.821107, 3297.4], [-119.398073, 37.821121, 3298.0], [-119.398072, 37.821145, 3298.8], [-119.39803, 37.821212, 3299.6], [-119.398009, 37.82123, 3299.6], [-119.398039, 37.821238, 3299.6], [-119.398119, 37.821289, 3305.2], [-119.398117, 37.821312, 3306.5], [-119.398078, 37.821446, 3309.1], [-119.398004, 37.821532, 3308.0], [-119.397913, 37.821526, 3304.4], [-119.397917, 37.8215, 3304.1], [-119.397966, 37.821518, 3306.5], [-119.398004, 37.821564, 3307.7], [-119.397947, 37.821615, 3305.6], [-119.397931, 37.821661, 3306.9], [-119.39801, 37.821672, 3307.1], [-119.398003, 37.821662, 3307.1], [-119.397964, 37.821709, 3307.7], [-119.397928, 37.821726, 3307.9], [-119.397941, 37.821774, 3308.2], [-119.397974, 37.821777, 3308.2], [-119.397955, 37.821797, 3308.5], [-119.397945, 37.821841, 3308.6], [-119.39789, 37.821872, 3307.7], [-119.397897, 37.821897, 3308.2], [-119.397888, 37.821968, 3308.9], [-119.397866, 37.822005, 3307.3], [-119.397896, 37.822033, 3306.9], [-119.397874, 37.822053, 3306.9], [-119.397902, 37.822065, 3304.8], [-119.39785, 37.822091, 3303.5], [-119.397827, 37.822071, 3305.2], [-119.397817, 37.822097, 3303.3], [-119.397787, 37.822111, 3303.3], [-119.397774, 37.822171, 3300.1], [-119.397754, 37.822191, 3300.1], [-119.397754, 37.82224, 3297.4], [-119.397737, 37.822295, 3296.8], [-119.397698, 37.822327, 3296.8], [-119.397676, 37.822389, 3298.8], [-119.397721, 37.822409, 3299.7], [-119.397699, 37.822421, 3299.7], [-119.397708, 37.822491, 3302.7], [-119.397669, 37.822531, 3304.9], [-119.397676, 37.822562, 3306.1], [-119.39765, 37.822597, 3306.1], [-119.397642, 37.822639, 3307.9], [-119.397671, 37.822673, 3308.1], [-119.397685, 37.822637, 3307.9], [-119.397744, 37.822608, 3301.7], [-119.397712, 37.822647, 3305.7], [-119.397541, 37.822997, 3307.0], [-119.397549, 37.823043, 3307.8], [-119.397534, 37.823069, 3307.8], [-119.397487, 37.823103, 3307.2], [-119.397506, 37.823127, 3309.3], [-119.397459, 37.823125, 3305.9], [-119.397378, 37.823173, 3295.9], [-119.397346, 37.823158, 3289.7], [-119.397388, 37.823107, 3293.6], [-119.397379, 37.823092, 3293.6], [-119.397471, 37.823132, 3305.9], [-119.397422, 37.823151, 3302.6], [-119.397401, 37.823146, 3302.6], [-119.397329, 37.823211, 3293.0], [-119.397287, 37.823271, 3291.7], [-119.397317, 37.823346, 3304.0], [-119.397374, 37.823394, 3308.0], [-119.397344, 37.82341, 3307.3], [-119.397357, 37.823427, 3308.7], [-119.397272, 37.823447, 3314.2], [-119.397304, 37.823454, 3314.2], [-119.397378, 37.82351, 3309.1], [-119.397451, 37.823537, 3296.0], [-119.397461, 37.823506, 3297.8], [-119.397397, 37.823503, 3309.1], [-119.397404, 37.823581, 3301.9], [-119.397356, 37.823549, 3308.4], [-119.39736, 37.82357, 3308.4], [-119.397331, 37.823583, 3313.4], [-119.397317, 37.823638, 3312.5], [-119.397327, 37.823664, 3311.7], [-119.397294, 37.82376, 3314.7], [-119.397358, 37.823716, 3304.4], [-119.397343, 37.823771, 3308.9], [-119.397364, 37.823778, 3302.5], [-119.397396, 37.823743, 3303.5], [-119.397953, 37.824068, 3230.4], [-119.398115, 37.824268, 3213.6], [-119.398159, 37.824313, 3210.2], [-119.398603, 37.824496, 3178.3], [-119.398651, 37.824461, 3176.1], [-119.398684, 37.824457, 3176.1], [-119.398752, 37.824429, 3170.8], [-119.398824, 37.824377, 3165.4], [-119.398881, 37.824365, 3162.2], [-119.398908, 37.82433, 3159.8], [-119.39895, 37.824316, 3157.4], [-119.399006, 37.824263, 3155.0], [-119.399063, 37.824267, 3151.9], [-119.399064, 37.824354, 3150.8], [-119.39908, 37.824402, 3147.2], [-119.399099, 37.824417, 3147.2], [-119.399083, 37.824477, 3146.2], [-119.399094, 37.824521, 3145.7], [-119.399112, 37.824533, 3145.2], [-119.399169, 37.824516, 3141.3], [-119.39918, 37.824486, 3141.8], [-119.399232, 37.824535, 3138.6], [-119.399264, 37.82453, 3137.0], [-119.399266, 37.824553, 3136.5], [-119.399306, 37.824523, 3134.9], [-119.399347, 37.824565, 3132.3], [-119.399388, 37.824518, 3130.7], [-119.399409, 37.824535, 3130.2], [-119.399402, 37.824561, 3130.2], [-119.399432, 37.824598, 3126.9], [-119.399551, 37.824562, 3120.8], [-119.399609, 37.824627, 3117.5], [-119.39963, 37.824629, 3115.3], [-119.399607, 37.824597, 3118.1], [-119.399613, 37.824513, 3119.2], [-119.399615, 37.824643, 3116.9], [-119.399673, 37.824629, 3113.0], [-119.399698, 37.824644, 3112.4], [-119.399739, 37.824638, 3110.0], [-119.399757, 37.824589, 3111.3], [-119.399839, 37.824568, 3106.5], [-119.399896, 37.824586, 3101.9], [-119.399966, 37.824552, 3100.4], [-119.400024, 37.824562, 3096.3], [-119.400059, 37.824537, 3094.2], [-119.4001, 37.824528, 3094.6], [-119.400139, 37.824587, 3091.7], [-119.400099, 37.824618, 3093.4], [-119.400093, 37.824641, 3092.9], [-119.400119, 37.824682, 3090.5], [-119.400187, 37.824718, 3086.3], [-119.400196, 37.824766, 3086.0], [-119.400244, 37.8248, 3083.8], [-119.400275, 37.824798, 3082.0], [-119.400337, 37.824814, 3079.7], [-119.400368, 37.824852, 3077.5], [-119.40045, 37.824871, 3073.6], [-119.400448, 37.824897, 3073.6], [-119.400474, 37.824916, 3073.2], [-119.400486, 37.824968, 3072.9], [-119.400511, 37.824984, 3070.7], [-119.400556, 37.824959, 3069.3], [-119.400656, 37.824996, 3065.5], [-119.400736, 37.824968, 3062.4], [-119.400821, 37.825007, 3058.5], [-119.40087, 37.825021, 3056.9], [-119.40093, 37.825089, 3053.3], [-119.400949, 37.82515, 3052.6], [-119.400971, 37.82517, 3051.1], [-119.401029, 37.825182, 3049.4], [-119.401041, 37.825247, 3048.9], [-119.401102, 37.825303, 3046.2], [-119.401121, 37.825351, 3045.8], [-119.401144, 37.82537, 3044.5], [-119.401175, 37.825442, 3042.6], [-119.401226, 37.825461, 3041.0], [-119.401253, 37.825493, 3040.9], [-119.401316, 37.82554, 3038.7], [-119.401329, 37.825607, 3038.8], [-119.401347, 37.825621, 3038.3], [-119.401608, 37.82573, 3036.0], [-119.401662, 37.825796, 3036.1], [-119.401635, 37.825823, 3036.8], [-119.401605, 37.825828, 3036.8], [-119.401567, 37.825795, 3036.7], [-119.401575, 37.825819, 3036.7], [-119.401693, 37.825879, 3036.5], [-119.401687, 37.825844, 3036.5], [-119.401654, 37.825842, 3036.5], [-119.401628, 37.825895, 3037.6], [-119.401592, 37.825877, 3037.4], [-119.401637, 37.825932, 3038.1], [-119.401695, 37.825935, 3037.3], [-119.401701, 37.825967, 3037.7], [-119.401747, 37.82603, 3037.7], [-119.401825, 37.826073, 3036.7], [-119.401856, 37.826076, 3036.7], [-119.401877, 37.826125, 3036.5], [-119.401836, 37.826159, 3037.3], [-119.401827, 37.826129, 3037.1], [-119.401929, 37.82609, 3035.4], [-119.401971, 37.826059, 3034.8], [-119.401994, 37.826078, 3034.1], [-119.401976, 37.826154, 3035.2], [-119.402004, 37.826211, 3035.0], [-119.402025, 37.826291, 3035.3], [-119.402052, 37.826318, 3034.9], [-119.40202, 37.826334, 3035.5], [-119.402018, 37.826358, 3035.5], [-119.402055, 37.826411, 3035.3], [-119.402067, 37.826502, 3035.9], [-119.402124, 37.826531, 3035.5], [-119.402252, 37.826545, 3035.3], [-119.402276, 37.82656, 3035.3], [-119.402284, 37.826535, 3035.3], [-119.402303, 37.826568, 3035.5], [-119.402333, 37.82658, 3035.1], [-119.402356, 37.826612, 3035.8], [-119.402425, 37.826667, 3036.3], [-119.40246, 37.826766, 3037.7], [-119.402429, 37.826847, 3039.4], [-119.402455, 37.826882, 3040.0], [-119.402473, 37.826942, 3040.6], [-119.402448, 37.827049, 3042.5], [-119.402619, 37.82762, 3049.7], [-119.402636, 37.82766, 3049.7], [-119.402572, 37.827787, 3052.0], [-119.402576, 37.827887, 3052.7], [-119.402614, 37.827936, 3053.6], [-119.402608, 37.828025, 3055.8], [-119.402619, 37.828062, 3056.5], [-119.402653, 37.828086, 3056.4], [-119.402678, 37.828126, 3057.7], [-119.402739, 37.828133, 3057.7], [-119.402768, 37.828193, 3059.1], [-119.402766, 37.828229, 3059.6], [-119.402795, 37.828269, 3060.1], [-119.40279, 37.828306, 3060.5], [-119.402805, 37.828323, 3060.7], [-119.402856, 37.828335, 3061.2], [-119.402924, 37.828337, 3061.4], [-119.402962, 37.828389, 3062.0], [-119.40296, 37.828413, 3062.5], [-119.402992, 37.828461, 3063.2], [-119.403023, 37.828479, 3064.1], [-119.403051, 37.828473, 3064.1], [-119.403113, 37.828511, 3065.2], [-119.403191, 37.828517, 3065.7], [-119.40326, 37.82857, 3067.3], [-119.403304, 37.828635, 3068.9], [-119.403339, 37.828642, 3069.1], [-119.403371, 37.828673, 3070.2], [-119.403449, 37.828769, 3073.1], [-119.403479, 37.828788, 3073.1], [-119.403522, 37.828838, 3074.9], [-119.403581, 37.828857, 3075.5], [-119.403556, 37.828868, 3075.2], [-119.403599, 37.828915, 3077.4], [-119.403709, 37.828885, 3077.3], [-119.403749, 37.828904, 3077.5], [-119.403845, 37.828904, 3077.7], [-119.403868, 37.828911, 3078.8], [-119.403907, 37.828958, 3080.1], [-119.403884, 37.828991, 3081.3], [-119.403921, 37.829053, 3083.7], [-119.403986, 37.829083, 3085.0], [-119.404032, 37.829093, 3085.1], [-119.404128, 37.829157, 3087.5], [-119.404161, 37.829162, 3087.5], [-119.404207, 37.829197, 3088.7], [-119.40424, 37.829259, 3091.0], [-119.404358, 37.829342, 3093.0], [-119.40441, 37.829346, 3094.1], [-119.404479, 37.829386, 3094.9], [-119.404494, 37.829405, 3094.9], [-119.404559, 37.829423, 3096.2], [-119.404598, 37.829446, 3096.0], [-119.404655, 37.829435, 3095.9], [-119.404735, 37.829472, 3097.8], [-119.404795, 37.82948, 3098.7], [-119.404929, 37.829472, 3100.2], [-119.404955, 37.829487, 3102.4], [-119.404936, 37.829505, 3102.1], [-119.404954, 37.829533, 3104.3], [-119.404997, 37.829551, 3106.4], [-119.405081, 37.82952, 3105.1], [-119.40512, 37.829484, 3103.3], [-119.40518, 37.829549, 3107.4], [-119.405184, 37.829593, 3109.1], [-119.405207, 37.829607, 3109.1], [-119.405235, 37.829592, 3109.3], [-119.405276, 37.82961, 3109.5], [-119.405371, 37.829627, 3111.4], [-119.405484, 37.82969, 3115.1], [-119.40551, 37.82971, 3115.1], [-119.405526, 37.829757, 3118.7], [-119.405595, 37.829796, 3120.2], [-119.405639, 37.829795, 3120.0], [-119.405741, 37.829826, 3121.0], [-119.405833, 37.829898, 3123.5], [-119.405895, 37.829913, 3122.8], [-119.40594, 37.829941, 3124.1], [-119.40597, 37.829984, 3125.8], [-119.406005, 37.829998, 3126.8], [-119.406063, 37.830054, 3127.5], [-119.406082, 37.830126, 3130.6], [-119.406082, 37.830163, 3132.1], [-119.406053, 37.830232, 3135.9], [-119.406078, 37.83028, 3136.0], [-119.406037, 37.830318, 3138.4], [-119.406003, 37.830315, 3139.7], [-119.405995, 37.830295, 3139.7], [-119.405955, 37.830315, 3140.9], [-119.405943, 37.830348, 3142.4], [-119.405974, 37.830416, 3145.7], [-119.405933, 37.83043, 3148.3], [-119.405967, 37.830434, 3147.4], [-119.406028, 37.830408, 3143.3], [-119.40598, 37.830402, 3145.7], [-119.405954, 37.830413, 3145.7], [-119.405965, 37.830476, 3149.0], [-119.405993, 37.830463, 3146.3], [-119.405948, 37.830534, 3152.0], [-119.405953, 37.830587, 3153.3], [-119.405936, 37.830661, 3157.3], [-119.405962, 37.830699, 3157.6], [-119.405953, 37.830732, 3159.0], [-119.405963, 37.830776, 3161.1], [-119.405939, 37.830819, 3161.7], [-119.405991, 37.830853, 3160.7], [-119.406012, 37.830889, 3161.0], [-119.406042, 37.830987, 3160.6], [-119.406053, 37.831072, 3161.3], [-119.406091, 37.831129, 3160.4], [-119.406087, 37.831199, 3160.3], [-119.406118, 37.831301, 3159.1], [-119.406103, 37.83142, 3160.1], [-119.406052, 37.83163, 3161.1], [-119.406056, 37.831685, 3160.8], [-119.406028, 37.831758, 3160.6], [-119.406043, 37.831848, 3160.4], [-119.406034, 37.831898, 3160.1], [-119.406042, 37.83199, 3159.7], [-119.40601, 37.832104, 3160.5], [-119.405882, 37.832455, 3163.5], [-119.405855, 37.832463, 3163.5], [-119.405832, 37.832569, 3164.3], [-119.405833, 37.832617, 3164.1], [-119.405809, 37.832677, 3163.5], [-119.40579, 37.832699, 3165.2], [-119.405757, 37.832794, 3166.0], [-119.405776, 37.832841, 3163.6], [-119.405783, 37.832895, 3163.3], [-119.405802, 37.832926, 3163.0], [-119.405723, 37.833169, 3161.6], [-119.405721, 37.833212, 3162.4], [-119.405685, 37.833341, 3161.2], [-119.405682, 37.833445, 3160.2], [-119.405661, 37.833526, 3160.4], [-119.405625, 37.833623, 3160.8], [-119.405583, 37.833664, 3161.8], [-119.405515, 37.833746, 3162.6], [-119.40545, 37.833785, 3165.0], [-119.40543, 37.833825, 3164.7], [-119.405341, 37.833901, 3167.0], [-119.405294, 37.833963, 3167.5], [-119.405235, 37.834072, 3168.6], [-119.405221, 37.834119, 3168.1], [-119.405198, 37.834148, 3168.8], [-119.405196, 37.834195, 3167.8], [-119.405211, 37.834214, 3166.7], [-119.405202, 37.834265, 3166.6], [-119.405209, 37.834428, 3161.5], [-119.405225, 37.834466, 3160.7], [-119.405262, 37.834656, 3159.5], [-119.40524, 37.834693, 3160.0], [-119.405233, 37.834761, 3159.5], [-119.405243, 37.834904, 3158.6], [-119.405228, 37.83495, 3158.4], [-119.405251, 37.835058, 3157.5], [-119.405245, 37.835128, 3158.1], [-119.405292, 37.835213, 3158.4], [-119.405299, 37.835266, 3158.1], [-119.405272, 37.835304, 3159.1], [-119.405272, 37.835384, 3160.1], [-119.405249, 37.83543, 3161.2], [-119.405147, 37.835476, 3162.7], [-119.405088, 37.835545, 3163.6], [-119.405074, 37.83559, 3164.2], [-119.40508, 37.835737, 3163.6], [-119.405101, 37.835826, 3163.3], [-119.405092, 37.835884, 3163.2], [-119.405057, 37.835953, 3163.4], [-119.405041, 37.836049, 3163.0], [-119.404995, 37.836157, 3163.0], [-119.404987, 37.836214, 3163.1], [-119.404991, 37.836267, 3162.7], [-119.404936, 37.83642, 3162.3], [-119.40492, 37.836517, 3161.7], [-119.404877, 37.83659, 3161.5], [-119.404838, 37.83663, 3161.4], [-119.404809, 37.836702, 3160.5], [-119.404833, 37.83675, 3159.7], [-119.404843, 37.836816, 3158.7], [-119.40484, 37.836919, 3157.1], [-119.404866, 37.837128, 3153.8], [-119.404893, 37.837181, 3153.1], [-119.404892, 37.837206, 3153.1], [-119.404946, 37.837307, 3151.9], [-119.405095, 37.837377, 3150.4], [-119.405153, 37.837432, 3149.6], [-119.405176, 37.83747, 3148.9], [-119.405219, 37.837496, 3148.2], [-119.405234, 37.837534, 3147.8], [-119.405232, 37.837595, 3146.6], [-119.40525, 37.837683, 3145.1], [-119.405317, 37.837771, 3143.3], [-119.405376, 37.837862, 3141.3], [-119.405368, 37.83793, 3140.1], [-119.405411, 37.837981, 3139.2], [-119.405472, 37.838003, 3137.8], [-119.40554, 37.83798, 3137.8], [-119.405586, 37.837983, 3137.6], [-119.405645, 37.838051, 3137.2], [-119.405623, 37.838121, 3136.9], [-119.405578, 37.838224, 3136.6], [-119.405558, 37.838413, 3137.8], [-119.405498, 37.838494, 3136.9], [-119.405479, 37.838615, 3137.9], [-119.405405, 37.838743, 3136.9], [-119.405401, 37.838784, 3137.1], [-119.405431, 37.838882, 3139.1], [-119.405424, 37.838926, 3139.4], [-119.405445, 37.838961, 3139.8], [-119.405452, 37.839027, 3140.2], [-119.40548, 37.839134, 3141.6], [-119.405511, 37.839193, 3142.6], [-119.405444, 37.839336, 3142.0], [-119.405389, 37.839418, 3141.1], [-119.405358, 37.839553, 3140.9], [-119.405416, 37.839736, 3141.5], [-119.405386, 37.839849, 3141.2], [-119.405282, 37.839974, 3139.9], [-119.405289, 37.840042, 3139.3], [-119.405263, 37.840236, 3138.4], [-119.405227, 37.840312, 3138.0], [-119.405216, 37.840359, 3138.0], [-119.40517, 37.840421, 3137.9], [-119.405159, 37.840485, 3137.9], [-119.405079, 37.840588, 3137.8], [-119.405072, 37.840618, 3137.7], [-119.405015, 37.840772, 3137.9], [-119.404958, 37.840844, 3137.7], [-119.404919, 37.840937, 3137.6], [-119.404911, 37.840991, 3137.7], [-119.404968, 37.84115, 3138.2], [-119.404955, 37.841215, 3138.1], [-119.404963, 37.841262, 3138.0], [-119.404951, 37.841296, 3138.0], [-119.4049, 37.841379, 3136.9], [-119.404875, 37.841452, 3136.7], [-119.404834, 37.841489, 3136.4], [-119.404802, 37.841545, 3135.2], [-119.404819, 37.841611, 3134.9], [-119.404814, 37.841668, 3133.4], [-119.404785, 37.841747, 3133.1], [-119.404779, 37.841836, 3131.4], [-119.404762, 37.841915, 3131.1], [-119.404728, 37.841974, 3129.9], [-119.404776, 37.841996, 3129.3], [-119.404729, 37.842008, 3129.8], [-119.404634, 37.842138, 3127.8], [-119.404595, 37.842176, 3127.7], [-119.40457, 37.842227, 3126.0], [-119.40458, 37.842295, 3125.8], [-119.404532, 37.842366, 3123.6], [-119.404469, 37.842494, 3120.3], [-119.404393, 37.842523, 3120.2], [-119.404322, 37.842581, 3119.9], [-119.404316, 37.842607, 3116.3], [-119.404277, 37.842666, 3116.2], [-119.404249, 37.84276, 3112.6], [-119.404281, 37.842837, 3112.6], [-119.404275, 37.842894, 3109.0], [-119.404318, 37.842953, 3109.0], [-119.404301, 37.842998, 3109.0], [-119.404351, 37.843122, 3105.0], [-119.404405, 37.843176, 3101.4], [-119.404417, 37.843248, 3101.4], [-119.404465, 37.843305, 3098.0], [-119.404489, 37.843354, 3098.0], [-119.404524, 37.843387, 3098.0], [-119.404544, 37.843449, 3094.8], [-119.404545, 37.843496, 3094.8], [-119.404587, 37.843576, 3092.3], [-119.40459, 37.843658, 3092.3], [-119.404725, 37.843807, 3089.6], [-119.404738, 37.843946, 3087.8], [-119.404732, 37.844002, 3085.3], [-119.404738, 37.844079, 3085.9], [-119.404722, 37.844161, 3083.6], [-119.40472, 37.844264, 3082.3], [-119.404739, 37.844381, 3082.3], [-119.404714, 37.84447, 3081.3], [-119.404639, 37.84466, 3080.3], [-119.404613, 37.844736, 3080.3], [-119.404619, 37.844761, 3080.3], [-119.404604, 37.844803, 3080.1], [-119.404562, 37.844861, 3078.1], [-119.404521, 37.84494, 3078.5], [-119.404487, 37.844986, 3078.5], [-119.404439, 37.845019, 3078.5], [-119.40441, 37.845065, 3079.2], [-119.404419, 37.845138, 3079.2], [-119.404384, 37.845179, 3077.5], [-119.404371, 37.845275, 3077.5], [-119.404332, 37.845336, 3078.3], [-119.404193, 37.845387, 3075.6], [-119.404174, 37.845404, 3075.6], [-119.404137, 37.845484, 3076.9], [-119.404129, 37.84552, 3076.9], [-119.404019, 37.845632, 3075.7], [-119.403935, 37.845752, 3078.1], [-119.403794, 37.845876, 3077.6], [-119.403681, 37.845932, 3073.8], [-119.40354, 37.845962, 3073.8], [-119.403392, 37.845979, 3069.4], [-119.403342, 37.84596, 3067.9], [-119.403253, 37.845942, 3065.4], [-119.403244, 37.845993, 3063.6], [-119.403223, 37.846003, 3062.9], [-119.403073, 37.845983, 3058.7], [-119.402975, 37.845999, 3056.1], [-119.402926, 37.845966, 3054.6], [-119.402873, 37.845975, 3053.5], [-119.402827, 37.846007, 3052.4], [-119.402759, 37.846005, 3051.4], [-119.402719, 37.84602, 3050.8], [-119.402634, 37.846031, 3049.9], [-119.402559, 37.846068, 3049.1], [-119.40241, 37.846069, 3048.1], [-119.402365, 37.84609, 3047.8], [-119.402247, 37.846103, 3047.1], [-119.402175, 37.846163, 3046.6], [-119.402107, 37.846158, 3046.3], [-119.402069, 37.846175, 3046.1], [-119.402001, 37.846227, 3045.7], [-119.401933, 37.846337, 3044.6], [-119.401849, 37.846334, 3043.8], [-119.401774, 37.846356, 3043.0], [-119.40166, 37.846375, 3041.6], [-119.401557, 37.846413, 3040.3], [-119.401456, 37.84642, 3039.0], [-119.401403, 37.846405, 3038.3], [-119.401329, 37.846415, 3037.4], [-119.401011, 37.846597, 3034.0], [-119.400966, 37.84663, 3033.4], [-119.400922, 37.84664, 3033.0], [-119.400869, 37.846681, 3032.3], [-119.40076, 37.846734, 3031.1], [-119.400688, 37.846777, 3029.8], [-119.400614, 37.846858, 3028.4], [-119.400523, 37.846891, 3027.3], [-119.400382, 37.846905, 3025.8], [-119.400103, 37.847112, 3021.6], [-119.400064, 37.847156, 3020.9], [-119.400004, 37.847172, 3020.2], [-119.399983, 37.847188, 3019.9], [-119.399938, 37.847283, 3018.5], [-119.399889, 37.847329, 3017.6], [-119.399836, 37.847333, 3017.0], [-119.399764, 37.847368, 3016.1], [-119.399688, 37.847372, 3015.3], [-119.399628, 37.8474, 3014.5], [-119.399614, 37.847418, 3014.2], [-119.399601, 37.84749, 3013.2], [-119.399573, 37.847517, 3012.8], [-119.399534, 37.84759, 3011.7], [-119.39946, 37.847648, 3010.5], [-119.399389, 37.847681, 3009.7], [-119.399357, 37.847708, 3009.1], [-119.399232, 37.847777, 3007.5], [-119.399205, 37.84777, 3007.2], [-119.39914, 37.847797, 3006.4], [-119.39903, 37.84791, 3004.4], [-119.398917, 37.84801, 3002.6], [-119.398876, 37.84803, 3002.0], [-119.398828, 37.848093, 3001.0], [-119.398563, 37.848519, 2994.5], [-119.398501, 37.848565, 2993.6], [-119.398506, 37.848581, 2993.4], [-119.398462, 37.848596, 2992.8], [-119.398427, 37.84858, 2992.3], [-119.398308, 37.848665, 2990.6], [-119.398204, 37.848685, 2989.4], [-119.398105, 37.848731, 2988.2], [-119.398056, 37.848769, 2987.4], [-119.398002, 37.848787, 2986.8], [-119.39795, 37.848839, 2985.9], [-119.397878, 37.848943, 2984.2], [-119.397809, 37.848969, 2983.4], [-119.39777, 37.848999, 2982.7], [-119.39774, 37.849038, 2982.1], [-119.397679, 37.849032, 2981.4], [-119.397665, 37.849047, 2981.2], [-119.39758, 37.849191, 2979.0], [-119.397557, 37.849222, 2978.5], [-119.397454, 37.84931, 2976.8], [-119.397416, 37.84935, 2976.2], [-119.397367, 37.849358, 2975.6], [-119.397323, 37.849383, 2975.0], [-119.397238, 37.849402, 2974.1], [-119.397216, 37.849357, 2972.9], [-119.39713, 37.849373, 2972.0], [-119.397093, 37.8494, 2971.4], [-119.397051, 37.849472, 2970.3], [-119.397001, 37.849492, 2969.7], [-119.396948, 37.849582, 2968.4], [-119.396852, 37.849764, 2965.7], [-119.396828, 37.849844, 2964.5], [-119.396789, 37.849908, 2963.6], [-119.396679, 37.849985, 2962.0], [-119.39649, 37.850211, 2958.2], [-119.396465, 37.850261, 2957.5], [-119.396382, 37.850283, 2956.5], [-119.396353, 37.850338, 2955.7], [-119.396271, 37.850427, 2954.2], [-119.396256, 37.850484, 2953.4], [-119.396167, 37.850531, 2952.3], [-119.396128, 37.850602, 2951.2], [-119.396079, 37.850599, 2950.7], [-119.395991, 37.850657, 2949.4], [-119.39594, 37.850651, 2948.9], [-119.395911, 37.850677, 2948.4], [-119.395858, 37.850789, 2946.7], [-119.395791, 37.850802, 2945.9], [-119.395776, 37.850828, 2945.5], [-119.395727, 37.850851, 2944.9], [-119.395629, 37.850862, 2943.8], [-119.395567, 37.850898, 2943.0], [-119.395517, 37.850908, 2942.4], [-119.395459, 37.850956, 2941.5], [-119.395448, 37.851001, 2940.9], [-119.395392, 37.851049, 2940.0], [-119.395358, 37.851109, 2939.1], [-119.3953, 37.851183, 2937.9], [-119.395238, 37.851236, 2936.9], [-119.395204, 37.851299, 2935.9], [-119.395163, 37.851445, 2933.9], [-119.395114, 37.851515, 2932.8], [-119.395124, 37.85156, 2932.1], [-119.395097, 37.851593, 2931.6], [-119.395031, 37.851644, 2930.6], [-119.394949, 37.851737, 2929.0], [-119.394942, 37.851755, 2928.8], [-119.394871, 37.851845, 2927.3], [-119.39486, 37.851895, 2926.6], [-119.394738, 37.852044, 2924.2], [-119.394578, 37.852158, 2921.8], [-119.394552, 37.852182, 2921.3], [-119.394489, 37.852174, 2920.6], [-119.394407, 37.852267, 2919.1], [-119.394341, 37.852257, 2918.3], [-119.394228, 37.852291, 2917.0], [-119.39418, 37.852328, 2916.3], [-119.394122, 37.852412, 2915.0], [-119.394057, 37.852415, 2914.2], [-119.393998, 37.852453, 2913.4], [-119.393901, 37.85258, 2911.3], [-119.393892, 37.852605, 2911.0], [-119.393853, 37.852565, 2910.3], [-119.393799, 37.852583, 2909.6], [-119.393768, 37.852627, 2908.9], [-119.393736, 37.852631, 2908.6], [-119.393714, 37.852589, 2907.9], [-119.393757, 37.852562, 2907.3], [-119.393746, 37.852587, 2906.5], [-119.393707, 37.852577, 2906.1], [-119.393679, 37.852587, 2905.7], [-119.393634, 37.852553, 2905.1], [-119.393626, 37.852591, 2904.4], [-119.393605, 37.852609, 2904.0], [-119.39355, 37.852736, 2903.2], [-119.393485, 37.852784, 2903.3], [-119.393463, 37.852845, 2903.4], [-119.393439, 37.852871, 2903.4], [-119.393425, 37.852951, 2903.5], [-119.393441, 37.852985, 2903.5], [-119.393491, 37.853013, 2903.4], [-119.393571, 37.853025, 2903.1], [-119.393604, 37.853063, 2902.8], [-119.393583, 37.853103, 2902.3], [-119.393531, 37.853122, 2901.8], [-119.393482, 37.853116, 2901.4], [-119.393439, 37.853213, 2900.3], [-119.393432, 37.853274, 2899.7], [-119.39344, 37.853334, 2899.1], [-119.393414, 37.853379, 2898.7], [-119.393361, 37.85341, 2898.3], [-119.393286, 37.853503, 2897.6], [-119.393286, 37.853556, 2897.3], [-119.39322, 37.853651, 2897.1], [-119.393193, 37.853748, 2896.9], [-119.393162, 37.853757, 2896.8], [-119.393162, 37.853795, 2896.7], [-119.393097, 37.853932, 2896.0], [-119.393065, 37.853969, 2895.7], [-119.393034, 37.854057, 2895.0], [-119.392974, 37.854143, 2894.1], [-119.392918, 37.854234, 2892.1], [-119.392809, 37.854262, 2889.7], [-119.392762, 37.854254, 2889.2], [-119.392708, 37.854263, 2888.6], [-119.39269, 37.854279, 2888.3], [-119.392609, 37.854426, 2886.0], [-119.3925, 37.85443, 2884.8], [-119.392481, 37.854437, 2884.6], [-119.392441, 37.854492, 2883.7], [-119.392391, 37.854544, 2882.7], [-119.392332, 37.854651, 2881.1], [-119.392287, 37.854744, 2879.7], [-119.392199, 37.854811, 2878.3], [-119.392251, 37.854949, 2876.3], [-119.39221, 37.855091, 2874.2], [-119.392169, 37.855108, 2873.7], [-119.392132, 37.855163, 2872.8], [-119.392003, 37.855273, 2870.7], [-119.391922, 37.855314, 2869.6], [-119.391897, 37.855338, 2869.2], [-119.391789, 37.855365, 2867.9], [-119.391751, 37.855403, 2867.2], [-119.391725, 37.855476, 2866.2], [-119.391699, 37.855516, 2865.5], [-119.391691, 37.855645, 2863.7], [-119.391672, 37.855658, 2863.4], [-119.391683, 37.855766, 2861.9], [-119.391676, 37.855804, 2861.4], [-119.391631, 37.855842, 2860.6], [-119.39158, 37.855849, 2860.0], [-119.391519, 37.85582, 2859.3], [-119.391416, 37.85583, 2858.1], [-119.391379, 37.855854, 2857.6], [-119.391311, 37.855991, 2855.5], [-119.391282, 37.856009, 2855.1], [-119.391259, 37.856053, 2854.4], [-119.391214, 37.8561, 2853.6], [-119.391189, 37.856157, 2852.7], [-119.391186, 37.856247, 2850.8], [-119.39106, 37.856323, 2849.0], [-119.39098, 37.856345, 2848.1], [-119.390958, 37.856362, 2847.7], [-119.39096, 37.856443, 2846.6], [-119.39092, 37.856506, 2845.6], [-119.390908, 37.856545, 2845.0], [-119.39084, 37.856616, 2843.8], [-119.390766, 37.85685, 2840.4], [-119.390789, 37.856877, 2839.9], [-119.390757, 37.856914, 2839.3], [-119.390734, 37.856979, 2838.3], [-119.390646, 37.857006, 2837.3], [-119.390621, 37.857023, 2836.9], [-119.390573, 37.857089, 2835.8], [-119.390577, 37.857098, 2835.7], [-119.390493, 37.857171, 2834.3], [-119.390446, 37.857227, 2833.3], [-119.390402, 37.857307, 2832.1], [-119.390331, 37.857387, 2830.7], [-119.390226, 37.857441, 2829.3], [-119.39016, 37.857453, 2828.6], [-119.390147, 37.857479, 2828.2], [-119.39011, 37.857496, 2827.7], [-119.39004, 37.857485, 2826.9], [-119.39, 37.857509, 2826.3], [-119.389978, 37.857648, 2824.3], [-119.389989, 37.857723, 2823.3], [-119.389977, 37.857808, 2822.1], [-119.389985, 37.857826, 2821.8], [-119.39006, 37.857874, 2820.7], [-119.390053, 37.857916, 2820.1], [-119.38999, 37.85797, 2819.1], [-119.389954, 37.858032, 2818.1], [-119.389897, 37.858072, 2817.3], [-119.389797, 37.858094, 2816.1], [-119.389772, 37.858143, 2815.3], [-119.38985, 37.858127, 2814.4], [-119.389859, 37.858177, 2813.6], [-119.389762, 37.858286, 2811.7], [-119.389708, 37.858358, 2810.5], [-119.389671, 37.858383, 2810.0], [-119.389619, 37.8584, 2809.3], [-119.389608, 37.858494, 2808.0], [-119.389568, 37.858578, 2806.7], [-119.389411, 37.858749, 2803.7], [-119.389377, 37.858809, 2802.7], [-119.389343, 37.858942, 2800.8], [-119.389326, 37.858987, 2800.2], [-119.389332, 37.859055, 2799.2], [-119.389294, 37.859103, 2798.4], [-119.389272, 37.859159, 2797.6], [-119.38928, 37.859235, 2796.5], [-119.389194, 37.859279, 2795.4], [-119.389156, 37.859549, 2791.5], [-119.389134, 37.859742, 2788.8], [-119.389099, 37.85979, 2788.0], [-119.389081, 37.859857, 2787.0], [-119.389064, 37.859875, 2786.7], [-119.389148, 37.859872, 2785.8], [-119.389096, 37.85986, 2785.2], [-119.38903, 37.859918, 2784.1], [-119.388815, 37.860243, 2778.9], [-119.3888, 37.860289, 2778.2], [-119.388705, 37.860293, 2777.1], [-119.388682, 37.860319, 2776.7], [-119.388672, 37.860384, 2775.8], [-119.388612, 37.860488, 2774.2], [-119.388256, 37.860754, 2768.7], [-119.388228, 37.860794, 2768.1], [-119.388191, 37.860908, 2766.4], [-119.38813, 37.860982, 2765.1], [-119.38813, 37.861088, 2763.6], [-119.388045, 37.861262, 2761.0], [-119.387838, 37.861608, 2756.4], [-119.387806, 37.861621, 2756.2], [-119.387761, 37.861741, 2755.4], [-119.387696, 37.861811, 2755.0], [-119.387692, 37.86192, 2754.5], [-119.387732, 37.861983, 2754.2], [-119.387723, 37.862066, 2753.8], [-119.387727, 37.862106, 2753.6], [-119.387675, 37.862194, 2753.0], [-119.387721, 37.862315, 2752.3], [-119.387796, 37.862383, 2751.7], [-119.387851, 37.862446, 2751.0], [-119.38786, 37.862518, 2750.3], [-119.387842, 37.862561, 2749.9], [-119.387827, 37.862671, 2748.9], [-119.387782, 37.862724, 2748.4], [-119.387779, 37.862788, 2747.9], [-119.387839, 37.862873, 2747.2], [-119.387851, 37.862916, 2746.9], [-119.387907, 37.862961, 2746.5], [-119.388008, 37.863105, 2745.7], [-119.388034, 37.863183, 2745.3], [-119.388004, 37.863251, 2745.0], [-119.38796, 37.863328, 2744.6], [-119.3879, 37.863369, 2744.2], [-119.387886, 37.863394, 2744.1], [-119.387968, 37.863561, 2743.2], [-119.387996, 37.863651, 2742.8], [-119.388053, 37.863702, 2742.5], [-119.388067, 37.863768, 2742.4], [-119.388097, 37.863808, 2742.3], [-119.388088, 37.863887, 2742.3], [-119.388093, 37.863994, 2742.5], [-119.388073, 37.864033, 2742.7], [-119.38801, 37.864087, 2743.0], [-119.387928, 37.864087, 2743.3], [-119.387881, 37.864139, 2743.5], [-119.387896, 37.864223, 2743.5], [-119.387925, 37.864257, 2743.2], [-119.387919, 37.864322, 2742.7], [-119.387961, 37.864378, 2742.0], [-119.387953, 37.864492, 2740.6], [-119.387911, 37.864575, 2739.7], [-119.38786, 37.864718, 2738.5], [-119.387878, 37.864793, 2738.0], [-119.387813, 37.86485, 2737.7], [-119.387789, 37.864897, 2737.5], [-119.387733, 37.864904, 2737.4], [-119.387676, 37.864929, 2737.4], [-119.387654, 37.864971, 2737.3], [-119.387675, 37.865042, 2737.2], [-119.387656, 37.86506, 2737.2], [-119.387581, 37.865177, 2736.8], [-119.387591, 37.86522, 2736.7], [-119.387579, 37.86528, 2736.5], [-119.38754, 37.865339, 2736.2], [-119.387548, 37.865386, 2735.9], [-119.387545, 37.865451, 2735.6], [-119.387494, 37.865517, 2735.1], [-119.387489, 37.865547, 2734.9], [-119.387499, 37.865679, 2733.7], [-119.387514, 37.86572, 2733.2], [-119.387492, 37.865768, 2732.6], [-119.38742, 37.865806, 2731.8], [-119.3874, 37.865838, 2731.4], [-119.387388, 37.865902, 2730.6], [-119.38735, 37.865932, 2730.0], [-119.387335, 37.865982, 2729.4], [-119.387309, 37.866027, 2728.9], [-119.387315, 37.866051, 2728.7], [-119.38726, 37.866121, 2728.0], [-119.387288, 37.866144, 2727.7], [-119.387278, 37.866168, 2727.5], [-119.387219, 37.866227, 2726.9], [-119.387206, 37.866266, 2726.6], [-119.387177, 37.866272, 2726.5], [-119.387164, 37.866325, 2726.1], [-119.387069, 37.866399, 2725.4], [-119.387034, 37.866506, 2724.7], [-119.387038, 37.866534, 2724.5], [-119.386985, 37.86657, 2724.1], [-119.386907, 37.866673, 2723.4], [-119.3869, 37.86672, 2723.1], [-119.386824, 37.866773, 2722.6], [-119.386793, 37.866775, 2722.4], [-119.386625, 37.866934, 2721.2], [-119.386639, 37.866999, 2720.7], [-119.386625, 37.867038, 2720.3], [-119.386625, 37.867083, 2719.8], [-119.386607, 37.867098, 2719.6], [-119.386553, 37.8671, 2719.2], [-119.386517, 37.86716, 2718.6], [-119.386526, 37.867221, 2718.1], [-119.386593, 37.867261, 2717.6], [-119.386669, 37.867292, 2717.0], [-119.386696, 37.86733, 2716.6], [-119.38669, 37.867351, 2716.4], [-119.386721, 37.867413, 2716.0], [-119.386762, 37.867472, 2715.8], [-119.386774, 37.867542, 2715.6], [-119.386738, 37.86758, 2715.5], [-119.38677, 37.86768, 2715.0], [-119.386767, 37.867726, 2714.8], [-119.386727, 37.867772, 2714.4], [-119.386705, 37.867735, 2714.2], [-119.386675, 37.867726, 2714.0], [-119.386655, 37.867772, 2713.6], [-119.386668, 37.867859, 2712.7], [-119.386612, 37.867888, 2712.0], [-119.386574, 37.867962, 2710.9], [-119.386555, 37.867981, 2710.5], [-119.386554, 37.868061, 2709.3], [-119.386515, 37.86812, 2708.2], [-119.38646, 37.868132, 2707.5], [-119.38645, 37.868213, 2706.3], [-119.386374, 37.868214, 2705.3], [-119.386285, 37.868246, 2704.1], [-119.386269, 37.868279, 2703.5], [-119.38626, 37.86834, 2702.5], [-119.386197, 37.868374, 2701.6], [-119.386181, 37.868396, 2701.2], [-119.386174, 37.868449, 2700.5], [-119.386139, 37.868492, 2700.0], [-119.386099, 37.868597, 2699.2], [-119.386107, 37.868659, 2699.0], [-119.386181, 37.868709, 2699.3], [-119.386187, 37.868728, 2699.4], [-119.38614, 37.868775, 2699.8], [-119.38615, 37.868824, 2700.2], [-119.38619, 37.868866, 2700.5], [-119.386237, 37.868945, 2700.9], [-119.386329, 37.869058, 2700.8], [-119.386327, 37.869091, 2700.7], [-119.386399, 37.869153, 2700.4], [-119.386587, 37.86927, 2700.4], [-119.386729, 37.869334, 2700.6], [-119.3868, 37.869307, 2700.1], [-119.386688, 37.869303, 2699.3], [-119.386691, 37.869334, 2699.0], [-119.386726, 37.869355, 2698.6], [-119.386661, 37.869377, 2698.0], [-119.386643, 37.86947, 2697.0], [-119.386582, 37.86948, 2696.4], [-119.386598, 37.869539, 2695.7], [-119.386563, 37.869594, 2694.9], [-119.386556, 37.869681, 2691.8], [-119.386584, 37.869767, 2689.8], [-119.386645, 37.869813, 2688.4], [-119.386638, 37.869832, 2687.9], [-119.386585, 37.869843, 2687.0], [-119.38653, 37.869805, 2685.9], [-119.386452, 37.869786, 2684.1], [-119.385788, 37.869899, 2675.3], [-119.385762, 37.869929, 2674.6], [-119.385721, 37.869935, 2674.0], [-119.38572, 37.86997, 2673.3], [-119.385687, 37.870006, 2672.4], [-119.385657, 37.870058, 2671.3], [-119.385673, 37.870104, 2670.3], [-119.385653, 37.870123, 2669.9], [-119.385566, 37.870097, 2668.2], [-119.385519, 37.870116, 2667.3], [-119.385492, 37.870158, 2666.2], [-119.38546, 37.870163, 2665.6], [-119.385434, 37.870194, 2664.8], [-119.385416, 37.870248, 2663.5], [-119.38531, 37.870319, 2661.4], [-119.385357, 37.870356, 2660.4], [-119.385334, 37.870388, 2659.8], [-119.385277, 37.870414, 2658.9], [-119.385263, 37.870446, 2658.4], [-119.385202, 37.870494, 2657.2], [-119.385161, 37.87057, 2655.5], [-119.385081, 37.870609, 2653.9], [-119.385041, 37.870655, 2652.9], [-119.385031, 37.870729, 2651.5], [-119.385058, 37.870815, 2649.8], [-119.385004, 37.870904, 2647.7], [-119.384971, 37.870929, 2647.0], [-119.384881, 37.870942, 2645.5], [-119.384851, 37.870932, 2645.0], [-119.384805, 37.870946, 2644.2], [-119.38475, 37.870941, 2643.3], [-119.384577, 37.870985, 2640.6], [-119.384542, 37.871044, 2639.4], [-119.384546, 37.871115, 2638.2], [-119.384515, 37.871163, 2637.4], [-119.384477, 37.871254, 2636.0], [-119.384378, 37.871366, 2633.9], [-119.3844, 37.871436, 2632.7], [-119.384392, 37.871459, 2632.3], [-119.384415, 37.8715, 2631.4], [-119.384374, 37.871543, 2630.3], [-119.384316, 37.871547, 2629.4], [-119.38429, 37.871565, 2628.9], [-119.384266, 37.871613, 2627.9], [-119.384234, 37.871746, 2625.3], [-119.38422, 37.871767, 2624.9], [-119.384147, 37.871818, 2623.8], [-119.384088, 37.871829, 2623.3], [-119.384027, 37.871828, 2622.8], [-119.383996, 37.87185, 2622.5], [-119.383974, 37.871888, 2622.2], [-119.383881, 37.871943, 2621.5], [-119.383878, 37.871956, 2621.4], [-119.383765, 37.872019, 2620.8], [-119.383698, 37.872088, 2620.5], [-119.383637, 37.872231, 2619.9], [-119.383659, 37.872306, 2619.7], [-119.383636, 37.872362, 2619.4], [-119.3835, 37.872439, 2618.8], [-119.383418, 37.872479, 2618.4], [-119.383386, 37.872528, 2618.1], [-119.383364, 37.872675, 2617.5], [-119.383375, 37.872723, 2617.3], [-119.383366, 37.872746, 2617.2], [-119.383323, 37.872783, 2617.0], [-119.383266, 37.872852, 2616.6], [-119.383134, 37.872892, 2616.2], [-119.383118, 37.872892, 2616.1], [-119.382904, 37.872976, 2615.7], [-119.38284, 37.873048, 2615.7], [-119.382806, 37.873101, 2615.6], [-119.382724, 37.873168, 2614.6], [-119.382608, 37.873232, 2613.3]]}}