{"type": "Feature", "properties": {}, "geometry": {"type": "LineString", "coordinates": [[-121.59117294475436, 47.40780796855688, 552.41], [-121.59093766473234, 47.40807141177356, 538.96], [-121.59085568971932, 47.408295879140496, 533.67], [-121.59073297865689, 47.408491261303425, 526.46], [-121.59087119624019, 47.40878563374281, 528.86], [-121.59095124341547, 47.40901689045131, 532.23], [-121.5910831745714, 47.40924580022693, 537.51], [-121.59133052453399, 47.409604797139764, 541.84], [-121.59154141321778, 47.409746535122395, 548.09], [-121.59165532328188, 47.40992817096412, 550.01], [-121.5918044373393, 47.41006571799517, 550.97], [-121.59200836904347, 47.41018591448665, 552.41], [-121.59220517612994, 47.41028130054474, 553.38], [-121.59254455938935, 47.41040199995041, 555.3], [-121.59293306060135, 47.41049746982753, 556.74], [-121.59339792095125, 47.410606518387794, 558.66], [-121.59356229007244, 47.41067080758512, 560.59], [-121.59388214349747, 47.41072537377477, 558.18], [-121.5941446647048, 47.41078010760248, 556.26], [-121.59469602629542, 47.410953445360065, 552.41], [-121.59494354389608, 47.41106861270964, 549.05], [-121.59509877674282, 47.41116911172867, 548.57], [-121.59529583528638, 47.411328703165054, 549.05], [-121.59535299986601, 47.41136432625353, 549.05], [-121.59561049193144, 47.411580411717296, 552.41], [-121.59579187631607, 47.41177621297538, 556.26], [-121.59588768146932, 47.41203655488789, 561.55], [-121.59613268449903, 47.412062622606754, 568.28], [-121.59620460122824, 47.41200948134065, 574.53], [-121.59628372639418, 47.411887776106596, 585.1], [-121.59638313576579, 47.41179507225752, 594.71], [-121.59639562480152, 47.4116544239223, 604.81], [-121.5964589919895, 47.41146381944418, 615.38], [-121.59648916684091, 47.41130942478776, 628.36], [-121.59648891538382, 47.4114144500345, 630.28], [-121.59655236639082, 47.411724077537656, 633.17], [-121.59660290926695, 47.4118806514889, 637.49], [-121.59662562422454, 47.41205214522779, 642.78], [-121.59661925397813, 47.41220997646451, 647.1], [-121.59655077382922, 47.412348696962, 650.95], [-121.59653149545193, 47.41249479353428, 654.8], [-121.59649210050702, 47.41268640384078, 656.72], [-121.59645513631403, 47.41281037218869, 662.01], [-121.59645471721888, 47.412963677197695, 665.85], [-121.59631540998816, 47.413294008001685, 666.81], [-121.59635078161955, 47.41345829330385, 657.68], [-121.5964637696743, 47.41362199187279, 650.47], [-121.59662964753807, 47.413702039048076, 649.99], [-121.59663031809032, 47.41363196633756, 654.8], [-121.596584552899, 47.413456197828054, 656.24], [-121.59673986956477, 47.41326986812055, 664.41], [-121.59685394726694, 47.413200130686164, 678.83], [-121.59702929668128, 47.412946075201035, 699.5], [-121.59726625308394, 47.412680787965655, 721.61], [-121.59740203991532, 47.41251700557768, 732.66], [-121.59752550534904, 47.41240460425615, 744.68], [-121.59783261828125, 47.41207418963313, 759.1], [-121.59808214753866, 47.41186799481511, 763.42], [-121.59831088967621, 47.411593571305275, 765.35], [-121.5984791982919, 47.411448480561376, 767.27], [-121.59861624240875, 47.41125628352165, 765.35], [-121.59875404089689, 47.41111831739545, 763.9], [-121.59890005365014, 47.41100206039846, 766.79], [-121.599060902372, 47.410826962441206, 772.08], [-121.59919048659503, 47.41067240014672, 774.96], [-121.59934370778501, 47.41053141653538, 774.96], [-121.59948544576764, 47.41043619811535, 774.96], [-121.59961637109518, 47.410300159826875, 775.44], [-121.59980001859367, 47.41015347652137, 770.63], [-121.60017049871385, 47.409937558695674, 763.42], [-121.60040753893554, 47.40978735499084, 762.94], [-121.60062035545707, 47.40971543826163, 764.87], [-121.60083157941699, 47.4095718562603, 761.98], [-121.6010210942477, 47.40947202779353, 761.5], [-121.60117548890412, 47.409309167414904, 760.54], [-121.60092813894153, 47.409447049722075, 775.44], [-121.60086376592517, 47.409531036391854, 776.4], [-121.6009740717709, 47.40956322290003, 776.4], [-121.60121622495353, 47.40950454957783, 777.36], [-121.60135670565069, 47.409455850720406, 772.56], [-121.60153917968273, 47.40943154320121, 771.6], [-121.60172861069441, 47.40939206443727, 770.63], [-121.6021260805428, 47.409252505749464, 774.48], [-121.60230243578553, 47.40900993347168, 758.62], [-121.60231576301157, 47.40893910638988, 747.08], [-121.60224191844463, 47.4090884719044, 756.21], [-121.60222917795181, 47.409178745001554, 765.83], [-121.6021604463458, 47.40931645967066, 763.9], [-121.60206363536417, 47.409408409148455, 763.9], [-121.60188409499824, 47.409535897895694, 758.62], [-121.60184168256819, 47.409623488783836, 757.66], [-121.60169960930943, 47.409732872620225, 756.21], [-121.60162291489542, 47.40991869941354, 760.54], [-121.60143323242664, 47.41016454063356, 763.9], [-121.60135603509843, 47.410242576152086, 764.87], [-121.60120256245136, 47.41046075709164, 775.92], [-121.60108630545437, 47.41055513732135, 783.13], [-121.60098773427308, 47.410700395703316, 778.32], [-121.60103006288409, 47.41081045009196, 769.19], [-121.60104682669044, 47.41099267266691, 769.19], [-121.60107641480863, 47.41109065711498, 766.79], [-121.60124237649143, 47.411101469770074, 765.35], [-121.60155208781362, 47.41103148087859, 777.36], [-121.60164856351912, 47.41093140095472, 781.21], [-121.60178166814148, 47.410875326022506, 787.46], [-121.60189566202462, 47.4107666965574, 791.3], [-121.60209154710174, 47.41070609539747, 798.03], [-121.60223429091275, 47.41058489307761, 802.36], [-121.60235901363194, 47.41045480594039, 801.88], [-121.60255221650004, 47.41040350869298, 801.4], [-121.60294038243592, 47.41024659946561, 807.64], [-121.60311673767865, 47.41016076877713, 813.89], [-121.60334455780685, 47.410111567005515, 816.78], [-121.6035281214863, 47.410031436011195, 819.66], [-121.6039652377367, 47.40986555814743, 821.1], [-121.60413723438978, 47.40970864892006, 811.97], [-121.60430612973869, 47.409611251205206, 808.13], [-121.60444878973067, 47.40954151377082, 810.05], [-121.60464140586555, 47.40948149934411, 809.57], [-121.60476411692798, 47.40937689319253, 811.01], [-121.60500241443515, 47.409381084144115, 814.85], [-121.6053540352732, 47.40933976136148, 823.51], [-121.60557095892727, 47.40939483046532, 827.83], [-121.60575544461608, 47.40940949879587, 831.68], [-121.60584161058068, 47.40930179134011, 838.89], [-121.60595493391156, 47.409275555983186, 842.25], [-121.60616079345345, 47.40929173305631, 836.96], [-121.60629364661872, 47.40926021710038, 837.93], [-121.60646715201437, 47.40917748771608, 840.33], [-121.60658902488649, 47.40906475111842, 833.6], [-121.60678549669683, 47.40893114358187, 829.27], [-121.60690150223672, 47.408620761707425, 830.72], [-121.60696964710951, 47.408568961545825, 835.04], [-121.60711138509214, 47.40842713974416, 838.89], [-121.60723292268813, 47.40825589746237, 842.73], [-121.60738622769713, 47.40819630213082, 846.58], [-121.60753433592618, 47.40803176537156, 846.58], [-121.60784052684903, 47.40789505653083, 853.79], [-121.6077939234674, 47.40794853307307, 871.09], [-121.60774472169578, 47.40808255970478, 874.46], [-121.60772980190814, 47.40820753388107, 878.78], [-121.60774011164904, 47.408279702067375, 876.38], [-121.60782451741397, 47.40846108645201, 877.82], [-121.60785209387541, 47.40855412557721, 876.38], [-121.60794102586806, 47.408652026206255, 879.26], [-121.60811721347272, 47.40877649746835, 882.15], [-121.60820840857923, 47.40888638421893, 884.55], [-121.60833380185068, 47.40916206501424, 891.76], [-121.6084570158273, 47.40927329286933, 895.12], [-121.60851786844432, 47.4093057308346, 887.91], [-121.60859263502061, 47.409209590405226, 883.11], [-121.60866304300725, 47.40925711579621, 878.78], [-121.60869237966835, 47.409355686977506, 873.01], [-121.60885482095182, 47.40956640802324, 868.69], [-121.60891508683562, 47.409623488783836, 865.32], [-121.6089541465044, 47.40971636027098, 867.25], [-121.60901399329305, 47.40999078378081, 869.17], [-121.6090662125498, 47.4100845772773, 870.13], [-121.60904433578253, 47.41011190228164, 870.61], [-121.60904458723962, 47.41023486480117, 872.53], [-121.60906906239688, 47.41036193445325, 873.98], [-121.6091755963862, 47.41042991168797, 874.94], [-121.60928481258452, 47.41036679595709, 876.86], [-121.60940995439887, 47.41018356755376, 881.19], [-121.6095244511962, 47.410041661933064, 882.15], [-121.60964624024928, 47.40993940271437, 882.15], [-121.60978579893708, 47.40986413322389, 877.34], [-121.60988763906062, 47.409792970865965, 877.34], [-121.60997791215777, 47.409703200683, 875.42], [-121.61002585664392, 47.409605886787176, 876.38], [-121.610137084499, 47.409506645053625, 877.34], [-121.61021168343723, 47.40942022763193, 878.3], [-121.61037135869265, 47.40907824598253, 882.63], [-121.61038300953805, 47.408771719783545, 886.47], [-121.6104016173631, 47.40865571424365, 887.91], [-121.61036373116076, 47.40855270065367, 886.95], [-121.61042835563421, 47.4085910897702, 888.88], [-121.61049088463187, 47.40876912139356, 893.2], [-121.61065768450499, 47.40891647525132, 895.12], [-121.61067788489163, 47.40884246304631, 898.97], [-121.61065726540983, 47.40867960266769, 901.85], [-121.6107327863574, 47.40862486883998, 908.1], [-121.61079154349864, 47.408546498045325, 911.95], [-121.61085440777242, 47.40834524855018, 913.39], [-121.61090176552534, 47.40825455635786, 914.35], [-121.61090360954404, 47.40817886777222, 914.83], [-121.61094283685088, 47.40818557329476, 914.83], [-121.61097443662584, 47.408276265487075, 915.79], [-121.61103822290897, 47.408326137810946, 918.2], [-121.61102816462517, 47.40843711420894, 921.08], [-121.6112299170345, 47.40865034982562, 929.25], [-121.61128515377641, 47.40874556824565, 930.69], [-121.6114027518779, 47.40881974808872, 931.17], [-121.6113789472729, 47.40865730680525, 933.1], [-121.61141255870461, 47.408437533304095, 935.02], [-121.61149386316538, 47.408570470288396, 942.23], [-121.61159260198474, 47.408587569370866, 946.07], [-121.61160685122013, 47.408426720649004, 949.92], [-121.61175856366754, 47.4082319252193, 950.88], [-121.61180608905852, 47.40812421776354, 952.32], [-121.61188035272062, 47.40819009952247, 953.77], [-121.61196107044816, 47.4083059374243, 954.73], [-121.61199283786118, 47.408283641561866, 956.17], [-121.61196190863848, 47.40819336846471, 957.61], [-121.61201178096235, 47.4080625269562, 959.53], [-121.61213432438672, 47.40802673622966, 962.9], [-121.61217723973095, 47.40809588693082, 965.3], [-121.61224261857569, 47.4080675560981, 966.26], [-121.61235594190657, 47.4078759457916, 969.63], [-121.61241042427719, 47.40774091333151, 969.63], [-121.61259658634663, 47.40775264799595, 972.99], [-121.6125682555139, 47.407847279682755, 978.28], [-121.61261921748519, 47.408051546663046, 984.53], [-121.61265618167818, 47.408138047903776, 988.37], [-121.61270747892559, 47.40811902098358, 990.78], [-121.61274016834795, 47.40797217004001, 994.14], [-121.61279641091824, 47.40795104764402, 995.1], [-121.6128880251199, 47.40783981978893, 997.51], [-121.61300755105913, 47.40776848979294, 999.43], [-121.61304292269051, 47.407764717936516, 1000.39], [-121.61308617331088, 47.40784375928342, 1001.35], [-121.61318927071989, 47.40784082561731, 999.91], [-121.61314107477665, 47.40788022056222, 999.43], [-121.61316144280136, 47.40780092775822, 1000.87], [-121.61320687271655, 47.40773328579962, 999.43], [-121.61325649358332, 47.40771601907909, 998.95], [-121.6133166756481, 47.40760303102434, 999.43], [-121.61340359598398, 47.40748157724738, 1000.87], [-121.61337518133223, 47.40733288228512, 1005.68], [-121.61345271393657, 47.40736079402268, 1009.04], [-121.61356335505843, 47.407491551712155, 1011.44], [-121.61365563981235, 47.40755877457559, 1008.56], [-121.61380114965141, 47.40761501714587, 1000.87], [-121.61384833976626, 47.40766916424036, 998.47], [-121.61406811326742, 47.40773177705705, 983.09], [-121.61424924619496, 47.40777092054486, 968.67], [-121.61432384513319, 47.40789622999728, 956.65], [-121.61439090035856, 47.40790561772883, 951.84], [-121.6144805867225, 47.40799765102565, 940.31], [-121.61447782069445, 47.40805523470044, 945.11], [-121.61466599442065, 47.40813788026571, 950.4], [-121.6147908847779, 47.40814802236855, 951.84], [-121.61478945985436, 47.408221531659365, 953.28], [-121.61486716009676, 47.408258160576224, 951.84], [-121.61495852284133, 47.40836855024099, 952.32], [-121.61490990780294, 47.4084475915879, 963.86], [-121.61501652561128, 47.40842160768807, 974.91], [-121.61505432799459, 47.408206863328815, 978.76], [-121.61502373404801, 47.407975774258375, 991.26], [-121.61508458666503, 47.40790276788175, 1000.39], [-121.6150673199445, 47.40782590582967, 1012.41], [-121.61514099687338, 47.4077760335058, 1016.25], [-121.61511182785034, 47.407625913619995, 1021.54], [-121.6151154320687, 47.407523738220334, 1027.31], [-121.61504091694951, 47.40730840712786, 1040.28], [-121.61508559249341, 47.40725928917527, 1044.13], [-121.6150757856667, 47.40714697167277, 1050.86], [-121.61495927721262, 47.40701814182103, 1059.03], [-121.615021051839, 47.4069781601429, 1066.24], [-121.61508508957922, 47.40685310214758, 1077.78], [-121.61522657610476, 47.40687078796327, 1076.81], [-121.61530461162329, 47.40676609799266, 1079.7], [-121.61538834683597, 47.40675629116595, 1078.26], [-121.61564977839589, 47.40666534751654, 1060.47], [-121.6157076973468, 47.4067535251379, 1056.63], [-121.61584566347301, 47.40662687458098, 1056.63], [-121.61594197154045, 47.40643149241805, 1058.07], [-121.61600584164262, 47.406345242634416, 1058.55], [-121.61608496680856, 47.40633074194193, 1059.51], [-121.61615118384361, 47.406260669231415, 1059.99], [-121.61622771061957, 47.406251952052116, 1059.99], [-121.61622326821089, 47.40609856322408, 1060.95], [-121.61635000258684, 47.40606595762074, 1061.43], [-121.61659810692072, 47.40597115829587, 1062.39], [-121.61664462648332, 47.40586219355464, 1063.36], [-121.61675258539617, 47.40580955520272, 1064.32], [-121.61679843440652, 47.40571668371558, 1065.28], [-121.6168343089521, 47.405718779191375, 1065.28], [-121.61694847047329, 47.40556656382978, 1067.2], [-121.61712876521051, 47.40542826242745, 1068.64], [-121.61716036498547, 47.40532860159874, 1069.6], [-121.61734376102686, 47.405260037630796, 1070.57], [-121.61728081293404, 47.40520656108856, 1071.05], [-121.61668066866696, 47.40500380285084, 1135.45], [-121.61676230840385, 47.404975136741996, 1141.7], [-121.61691284738481, 47.40486432798207, 1144.59], [-121.6169823333621, 47.404792411252856, 1148.43], [-121.61696020513773, 47.40497480146587, 1156.12], [-121.61711627617478, 47.40486047230661, 1158.53], [-121.61716631613672, 47.40486935712397, 1159.01], [-121.61724485456944, 47.40480959415436, 1160.93], [-121.61732565611601, 47.40471915341914, 1161.89], [-121.61741307936609, 47.40477606654167, 1163.81], [-121.61731777712703, 47.40490363910794, 1166.22], [-121.61726756952703, 47.405132381245494, 1169.58], [-121.61734250374138, 47.405173033475876, 1171.02], [-121.61740553565323, 47.405098266899586, 1172.47], [-121.61754802800715, 47.40505543537438, 1172.95], [-121.6175626963377, 47.40501243621111, 1173.91], [-121.61771181039512, 47.40480096079409, 1178.71], [-121.61783695220947, 47.404738599434495, 1181.6], [-121.6180217731744, 47.40466425195336, 1190.73], [-121.61811674013734, 47.4046450573951, 1198.42], [-121.6182498447597, 47.404680429026484, 1206.11], [-121.6184501722455, 47.40468562580645, 1206.59], [-121.61865988746285, 47.40464354865253, 1205.63], [-121.61869375035167, 47.40454237908125, 1207.07], [-121.61878729239106, 47.404431318864226, 1209.48], [-121.6188751347363, 47.40437717176974, 1209.0], [-121.61904503591359, 47.4043239466846, 1209.96], [-121.61914595402777, 47.404242642223835, 1210.44], [-121.61926539614797, 47.40421892143786, 1210.44], [-121.61932088434696, 47.40414775907993, 1211.4], [-121.6193415876478, 47.40418145433068, 1215.24], [-121.61942264065146, 47.404063353314996, 1217.65], [-121.61952339112759, 47.40400702692568, 1218.61], [-121.61959698423743, 47.40387559868395, 1221.49], [-121.61967233754694, 47.40380745381117, 1222.45], [-121.61973218433559, 47.403798904269934, 1222.93], [-121.61986721679568, 47.40371433086693, 1223.9], [-121.61999545991421, 47.4036571662873, 1226.3], [-121.62002446129918, 47.40360477939248, 1229.18], [-121.620156140998, 47.40355256013572, 1233.51], [-121.62031221203506, 47.40346823818982, 1238.32], [-121.62033325061202, 47.40335952490568, 1243.6], [-121.62037348374724, 47.40333831869066, 1245.53], [-121.62047381512821, 47.40317244082689, 1246.97], [-121.62044079042971, 47.40305224433541, 1247.45], [-121.62041656672955, 47.403079150244594, 1246.49], [-121.62043953314424, 47.40320697426796, 1247.93], [-121.62058244459331, 47.403197921812534, 1256.1], [-121.62076659500599, 47.4030979257077, 1262.35], [-121.62093901075423, 47.40308644250035, 1265.71], [-121.62110589444637, 47.403097255155444, 1269.08], [-121.62148031406105, 47.403097338974476, 1274.85], [-121.62155474536121, 47.40303489379585, 1277.73], [-121.62156907841563, 47.402993738651276, 1276.77], [-121.62155105732381, 47.4029007833451, 1281.57], [-121.62177057936788, 47.402698611840606, 1283.02], [-121.62178826518357, 47.40266223438084, 1282.54], [-121.62195213139057, 47.40249174647033, 1288.78], [-121.6219678055495, 47.40246132016182, 1289.75], [-121.62194500677288, 47.402365850284696, 1292.63], [-121.62199982441962, 47.40229343064129, 1296.48], [-121.62200041115284, 47.40221950225532, 1296.48], [-121.62215036340058, 47.40215596742928, 1302.72], [-121.6222014091909, 47.40207860246301, 1309.93], [-121.62224147468805, 47.40218128077686, 1313.3], [-121.62217592820525, 47.40228479728103, 1318.59], [-121.62221658043563, 47.4024002160877, 1320.51], [-121.62228908389807, 47.40248487330973, 1320.03], [-121.62231280468404, 47.40262250415981, 1322.43], [-121.62234272807837, 47.40255947224796, 1322.43], [-121.62253358401358, 47.40245025604963, 1321.95], [-121.62267414852977, 47.402255376800895, 1326.28], [-121.62290968000889, 47.40217390470207, 1325.31], [-121.62301872856915, 47.402081955224276, 1325.8], [-121.6230941656977, 47.40204541012645, 1329.16], [-121.62317228503525, 47.401970224455, 1332.04], [-121.62333548069, 47.401882549747825, 1334.45], [-121.62341879680753, 47.40179495885968, 1335.89], [-121.6236034501344, 47.401749696582556, 1339.25], [-121.62372817285359, 47.401666296646, 1339.73], [-121.62365759722888, 47.40153587423265, 1338.77], [-121.62359464913607, 47.40155691280961, 1350.31], [-121.62363630719483, 47.401496563106775, 1355.12], [-121.62374820560217, 47.4014519713819, 1354.15], [-121.62385985255241, 47.4012899491936, 1358.96], [-121.62399589084089, 47.401191126555204, 1365.69], [-121.62411893717945, 47.40101980045438, 1375.3], [-121.62422027438879, 47.400943860411644, 1377.71], [-121.62429445423186, 47.40085023455322, 1380.59], [-121.6243944503367, 47.400801284238696, 1383.96], [-121.62446888163686, 47.400703970342875, 1386.36], [-121.6244790237397, 47.400654098019004, 1387.32], [-121.62460274063051, 47.400551084429026, 1389.24], [-121.62474313750863, 47.40047908388078, 1387.8], [-121.6248152218759, 47.400405993685126, 1388.28], [-121.62489308975637, 47.40036349743605, 1390.2], [-121.6249534394592, 47.40029811859131, 1391.65], [-121.62502376362681, 47.40029233507812, 1386.36], [-121.62513189017773, 47.40019057877362, 1392.61], [-121.62521445192397, 47.40016484633088, 1397.89], [-121.62526943720877, 47.4000879842788, 1402.7], [-121.62539726123214, 47.39995529875159, 1405.1], [-121.6255094949156, 47.39989846944809, 1407.99], [-121.62551100365818, 47.39983384497464, 1406.55], [-121.62567084655166, 47.39976310171187, 1403.66], [-121.6257462836802, 47.399756563827395, 1406.07], [-121.62580965086818, 47.399610886350274, 1418.56], [-121.62596764974296, 47.39947040565312, 1426.25], [-121.62610125727952, 47.399376863613725, 1425.77], [-121.62620762363076, 47.39925155416131, 1427.21], [-121.62627694196999, 47.39909070543945, 1426.73], [-121.62637962028384, 47.39896262995899, 1436.83], [-121.6264598350972, 47.3989396635443, 1439.71], [-121.62652370519936, 47.39898727275431, 1437.31], [-121.62663384340703, 47.39900437183678, 1442.11], [-121.62684347480536, 47.39905499853194, 1450.77], [-121.62695889361203, 47.39912213757634, 1456.05], [-121.62712393328547, 47.39918910898268, 1459.9], [-121.62700826302171, 47.39925012923777, 1464.23], [-121.62692964076996, 47.3993384744972, 1465.19], [-121.62694263271987, 47.39939161576331, 1466.15], [-121.62708923220634, 47.39942070096731, 1469.99], [-121.62727916613221, 47.3994851578027, 1473.84], [-121.62754043005407, 47.399650951847434, 1479.61], [-121.62762466818094, 47.399713983759284, 1482.97], [-121.62776263430715, 47.39977827295661, 1485.85], [-121.62792415358126, 47.39987801760435, 1483.93], [-121.62802373059094, 47.39997801370919, 1483.45], [-121.62814769893885, 47.40005596540868, 1487.3], [-121.62841198034585, 47.40017465315759, 1499.79], [-121.62848817184567, 47.400190494954586, 1503.16], [-121.62849127314985, 47.40023206919432, 1501.72], [-121.62855145521462, 47.40026827901602, 1499.79], [-121.62873862311244, 47.400344889611006, 1510.85], [-121.62877483293414, 47.40034547634423, 1510.37], [-121.62887063808739, 47.400404401123524, 1512.29], [-121.62895319983363, 47.40049752406776, 1513.25], [-121.62899670191109, 47.400705981999636, 1509.89], [-121.6288476716727, 47.40069206804037, 1505.56], [-121.62871800363064, 47.40073984488845, 1502.68], [-121.62859135307372, 47.40083506330848, 1501.72], [-121.62843285128474, 47.40092508494854, 1499.31], [-121.62812967784703, 47.40112658590078, 1490.66], [-121.62801342085004, 47.40124217234552, 1485.37], [-121.6279517300427, 47.401368487626314, 1481.05], [-121.62791987881064, 47.401466807350516, 1481.53], [-121.62785022519529, 47.40148407407105, 1484.89], [-121.62769985385239, 47.40162053145468, 1489.7], [-121.62752240896225, 47.401687670499086, 1488.26], [-121.62735586054623, 47.40176470018923, 1486.82], [-121.62721144035459, 47.40181046538055, 1489.22], [-121.62702863104641, 47.40196737460792, 1492.1], [-121.62694045342505, 47.402018923312426, 1492.1], [-121.62678907625377, 47.40221539512277, 1496.91], [-121.62675068713725, 47.40234171040356, 1501.24], [-121.62658765912056, 47.40250859409571, 1498.35], [-121.62652739323676, 47.40260892547667, 1497.39], [-121.62650350481272, 47.40273264236748, 1498.35], [-121.62641826085746, 47.40282786078751, 1496.43], [-121.6261828970164, 47.40298627875745, 1488.74], [-121.62608952261508, 47.40309029817581, 1486.82], [-121.62600863724947, 47.40327746607363, 1486.34], [-121.62601517513394, 47.40332440473139, 1488.26], [-121.62587511353195, 47.4035001732409, 1492.58], [-121.62584971636534, 47.40355750545859, 1492.58], [-121.62575298920274, 47.403698824346066, 1491.14], [-121.62571837194264, 47.403854141011834, 1495.95], [-121.6256326250732, 47.4039957113564, 1496.91], [-121.62564343772829, 47.40403577685356, 1495.95], [-121.62553958594799, 47.404206935316324, 1495.95], [-121.62557445466518, 47.40422076545656, 1493.06], [-121.62542106583714, 47.40408414043486, 1482.01], [-121.62540262565017, 47.4040993116796, 1481.05], [-121.62522233091295, 47.40413912571967, 1478.16], [-121.62500943057239, 47.40428832359612, 1478.65], [-121.62477104924619, 47.40473113954067, 1484.41], [-121.62449159659445, 47.40499969571829, 1487.78], [-121.62442244589329, 47.40504286251962, 1487.3], [-121.62431976757944, 47.40522558800876, 1482.97], [-121.62430828437209, 47.40529448725283, 1480.57], [-121.62432630546391, 47.40546648390591, 1478.65], [-121.62423603236675, 47.40557201206684, 1479.61], [-121.6240191925317, 47.40569019690156, 1483.93], [-121.62389002740383, 47.40583956241608, 1482.49], [-121.62382339127362, 47.40586370229721, 1482.01], [-121.6237432602793, 47.405929835513234, 1483.93], [-121.62358500994742, 47.40611859597266, 1490.18], [-121.62350588478148, 47.40625538863242, 1497.39], [-121.62346229888499, 47.406409280374646, 1501.72], [-121.62340505048633, 47.40649787709117, 1503.64], [-121.62328544072807, 47.406600220128894, 1506.04], [-121.62324763834476, 47.406694600358605, 1501.72], [-121.62315711379051, 47.406733157113194, 1501.72], [-121.62300481460989, 47.40671128034592, 1499.79], [-121.62298126146197, 47.406524531543255, 1502.2], [-121.62290934473276, 47.406430738046765, 1504.6], [-121.6228658426553, 47.406486393883824, 1506.04], [-121.6228523477912, 47.40639628842473, 1509.41], [-121.6228708717972, 47.406346248462796, 1514.69], [-121.62287179380655, 47.40614860318601, 1519.5], [-121.6228195745498, 47.40605665370822, 1527.19], [-121.62268621847034, 47.40622127428651, 1532.96], [-121.62265285849571, 47.40631213411689, 1535.36], [-121.62255177274346, 47.40643098950386, 1543.05], [-121.62250089459121, 47.40654188208282, 1552.19], [-121.6223671194166, 47.406614385545254, 1554.11], [-121.62232244387269, 47.40669057704508, 1556.51], [-121.6222289018333, 47.406757548451424, 1560.36], [-121.62224859930575, 47.40680884569883, 1563.72], [-121.62220794707537, 47.40693281404674, 1566.12], [-121.62224859930575, 47.406855868175626, 1564.2], [-121.62223242223263, 47.40678294561803, 1559.4], [-121.62239285185933, 47.406614888459444, 1549.3], [-121.62251019850373, 47.40653735585511, 1547.86], [-121.62257021293044, 47.40643895231187, 1540.17], [-121.6225616633892, 47.406405257061124, 1536.32], [-121.622658893466, 47.40628631785512, 1532.0], [-121.62263131700456, 47.4062751699239, 1532.0], [-121.62284790538251, 47.40606729872525, 1532.96], [-121.62284991703928, 47.4061319231987, 1530.08], [-121.62290783599019, 47.40627424791455, 1522.39], [-121.62286131642759, 47.406391091644764, 1519.5], [-121.6229004599154, 47.406460493803024, 1517.1], [-121.62293088622391, 47.40642981603742, 1514.69], [-121.62296709604561, 47.406462505459785, 1511.33], [-121.62298033945262, 47.406549006700516, 1508.93], [-121.62305150181055, 47.40662754513323, 1505.08], [-121.62308444269001, 47.40671781823039, 1501.24], [-121.62321235053241, 47.40667959675193, 1498.35], [-121.62328845821321, 47.40660742856562, 1497.39], [-121.6233944054693, 47.40653752349317, 1492.58], [-121.62347302772105, 47.40641573444009, 1490.66], [-121.62354921922088, 47.406267458572984, 1490.18], [-121.62366195581853, 47.40617936477065, 1488.74], [-121.62379330024123, 47.40603184327483, 1487.78], [-121.62412941455841, 47.405743170529604, 1484.89], [-121.62425581365824, 47.40562716498971, 1483.93], [-121.62429261021316, 47.405507219955325, 1482.49], [-121.62428816780448, 47.405400685966015, 1481.53], [-121.62425547838211, 47.40529683418572, 1482.49], [-121.62430761381984, 47.40518694743514, 1485.85], [-121.62444566376507, 47.40512860938907, 1487.78], [-121.62458321079612, 47.40504655055702, 1490.66], [-121.62464490160346, 47.40498896688223, 1491.14], [-121.62473358213902, 47.40486357361078, 1488.26], [-121.62481463514268, 47.404707334935665, 1483.93], [-121.62496517412364, 47.404479682445526, 1479.61], [-121.62508252076805, 47.404371639713645, 1483.45], [-121.62515284493566, 47.40420953370631, 1483.45], [-121.62530791014433, 47.40410501137376, 1482.49], [-121.62533456459641, 47.40407223813236, 1482.97], [-121.62559700198472, 47.40391633473337, 1488.26], [-121.62565249018371, 47.40376638248563, 1481.05], [-121.62570521235466, 47.403659010306, 1478.16], [-121.62582959979773, 47.40350587293506, 1477.2], [-121.62589749321342, 47.40343999117613, 1477.2], [-121.62595809437335, 47.40327620878816, 1478.16], [-121.62601961754262, 47.40316104143858, 1479.13], [-121.62622556090355, 47.40305098704994, 1477.68], [-121.6263216175139, 47.4029821716249, 1476.72], [-121.62637006491423, 47.4028489831835, 1477.68], [-121.62649914622307, 47.40262946113944, 1482.49], [-121.62659293971956, 47.40250633098185, 1483.93], [-121.62666217423975, 47.402319079265, 1484.89], [-121.62673325277865, 47.402227967977524, 1485.85], [-121.62686979398131, 47.402146412059665, 1487.3], [-121.6269292216748, 47.40207147784531, 1488.26], [-121.62697238847613, 47.4020513612777, 1486.82], [-121.62711219862103, 47.40192194469273, 1489.22], [-121.62721881642938, 47.40186871960759, 1488.74], [-121.62749441340566, 47.40170845761895, 1486.34], [-121.62759901955724, 47.401640145108104, 1484.41], [-121.6277601197362, 47.40157493390143, 1485.85], [-121.62795986048877, 47.4014054518193, 1489.7], [-121.62803228013217, 47.401268826797605, 1492.1], [-121.62814971059561, 47.40115324035287, 1493.55], [-121.62820645608008, 47.4010772164911, 1495.95], [-121.62838960066438, 47.40091762505472, 1497.87], [-121.6285400558263, 47.40086699835956, 1501.24], [-121.62866553291678, 47.400782676413655, 1502.2], [-121.62896811962128, 47.400662899017334, 1504.6], [-121.62902411073446, 47.400563238188624, 1501.72], [-121.62897951900959, 47.40046181716025, 1500.76], [-121.62887424230576, 47.400360731408, 1502.68], [-121.62866989150643, 47.400274481624365, 1500.76], [-121.62849429063499, 47.40022326819599, 1498.83], [-121.62832455709577, 47.40009192377329, 1490.66], [-121.62814887240529, 47.399975918233395, 1487.78], [-121.62800017744303, 47.3998511955142, 1489.7], [-121.62796095013618, 47.39973854273558, 1492.58], [-121.62771628238261, 47.39966427907348, 1485.37], [-121.62738804705441, 47.399418940767646, 1477.2], [-121.62720833905041, 47.399327578023076, 1475.28], [-121.62700633518398, 47.39930855110288, 1475.76], [-121.62712678313255, 47.3991624545306, 1486.34], [-121.62700700573623, 47.39909288473427, 1480.09], [-121.6270156390965, 47.39904519170523, 1462.78], [-121.62692192941904, 47.398986937478185, 1458.94], [-121.62660358473659, 47.39893312565982, 1456.05], [-121.62650861777365, 47.39888157695532, 1459.42], [-121.62627627141774, 47.399012837558985, 1449.32], [-121.62620846182108, 47.39916999824345, 1445.96], [-121.62613403052092, 47.399242082610726, 1439.71], [-121.6260052844882, 47.39933461882174, 1436.35], [-121.6258829087019, 47.399488342925906, 1431.06], [-121.62580713629723, 47.399635780602694, 1422.89], [-121.62570772692561, 47.399770226329565, 1410.87], [-121.62544160149992, 47.40003978833556, 1387.8], [-121.62537060678005, 47.400086810812354, 1387.32], [-121.62513423711061, 47.400296526029706, 1383.96], [-121.62501940503716, 47.40034371614456, 1378.19], [-121.6248619928956, 47.400464080274105, 1375.78], [-121.62476719357073, 47.40054999478161, 1372.42], [-121.62461405619979, 47.40063574165106, 1372.9], [-121.62450240924954, 47.40073950961232, 1371.46], [-121.62443510256708, 47.40083330310881, 1368.57], [-121.62415430881083, 47.401057770475745, 1359.44], [-121.62410896271467, 47.40113756619394, 1354.15], [-121.6238764487207, 47.40135541185737, 1349.35], [-121.62374753504992, 47.401436967775226, 1345.02], [-121.62368693388999, 47.40153729915619, 1344.54], [-121.62353890947998, 47.40160368382931, 1348.87], [-121.62345718592405, 47.40171474404633, 1344.06], [-121.62344209849834, 47.401813147589564, 1341.18], [-121.62337479181588, 47.401947090402246, 1334.45], [-121.62320706993341, 47.40201070904732, 1329.64], [-121.62292233668268, 47.40215144120157, 1324.83], [-121.62269367836416, 47.4023069255054, 1325.31], [-121.62257599644363, 47.40248227491975, 1320.03], [-121.62256996147335, 47.40257129073143, 1317.62], [-121.62244674749672, 47.40264697931707, 1313.3], [-121.62232110276818, 47.402484538033605, 1304.65], [-121.62236276082695, 47.402418656274676, 1305.13], [-121.62232973612845, 47.40221296437085, 1308.49], [-121.62224667146802, 47.40210668183863, 1308.97], [-121.62217039614916, 47.402121014893055, 1307.05], [-121.62196420133114, 47.40226694382727, 1306.09], [-121.62191541865468, 47.402421087026596, 1304.17], [-121.62179036065936, 47.40255963988602, 1298.88], [-121.62177577614784, 47.40263273008168, 1298.88], [-121.6216654703021, 47.40272576920688, 1294.55], [-121.62156639620662, 47.402897514402866, 1288.78], [-121.62150755524635, 47.403060710057616, 1282.54], [-121.62141493521631, 47.403063643723726, 1271.48], [-121.6210633981973, 47.403106139972806, 1271.48], [-121.62085301242769, 47.403151486068964, 1271.0], [-121.62066601216793, 47.403208231553435, 1271.0], [-121.62036124616861, 47.40333731286228, 1264.75], [-121.62025764584541, 47.40347921848297, 1257.06], [-121.62013744935393, 47.40355943329632, 1253.7], [-121.61995782516897, 47.40363763645291, 1248.89], [-121.61960637196898, 47.40381617099047, 1243.6], [-121.61947335116565, 47.40389990620315, 1241.2], [-121.61949967034161, 47.40396914072335, 1237.83], [-121.61935784853995, 47.40407223813236, 1228.7], [-121.61925508640707, 47.4041236191988, 1231.11], [-121.61924603395164, 47.40422286093235, 1227.74], [-121.61896079778671, 47.40434976294637, 1219.09], [-121.61886817775667, 47.40440801717341, 1215.72], [-121.61868939176202, 47.40454967133701, 1213.32], [-121.6185780800879, 47.404651595279574, 1215.72], [-121.61856953054667, 47.404630137607455, 1212.36], [-121.61837054416537, 47.404668275266886, 1207.55], [-121.61800383590162, 47.404802553355694, 1192.17], [-121.61780652590096, 47.40484530106187, 1193.61], [-121.61769479513168, 47.40488100796938, 1193.13], [-121.61725231446326, 47.40513280034065, 1188.33], [-121.61718416959047, 47.405159287154675, 1188.33], [-121.6172048728913, 47.405075300484896, 1190.73], [-121.61719808354974, 47.40498251281679, 1195.06], [-121.61728701554239, 47.404769863933325, 1195.54], [-121.61712876521051, 47.404801631346345, 1194.58], [-121.61685165949166, 47.40487916395068, 1187.85], [-121.61684202030301, 47.404797775670886, 1186.88], [-121.61676373332739, 47.40477631799877, 1192.65], [-121.61667094565928, 47.40482501685619, 1192.65], [-121.61657597869635, 47.4049558583647, 1192.17], [-121.61658871918917, 47.40510472096503, 1192.65], [-121.61663867533207, 47.40512299351394, 1191.21], [-121.61650867201388, 47.40516188554466, 1191.21], [-121.61638394929469, 47.405228689312935, 1192.65], [-121.61610189825296, 47.40541082806885, 1191.21], [-121.61581515334547, 47.40551920607686, 1187.85], [-121.61576553247869, 47.405642084777355, 1179.19], [-121.61567693576217, 47.405749624595046, 1174.39], [-121.6155853215605, 47.40594383329153, 1161.89], [-121.61539362743497, 47.40609738975763, 1151.8], [-121.61524099297822, 47.40628061816096, 1146.51], [-121.61518550477922, 47.40637281909585, 1142.66], [-121.61511585116386, 47.40652721375227, 1133.53], [-121.61501795053482, 47.40662628784776, 1125.84], [-121.61486632190645, 47.406734582036734, 1121.03], [-121.61459868773818, 47.40694873966277, 1101.33], [-121.61451805382967, 47.40707597695291, 1097.96], [-121.61453356035054, 47.40726021118462, 1095.08], [-121.61444060504436, 47.407416282221675, 1091.23], [-121.6144351568073, 47.407521894201636, 1089.79], [-121.61439609713852, 47.40755575709045, 1089.31], [-121.61433063447475, 47.40766757167876, 1086.43], [-121.61420146934688, 47.40785088390112, 1080.18], [-121.6141140460968, 47.40801156498492, 1073.45], [-121.61409116350114, 47.4082335177809, 1066.72], [-121.61412930116057, 47.40847474895418, 1056.63], [-121.61401329562068, 47.40850953385234, 1058.55], [-121.61399980075657, 47.408458571881056, 1072.01], [-121.61383928731084, 47.40836243145168, 1078.26], [-121.61382671445608, 47.40830350667238, 1078.74], [-121.61373987793922, 47.40822211839259, 1078.74], [-121.61372319795191, 47.4080503731966, 1075.37], [-121.61355363205075, 47.40807862021029, 1072.97], [-121.61353544332087, 47.40811441093683, 1072.97], [-121.6134834755212, 47.40803888998926, 1070.57], [-121.61332639865577, 47.40793042816222, 1064.8], [-121.61320947110653, 47.40770688280463, 1060.47], [-121.6131642088294, 47.40747109986842, 1054.22], [-121.6130886040628, 47.40732315927744, 1052.78], [-121.61303613334894, 47.40747126750648, 1040.76], [-121.61297000013292, 47.40750747732818, 1039.32], [-121.61280546337366, 47.407649802044034, 1036.44], [-121.61267252638936, 47.40778986364603, 1029.23], [-121.61263145506382, 47.40784912370145, 1026.83], [-121.61238762550056, 47.40800586529076, 1000.87], [-121.61236641928554, 47.40777460858226, 1000.39], [-121.61231042817235, 47.40777670405805, 1000.87], [-121.61212493665516, 47.4078378919512, 999.91], [-121.61205243319273, 47.40789824165404, 993.66], [-121.61202074959874, 47.40795901045203, 989.81], [-121.61195000633597, 47.40790419280529, 981.16], [-121.61199820227921, 47.40805875509977, 971.07], [-121.61185378208756, 47.40820895880461, 965.3], [-121.61180407740176, 47.40823653526604, 965.78], [-121.61170919425786, 47.4080659635365, 966.26], [-121.61165462806821, 47.40808733738959, 962.42], [-121.61162001080811, 47.40820175036788, 957.13], [-121.61163249984384, 47.40837483666837, 953.77], [-121.61153719760478, 47.40852361544967, 952.8], [-121.61146125756204, 47.4084666185081, 948.96], [-121.61134843714535, 47.4083423987031, 946.56], [-121.61130334250629, 47.40845337510109, 942.23], [-121.61139923147857, 47.40870106033981, 937.9], [-121.61131482571363, 47.408779514953494, 934.06], [-121.6111873369664, 47.40863962098956, 930.69], [-121.61098206415772, 47.40844658575952, 928.77], [-121.6108173597604, 47.40820610895753, 930.69], [-121.610840074718, 47.408298812806606, 927.81], [-121.61072817631066, 47.40836653858423, 928.77], [-121.61078073084354, 47.40849385969341, 930.69], [-121.61070923320949, 47.408650517463684, 930.69], [-121.61067956127226, 47.408814802765846, 927.33], [-121.6105895396322, 47.40884933620691, 926.85], [-121.61049499176443, 47.408749759197235, 925.89], [-121.61041947081685, 47.40858723409474, 924.45], [-121.61038183607161, 47.40857751108706, 923.96], [-121.61037529818714, 47.40866158157587, 923.48], [-121.61039055325091, 47.408780101686716, 922.04], [-121.61024521104991, 47.4088775832206, 921.08], [-121.610197853297, 47.40902594290674, 921.56], [-121.61021076142788, 47.40908470004797, 921.08], [-121.61017161794007, 47.40921093150973, 921.08], [-121.61019961349666, 47.40929592400789, 922.04], [-121.61019014194608, 47.40942617878318, 922.52], [-121.60995645448565, 47.40973345935345, 921.56], [-121.60995486192405, 47.409762125462294, 921.56], [-121.60985184833407, 47.4098808132112, 921.56], [-121.6097779199481, 47.410052055493, 921.08], [-121.60961086861789, 47.41027157753706, 915.31], [-121.60909638740122, 47.410304518416524, 899.45], [-121.60899857059121, 47.41016613319516, 889.84], [-121.60902187228203, 47.4100655503571, 873.98], [-121.60910661332309, 47.40998508408666, 861.0], [-121.60896479152143, 47.40980504080653, 862.44], [-121.6088595148176, 47.409605383872986, 866.29], [-121.6088019311428, 47.40937747992575, 865.8], [-121.60875650122762, 47.409244794398546, 864.84], [-121.60866974852979, 47.40931402891874, 863.4], [-121.6085294354707, 47.40919115021825, 858.11], [-121.6084208060056, 47.40900934673846, 849.94], [-121.60836925730109, 47.4089053273201, 850.42], [-121.60816415213048, 47.408781023696065, 850.9], [-121.60798117518425, 47.40866065956652, 848.5], [-121.6079733800143, 47.40848966874182, 841.77], [-121.60789123736322, 47.408349607139826, 839.37], [-121.60785485990345, 47.408211724832654, 836.0], [-121.6078573744744, 47.40797175094485, 833.6], [-121.60790649242699, 47.407842334359884, 832.64], [-121.60801067948341, 47.4077567551285, 833.12], [-121.60779132507741, 47.407867731526494, 843.21], [-121.60761631093919, 47.408020198345184, 844.18], [-121.60740416496992, 47.408228488639, 839.85], [-121.60729201510549, 47.4084391258657, 839.37], [-121.60727441310883, 47.408516239374876, 838.89], [-121.6070877481252, 47.408857215195894, 829.27], [-121.6067021805793, 47.40912023931742, 804.76], [-121.6066162660718, 47.409214871004224, 795.15], [-121.60657787695527, 47.409201711416245, 789.38], [-121.60652859136462, 47.409247225150466, 786.5], [-121.60633463412523, 47.40932182408869, 780.73], [-121.60619272850454, 47.40933976136148, 778.81], [-121.60602106712759, 47.409412264823914, 772.08], [-121.60593464970589, 47.40937412716448, 770.63], [-121.60560758784413, 47.409332133829594, 764.39], [-121.60550004802644, 47.40938477218151, 761.5], [-121.60527214407921, 47.40935183130205, 758.62], [-121.60512085072696, 47.40929433144629, 756.69], [-121.60499705001712, 47.40926985628903, 755.73], [-121.60485648550093, 47.409369768574834, 753.81], [-121.60475900396705, 47.40938569419086, 754.29], [-121.60471650771797, 47.40945182740688, 751.41], [-121.60462212748826, 47.40952257066965, 749.97], [-121.60429431125522, 47.4096564296633, 742.76], [-121.60409532487392, 47.4097462836653, 740.83], [-121.60392433404922, 47.40985298529267, 740.35], [-121.60372383892536, 47.40992062725127, 738.91], [-121.6035339049995, 47.410006457939744, 737.47], [-121.60332343541086, 47.410089522600174, 736.51], [-121.60320508293808, 47.41010511294007, 734.58], [-121.60299427807331, 47.41021642461419, 731.22], [-121.6027130652219, 47.41030954755843, 729.78], [-121.60261902026832, 47.41034944541752, 726.89], [-121.60241223871708, 47.41050166077912, 723.05], [-121.60218710079789, 47.410586569458246, 717.76], [-121.60196238197386, 47.41073668934405, 714.4], [-121.60192558541894, 47.410809863358736, 715.84], [-121.60178259015083, 47.41088513284922, 715.84], [-121.60159357823431, 47.41096920333803, 714.88], [-121.60130825825036, 47.4111501686275, 711.51], [-121.60111497156322, 47.41113306954503, 709.11], [-121.60117900930345, 47.41085638292134, 702.38], [-121.60108244977891, 47.41070978343487, 704.3], [-121.60123273730278, 47.41057273931801, 700.46], [-121.60133549943566, 47.410537116229534, 699.98], [-121.60137732513249, 47.41043049842119, 699.5], [-121.60137464292347, 47.4103575758636, 698.53], [-121.60142325796187, 47.41031373851001, 698.53], [-121.6015390958637, 47.41001450456679, 696.61], [-121.60159475170076, 47.409974271431565, 695.65], [-121.60165032371879, 47.40989229641855, 694.69], [-121.60170078277588, 47.40986354649067, 694.69], [-121.60175283439457, 47.40973320789635, 693.73], [-121.60195483826101, 47.40955727174878, 688.92], [-121.60200806334615, 47.40948770195246, 688.44], [-121.60220512188971, 47.409356106072664, 686.52], [-121.60237678326666, 47.40927740000188, 680.27], [-121.60254634916782, 47.40912778303027, 678.35], [-121.60260175354779, 47.40903600119054, 674.5], [-121.6027616802603, 47.40890767425299, 671.62], [-121.60284524783492, 47.40880130790174, 669.7], [-121.60290383733809, 47.4085908383131, 673.06], [-121.60304666496813, 47.40844993852079, 671.14], [-121.60307256504893, 47.40837768651545, 670.18], [-121.60304649733007, 47.408329071477056, 670.18], [-121.60300232470036, 47.40834625437856, 675.94], [-121.60292655229568, 47.40864548832178, 674.98], [-121.60276863723993, 47.40883391350508, 674.98], [-121.60255833528936, 47.408959809690714, 674.02], [-121.60242271609604, 47.40900616161525, 675.94], [-121.60225172527134, 47.40907925181091, 675.46], [-121.60207671113312, 47.409212021157146, 674.02], [-121.60163104534149, 47.40937211550772, 662.49], [-121.60144957713783, 47.40946448408067, 661.52], [-121.60127565264702, 47.40958015434444, 658.16], [-121.60102335736156, 47.40962357260287, 652.87], [-121.60101413726807, 47.40960613824427, 650.95], [-121.60129987634718, 47.409444199875, 646.14], [-121.60146860405803, 47.40932333283126, 642.3], [-121.60145326517522, 47.409263234585524, 642.78], [-121.60126366652548, 47.409341018646955, 637.49], [-121.60114279948175, 47.40941058844328, 637.49], [-121.60079453140497, 47.40955492481589, 635.57], [-121.60073384642601, 47.409591721370816, 636.05], [-121.6003648750484, 47.40969691425562, 637.97], [-121.6000990010798, 47.40982951596379, 640.38], [-121.59998106770217, 47.40986983291805, 638.93], [-121.59988056868315, 47.41006772965193, 631.72], [-121.59987604245543, 47.41013562306762, 630.76], [-121.59965358674526, 47.410242073237896, 631.72], [-121.59953330643475, 47.410272331908345, 632.2], [-121.59939995035529, 47.41037903353572, 630.28], [-121.59934991039336, 47.410546923056245, 630.28], [-121.59927011467516, 47.41069000214338, 629.8], [-121.59893433563411, 47.410927042365074, 625.96], [-121.59888580441475, 47.41094531491399, 624.99], [-121.598807182163, 47.4110949318856, 624.03], [-121.59862236119807, 47.411248655989766, 622.59], [-121.59855798818171, 47.411343371495605, 623.07], [-121.59844734705985, 47.41143942810595, 621.63], [-121.5982926171273, 47.411535903811455, 619.23], [-121.59822078421712, 47.411630284041166, 617.3], [-121.59813160076737, 47.41168241947889, 617.3], [-121.59797293134034, 47.411885261535645, 613.46], [-121.59767956472933, 47.41212003864348, 610.09], [-121.59760437905788, 47.4122432526201, 607.21], [-121.59746976569295, 47.41237107664347, 607.21], [-121.5973948314786, 47.41249663755298, 607.21], [-121.5971681009978, 47.41279352456331, 604.33], [-121.59693785011768, 47.413069205358624, 598.56], [-121.5966519434005, 47.413351591676474, 589.43], [-121.59657323732972, 47.413475308567286, 585.1], [-121.59666116349399, 47.41364076733589, 580.29], [-121.59673442132771, 47.4138146918267, 579.33], [-121.5964534599334, 47.413455694913864, 572.6], [-121.59645144827664, 47.41339785978198, 572.12], [-121.59652520902455, 47.413187054917216, 567.8], [-121.59661933779716, 47.41299225948751, 565.87], [-121.59658815711737, 47.41280215792358, 566.83], [-121.59664959646761, 47.41260685957968, 566.35], [-121.59666493535042, 47.412365125492215, 568.28], [-121.59670835360885, 47.41220503114164, 566.35], [-121.59668731503189, 47.41202381439507, 562.03], [-121.59672285430133, 47.4117667414248, 555.78], [-121.59672268666327, 47.41143012419343, 555.3], [-121.59669435583055, 47.41120096296072, 551.93], [-121.59650836139917, 47.41120833903551, 550.97], [-121.59640409052372, 47.41144713945687, 555.3], [-121.59630585461855, 47.411637073382735, 559.62], [-121.59603754989803, 47.412044517695904, 563.47], [-121.59586706198752, 47.412136467173696, 562.99], [-121.59578885883093, 47.411969332024455, 563.95], [-121.59571920521557, 47.411722065880895, 566.83], [-121.59561895765364, 47.41161402314901, 566.83], [-121.59537403844297, 47.41123675368726, 564.91], [-121.59507103264332, 47.41107305511832, 566.83], [-121.59482133574784, 47.410958390682936, 566.35], [-121.59465068019927, 47.41085118614137, 563.95], [-121.59435437992215, 47.41079678758979, 560.11], [-121.59413200803101, 47.41073727607727, 556.74], [-121.5938388928771, 47.410619761794806, 548.57], [-121.5935732703656, 47.410556729882956, 543.76], [-121.59326288849115, 47.41053686477244, 544.72], [-121.59303406253457, 47.4104593321681, 543.76], [-121.5927733015269, 47.41039026528597, 543.28], [-121.59251421689987, 47.41038020700216, 542.32], [-121.59234599210322, 47.41030912846327, 543.28], [-121.59216561354697, 47.41016311571002, 543.76], [-121.59198800101876, 47.410046104341745, 543.28], [-121.59181675873697, 47.4098982475698, 542.8], [-121.59177183173597, 47.40974888205528, 542.32], [-121.591737549752, 47.40953732281923, 541.84], [-121.59143320284784, 47.4091400206089, 546.17], [-121.59142532385886, 47.4089880567044, 548.09], [-121.59146589227021, 47.40882804617286, 547.61], [-121.59148399718106, 47.408622773364186, 547.13], [-121.5914383996278, 47.40845044143498, 549.05], [-121.59143479540944, 47.40828934125602, 549.05], [-121.59146572463214, 47.40819873288274, 549.05], [-121.59150679595768, 47.407968398183584, 548.57], [-121.59149313345551, 47.40794953890145, 548.57], [-121.59149774350226, 47.40778885781765, 549.05], [-121.59126355312765, 47.407615687698126, 554.34], [-121.59119750373065, 47.407527677714825, 554.82], [-121.59110915847123, 47.4074668250978, 555.78], [-121.59095644019544, 47.407328272238374, 555.78], [-121.59082568250597, 47.40723380818963, 555.3], [-121.59071512520313, 47.40711897611618, 556.74], [-121.5905287116766, 47.40706373937428, 557.22], [-121.59044749103487, 47.40701210685074, 553.86], [-121.59036635421216, 47.407165076583624, 550.97], [-121.59040885046124, 47.40732257254422, 548.09], [-121.59024976193905, 47.40732039324939, 545.69], [-121.59004700370133, 47.407169099897146, 541.36], [-121.58993401564658, 47.40709508769214, 541.36], [-121.58975447528064, 47.406957456842065, 539.92], [-121.589588932693, 47.406811863183975, 534.15], [-121.58947016112506, 47.40697371773422, 534.15], [-121.58949698321521, 47.40705946460366, 530.3], [-121.58959412947297, 47.40707631222904, 527.42], [-121.5895371325314, 47.40699643269181, 528.38], [-121.58956361934543, 47.40695494227111, 528.86], [-121.58945264294744, 47.40700079128146, 531.75], [-121.58935507759452, 47.4070746358484, 525.5], [-121.58945314586163, 47.40715124644339, 523.58], [-121.58946211449802, 47.40730136632919, 522.61], [-121.5894596837461, 47.40755860693753, 511.08], [-121.58948172815144, 47.4077207967639, 508.67], [-121.58952397294343, 47.407770082354546, 506.27], [-121.58956018276513, 47.40798038430512, 510.6], [-121.58961131237447, 47.40810485556722, 509.64], [-121.58958440646529, 47.40818507038057, 510.12], [-121.58945867791772, 47.40833016112447, 508.67], [-121.58933948725462, 47.408530320972204, 506.75], [-121.5892337076366, 47.408803068101406, 497.62], [-121.58923462964594, 47.40894698537886, 492.33], [-121.5891055483371, 47.40934956818819, 490.41], [-121.58898895606399, 47.40949013270438, 488.49], [-121.5889694262296, 47.409653663635254, 489.45], [-121.58901602961123, 47.40975801832974, 487.05], [-121.5890265069902, 47.41001148708165, 486.56], [-121.58899113535881, 47.41026185452938, 489.93], [-121.58900588750839, 47.41034332662821, 489.45], [-121.58896297216415, 47.4104630202055, 488.97], [-121.58900412730873, 47.41055312566459, 487.53], [-121.58891972154379, 47.41068824194372, 489.93], [-121.58898116089404, 47.41085613146424, 488.49], [-121.58892885781825, 47.411038437858224, 487.53], [-121.58884981647134, 47.411247566342354, 487.05], [-121.58877496607602, 47.41140858270228, 486.08], [-121.58879206515849, 47.41149751469493, 483.68], [-121.58901334740222, 47.41166179999709, 481.76], [-121.58922230824828, 47.41177671588957, 480.32], [-121.58940402790904, 47.41192356683314, 482.72], [-121.58922465518117, 47.412126660346985, 486.08], [-121.58907218836248, 47.41216940805316, 486.08], [-121.58895961940289, 47.412006044760346, 487.53], [-121.58900706097484, 47.412016186863184, 487.53]]}}