{"type": "Feature", "properties": {}, "geometry": {"type": "LineString", "coordinates": [[-122.365194, 43.293388, 797.3], [-122.365161, 43.293427, 801.8], [-122.365134, 43.293425, 801.9], [-122.365086, 43.293457, 800.6], [-122.365046, 43.293508, 801.7], [-122.365003, 43.293518, 802.4], [-122.364996, 43.293467, 796.5], [-122.365021, 43.293482, 789.1], [-122.365049, 43.293436, 785.7], [-122.365029, 43.293416, 783.7], [-122.365026, 43.293439, 786.0], [-122.365048, 43.293458, 783.2], [-122.365088, 43.293536, 776.5], [-122.36518, 43.293573, 777.0], [-122.365212, 43.293576, 776.8], [-122.365317, 43.293616, 777.4], [-122.365331, 43.293654, 779.2], [-122.365355, 43.293668, 779.5], [-122.365365, 43.293696, 780.0], [-122.365378, 43.293682, 780.2], [-122.365408, 43.293716, 781.4], [-122.365449, 43.293796, 780.2], [-122.36547, 43.293862, 778.7], [-122.365466, 43.293884, 778.6], [-122.365331, 43.293967, 776.9], [-122.365257, 43.294034, 779.1], [-122.365254, 43.294058, 779.1], [-122.365136, 43.294139, 781.0], [-122.365044, 43.29423, 782.3], [-122.365035, 43.294308, 780.2], [-122.365098, 43.294313, 781.9], [-122.365139, 43.29438, 781.7], [-122.365142, 43.294399, 782.0], [-122.365191, 43.294388, 782.7], [-122.365185, 43.294414, 786.2], [-122.365141, 43.294465, 787.1], [-122.365113, 43.294456, 786.4], [-122.365084, 43.294464, 787.1], [-122.365027, 43.294504, 789.8], [-122.365003, 43.294583, 791.5], [-122.364977, 43.294592, 791.6], [-122.364925, 43.294643, 792.2], [-122.364961, 43.29458, 796.4], [-122.364966, 43.294531, 795.5], [-122.364979, 43.294518, 795.9], [-122.364982, 43.294615, 802.0], [-122.364876, 43.294673, 805.0], [-122.364879, 43.294716, 805.8], [-122.364844, 43.29476, 809.6], [-122.364822, 43.294767, 810.5], [-122.364723, 43.294761, 813.0], [-122.364659, 43.294783, 814.8], [-122.364645, 43.294806, 815.6], [-122.364658, 43.294884, 821.4], [-122.364682, 43.294919, 820.8], [-122.364638, 43.295015, 821.5], [-122.364641, 43.295034, 821.4], [-122.364616, 43.295058, 822.4], [-122.36459, 43.295168, 822.4], [-122.364559, 43.295253, 825.8], [-122.364452, 43.29527, 829.1], [-122.364411, 43.295272, 827.9], [-122.364324, 43.295342, 825.4], [-122.364328, 43.295399, 827.5], [-122.364277, 43.295455, 827.1], [-122.36429, 43.295401, 824.3], [-122.364285, 43.295372, 823.9], [-122.364314, 43.295332, 823.2], [-122.364323, 43.295359, 823.5], [-122.364324, 43.295442, 822.2], [-122.364307, 43.295484, 822.5], [-122.364276, 43.295511, 823.4], [-122.364212, 43.295674, 823.8], [-122.364178, 43.295716, 824.6], [-122.364152, 43.295784, 822.4], [-122.363959, 43.296123, 823.2], [-122.363934, 43.296121, 822.5], [-122.363894, 43.296144, 822.2], [-122.363844, 43.296229, 818.3], [-122.363812, 43.296303, 810.5], [-122.363836, 43.296335, 811.5], [-122.36385, 43.296406, 811.0], [-122.363878, 43.296449, 811.0], [-122.363871, 43.296495, 810.2], [-122.363836, 43.296522, 808.7], [-122.363822, 43.296632, 809.8], [-122.363785, 43.296674, 814.3], [-122.363831, 43.296667, 809.6], [-122.363919, 43.296751, 811.3], [-122.363864, 43.296799, 803.6], [-122.364037, 43.296741, 813.9], [-122.36385, 43.296731, 823.7], [-122.3638, 43.296705, 825.6], [-122.363783, 43.296668, 828.6], [-122.363771, 43.296747, 828.0], [-122.363752, 43.296761, 861.8], [-122.363784, 43.296762, 822.4], [-122.363818, 43.296718, 827.1], [-122.363845, 43.296725, 828.3], [-122.363857, 43.296707, 821.4], [-122.363893, 43.29671, 820.2], [-122.363887, 43.296736, 823.4], [-122.363863, 43.296754, 825.2], [-122.363828, 43.296736, 821.0], [-122.363842, 43.296715, 818.0], [-122.363869, 43.296728, 818.8], [-122.363919, 43.296724, 820.8], [-122.363885, 43.296717, 821.3], [-122.363886, 43.296675, 826.1], [-122.363869, 43.296656, 824.9], [-122.363946, 43.296661, 833.7], [-122.363912, 43.296666, 839.2], [-122.363933, 43.296907, 799.7], [-122.363969, 43.29686, 809.6], [-122.363955, 43.296839, 812.1], [-122.363888, 43.296795, 815.0], [-122.363857, 43.296755, 815.0], [-122.36388, 43.296739, 814.7], [-122.363882, 43.296715, 810.0], [-122.363783, 43.296687, 835.1], [-122.363819, 43.296678, 836.7], [-122.363813, 43.296706, 832.3], [-122.363846, 43.296713, 828.6], [-122.363841, 43.296752, 824.8], [-122.363771, 43.296727, 825.8], [-122.363794, 43.296712, 830.8], [-122.363786, 43.29668, 835.2], [-122.363854, 43.296656, 833.0], [-122.363876, 43.296559, 824.1], [-122.363866, 43.296538, 825.9], [-122.363831, 43.296513, 828.5], [-122.363833, 43.296491, 828.1], [-122.363807, 43.296459, 826.1], [-122.363821, 43.29644, 825.9], [-122.3638, 43.29642, 826.3], [-122.363823, 43.29639, 825.2], [-122.363828, 43.296355, 825.1], [-122.363818, 43.296328, 826.7], [-122.363826, 43.296289, 829.7], [-122.363871, 43.296231, 830.6], [-122.363965, 43.296182, 831.6], [-122.363986, 43.296165, 836.4], [-122.364022, 43.296162, 841.7], [-122.364048, 43.296177, 841.2], [-122.364077, 43.296172, 842.6], [-122.364086, 43.29611, 843.6], [-122.364143, 43.296036, 845.4], [-122.364191, 43.295998, 844.7], [-122.364183, 43.295974, 841.6], [-122.364207, 43.295935, 838.9], [-122.364191, 43.295857, 837.3], [-122.364201, 43.295765, 838.3], [-122.364226, 43.295731, 837.1], [-122.364235, 43.295686, 836.6], [-122.364282, 43.295646, 836.1], [-122.364283, 43.295622, 835.8], [-122.36422, 43.295571, 836.1], [-122.364224, 43.295527, 834.4], [-122.364215, 43.295503, 833.2], [-122.364271, 43.295452, 830.9], [-122.364292, 43.295443, 831.0], [-122.364315, 43.295397, 829.9], [-122.364447, 43.295337, 831.7], [-122.364482, 43.295289, 837.2], [-122.364481, 43.295222, 841.4], [-122.364504, 43.295208, 841.6], [-122.364509, 43.295183, 840.8], [-122.36448, 43.295175, 842.4], [-122.364505, 43.295094, 840.5], [-122.364592, 43.294977, 839.7], [-122.364606, 43.294938, 839.6], [-122.364597, 43.294897, 842.5], [-122.364701, 43.294797, 834.4], [-122.364803, 43.294754, 826.8], [-122.364844, 43.294714, 824.3], [-122.364837, 43.294692, 823.6], [-122.364864, 43.294677, 823.6], [-122.364886, 43.29463, 819.3], [-122.364915, 43.294601, 818.6], [-122.365028, 43.294565, 815.5], [-122.365141, 43.294476, 813.0], [-122.365138, 43.294408, 812.3], [-122.365152, 43.294361, 810.2], [-122.365138, 43.294329, 810.0], [-122.365112, 43.294312, 809.3], [-122.365127, 43.294197, 804.9], [-122.365161, 43.294173, 803.0], [-122.365255, 43.294132, 802.1], [-122.365323, 43.294067, 804.2], [-122.365361, 43.294048, 805.6], [-122.365364, 43.294026, 805.0], [-122.36547, 43.293963, 801.6], [-122.365467, 43.293894, 802.2], [-122.365425, 43.293837, 800.9], [-122.365383, 43.293795, 793.3], [-122.365351, 43.293804, 792.0], [-122.365358, 43.29377, 787.5], [-122.36531, 43.293647, 790.4], [-122.365255, 43.293571, 789.9], [-122.365159, 43.293527, 790.7], [-122.365143, 43.293529, 790.9], [-122.365093, 43.293494, 791.7], [-122.365182, 43.293452, 792.4], [-122.36521, 43.293402, 793.7], [-122.365243, 43.293375, 794.0], [-122.365258, 43.293324, 785.5], [-122.365225, 43.293331, 785.0], [-122.365179, 43.293356, 784.8], [-122.365298, 43.293307, 777.8], [-122.365315, 43.293262, 775.6], [-122.36531, 43.293215, 776.3], [-122.365325, 43.293179, 776.9], [-122.365373, 43.293117, 779.4], [-122.365586, 43.292975, 780.3], [-122.365706, 43.292908, 778.8], [-122.366232, 43.292609, 780.7], [-122.366345, 43.292561, 778.7]]}}