{"type": "Feature", "properties": {}, "geometry": {"type": "LineString", "coordinates": [[-120.63118670135736, 48.550937036052346, 1345.02], [-120.63092879019678, 48.55124264024198, 1312.34], [-120.63090096227825, 48.55128563940525, 1308.97], [-120.63087992370129, 48.551282957196236, 1305.13], [-120.63091185875237, 48.55125093832612, 1307.53], [-120.63088310882449, 48.55122319422662, 1306.09], [-120.63085637055337, 48.550917003303766, 1305.61], [-120.63084580935538, 48.550684824585915, 1306.57], [-120.63085108995438, 48.55046505108476, 1306.57], [-120.63085092231631, 48.5504144243896, 1308.49], [-120.63079509884119, 48.55039925314486, 1310.41], [-120.63077623955905, 48.55042523704469, 1310.9], [-120.63077657483518, 48.55057745240629, 1306.09], [-120.63079216517508, 48.5507096350193, 1301.76], [-120.63079970888793, 48.55074291117489, 1300.8], [-120.63078822568059, 48.5507770255208, 1300.8], [-120.630789315328, 48.55073545128107, 1306.57], [-120.63075344078243, 48.55071776546538, 1307.53], [-120.63070884905756, 48.5507323499769, 1306.09], [-120.6306822784245, 48.55069940909743, 1306.57], [-120.6306389439851, 48.550701504573226, 1305.61], [-120.63060943968594, 48.5507289133966, 1303.69], [-120.63051413744688, 48.55075883679092, 1303.69], [-120.63048144802451, 48.55081600137055, 1301.28], [-120.63047524541616, 48.55084391310811, 1300.8], [-120.63035119324923, 48.550871992483735, 1297.44], [-120.63029796816409, 48.55091951787472, 1291.19], [-120.63024415634573, 48.5509461723268, 1288.3], [-120.63019369728863, 48.550988249480724, 1284.94], [-120.6301294080913, 48.55103560723364, 1282.54], [-120.6300675496459, 48.5510756727308, 1279.17], [-120.63000854104757, 48.55108589865267, 1277.25], [-120.6299930345267, 48.55109537020326, 1276.77], [-120.62995397485793, 48.551059160381556, 1277.25], [-120.62991608865559, 48.55104608461261, 1278.69], [-120.62985766679049, 48.55103644542396, 1278.69], [-120.62985833734274, 48.551077684387565, 1279.65], [-120.62983537092805, 48.551105512306094, 1280.13], [-120.62982765957713, 48.55114155448973, 1278.69], [-120.62979010865092, 48.55120534077287, 1275.33], [-120.62976772896945, 48.55118547566235, 1273.4], [-120.62971031293273, 48.55121883563697, 1271.96], [-120.62964828684926, 48.551230151206255, 1271.96], [-120.62956136651337, 48.55130466632545, 1271.0], [-120.62957192771137, 48.55133048258722, 1268.6], [-120.62951073981822, 48.5513106174767, 1268.12], [-120.62939632683992, 48.551317155361176, 1264.75], [-120.62933488748968, 48.551301984116435, 1263.31], [-120.62920689582825, 48.551363088190556, 1256.1], [-120.62916431576014, 48.55140793137252, 1255.14], [-120.62911050394177, 48.55155444703996, 1250.33], [-120.6290143635124, 48.5516475699842, 1248.89], [-120.62893289141357, 48.55168864130974, 1250.33], [-120.6288135331124, 48.551737340167165, 1248.89], [-120.62877824530005, 48.55184798128903, 1246.49], [-120.6287101842463, 48.55192618444562, 1246.01], [-120.62866827473044, 48.55203674174845, 1245.53], [-120.62869031913579, 48.55213447473943, 1244.08], [-120.62879542820156, 48.55222877115011, 1245.53], [-120.62882862053812, 48.552283169701695, 1243.6], [-120.62892325222492, 48.55227654799819, 1239.76], [-120.62901377677917, 48.55228576809168, 1239.28], [-120.62889601103961, 48.55238928459585, 1235.43], [-120.62881956808269, 48.552440917119384, 1239.28], [-120.62876843847334, 48.55246287770569, 1238.8], [-120.62869744375348, 48.55247746221721, 1239.76], [-120.62861831858754, 48.5525228921324, 1240.24], [-120.6285153888166, 48.552535213530064, 1240.24], [-120.62834179960191, 48.55268365703523, 1239.28], [-120.62828371301293, 48.55268592014909, 1238.32], [-120.62822805717587, 48.552641747519374, 1236.87], [-120.62810459174216, 48.55263319797814, 1235.91], [-120.62806762754917, 48.55265390127897, 1235.91], [-120.62808070331812, 48.55267561040819, 1236.87], [-120.62799914740026, 48.552779629826546, 1239.28], [-120.6278967205435, 48.55279413051903, 1239.76], [-120.62770687043667, 48.55288742110133, 1238.8], [-120.6276136636734, 48.55292530730367, 1239.28], [-120.62745071947575, 48.55300007387996, 1240.24], [-120.62733865343034, 48.553004851564765, 1239.28], [-120.62718417495489, 48.552981466054916, 1238.8], [-120.62708241865039, 48.55299286544323, 1240.24], [-120.62697605229914, 48.553018094971776, 1241.2], [-120.62694998458028, 48.553035110235214, 1241.68], [-120.62684185802937, 48.55302622541785, 1241.68], [-120.62676189467311, 48.55298984795809, 1242.64], [-120.62667455524206, 48.553001414984465, 1243.12], [-120.62653943896294, 48.55286395177245, 1246.97], [-120.62644723802805, 48.552882140502334, 1252.25], [-120.62635470181704, 48.55292983353138, 1252.25], [-120.62630265019834, 48.552929582074285, 1251.77], [-120.62613115645945, 48.5528823081404, 1250.81], [-120.6260713096708, 48.552890019491315, 1249.85], [-120.62602956779301, 48.552863113582134, 1249.37], [-120.62599830329418, 48.55283251963556, 1249.37], [-120.62591792084277, 48.55273503810167, 1246.49], [-120.62576998025179, 48.55270109139383, 1244.08], [-120.6255865842104, 48.55270653963089, 1245.04], [-120.62545146793127, 48.552697068080306, 1246.49], [-120.62533319927752, 48.552701929584146, 1249.37], [-120.62527980655432, 48.55273637920618, 1251.29], [-120.62514485791326, 48.552764458581805, 1256.58], [-120.6250025331974, 48.55278071947396, 1258.5], [-120.62487093731761, 48.552780132740736, 1257.06], [-120.62474654987454, 48.55283847078681, 1261.39], [-120.62460606917739, 48.55287761427462, 1265.23], [-120.62450045719743, 48.55292388238013, 1265.71], [-120.62440934590995, 48.55286101810634, 1268.12], [-120.62425939366221, 48.552800584584475, 1272.44], [-120.62411170452833, 48.55282095260918, 1274.36], [-120.62413492240012, 48.55282329954207, 1278.21], [-120.62418295070529, 48.55280226096511, 1281.09], [-120.62408446334302, 48.55283017270267, 1280.61], [-120.62391967512667, 48.552859677001834, 1278.69], [-120.62386929988861, 48.5528114810586, 1278.21], [-120.62374860048294, 48.55277778580785, 1281.57], [-120.6236314214766, 48.55270159430802, 1286.86], [-120.62352337874472, 48.552756076678634, 1291.67], [-120.62350980006158, 48.55273587629199, 1295.99], [-120.62341089360416, 48.55274652130902, 1299.36], [-120.62328575178981, 48.55277552269399, 1305.13], [-120.62327477149665, 48.55280444025993, 1305.13], [-120.62322439625859, 48.55288088321686, 1307.53], [-120.62323839403689, 48.55296554043889, 1300.8], [-120.62324459664524, 48.5529269836843, 1294.07], [-120.62319179065526, 48.55290099978447, 1294.07], [-120.62317150644958, 48.55293528176844, 1294.07], [-120.62312515452504, 48.552948189899325, 1291.19], [-120.62306463718414, 48.552877781912684, 1292.63], [-120.62300219200552, 48.552815755829215, 1295.51], [-120.62306438572705, 48.55282380245626, 1295.03], [-120.62295785173774, 48.55280184186995, 1295.99], [-120.62287084758282, 48.552762530744076, 1295.51], [-120.62281577847898, 48.55269690044224, 1289.75], [-120.62279909849167, 48.55262632481754, 1290.23], [-120.62273908406496, 48.55259221047163, 1292.15], [-120.62263389118016, 48.55255784466863, 1295.51], [-120.62258225865662, 48.55247536674142, 1298.88], [-120.62248913571239, 48.5524124186486, 1303.69], [-120.62239123508334, 48.5523244086653, 1307.53], [-120.6222690269351, 48.55228434316814, 1309.93], [-120.62220063060522, 48.55228082276881, 1311.38], [-120.62209066003561, 48.552290545776486, 1310.9], [-120.62199745327234, 48.55229448527098, 1311.86], [-120.62198856845498, 48.5522794816643, 1311.86], [-120.62190609052777, 48.55223027989268, 1315.22], [-120.6217874865979, 48.55227084830403, 1314.74], [-120.62171095982194, 48.55230303481221, 1311.38], [-120.621642395854, 48.552302196621895, 1311.38], [-120.621557822451, 48.55229205451906, 1315.22], [-120.62153787352145, 48.55231761932373, 1319.55], [-120.62136453576386, 48.55233027599752, 1321.95], [-120.62132220715284, 48.55232507921755, 1325.31], [-120.62126068398356, 48.552346704527736, 1329.16], [-120.62117082998157, 48.552355505526066, 1334.45], [-120.62112674117088, 48.55237293988466, 1340.22], [-120.62104593962431, 48.5523727722466, 1349.35], [-120.62103864736855, 48.55235265567899, 1347.91], [-120.62095759436488, 48.55234880000353, 1353.19], [-120.62085701152682, 48.55235676281154, 1353.19], [-120.62084318138659, 48.55234511196613, 1353.67], [-120.62077721580863, 48.55237922631204, 1353.19], [-120.62074586749077, 48.55238207615912, 1353.67], [-120.62071410007775, 48.552406802773476, 1353.67], [-120.62059138901532, 48.552426332607865, 1358.0], [-120.62057135626674, 48.55240127071738, 1361.84], [-120.62049273401499, 48.55239481665194, 1365.21], [-120.6204642355442, 48.55238794349134, 1367.61], [-120.62043347395957, 48.55240060016513, 1367.61], [-120.62033188529313, 48.55242557823658, 1372.42], [-120.62028586864471, 48.55246120132506, 1374.34], [-120.62023381702602, 48.55242029763758, 1378.67], [-120.62022962607443, 48.55238601565361, 1380.59], [-120.62017003074288, 48.55235927738249, 1382.99], [-120.62008864246309, 48.55237335897982, 1384.44], [-120.62003969214857, 48.552344189956784, 1387.32], [-120.61993391253054, 48.552376963198185, 1393.57], [-120.61988906934857, 48.55233119800687, 1396.93], [-120.61980910599232, 48.55231761932373, 1399.34], [-120.61978907324374, 48.55228333733976, 1401.26], [-120.61971263028681, 48.55227755382657, 1403.66], [-120.61963895335793, 48.5522950720042, 1406.55], [-120.61962286010385, 48.552292892709374, 1407.51], [-120.619588913396, 48.5523175355047, 1406.07], [-120.61951029114425, 48.55233455076814, 1406.55], [-120.61945765279233, 48.55235810391605, 1410.39], [-120.61939612962306, 48.552369587123394, 1412.79], [-120.61935497447848, 48.552355421707034, 1414.24], [-120.61930912546813, 48.55235282331705, 1415.68], [-120.61931742355227, 48.55234578251839, 1416.64], [-120.61926453374326, 48.55232214555144, 1420.0], [-120.61920845881104, 48.55234603397548, 1422.41], [-120.61919630505145, 48.55231518857181, 1425.77], [-120.61914416961372, 48.552292892709374, 1427.21], [-120.619099996984, 48.55225224047899, 1432.02], [-120.6190413236618, 48.552255257964134, 1432.98], [-120.61898692511022, 48.55223975144327, 1433.46], [-120.61892330646515, 48.552284091711044, 1434.91], [-120.61885985545814, 48.552290042862296, 1436.35], [-120.61882926151156, 48.55231015942991, 1435.87], [-120.61878869310021, 48.552300687879324, 1437.31], [-120.61873219907284, 48.55232742615044, 1437.79], [-120.61872557736933, 48.552307058125734, 1444.52], [-120.61865910887718, 48.55235341005027, 1445.0], [-120.61862491071224, 48.552344692870975, 1446.44], [-120.61856472864747, 48.55238257907331, 1448.84], [-120.61849532648921, 48.55242063291371, 1450.77], [-120.6184318754822, 48.55241593904793, 1453.65], [-120.61835979111493, 48.55242750607431, 1457.02], [-120.61836993321776, 48.55239473283291, 1461.82], [-120.61825283803046, 48.55238450691104, 1472.4], [-120.61822936870158, 48.55239590629935, 1477.68], [-120.61817614361644, 48.55239146389067, 1482.49], [-120.61808939091861, 48.552392050623894, 1485.85], [-120.61807790771127, 48.552321810275316, 1493.06], [-120.61803197488189, 48.552286522462964, 1495.47], [-120.617929212749, 48.552270513027906, 1502.2], [-120.6178808491677, 48.55224075727165, 1501.72], [-120.61776760965586, 48.552160039544106, 1501.24], [-120.61772922053933, 48.55215593241155, 1500.76], [-120.61761422082782, 48.55221401900053, 1493.55], [-120.61756795272231, 48.55218484997749, 1492.1], [-120.61748488806188, 48.552155597135425, 1495.47], [-120.61740425415337, 48.55215350165963, 1497.39], [-120.61735505238175, 48.55214453302324, 1501.24], [-120.61731364578009, 48.552127266302705, 1502.68], [-120.61719998717308, 48.55211813002825, 1501.24], [-120.6171263102442, 48.552100947126746, 1501.72], [-120.61702128499746, 48.55210421606898, 1504.12], [-120.61695464886725, 48.55212374590337, 1506.04], [-120.61684409156442, 48.55213682167232, 1509.41], [-120.6168070435524, 48.55211762711406, 1511.33], [-120.61674401164055, 48.552127266302705, 1513.73], [-120.61676605604589, 48.552107233554125, 1514.69], [-120.61673705466092, 48.5520807467401, 1514.21], [-120.61666756868362, 48.5520706884563, 1516.14], [-120.61650546267629, 48.5520741250366, 1519.02], [-120.61647478491068, 48.552055014297366, 1520.94], [-120.61645584180951, 48.552030036225915, 1523.83], [-120.6163928937167, 48.55199852026999, 1524.79], [-120.6162890419364, 48.552005058154464, 1526.71], [-120.61618443578482, 48.55200447142124, 1531.04], [-120.61610095202923, 48.55203649029136, 1535.36], [-120.61605795286596, 48.55206431820989, 1537.77], [-120.61609684489667, 48.552047638222575, 1540.17], [-120.61610707081854, 48.552022157236934, 1541.61], [-120.61609164811671, 48.55199818499386, 1541.61], [-120.61601134948432, 48.551954263821244, 1542.57], [-120.61592065729201, 48.551983097568154, 1545.94], [-120.61588352546096, 48.551950911059976, 1546.42], [-120.615738267079, 48.55199810117483, 1550.26], [-120.61568185687065, 48.551978236064315, 1552.19], [-120.6156309787184, 48.55199600569904, 1554.11], [-120.61556610278785, 48.55200279504061, 1557.47], [-120.61547767370939, 48.55204403400421, 1563.24], [-120.61539955437183, 48.55208694934845, 1563.72], [-120.61537046916783, 48.552055014297366, 1564.68], [-120.6152443215251, 48.5520654078573, 1566.61], [-120.61520677059889, 48.55208485387266, 1565.64], [-120.61517056077719, 48.55209415778518, 1564.2], [-120.615109289065, 48.5521224886179, 1562.76], [-120.61509872786701, 48.55210740119219, 1562.28], [-120.61512110754848, 48.55205945670605, 1566.12], [-120.61503812670708, 48.55208661407232, 1568.53], [-120.61492715030909, 48.55211779475212, 1574.78], [-120.61485607177019, 48.552160542458296, 1576.22], [-120.6147834006697, 48.55218191631138, 1577.18], [-120.61476529575884, 48.55221594683826, 1577.66], [-120.61482321470976, 48.55219884775579, 1577.66], [-120.61469002626836, 48.5522070620209, 1586.79], [-120.61466362327337, 48.5521674156189, 1587.75], [-120.61454853974283, 48.55216708034277, 1589.2], [-120.61446472071111, 48.55220312252641, 1593.04], [-120.61443186365068, 48.55220798403025, 1596.41], [-120.61433840543032, 48.55223924852908, 1597.37], [-120.61433396302164, 48.55227889493108, 1599.77], [-120.61430362053216, 48.55229984968901, 1601.21], [-120.6143082305789, 48.55231267400086, 1600.25], [-120.61424528248608, 48.55231326073408, 1600.73], [-120.614168420434, 48.55232700705528, 1601.69], [-120.61412433162332, 48.55234838090837, 1605.06], [-120.61412240378559, 48.55236849747598, 1603.62], [-120.61410270631313, 48.55237587355077, 1603.62], [-120.61404797248542, 48.55237998068333, 1602.66], [-120.61399139463902, 48.552373023703694, 1604.58], [-120.6140162050724, 48.55236070230603, 1608.9], [-120.61393096111715, 48.5523399990052, 1614.67], [-120.61391503550112, 48.552293395623565, 1618.04], [-120.61379198916256, 48.552313009276986, 1619.96], [-120.61371319927275, 48.55233329348266, 1625.25], [-120.61371085233986, 48.552315859124064, 1626.21], [-120.61366793699563, 48.55233513750136, 1631.01], [-120.61365536414087, 48.55230596847832, 1634.86], [-120.61354346573353, 48.55237268842757, 1641.11], [-120.6135172303766, 48.55234284885228, 1639.19], [-120.61348211020231, 48.55233178474009, 1638.7], [-120.61333307996392, 48.55232994072139, 1647.84], [-120.61330064199865, 48.552367240190506, 1651.2], [-120.61327423900366, 48.55234653688967, 1652.16], [-120.61323828063905, 48.55233388021588, 1655.05], [-120.61312311328948, 48.552344273775816, 1658.89], [-120.61318974941969, 48.552344189956784, 1660.81], [-120.61314021237195, 48.55231082998216, 1661.3], [-120.61307240277529, 48.55230630375445, 1663.22], [-120.61299319379032, 48.5523278452456, 1667.06], [-120.6129545532167, 48.55231577530503, 1666.58], [-120.61289864592254, 48.55235139839351, 1666.1], [-120.61289688572288, 48.552320720627904, 1668.51], [-120.61285288073123, 48.552308566868305, 1670.43], [-120.61279630288482, 48.55231870897114, 1669.95], [-120.61279093846679, 48.55230395682156, 1671.87], [-120.61269463039935, 48.55232197791338, 1673.31], [-120.61264609917998, 48.55237168259919, 1678.6], [-120.61255146749318, 48.552409149706364, 1681.96], [-120.61252187937498, 48.552397498860955, 1681.96], [-120.61244434677064, 48.55243152938783, 1683.41], [-120.61238232068717, 48.552465895190835, 1684.85], [-120.61237662099302, 48.552437061443925, 1690.14], [-120.61229933984578, 48.55242884717882, 1691.1], [-120.6122357212007, 48.55245290324092, 1693.02], [-120.61217050999403, 48.55245424434543, 1694.94], [-120.61210948973894, 48.552477126941085, 1697.34], [-120.61207286082208, 48.552469750866294, 1700.23], [-120.61197873204947, 48.552483916282654, 1707.92], [-120.61195408925414, 48.552466314285994, 1709.36], [-120.61189969070256, 48.55246966704726, 1711.28], [-120.61179080978036, 48.55249439366162, 1714.65], [-120.61178779229522, 48.55246111750603, 1717.53], [-120.61171009205282, 48.552479138597846, 1718.01], [-120.61161537654698, 48.55248215608299, 1717.53], [-120.61160456389189, 48.55248819105327, 1723.3], [-120.611586375162, 48.552528005093336, 1727.63], [-120.61155779287219, 48.55255130678415, 1730.51], [-120.61152392998338, 48.552564047276974, 1728.59], [-120.61147330328822, 48.552550468593836, 1731.95], [-120.61138093471527, 48.55257511138916, 1734.84], [-120.6113292183727, 48.55257377028465, 1736.28], [-120.61131278984249, 48.552563125267625, 1743.49], [-120.61125738546252, 48.55250084772706, 1747.81], [-120.61115403659642, 48.5525075532496, 1748.78], [-120.61107667163014, 48.55251702480018, 1752.62], [-120.6110033299774, 48.55256731621921, 1755.02], [-120.61092386953533, 48.55256874114275, 1756.95], [-120.61083854176104, 48.55259791016579, 1757.91], [-120.61081289313734, 48.55261308141053, 1760.31], [-120.61076411046088, 48.5526264924556, 1763.2], [-120.6107771024108, 48.55259950272739, 1766.08], [-120.61075530946255, 48.552604699507356, 1768.48], [-120.6106975581497, 48.552602268755436, 1769.44], [-120.61059404164553, 48.55264334008098, 1770.41], [-120.61051877215505, 48.55269681662321, 1773.77], [-120.6105006672442, 48.55268214829266, 1776.65], [-120.61040259897709, 48.552729254588485, 1782.42], [-120.6104002520442, 48.5527026001364, 1785.79], [-120.61031986959279, 48.552717017009854, 1789.15], [-120.61028785072267, 48.55270704254508, 1790.59], [-120.61026119627059, 48.55263118632138, 1793.96], [-120.61018726788461, 48.55262749828398, 1797.32], [-120.61016220599413, 48.55260201729834, 1800.21], [-120.6100926361978, 48.55261760763824, 1801.17], [-120.61005567200482, 48.55265784077346, 1804.05], [-120.6100170314312, 48.552677035331726, 1808.38], [-120.60993782244623, 48.552665300667286, 1809.82], [-120.60980740003288, 48.55264040641487, 1810.78], [-120.6097202282399, 48.55264442972839, 1811.74], [-120.6096681766212, 48.55265432037413, 1815.11], [-120.60954621993005, 48.5526370536536, 1819.91], [-120.60949450358748, 48.55268055573106, 1824.24], [-120.60943440534174, 48.55270804837346, 1827.12], [-120.60941613279283, 48.55269622988999, 1830.01], [-120.6093589682132, 48.552713161334395, 1830.01], [-120.6092503387481, 48.552710143849254, 1830.97], [-120.60922376811504, 48.55275155045092, 1832.41], [-120.60924338176847, 48.552800668403506, 1836.74], [-120.60928964987397, 48.55277854017913, 1839.62], [-120.60922804288566, 48.552760519087315, 1837.22], [-120.60922938399017, 48.55278231203556, 1838.18], [-120.60920759104192, 48.552755154669285, 1839.62], [-120.60906778089702, 48.552779043093324, 1837.7], [-120.60905118472874, 48.55276378802955, 1836.74], [-120.60899628326297, 48.55277267284691, 1839.14], [-120.60893601737916, 48.55280770920217, 1840.1], [-120.60888689942658, 48.55285179801285, 1842.02], [-120.60888715088367, 48.55284157209098, 1841.54], [-120.60884750448167, 48.552839141339064, 1841.54], [-120.60879268683493, 48.55285665951669, 1841.06], [-120.608726805076, 48.55286579579115, 1842.98], [-120.60868020169437, 48.55289286933839, 1845.87], [-120.60869528912008, 48.552906615659595, 1846.83], [-120.608623707667, 48.55291868560016, 1849.23], [-120.60858489945531, 48.55295271612704, 1851.64], [-120.6085423193872, 48.552959924563766, 1852.6], [-120.60850577428937, 48.5529856570065, 1855.0], [-120.60838683508337, 48.553031170740724, 1864.13], [-120.60834316536784, 48.55303008109331, 1866.54], [-120.60827024281025, 48.55306184850633, 1871.34], [-120.60824266634881, 48.553058160468936, 1875.19], [-120.60814082622528, 48.55308464728296, 1878.07], [-120.60813403688371, 48.55307794176042, 1876.15], [-120.60806756839156, 48.55308481492102, 1878.55], [-120.60801710933447, 48.55311708524823, 1880.48], [-120.60795013792813, 48.553086910396814, 1882.88], [-120.60791853815317, 48.55308732949197, 1884.8], [-120.60775282792747, 48.553063524886966, 1891.05], [-120.60771150514483, 48.553053047508, 1892.01], [-120.60769113712013, 48.55298900976777, 1894.9], [-120.60757571831346, 48.55298859067261, 1897.78], [-120.6074748840183, 48.5530012473464, 1899.7], [-120.60737673193216, 48.553001917898655, 1901.63], [-120.60732560232282, 48.55301893316209, 1903.55], [-120.60718252323568, 48.55297761037946, 1910.28], [-120.60703533701599, 48.552893875166774, 1917.01], [-120.60692670755088, 48.552869567647576, 1917.01], [-120.60681556351483, 48.55285154655576, 1918.93], [-120.60673819854856, 48.552857749164104, 1919.41], [-120.60663082636893, 48.55288406834006, 1919.41], [-120.60656636953354, 48.552966210991144, 1918.93], [-120.60650182887912, 48.553019016981125, 1924.22], [-120.60642404481769, 48.55304181575775, 1925.66], [-120.60634626075625, 48.55307400226593, 1926.62], [-120.60629211366177, 48.553114822134376, 1926.14], [-120.60622128657997, 48.55314960703254, 1926.14], [-120.60621835291386, 48.55315916240215, 1927.58], [-120.60618155635893, 48.55317508801818, 1929.98], [-120.60615951195359, 48.553161257877946, 1932.87], [-120.60609907843173, 48.55314038693905, 1933.83], [-120.60607904568315, 48.553140722215176, 1933.83], [-120.60596873983741, 48.55315983295441, 1933.83], [-120.60588927939534, 48.553176345303655, 1935.75], [-120.60583739541471, 48.553202329203486, 1937.19], [-120.60582540929317, 48.55324926786125, 1937.19], [-120.60576497577131, 48.55323485098779, 1940.56], [-120.60568551532924, 48.55323669500649, 1945.36], [-120.60566648840904, 48.55322705581784, 1945.85], [-120.60562608763576, 48.55318749323487, 1948.25], [-120.6055479682982, 48.55319185182452, 1950.65], [-120.60545559972525, 48.55317919515073, 1953.54], [-120.6053991895169, 48.55318925343454, 1953.06], [-120.60529232025146, 48.553197802975774, 1954.02], [-120.60527044348419, 48.553159246221185, 1956.42], [-120.60511009767652, 48.553123623132706, 1956.9], [-120.60499157756567, 48.55309923179448, 1957.86], [-120.6049350835383, 48.55305204167962, 1958.82], [-120.60488915070891, 48.55302857235074, 1959.78], [-120.60483802109957, 48.553011221811175, 1961.23], [-120.6047033239156, 48.55300719849765, 1966.51], [-120.60461103916168, 48.55301968753338, 1969.4], [-120.60452780686319, 48.55297836475074, 1975.17], [-120.60444449074566, 48.552921367809176, 1979.49], [-120.60439872555435, 48.55289898812771, 1979.97], [-120.60431339778006, 48.55287836864591, 1982.38], [-120.60421365313232, 48.55287803336978, 1987.66], [-120.60420242138207, 48.55286202393472, 1989.59], [-120.60410385020077, 48.55279882438481, 1991.03], [-120.60390134342015, 48.5527406539768, 1986.22], [-120.60372247360647, 48.552706791087985, 1983.34], [-120.60365349054337, 48.552703438326716, 1980.45], [-120.60359481722116, 48.55266002006829, 1977.09], [-120.60359850525856, 48.55263227596879, 1973.72], [-120.60353455133736, 48.5526214633137, 1968.92], [-120.60351870954037, 48.55259413830936, 1971.32], [-120.60362666845322, 48.552602687850595, 1975.17], [-120.60353974811733, 48.55259162373841, 1969.88], [-120.60356925241649, 48.55260838754475, 1973.72], [-120.603610239923, 48.55259254574776, 1972.76], [-120.60365290381014, 48.5526177752763, 1978.53], [-120.6036012712866, 48.552639819681644, 1974.69], [-120.60358794406056, 48.552679382264614, 1961.23], [-120.60356598347425, 48.55268893763423, 1964.11], [-120.60352834872901, 48.552628085017204, 1962.19], [-120.60354905202985, 48.55263613164425, 1963.15], [-120.60351108200848, 48.55269690044224, 1958.82], [-120.60354880057275, 48.55265415273607, 1967.48], [-120.60358442366123, 48.55263269506395, 1966.99], [-120.60359389521182, 48.5526370536536, 1970.36], [-120.60353924520314, 48.552667144685984, 1968.44], [-120.60352072119713, 48.55265574529767, 1965.55], [-120.60343346558511, 48.55264593847096, 1964.11], [-120.60339189134538, 48.55266940779984, 1964.59], [-120.60330731794238, 48.552737636491656, 1966.03], [-120.60329382307827, 48.552743922919035, 1966.03], [-120.60316155664623, 48.55275976471603, 1970.36], [-120.60314940288663, 48.55276680551469, 1970.36], [-120.60304261744022, 48.55277116410434, 1973.24], [-120.60303431935608, 48.55275984853506, 1973.72], [-120.6029556132853, 48.552729757502675, 1977.57], [-120.60293742455542, 48.55271249078214, 1979.01], [-120.602817395702, 48.55264593847096, 1981.9], [-120.60276836156845, 48.552641747519374, 1981.9], [-120.60253995470703, 48.55270218104124, 1979.97], [-120.60239964164793, 48.552759597077966, 1978.05], [-120.60236938297749, 48.552768314257264, 1977.57], [-120.60230291448534, 48.55281407944858, 1979.01], [-120.60227475129068, 48.55284919962287, 1982.86], [-120.60220845043659, 48.552866131067276, 1984.78], [-120.60212052427232, 48.552898820489645, 1985.74], [-120.60203410685062, 48.55291608721018, 1987.66], [-120.60192950069904, 48.55292497202754, 1988.62], [-120.60184073634446, 48.55298347771168, 1988.14], [-120.60176647268236, 48.55304206721485, 1989.59], [-120.60171157121658, 48.553057657554746, 1989.1], [-120.60161375440657, 48.5531188454479, 1991.03], [-120.60158349573612, 48.55312488041818, 1991.03], [-120.60157083906233, 48.553109457716346, 1991.03], [-120.60151057317853, 48.55311549268663, 1992.95], [-120.60137327760458, 48.55316159315407, 1992.95], [-120.60127286240458, 48.553209621459246, 1994.87], [-120.60115467756987, 48.55327156372368, 1994.87], [-120.60109122656286, 48.55331431142986, 1997.28], [-120.60103682801127, 48.553358651697636, 1998.72], [-120.60097605921328, 48.55337700806558, 2002.08], [-120.60082987882197, 48.55341020040214, 2008.81], [-120.60076064430177, 48.55344280600548, 2011.7], [-120.6007020547986, 48.55344599112868, 2013.62], [-120.60059862211347, 48.55347817763686, 2015.54], [-120.60051488690078, 48.55352067388594, 2014.1], [-120.60042017139494, 48.55353366583586, 2020.35], [-120.60033534653485, 48.55353659950197, 2024.19], [-120.6002345122397, 48.55354682542384, 2027.08], [-120.60016251169145, 48.55356451123953, 2029.0], [-120.60012227855623, 48.5535678640008, 2029.48], [-120.6000543013215, 48.55358362197876, 2029.0], [-120.59997928328812, 48.553611282259226, 2030.92], [-120.59991750866175, 48.553622514009476, 2030.92], [-120.59987383894622, 48.55364765971899, 2033.81], [-120.59981524944305, 48.553672805428505, 2034.77], [-120.59974635019898, 48.55368571355939, 2033.81], [-120.59971315786242, 48.553704572841525, 2037.17], [-120.59965314343572, 48.55369510129094, 2037.17], [-120.59958851896226, 48.553705075755715, 2041.5], [-120.59953269548714, 48.55372033081949, 2044.38], [-120.59949195943773, 48.55373893864453, 2046.78], [-120.59939799830317, 48.55377011932433, 2050.63], [-120.59938383288682, 48.55374790728092, 2051.59], [-120.5993071384728, 48.5537370108068, 2053.03], [-120.59920462779701, 48.55374338105321, 2056.4], [-120.59910689480603, 48.55378059670329, 2065.05], [-120.59913656674325, 48.553793504834175, 2069.38], [-120.59902835637331, 48.55388117954135, 2067.93], [-120.59900446794927, 48.55390951037407, 2066.97], [-120.59896280989051, 48.55391244404018, 2070.34], [-120.598945626989, 48.55389534495771, 2071.3], [-120.59894839301705, 48.55386600829661, 2072.26], [-120.59887488372624, 48.55385921895504, 2073.22], [-120.59881243854761, 48.553868690505624, 2075.14], [-120.59875284321606, 48.55388662777841, 2078.03], [-120.59869064949453, 48.553877575322986, 2084.28], [-120.59862828813493, 48.553897105157375, 2084.28], [-120.59853399172425, 48.55393691919744, 2085.72], [-120.59851194731891, 48.55393792502582, 2088.6], [-120.59844623319805, 48.55392577126622, 2092.93], [-120.59839552268386, 48.55394437909126, 2093.89], [-120.59832645580173, 48.55405359528959, 2094.85], [-120.59830415993929, 48.554041776806116, 2096.29], [-120.59826954267919, 48.554073544219136, 2098.21], [-120.59822511859238, 48.55409516952932, 2103.98], [-120.59821506030858, 48.5540702752769, 2106.39], [-120.59817499481142, 48.55408150702715, 2109.27], [-120.59812244027853, 48.554125344380736, 2109.75], [-120.59807525016367, 48.55417286977172, 2111.67], [-120.59805102646351, 48.55417178012431, 2114.08], [-120.59807231649756, 48.55415585450828, 2116.48], [-120.59798707254231, 48.55412660166621, 2121.77], [-120.59792068786919, 48.554153591394424, 2122.73], [-120.59789143502712, 48.55415350757539, 2121.77], [-120.59783552773297, 48.5541305411607, 2122.73], [-120.59783091768622, 48.55415971018374, 2124.17], [-120.59780987910926, 48.55419382452965, 2124.17], [-120.59775698930025, 48.55421461164951, 2127.53], [-120.59774399735034, 48.55424411594868, 2130.42], [-120.59771231375635, 48.554234728217125, 2134.26], [-120.59767744503915, 48.554270351305604, 2135.23], [-120.59765372425318, 48.55426389724016, 2136.19], [-120.59761265292764, 48.55431125499308, 2135.71], [-120.59757870621979, 48.554275296628475, 2136.67], [-120.59755565598607, 48.55430974625051, 2138.59], [-120.5975435860455, 48.554344614967704, 2139.07], [-120.59752816334367, 48.55433120392263, 2142.92], [-120.59749798849225, 48.55433505959809, 2145.8], [-120.59747410006821, 48.55435140430927, 2146.28], [-120.59743537567556, 48.554328521713614, 2148.68], [-120.59740360826254, 48.554323157295585, 2151.57], [-120.5973897781223, 48.55429985560477, 2154.93], [-120.59730797074735, 48.5543033760041, 2157.34], [-120.5972829926759, 48.554288037121296, 2159.74], [-120.59724736958742, 48.55431846342981, 2164.06], [-120.5972261633724, 48.554315362125635, 2165.03], [-120.59720797464252, 48.55427739210427, 2168.87], [-120.59719431214035, 48.5543448664248, 2175.12], [-120.59720420278609, 48.554362719878554, 2173.2], [-120.59718576259911, 48.55439021252096, 2167.91], [-120.59709255583584, 48.55432089418173, 2162.62], [-120.59705341234803, 48.55423774570227, 2161.18], [-120.5970258358866, 48.55420572683215, 2160.22], [-120.5969809088856, 48.554192231968045, 2162.14], [-120.5969531647861, 48.55417186394334, 2162.62], [-120.59681368991733, 48.55412953533232, 2162.62], [-120.59676465578377, 48.55410941876471, 2162.62], [-120.59667547233403, 48.55405963025987, 2165.03], [-120.59665217064321, 48.554040770977736, 2165.99], [-120.59654731303453, 48.55403901077807, 2167.91], [-120.59647715650499, 48.554067090153694, 2169.83], [-120.59643968939781, 48.554077818989754, 2172.24], [-120.59639954008162, 48.554120399057865, 2173.2], [-120.59638923034072, 48.55418770574033, 2177.04], [-120.59636014513671, 48.55416029691696, 2178.97], [-120.59631530195475, 48.55417245067656, 2182.33], [-120.59630951844156, 48.55420765466988, 2183.77], [-120.59626484289765, 48.554181922227144, 2186.66], [-120.59623257257044, 48.554174629971385, 2185.69], [-120.5962293036282, 48.5541633144021, 2187.14], [-120.59615059755743, 48.55415082536638, 2187.14], [-120.59608354233205, 48.55417303740978, 2190.5], [-120.59605211019516, 48.554198099300265, 2192.42], [-120.59606418013573, 48.55421486310661, 2196.75], [-120.59602755121887, 48.55420874431729, 2197.23], [-120.5960017349571, 48.55424679815769, 2199.63], [-120.59592780657113, 48.55428233742714, 2202.04], [-120.595906348899, 48.554278230294585, 2202.04], [-120.5958616733551, 48.554298682138324, 2206.84], [-120.59583895839751, 48.554318798705935, 2207.81], [-120.5958220269531, 48.55429172515869, 2209.25], [-120.59579185210168, 48.554311422631145, 2209.25], [-120.59573996812105, 48.55432139709592, 2211.17], [-120.59571348130703, 48.55434536933899, 2212.13], [-120.59570568613708, 48.55439440347254, 2216.94], [-120.59568305499852, 48.55439708568156, 2221.74], [-120.5956925265491, 48.55442156083882, 2226.55], [-120.59562647715211, 48.55445081368089, 2230.4], [-120.59563351795077, 48.554400857537985, 2244.82], [-120.59557928703725, 48.55440898798406, 2243.37], [-120.59555824846029, 48.55445433408022, 2243.37], [-120.59547727927566, 48.554432122036815, 2245.78], [-120.59538843110204, 48.554490711539984, 2246.26], [-120.59533537365496, 48.55447352863848, 2246.74], [-120.59533813968301, 48.55452574789524, 2251.54], [-120.59523487463593, 48.55449389666319, 2256.35], [-120.59519774280488, 48.55450429022312, 2257.31], [-120.59517041780055, 48.5545658133924, 2257.79], [-120.59509330429137, 48.55463529936969, 2258.75], [-120.59506866149604, 48.55466639623046, 2258.75], [-120.59498392045498, 48.5546575114131, 2261.16], [-120.59496967121959, 48.55466639623046, 2266.93], [-120.59485726989806, 48.55463236570358, 2266.93], [-120.59482282027602, 48.554628007113934, 2266.45], [-120.59475936926901, 48.554648123681545, 2268.37], [-120.59475014917552, 48.554657846689224, 2270.29], [-120.59470161795616, 48.55465466156602, 2271.73], [-120.59466532431543, 48.55468416586518, 2275.1], [-120.59459634125233, 48.55458148755133, 2272.69], [-120.5945045594126, 48.55454427190125, 2272.69], [-120.59444345533848, 48.55448115617037, 2273.66], [-120.59439106844366, 48.55452993884683, 2273.17], [-120.59435376897454, 48.554493645206094, 2272.21], [-120.59439986944199, 48.554476127028465, 2270.29], [-120.59436223469675, 48.554441425949335, 2271.73], [-120.59438302181661, 48.554368084296584, 2270.77], [-120.59435477480292, 48.55433036573231, 2274.14], [-120.59439450502396, 48.55433028191328, 2271.73], [-120.5943489074707, 48.55430446565151, 2272.21], [-120.59432636015117, 48.55431226082146, 2265.96], [-120.59434354305267, 48.554291473701596, 2265.96], [-120.59435142204165, 48.55426423251629, 2264.52], [-120.59438025578856, 48.554236656054854, 2264.52], [-120.59435988776386, 48.55426968075335, 2265.96], [-120.59444546699524, 48.554200027137995, 2267.89], [-120.59436298906803, 48.55420187115669, 2267.41], [-120.59431512840092, 48.55421243235469, 2265.96], [-120.59442099183798, 48.55420907959342, 2267.41], [-120.5943457223475, 48.554176054894924, 2262.12], [-120.5943475663662, 48.55416691862047, 2263.56], [-120.5944041442126, 48.55416708625853, 2262.12], [-120.59438126161695, 48.55419307015836, 2262.6], [-120.59437514282763, 48.55422768741846, 2263.08], [-120.59433767572045, 48.55424679815769, 2263.08], [-120.5943475663662, 48.554194662719965, 2262.6], [-120.5943211633712, 48.554171696305275, 2260.68], [-120.59429199434817, 48.55416314676404, 2262.6], [-120.59420792385936, 48.55415820144117, 2262.12], [-120.59418470598757, 48.55412299744785, 2259.24], [-120.59412100352347, 48.554098857566714, 2257.79], [-120.5940848775208, 48.554069101810455, 2258.75], [-120.5940280482173, 48.55407438240945, 2259.72], [-120.59393391944468, 48.5541046410799, 2261.64], [-120.59388530440629, 48.55416608043015, 2260.68], [-120.59384071268141, 48.554121907800436, 2260.68], [-120.59381573460996, 48.55413146317005, 2261.16], [-120.59380726888776, 48.554111095145345, 2261.16], [-120.59382780455053, 48.55409366078675, 2264.04], [-120.59371163137257, 48.55415157973766, 2265.0], [-120.59372805990279, 48.55412844568491, 2272.69], [-120.59366553090513, 48.554141353815794, 2277.98], [-120.59362420812249, 48.55416658334434, 2282.31], [-120.59361532330513, 48.554211258888245, 2285.67], [-120.59362311847508, 48.55425392277539, 2293.84], [-120.59360157698393, 48.55424755252898, 2293.36], [-120.59356017038226, 48.55427940376103, 2294.32], [-120.5934561509639, 48.5542861931026, 2294.32], [-120.59340502135456, 48.55430111289024, 2293.84], [-120.59337518177927, 48.55433606542647, 2295.77], [-120.59336034581065, 48.55436699464917, 2296.25], [-120.5933926999569, 48.55434495024383, 2303.94], [-120.59321693144739, 48.55432047508657, 2308.74], [-120.59315096586943, 48.554298765957355, 2308.26], [-120.59309824369848, 48.55427688919008, 2308.74], [-120.59292230755091, 48.5542825050652, 2309.22], [-120.59289515018463, 48.5542896296829, 2312.59], [-120.59282097034156, 48.55429398827255, 2312.59], [-120.59276380576193, 48.55431402102113, 2311.63], [-120.5927208904177, 48.55434352532029, 2312.11], [-120.59268753044307, 48.5543498955667, 2321.24], [-120.59264721348882, 48.55437386780977, 2321.24], [-120.59262458235025, 48.55434880591929, 2322.68], [-120.5925773922354, 48.55437680147588, 2324.12], [-120.59259591624141, 48.554399432614446, 2325.57], [-120.5925649870187, 48.55441519059241, 2326.53], [-120.59242660179734, 48.554460452869534, 2327.97], [-120.59243188239634, 48.55445341207087, 2331.81], [-120.59235686436296, 48.554485347121954, 2332.3], [-120.59235585853457, 48.55442147701979, 2338.54], [-120.59228897094727, 48.554454082623124, 2339.51], [-120.59227019548416, 48.55443329550326, 2341.91], [-120.59221512638032, 48.55442424304783, 2341.91], [-120.5921925790608, 48.55448040179908, 2366.42], [-120.59226340614259, 48.55456371791661, 2371.71], [-120.5922888033092, 48.554515270516276, 2370.27], [-120.59182729572058, 48.55481190606952, 2332.3], [-120.59167332015932, 48.55476421304047, 2319.32], [-120.59156988747418, 48.554756585508585, 2316.43], [-120.59142504818738, 48.55475868098438, 2314.03], [-120.59134935960174, 48.55474837124348, 2312.59], [-120.59122128412127, 48.55476471595466, 2312.59], [-120.59115640819073, 48.554770248010755, 2310.19], [-120.59109471738338, 48.55479832738638, 2306.82], [-120.59102732688189, 48.55483462102711, 2301.05], [-120.59092146344483, 48.554812241345644, 2300.09], [-120.59084979817271, 48.55480033904314, 2300.57], [-120.59073253534734, 48.554774606600404, 2299.61], [-120.59067092835903, 48.55473722331226, 2301.53], [-120.59059448540211, 48.554701348766685, 2302.49], [-120.59051242657006, 48.55467519722879, 2302.01], [-120.59036088176072, 48.55469590052962, 2305.38], [-120.59025719761848, 48.5546831600368, 2308.26], [-120.59016910381615, 48.554668575525284, 2310.19], [-120.5900685209781, 48.5546020232141, 2312.11], [-120.59002066031098, 48.554566567763686, 2313.07], [-120.58995159342885, 48.554524490609765, 2315.95], [-120.58988227508962, 48.554507391527295, 2316.91], [-120.5897778365761, 48.554464392364025, 2316.91], [-120.58968680910766, 48.55445483699441, 2319.8], [-120.58954347856343, 48.55446171015501, 2324.12], [-120.58944968506694, 48.55447210371494, 2331.81], [-120.58926503174007, 48.5544207226485, 2341.43], [-120.58916662819684, 48.55439859442413, 2344.79], [-120.58906193822622, 48.554363725706935, 2352.0], [-120.5890095513314, 48.554374957457185, 2352.96], [-120.58898784220219, 48.554353499785066, 2355.85], [-120.58891424909234, 48.55437504127622, 2361.14], [-120.58885155245662, 48.55441636405885, 2364.02], [-120.58885222300887, 48.55443572625518, 2365.46], [-120.58886781334877, 48.554421812295914, 2363.54], [-120.58884032070637, 48.554394068196416, 2364.02], [-120.58884250000119, 48.554371017962694, 2362.58], [-120.58885825797915, 48.554356433451176, 2362.1], [-120.5888145044446, 48.55427077040076, 2362.58], [-120.58877376839519, 48.55425518006086, 2361.62], [-120.58867360465229, 48.554106736555696, 2360.65], [-120.58859665878117, 48.55403129942715, 2360.17], [-120.58849062770605, 48.55395007878542, 2358.73], [-120.58843589387834, 48.553875060752034, 2356.81], [-120.58829189278185, 48.55378897860646, 2358.25], [-120.58824822306633, 48.55373759754002, 2357.29], [-120.58817873708904, 48.55366819538176, 2357.29], [-120.58806876651943, 48.553584376350045, 2358.73], [-120.58792828582227, 48.553528133779764, 2361.62], [-120.58779836632311, 48.553484212607145, 2363.06], [-120.58763902634382, 48.55345772579312, 2364.02], [-120.58754028752446, 48.55342176742852, 2363.54], [-120.5873762536794, 48.55332043021917, 2364.02], [-120.58722395449877, 48.55324348434806, 2362.1], [-120.5871392134577, 48.55315656401217, 2358.73], [-120.58711574412882, 48.553119180724025, 2357.77], [-120.58704072609544, 48.55306872166693, 2357.77], [-120.58696671389043, 48.552977526560426, 2357.77], [-120.58687929064035, 48.55290116742253, 2356.33], [-120.5868403147906, 48.55282514356077, 2357.77], [-120.5868302565068, 48.55278826318681, 2358.73], [-120.58682925067842, 48.55275062844157, 2359.69], [-120.58682011440396, 48.55272179469466, 2361.14], [-120.5868064519018, 48.55262925848365, 2365.46], [-120.58678491041064, 48.552582655102015, 2369.31], [-120.58678331784904, 48.55255315080285, 2371.23], [-120.58675473555923, 48.55246379971504, 2378.44], [-120.58671919628978, 48.552413675934076, 2380.84], [-120.5867094732821, 48.55237428098917, 2382.76], [-120.58669287711382, 48.55234234593809, 2383.73], [-120.58668608777225, 48.552259197458625, 2385.17], [-120.5866624508053, 48.552217120304704, 2386.61], [-120.58666228316724, 48.552189292386174, 2388.05], [-120.58663688600063, 48.55216666124761, 2389.97], [-120.58663118630648, 48.552131708711386, 2391.9], [-120.58661098591983, 48.55210983194411, 2394.78], [-120.5865852534771, 48.55205945670605, 2400.07], [-120.58659723959863, 48.552022324875, 2403.91], [-120.58659656904638, 48.55199709534645, 2406.8], [-120.58663328178227, 48.5519184730947, 2414.97], [-120.58664032258093, 48.551884945482016, 2415.93], [-120.58662096038461, 48.55184705927968, 2417.85], [-120.58662481606007, 48.55181537568569, 2419.78], [-120.58664912357926, 48.55178168043494, 2420.74], [-120.58663814328611, 48.551756450906396, 2421.7], [-120.58667334727943, 48.55173859745264, 2422.18], [-120.58669212274253, 48.55168738402426, 2421.7], [-120.58656672947109, 48.55169258080423, 2424.1], [-120.58646815828979, 48.55170825496316, 2429.87], [-120.58649288490415, 48.551709931343794, 2430.83], [-120.58646773919463, 48.551692916080356, 2431.79], [-120.58661794289947, 48.55169031769037, 2432.27], [-120.58674903586507, 48.55166777037084, 2431.79], [-120.58681382797658, 48.55162317864597, 2430.83], [-120.58684232644737, 48.551573222503066, 2430.83], [-120.58678088709712, 48.55151128023863, 2432.75], [-120.58678222820163, 48.55145210400224, 2434.2], [-120.58683939278126, 48.55137892998755, 2433.23], [-120.5867906101048, 48.551182206720114, 2436.12], [-120.58691156096756, 48.55111992917955, 2436.12], [-120.58674392290413, 48.55103292502463, 2439.48], [-120.58679228648543, 48.55096964165568, 2439.96], [-120.58678918518126, 48.55088213458657, 2442.85], [-120.58642054907978, 48.55076814070344, 2456.31], [-120.58641602285206, 48.55073402635753, 2460.63], [-120.58643111027777, 48.5507426597178, 2460.15], [-120.58649254962802, 48.55067937634885, 2457.75], [-120.58656815439463, 48.550613997504115, 2457.27], [-120.58657662011683, 48.55057401582599, 2456.79], [-120.58667343109846, 48.55047971941531, 2456.79], [-120.58673470281065, 48.55043093673885, 2454.86], [-120.58684023097157, 48.550365306437016, 2456.79], [-120.587039552629, 48.550370167940855, 2447.65], [-120.58739486150444, 48.55039045214653, 2438.52], [-120.58762268163264, 48.550354577600956, 2431.79], [-120.58765972964466, 48.55028282850981, 2436.12], [-120.58758948929608, 48.55019657872617, 2441.89], [-120.58751966804266, 48.55016581714153, 2455.34], [-120.58757591061294, 48.55013472028077, 2454.86], [-120.58757306076586, 48.550126841291785, 2454.38], [-120.58749234303832, 48.55008224956691, 2454.86], [-120.58739737607539, 48.550058361142874, 2458.23], [-120.58730601333082, 48.55002676136792, 2459.19], [-120.58728463947773, 48.54999423958361, 2460.15], [-120.58712613768876, 48.54998736642301, 2466.88], [-120.58706805109978, 48.5499516595155, 2469.28], [-120.5868561565876, 48.549889801070094, 2473.13], [-120.58674643747509, 48.5498618055135, 2474.09], [-120.58671182021499, 48.54984470643103, 2476.49], [-120.58665029704571, 48.5498359054327, 2478.42], [-120.58666186407208, 48.54982282966375, 2479.38], [-120.5866368021816, 48.54979776777327, 2481.78], [-120.58649523183703, 48.549794415012, 2495.72], [-120.58656010776758, 48.54984596371651, 2502.45], [-120.58657133951783, 48.54984604753554, 2501.97], [-120.58660277165473, 48.549815118312836, 2499.57], [-120.58661852963269, 48.54974688962102, 2500.53], [-120.5866251513362, 48.54968494735658, 2503.89], [-120.58658039197326, 48.54965326376259, 2512.06], [-120.58657485991716, 48.549609426409006, 2517.35], [-120.5866333656013, 48.54957631789148, 2521.19], [-120.58663244359195, 48.549534156918526, 2526.0], [-120.58658190071583, 48.54951253160834, 2526.96], [-120.58666848577559, 48.54943851940334, 2531.77], [-120.58669480495155, 48.549404656514525, 2534.17], [-120.58666404336691, 48.54937766678631, 2538.02], [-120.58669991791248, 48.549328381195664, 2544.27], [-120.58667795732617, 48.549289824441075, 2547.15], [-120.58670486323535, 48.54929988272488, 2553.88], [-120.5867253150791, 48.549269288778305, 2553.4], [-120.58664979413152, 48.549254620447755, 2552.44], [-120.58665331453085, 48.54921564459801, 2552.44], [-120.58668131008744, 48.54918647557497, 2553.4], [-120.58668223209679, 48.54915571399033, 2555.32], [-120.58671140111983, 48.549123611301184, 2560.61], [-120.58671735227108, 48.549076337367296, 2565.9], [-120.58670612052083, 48.54904809035361, 2567.82], [-120.58672456070781, 48.549023447558284, 2569.74], [-120.58670008555055, 48.54900240898132, 2571.66], [-120.58672120794654, 48.54899092577398, 2573.11], [-120.58675699867308, 48.54894801042974, 2571.18], [-120.58675448410213, 48.54893233627081, 2575.51], [-120.58679597452283, 48.54891624301672, 2577.43], [-120.58675171807408, 48.54883644729853, 2582.24], [-120.58674291707575, 48.54880350641906, 2583.68], [-120.58671156875789, 48.548772409558296, 2587.04], [-120.58668524958193, 48.54871775954962, 2587.53], [-120.58665222488344, 48.548696134239435, 2589.45], [-120.58665532618761, 48.548648692667484, 2593.77], [-120.58660863898695, 48.54863000102341, 2595.7], [-120.58658374473453, 48.548558335751295, 2600.5], [-120.58654887601733, 48.54852011427283, 2601.46], [-120.58656220324337, 48.548474349081516, 2603.39], [-120.58648609556258, 48.548397067934275, 2604.35], [-120.58639355935156, 48.548363875597715, 2604.83], [-120.58640076778829, 48.548324732109904, 2606.27], [-120.58635667897761, 48.54829774238169, 2608.19], [-120.58620136231184, 48.54829086922109, 2611.56], [-120.58615794405341, 48.54827955365181, 2613.0], [-120.58607353828847, 48.54827209375799, 2613.48], [-120.58599994517863, 48.548306627199054, 2616.37], [-120.58599047362804, 48.54834225028753, 2623.09], [-120.58589852415025, 48.548348285257816, 2624.06], [-120.58591646142304, 48.54836907237768, 2633.67], [-120.5859443731606, 48.548373095691204, 2636.07], [-120.58591168373823, 48.54834501631558, 2635.59], [-120.58593121357262, 48.54830386117101, 2637.99], [-120.58587413281202, 48.54827066883445, 2640.4], [-120.58578654192388, 48.548293467611074, 2642.8], [-120.58576952666044, 48.548307213932276, 2646.65], [-120.58573281392455, 48.5482679028064, 2649.53], [-120.58571278117597, 48.5482335370034, 2652.42], [-120.58563441038132, 48.54818978346884, 2656.26], [-120.58562058024108, 48.54821895249188, 2658.18], [-120.58560113422573, 48.54820637963712, 2661.07], [-120.58554698713124, 48.54823303408921, 2660.59], [-120.58551882393658, 48.54821207933128, 2661.55], [-120.58552200905979, 48.54816664941609, 2663.47], [-120.5855521839112, 48.54813295416534, 2665.87], [-120.58550314977765, 48.548120465129614, 2669.24], [-120.58548018336296, 48.54810755699873, 2669.24], [-120.58547548949718, 48.548063384369016, 2668.28], [-120.58545461855829, 48.54807578958571, 2673.56], [-120.58544682338834, 48.54800839908421, 2678.85], [-120.58539242483675, 48.547997837886214, 2685.58], [-120.58536501601338, 48.54799825698137, 2685.58], [-120.58534037321806, 48.54796841740608, 2687.5], [-120.58532075956464, 48.54798585176468, 2688.46], [-120.58529008179903, 48.54792181402445, 2701.92], [-120.58526443317533, 48.54793690145016, 2703.36], [-120.58526049368083, 48.54790513403714, 2704.33], [-120.58529460802674, 48.547896752133965, 2704.81], [-120.58536417782307, 48.54797160252929, 2693.75], [-120.58536820113659, 48.547987109050155, 2690.87], [-120.585398375988, 48.54802642017603, 2686.06], [-120.58536987751722, 48.54801359586418, 2686.54], [-120.58535847812891, 48.5480332095176, 2686.06], [-120.58539234101772, 48.54810822755098, 2686.54], [-120.58538747951388, 48.548131696879864, 2688.46], [-120.58544254861772, 48.548213839530945, 2687.98], [-120.58550574816763, 48.548201099038124, 2681.73], [-120.58552376925945, 48.548152316361666, 2672.12], [-120.58550524525344, 48.5481643024832, 2670.68], [-120.5854779202491, 48.54820277541876, 2670.2], [-120.5855162255466, 48.548252983018756, 2670.2], [-120.58559979312122, 48.548259772360325, 2669.72], [-120.58565276674926, 48.548248037695885, 2666.35], [-120.58569191023707, 48.5482142586261, 2661.07], [-120.58573834598064, 48.54821945540607, 2654.82], [-120.58582585304976, 48.54827184230089, 2653.86], [-120.58581135235727, 48.548282738775015, 2652.9], [-120.58583767153323, 48.54829765856266, 2652.9], [-120.58592836372554, 48.54827712289989, 2650.01], [-120.58591109700501, 48.54825901798904, 2644.24], [-120.58589290827513, 48.54829120449722, 2642.8], [-120.58587748557329, 48.548341328278184, 2642.32], [-120.5859100073576, 48.54837686754763, 2640.4], [-120.58594051748514, 48.54835574515164, 2637.03], [-120.58590749278665, 48.548326659947634, 2635.59], [-120.58602659963071, 48.548348201438785, 2631.75], [-120.58605132624507, 48.54832707904279, 2631.27], [-120.58617009781301, 48.548402935266495, 2630.79], [-120.58635818772018, 48.54860317893326, 2629.82], [-120.58641920797527, 48.548730835318565, 2629.34], [-120.58643823489547, 48.54881398379803, 2629.34], [-120.58638299815357, 48.54945469647646, 2629.34], [-120.58632164262235, 48.550489945337176, 2629.82], [-120.586257269606, 48.55118254199624, 2629.82], [-120.58605291880667, 48.5510584898293, 2618.29], [-120.58578385971487, 48.55083460919559, 2597.62], [-120.58584010228515, 48.550649620592594, 2576.47], [-120.5860598757863, 48.55063042603433, 2561.57], [-120.58614721521735, 48.550683399662375, 2550.51], [-120.58610052801669, 48.550770403817296, 2526.0], [-120.58607563376427, 48.550866125151515, 2515.91], [-120.586032634601, 48.55090141296387, 2498.6], [-120.58602978475392, 48.550934521481395, 2495.72], [-120.5860981810838, 48.55097240768373, 2493.32], [-120.58615274727345, 48.55114063248038, 2491.39], [-120.58637050911784, 48.551263846457005, 2484.18], [-120.58652867563069, 48.55143332853913, 2477.45], [-120.58642323128879, 48.551419246941805, 2466.88], [-120.58640680275857, 48.55139904655516, 2445.73], [-120.5864311940968, 48.55154564604163, 2433.71], [-120.58646120131016, 48.55154933407903, 2432.27], [-120.58646840974689, 48.55158085003495, 2431.31], [-120.58651727624238, 48.551609348505735, 2429.39], [-120.58648601174355, 48.551746141165495, 2424.58], [-120.58644879609346, 48.5518304631114, 2420.26], [-120.58640856295824, 48.551894165575504, 2415.45], [-120.58636573143303, 48.55217965319753, 2397.18], [-120.58631828986108, 48.55230974033475, 2383.25], [-120.58631778694689, 48.55232725851238, 2381.32], [-120.58640269562602, 48.552357349544764, 2380.84], [-120.58649531565607, 48.55239422991872, 2379.88], [-120.58656706474721, 48.55247695930302, 2377.96], [-120.5865881871432, 48.552464386448264, 2380.84], [-120.58664409443736, 48.55247151106596, 2380.36], [-120.58662691153586, 48.552504451945424, 2379.88], [-120.58666328899562, 48.55257645249367, 2375.07], [-120.58667041361332, 48.55263026431203, 2372.67], [-120.58670436032116, 48.55273545719683, 2365.46], [-120.58672422543168, 48.55275381356478, 2363.06], [-120.58674702420831, 48.552840230986476, 2360.17], [-120.58677384629846, 48.55287987738848, 2358.73], [-120.58684492483735, 48.55297048576176, 2357.77], [-120.58692966587842, 48.55304265394807, 2357.29], [-120.58699244633317, 48.55310375802219, 2357.77], [-120.5870599206537, 48.55314373970032, 2359.21], [-120.58714340440929, 48.553233593702316, 2360.17], [-120.5871807038784, 48.553283382207155, 2361.62], [-120.5873083602637, 48.55334063060582, 2362.1], [-120.58735362254083, 48.55334700085223, 2361.62], [-120.58747817762196, 48.553437776863575, 2364.5], [-120.58754221536219, 48.553470550104976, 2365.46], [-120.58770624920726, 48.55347549542785, 2362.58], [-120.58780247345567, 48.55350994504988, 2363.54], [-120.587856201455, 48.55354162864387, 2364.02], [-120.58789676986635, 48.55355185456574, 2364.02], [-120.58802844956517, 48.55360658839345, 2363.06], [-120.58815702795982, 48.55369300581515, 2360.65], [-120.58824109844863, 48.55378386564553, 2357.77], [-120.58833321556449, 48.55385100468993, 2356.33], [-120.58841804042459, 48.55392551980913, 2355.37], [-120.58853019028902, 48.554003052413464, 2353.44], [-120.5886398255825, 48.55408846400678, 2351.52], [-120.58871165849268, 48.55415241792798, 2351.52], [-120.58875063434243, 48.554240595549345, 2352.0], [-120.58880545198917, 48.55426968075335, 2355.37], [-120.58882355690002, 48.554327515885234, 2357.77], [-120.58884107507765, 48.554351571947336, 2358.25], [-120.5888747703284, 48.55437562800944, 2357.77], [-120.58894174173474, 48.554447712376714, 2358.73], [-120.58898901566863, 48.55443547479808, 2358.73], [-120.58905556797981, 48.55445299297571, 2361.62], [-120.58909085579216, 48.55448962189257, 2363.06], [-120.58921733871102, 48.55454770848155, 2363.06], [-120.5892717372626, 48.554565059021115, 2363.06], [-120.5893774330616, 48.554606633260846, 2362.58], [-120.58947491459548, 48.55462574400008, 2362.58], [-120.58954465202987, 48.554635383188725, 2361.62], [-120.58961975388229, 48.554655499756336, 2361.62], [-120.58969586156309, 48.55469472706318, 2361.14], [-120.5898140463978, 48.554708641022444, 2357.77], [-120.58987758122385, 48.55472641065717, 2355.37], [-120.58994664810598, 48.554720375686884, 2348.64], [-120.59002283960581, 48.554738480597734, 2341.43], [-120.59009358286858, 48.55476069264114, 2335.18], [-120.59020296670496, 48.55474124662578, 2326.53], [-120.59029759839177, 48.554753232747316, 2323.64], [-120.59039005078375, 48.55476890690625, 2322.2], [-120.59046951122582, 48.55477334931493, 2321.72], [-120.59053354896605, 48.5547901969403, 2320.76], [-120.59061259031296, 48.554805954918265, 2317.4], [-120.59068936854601, 48.55483654886484, 2314.51], [-120.59074980206788, 48.55485490523279, 2313.55], [-120.59098080731928, 48.55488616973162, 2312.11], [-120.5910577531904, 48.554862197488546, 2311.63], [-120.5911563243717, 48.554793298244476, 2313.55], [-120.591209968552, 48.55478533543646, 2315.95], [-120.59130770154297, 48.5547989141196, 2317.88], [-120.59137894771993, 48.554785838350654, 2319.8], [-120.59146050363779, 48.55478215031326, 2322.2], [-120.59155438095331, 48.554791789501905, 2325.09], [-120.59165588580072, 48.55481551028788, 2325.57], [-120.59173886664212, 48.55484585277736, 2326.53], [-120.59179921634495, 48.55486379005015, 2328.45], [-120.59188739396632, 48.5548610240221, 2331.33], [-120.59194925241172, 48.55485348030925, 2330.85], [-120.5920422077179, 48.55485498905182, 2330.37], [-120.59205922298133, 48.55480830185115, 2334.22], [-120.5921194050461, 48.55475407093763, 2338.54], [-120.59211244806647, 48.55472523719072, 2340.95], [-120.59215469285846, 48.55471073649824, 2344.31], [-120.5922060739249, 48.554677460342646, 2355.85], [-120.59220909141004, 48.55469481088221, 2360.17], [-120.59224748052657, 48.554682740941644, 2368.83], [-120.59223373420537, 48.55465139262378, 2371.23], [-120.59224479831755, 48.55464250780642, 2371.23], [-120.59225594624877, 48.55457520112395, 2370.75], [-120.5922335665673, 48.55452708899975, 2370.75], [-120.59222367592156, 48.554523987695575, 2368.35], [-120.59286430478096, 48.55411880649626, 2323.64], [-120.59287662617862, 48.554065162315965, 2319.32], [-120.59290789067745, 48.55404538102448, 2315.47], [-120.5928020272404, 48.55401126667857, 2292.88], [-120.59288433752954, 48.55400724336505, 2292.88], [-120.59297980740666, 48.55390657670796, 2296.73], [-120.59298248961568, 48.55388201773167, 2298.65], [-120.59302724897861, 48.55386609211564, 2301.05], [-120.59305591508746, 48.55383088812232, 2302.98], [-120.59308441355824, 48.553818482905626, 2302.01], [-120.59310796670616, 48.553757881745696, 2296.73], [-120.59314585290849, 48.55372033081949, 2294.8], [-120.59315012767911, 48.55369753204286, 2290.0], [-120.59318189509213, 48.55366953648627, 2286.63], [-120.59323185123503, 48.55370666831732, 2282.79], [-120.59319723397493, 48.55370331555605, 2280.38], [-120.59312204830348, 48.55371446348727, 2279.9], [-120.59310838580132, 48.55368772521615, 2275.1], [-120.59318952262402, 48.55370474047959, 2276.06], [-120.59321173466742, 48.55371815152466, 2279.42], [-120.59327258728445, 48.553671380504966, 2281.83], [-120.59329949319363, 48.553626537323, 2279.9], [-120.59340837411582, 48.55360181070864, 2279.42], [-120.59346436522901, 48.553628884255886, 2280.87], [-120.5934875831008, 48.55361186899245, 2279.42], [-120.59353494085371, 48.55362519621849, 2277.5], [-120.59358514845371, 48.55362796224654, 2276.54], [-120.59361490420997, 48.553637098520994, 2274.62], [-120.59363678097725, 48.55367942713201, 2274.14], [-120.59365631081164, 48.55365654453635, 2272.21], [-120.59371297247708, 48.55365017428994, 2270.29], [-120.59378849342465, 48.55363215319812, 2266.93], [-120.59380165301263, 48.553656712174416, 2264.52], [-120.59384590946138, 48.553681103512645, 2258.75], [-120.59385378845036, 48.553699124604464, 2258.27], [-120.59391137212515, 48.553684540092945, 2255.39], [-120.59396359138191, 48.55365780182183, 2254.91], [-120.59400390833616, 48.55366341769695, 2249.62], [-120.59402721002698, 48.55364765971899, 2250.1], [-120.59406719170511, 48.55365511961281, 2249.62], [-120.59411035850644, 48.553654281422496, 2249.14], [-120.59413651004434, 48.55367406271398, 2248.18], [-120.59412301518023, 48.553683618083596, 2245.78], [-120.59412938542664, 48.55365352705121, 2243.37], [-120.59415285475552, 48.55363885872066, 2242.89], [-120.59416500851512, 48.55361429974437, 2242.41], [-120.59421370737255, 48.55355084873736, 2243.37], [-120.59422795660794, 48.55349536053836, 2242.41], [-120.59428277425468, 48.55348446406424, 2230.4], [-120.59424782171845, 48.553447080776095, 2231.36], [-120.59425092302263, 48.55342646129429, 2231.84], [-120.59419820085168, 48.55339251458645, 2233.76], [-120.59415687806904, 48.553353287279606, 2235.68], [-120.59412620030344, 48.553292183205485, 2237.13], [-120.59407909400761, 48.55323141440749, 2242.89], [-120.59406107291579, 48.553164107725024, 2239.53], [-120.59409133158624, 48.55307542718947, 2243.37], [-120.59399452060461, 48.55303988792002, 2242.89], [-120.59395680204034, 48.55304810218513, 2247.22], [-120.5939780920744, 48.55309587903321, 2251.54], [-120.59392428025603, 48.55306536890566, 2251.54], [-120.59412871487439, 48.55306419543922, 2255.39], [-120.59408496133983, 48.553038127720356, 2255.87], [-120.59412033297122, 48.55304374359548, 2256.35], [-120.59412485919893, 48.55305690318346, 2255.39], [-120.59410030022264, 48.55306754820049, 2268.85], [-120.5941139627248, 48.55302765034139, 2271.73], [-120.59406207874417, 48.55302706360817, 2269.33], [-120.59407758526504, 48.553039049729705, 2266.93], [-120.59400751255453, 48.55311255902052, 2257.79], [-120.59404950588942, 48.553157318383455, 2253.95], [-120.59401321224868, 48.55325044132769, 2257.31], [-120.59403710067272, 48.553244322538376, 2257.31], [-120.59397859498858, 48.553200233727694, 2250.58], [-120.59405067935586, 48.553136363625526, 2252.99], [-120.59396996162832, 48.553118258714676, 2253.95], [-120.5938433110714, 48.553128987550735, 2246.26], [-120.59405202046037, 48.55314005166292, 2252.51], [-120.59409284032881, 48.553065955638885, 2256.83], [-120.59403399936855, 48.55301105417311, 2262.12], [-120.59399561025202, 48.55301105417311, 2268.37], [-120.5939757451415, 48.55299646966159, 2268.37], [-120.59398982673883, 48.55297140777111, 2267.41], [-120.5939239449799, 48.552972581237555, 2269.81], [-120.59397272765636, 48.55295372195542, 2273.17], [-120.59389997273684, 48.55294307693839, 2268.85], [-120.59393559582531, 48.55295372195542, 2272.69], [-120.59395705349743, 48.552942238748074, 2273.66], [-120.5939033254981, 48.55294114910066, 2278.94], [-120.59391355141997, 48.55295489542186, 2281.35], [-120.59386937879026, 48.55295707471669, 2279.42], [-120.59384540654719, 48.55296755209565, 2290.48], [-120.59384641237557, 48.55294877663255, 2291.92], [-120.59382730163634, 48.552945256233215, 2292.4], [-120.59390483424067, 48.55293771252036, 2292.4], [-120.5938517767936, 48.55297861620784, 2290.96], [-120.59380651451647, 48.55297920294106, 2290.0], [-120.59379427693784, 48.55299688875675, 2289.04], [-120.59376628138125, 48.55300770141184, 2289.52], [-120.5937138106674, 48.55298733338714, 2284.71], [-120.59363510459661, 48.55296989902854, 2295.28], [-120.59365890920162, 48.552949195727706, 2296.73], [-120.59369386173785, 48.55293720960617, 2293.84], [-120.59372437186539, 48.55294106528163, 2296.25], [-120.59366812929511, 48.55295833200216, 2295.77], [-120.59365505352616, 48.55294927954674, 2293.36], [-120.59358322061598, 48.55300711467862, 2295.28], [-120.59362655505538, 48.55300619266927, 2299.61], [-120.59363820590079, 48.55301423929632, 2302.49], [-120.59356218203902, 48.55302513577044, 2300.09], [-120.59359587728977, 48.55303393676877, 2309.7], [-120.59355539269745, 48.55304751545191, 2309.7], [-120.5935235414654, 48.55304483324289, 2312.11], [-120.59351859614253, 48.55302111245692, 2312.11], [-120.59340996667743, 48.55308540165424, 2316.91], [-120.59341239742935, 48.55307484045625, 2314.03], [-120.59344382956624, 48.55309369973838, 2314.99], [-120.59341147542, 48.55311448685825, 2320.28], [-120.59345682151616, 48.55311398394406, 2322.2], [-120.5934201925993, 48.55314097367227, 2325.57], [-120.59338993392885, 48.55313661508262, 2332.78], [-120.5933937896043, 48.55315748602152, 2335.18], [-120.59335020370781, 48.553170980885625, 2336.14], [-120.5933092162013, 48.553163688629866, 2336.62], [-120.59328842908144, 48.553107529878616, 2336.62], [-120.59329957701266, 48.55311255902052, 2336.14], [-120.59329010546207, 48.55315522290766, 2337.58], [-120.59330821037292, 48.55314784683287, 2346.23], [-120.59324492700398, 48.55313753709197, 2351.04], [-120.59321944601834, 48.55311297811568, 2354.89], [-120.59317485429347, 48.553121192380786, 2354.41], [-120.59318533167243, 48.553136363625526, 2354.89], [-120.59318943880498, 48.55320786125958, 2355.37], [-120.59320687316358, 48.5532084479928, 2343.83], [-120.59315758757293, 48.553241305053234, 2354.89], [-120.59317988343537, 48.55325102806091, 2360.17], [-120.5931382253766, 48.55325907468796, 2358.73], [-120.5931561626494, 48.5532845556736, 2362.1], [-120.59316563419998, 48.55327491648495, 2364.98], [-120.59308365918696, 48.55324859730899, 2365.46], [-120.59312833473086, 48.553233090788126, 2366.9], [-120.59313696809113, 48.55327047407627, 2367.86], [-120.59312204830348, 48.55326293036342, 2367.38], [-120.59117526747286, 48.55364698916674, 2512.06], [-120.59123964048922, 48.55362771078944, 2508.22], [-120.5912718269974, 48.553607761859894, 2508.7], [-120.59134659357369, 48.55359544046223, 2511.58], [-120.59138263575733, 48.55359544046223, 2512.06], [-120.59130242094398, 48.553609270602465, 2507.26], [-120.59126604348421, 48.55360130779445, 2504.37], [-120.59124500490725, 48.55361212044954, 2502.45], [-120.5911890976131, 48.553664507344365, 2500.53], [-120.5911388900131, 48.553672805428505, 2501.01], [-120.59110729023814, 48.553687473759055, 2502.93], [-120.59111349284649, 48.55371228419244, 2505.81], [-120.59117761440575, 48.553715301677585, 2521.68], [-120.591143919155, 48.553734328597784, 2520.23], [-120.59107736684382, 48.55378948152065, 2519.27], [-120.59099103324115, 48.553830049932, 2519.27], [-120.59097468852997, 48.553826194256544, 2519.75], [-120.590980052948, 48.553861398249865, 2521.68], [-120.59096806682646, 48.553884448483586, 2521.68], [-120.59101207181811, 48.55389970354736, 2521.68], [-120.59090998023748, 48.55389735661447, 2516.87], [-120.59099120087922, 48.55386860668659, 2517.83], [-120.59100159443915, 48.553901547566056, 2517.83], [-120.59113243594766, 48.553916634991765, 2517.35], [-120.59123000130057, 48.55390842072666, 2517.35], [-120.59124978259206, 48.553931722417474, 2517.35], [-120.59133846312761, 48.55393608100712, 2519.27], [-120.59159922413528, 48.5539891384542, 2530.81], [-120.59162076562643, 48.554026521742344, 2528.4], [-120.5916154012084, 48.55407622642815, 2526.48], [-120.59161162935197, 48.554048985242844, 2526.48], [-120.59153845533729, 48.55399391613901, 2525.04], [-120.59161984361708, 48.55403230525553, 2526.0], [-120.591926202178, 48.554036831483245, 2531.77], [-120.59179871343076, 48.55408041737974, 2533.21], [-120.59203256852925, 48.554127188399434, 2540.42], [-120.59192050248384, 48.554141856729984, 2540.42], [-120.59229684993625, 48.554198518395424, 2551.96], [-120.59299699030817, 48.55431611649692, 2573.59], [-120.59326697140932, 48.554365234449506, 2588.01], [-120.59318122453988, 48.55433128774166, 2590.41], [-120.59308357536793, 48.55427940376103, 2604.35], [-120.59309715405107, 48.554162476211786, 2609.16], [-120.59321952983737, 48.55407807044685, 2609.16], [-120.59298399835825, 48.554313937202096, 2608.19], [-120.59281275607646, 48.55438149534166, 2605.31], [-120.5927119217813, 48.55444394052029, 2601.46], [-120.59250354766846, 48.55445777066052, 2592.33], [-120.59252701699734, 48.554282169789076, 2581.28], [-120.59262257069349, 48.55407421477139, 2574.07], [-120.59263137169182, 48.55406985618174, 2502.45], [-120.59166527353227, 48.55398293584585, 2478.42], [-120.59146142564714, 48.554004644975066, 2475.05], [-120.59131901711226, 48.55401059612632, 2468.8], [-120.59128448367119, 48.55403498746455, 2468.8], [-120.5912594217807, 48.55408385396004, 2469.76], [-120.59123788028955, 48.55405451729894, 2468.8], [-120.59124366380274, 48.55403431691229, 2466.88], [-120.59154599905014, 48.55405183508992, 2464.0], [-120.59160450473428, 48.554113022983074, 2426.02], [-120.59164582751691, 48.55404186062515, 2426.02], [-120.59176962822676, 48.55404085479677, 2426.02], [-120.59185395017266, 48.554095923900604, 2427.95], [-120.59196132235229, 48.5540977679193, 2429.39], [-120.59194003231823, 48.55415225028992, 2429.39], [-120.59195755049586, 48.554156105965376, 2426.5], [-120.59194221161306, 48.554203966632485, 2422.66], [-120.59190147556365, 48.55422584339976, 2412.09], [-120.59201404452324, 48.55425073765218, 2412.57], [-120.59199803508818, 48.554263981059194, 2412.57], [-120.59204019606113, 48.55426624417305, 2411.12], [-120.59203600510955, 48.554291892796755, 2408.24], [-120.59200448915362, 48.554361294955015, 2406.8], [-120.5920474883169, 48.554322654381394, 2401.51], [-120.59210867621005, 48.55431200936437, 2397.18], [-120.59212502092123, 48.55430371128023, 2385.17], [-120.59211730957031, 48.55427663773298, 2384.21], [-120.59215544722974, 48.5542671661824, 2383.73], [-120.59219509363174, 48.55427110567689, 2384.21], [-120.59218193404377, 48.55429423972964, 2386.13], [-120.59212359599769, 48.5542653221637, 2382.28], [-120.59213994070888, 48.55426280759275, 2382.76], [-120.59226424433291, 48.554328102618456, 2382.28], [-120.59229006059468, 48.554359367117286, 2360.65], [-120.59221487492323, 48.55433841235936, 2359.21], [-120.59234035201371, 48.554354421794415, 2358.73], [-120.59238536283374, 48.55434411205351, 2362.58], [-120.59239843860269, 48.55436691083014, 2362.1], [-120.59233641251922, 48.55436456389725, 2361.62], [-120.59231855906546, 48.554358780384064, 2361.62], [-120.59235233813524, 48.5543467104435, 2361.14], [-120.59234781190753, 48.55433128774166, 2357.29], [-120.59228469617665, 48.55434654280543, 2360.17], [-120.5922665912658, 48.554339837282896, 2358.73], [-120.59230045415461, 48.554334891960025, 2355.37], [-120.59232937172055, 48.55436054058373, 2355.85], [-120.5923421960324, 48.55440421029925, 2358.25], [-120.59235359542072, 48.554408149793744, 2359.21], [-120.59230791404843, 48.554503032937646, 2364.02], [-120.59223767369986, 48.55451351031661, 2361.14], [-120.59220540337265, 48.55446917004883, 2357.77], [-120.59225326403975, 48.55444150976837, 2355.85], [-120.5923442915082, 48.55443488806486, 2353.93], [-120.59239709749818, 48.554395996034145, 2344.79], [-120.5924291163683, 48.55439029633999, 2343.35], [-120.5924751330167, 48.55441519059241, 2339.51], [-120.59254537336528, 48.55440689250827, 2338.54], [-120.5925100017339, 48.554370515048504, 2339.02], [-120.5925327166915, 48.55433715507388, 2337.1], [-120.59260211884975, 48.55432148091495, 2329.89], [-120.59263539500535, 48.554293904453516, 2325.09], [-120.59270940721035, 48.55426180176437, 2322.2], [-120.59271200560033, 48.55425392277539, 2320.28], [-120.59278668835759, 48.55430547147989, 2317.88], [-120.59280445799232, 48.5542550124228, 2317.88], [-120.59282734058797, 48.554245959967375, 2319.32], [-120.59288769029081, 48.55426364578307, 2317.4], [-120.59292876161635, 48.55430237017572, 2314.99], [-120.59308039024472, 48.55428837239742, 2305.38], [-120.59318390674889, 48.55431695468724, 2300.57], [-120.59325909242034, 48.55436339043081, 2300.09], [-120.59332614764571, 48.55437143705785, 2302.01], [-120.59340451844037, 48.554395912215114, 2302.98], [-120.59344190172851, 48.55433723889291, 2299.61], [-120.59350023977458, 48.55435308068991, 2298.65], [-120.59351264499128, 48.55433019809425, 2297.21], [-120.593530414626, 48.55433036573231, 2300.09], [-120.59353628195822, 48.55429750867188, 2300.57], [-120.59358984231949, 48.55427362024784, 2298.17], [-120.59361582621932, 48.55427814647555, 2298.65], [-120.59364197775722, 48.55425543151796, 2298.17], [-120.59361129999161, 48.55421922169626, 2294.32], [-120.5936718173325, 48.554166331887245, 2291.44], [-120.59366452507675, 48.554197596386075, 2286.63], [-120.59370920062065, 48.55416121892631, 2283.27], [-120.59377164579928, 48.55416054837406, 2282.79], [-120.5937532056123, 48.554195584729314, 2279.9], [-120.59377701021731, 48.55419927276671, 2277.5], [-120.59378388337791, 48.55422718450427, 2272.69], [-120.59383057057858, 48.55424227192998, 2271.25], [-120.59391078539193, 48.554251408204436, 2270.29], [-120.5939675308764, 48.55426297523081, 2268.37], [-120.59402419254184, 48.55426708236337, 2265.48], [-120.59404305182397, 48.55429323390126, 2261.16], [-120.59404900297523, 48.5541566926986, 2261.64], [-120.59408563189209, 48.55416918173432, 2264.04], [-120.59407146647573, 48.55414839461446, 2265.0], [-120.59407884255052, 48.55413003824651, 2265.96], [-120.5941023118794, 48.554117968305945, 2266.45], [-120.59410432353616, 48.554066587239504, 2264.04], [-120.59411119669676, 48.55408318340778, 2260.68], [-120.59416584670544, 48.55411344207823, 2262.12], [-120.5941969435662, 48.55411428026855, 2259.72], [-120.59425109066069, 48.55413967743516, 2260.2], [-120.59428989887238, 48.55414504185319, 2259.24], [-120.59433080255985, 48.55413674376905, 2260.2], [-120.59435427188873, 48.55417110957205, 2259.24], [-120.59442082419991, 48.554248474538326, 2261.16], [-120.59438729658723, 48.55430580675602, 2262.6], [-120.59435687027872, 48.55433522723615, 2258.27], [-120.59432543814182, 48.5543311201036, 2257.31], [-120.59433901682496, 48.554318798705935, 2257.31], [-120.59440079145133, 48.55432089418173, 2259.24], [-120.5944215785712, 48.55431477539241, 2259.24], [-120.5944181419909, 48.554350063204765, 2257.79], [-120.59443322941661, 48.554319217801094, 2257.79], [-120.59445820748806, 48.5543208103627, 2257.79], [-120.59458158910275, 48.554398929700255, 2259.72], [-120.59464512392879, 48.55440840125084, 2262.12], [-120.59478292241693, 48.55443807318807, 2259.24], [-120.5948634725064, 48.55443195439875, 2253.95], [-120.59492340311408, 48.554421812295914, 2250.1], [-120.5949377361685, 48.55440144427121, 2248.66], [-120.59502717107534, 48.55437629856169, 2245.78], [-120.5951644666493, 48.55436481535435, 2243.85], [-120.59522883966565, 48.5543155297637, 2243.37], [-120.59529514051974, 48.55427018366754, 2242.41], [-120.59538340196013, 48.554246462881565, 2240.49], [-120.59542573057115, 48.55424537323415, 2238.57], [-120.59546344913542, 48.55416599661112, 2235.2], [-120.5954990722239, 48.55414864607155, 2234.72], [-120.59556176885962, 48.554144790396094, 2230.88], [-120.59563192538917, 48.55412542819977, 2227.51], [-120.59567727148533, 48.55413473211229, 2225.11], [-120.59565598145127, 48.55407505296171, 2223.67], [-120.5957062728703, 48.553998274728656, 2213.57], [-120.59573921374977, 48.553966004401445, 2209.25], [-120.59581968002021, 48.55401126667857, 2209.73], [-120.59584071859717, 48.554049991071224, 2210.69], [-120.59582194313407, 48.55407698079944, 2210.69], [-120.59584809467196, 48.55407848954201, 2210.69], [-120.59588128700852, 48.55410749092698, 2209.73], [-120.59586175717413, 48.554115956649184, 2207.81], [-120.59586745686829, 48.55409734882414, 2206.36], [-120.59592830948532, 48.55412517674267, 2198.67], [-120.59595957398415, 48.5540911462158, 2196.27], [-120.59601129032671, 48.554107239469886, 2194.35], [-120.5960551276803, 48.55410447344184, 2190.98], [-120.596080776304, 48.554124841466546, 2188.1], [-120.59617415070534, 48.554161889478564, 2187.14], [-120.59622360393405, 48.554161973297596, 2187.14], [-120.59625394642353, 48.55417245067656, 2186.66], [-120.59630960226059, 48.55416960082948, 2183.77], [-120.59635100886226, 48.55412291362882, 2181.37], [-120.5964076705277, 48.55416909791529, 2178.48], [-120.59643113985658, 48.554121907800436, 2176.08], [-120.5964713729918, 48.554069101810455, 2176.08], [-120.59653423726559, 48.55408251285553, 2172.24], [-120.5965800024569, 48.55405678041279, 2168.87], [-120.59663054533303, 48.55406507849693, 2165.99], [-120.59669894166291, 48.55406784452498, 2162.14], [-120.59699004516006, 48.55419407598674, 2155.89], [-120.5970409233123, 48.55421151034534, 2155.89], [-120.59705190360546, 48.554199021309614, 2153.97], [-120.597122060135, 48.554184939712286, 2151.57], [-120.59715910814703, 48.55419432744384, 2150.61], [-120.59724644757807, 48.55423648841679, 2149.16], [-120.59732523746789, 48.554242607206106, 2148.68], [-120.59742070734501, 48.55426833964884, 2146.76], [-120.59749840758741, 48.55429348535836, 2144.36], [-120.59759262017906, 48.55431720614433, 2140.51], [-120.59764592908323, 48.55435509234667, 2138.11], [-120.5977005790919, 48.55427538044751, 2131.38], [-120.59773259796202, 48.55422265827656, 2126.09], [-120.59779747389257, 48.5542084928602, 2124.65], [-120.59780183248222, 48.554168762639165, 2122.25], [-120.59786268509924, 48.55414596386254, 2119.36], [-120.59789839200675, 48.554150741547346, 2118.4], [-120.59795865789056, 48.55414227582514, 2116.0], [-120.59806670062244, 48.55415585450828, 2115.04], [-120.59807835146785, 48.5541236680001, 2111.67], [-120.59810299426317, 48.554098354652524, 2108.79], [-120.598179185763, 48.554066587239504, 2105.91], [-120.59823526069522, 48.55407413095236, 2103.98], [-120.59829460456967, 48.55406750924885, 2101.58], [-120.59834590181708, 48.55403716675937, 2099.18], [-120.59835168533027, 48.554015792906284, 2096.29], [-120.59835218824446, 48.55395846068859, 2093.89], [-120.59843081049621, 48.55392778292298, 2091.97], [-120.59855058789253, 48.55394043959677, 2086.68], [-120.59858461841941, 48.55392426252365, 2084.28], [-120.59860590845346, 48.55389014817774, 2082.35], [-120.59865293093026, 48.553875563666224, 2080.91], [-120.5987080000341, 48.55387732386589, 2077.55], [-120.59882073663175, 48.553856536746025, 2074.66], [-120.59889659285545, 48.553846729919314, 2074.18], [-120.5989511590451, 48.55391638353467, 2073.22], [-120.59899365529418, 48.55392476543784, 2071.3], [-120.59901888482273, 48.553867349401116, 2066.01], [-120.59905123896897, 48.55383960530162, 2064.57], [-120.59908208437264, 48.553773891180754, 2061.68], [-120.59912173077464, 48.55377037078142, 2058.32], [-120.59914796613157, 48.5537351667881, 2056.88], [-120.5992117524147, 48.5537267010659, 2055.44], [-120.5993087310344, 48.55373105965555, 2054.47], [-120.59941249899566, 48.55376408435404, 2050.15], [-120.59954702854156, 48.55367657728493, 2043.9], [-120.59964425861835, 48.5536524374038, 2039.09], [-120.59966060332954, 48.553626537323, 2038.13], [-120.599759593606, 48.55357934720814, 2036.21], [-120.59988205321133, 48.55349385179579, 2029.96], [-120.5999403912574, 48.55346719734371, 2028.52], [-120.59999495744705, 48.55337885208428, 2025.64], [-120.60016259551048, 48.55330458842218, 2020.83], [-120.60021515004337, 48.55327340774238, 2018.91], [-120.60031070373952, 48.55322848074138, 2014.58], [-120.60042754746974, 48.553218925371766, 2010.73], [-120.60047649778426, 48.55315396562219, 2007.85], [-120.6005881447345, 48.553126472979784, 2009.29], [-120.60078721493483, 48.553026895970106, 2006.41], [-120.6008368358016, 48.552964786067605, 2001.12], [-120.60087530873716, 48.55294014327228, 1999.2], [-120.6009800825268, 48.55289991013706, 1995.35]]}}