{"type": "Feature", "properties": {}, "geometry": {"type": "LineString", "coordinates": [[-122.17161194421351, 46.13051472231746, 851.38], [-122.17162401415408, 46.13057607784867, 836.0], [-122.17154379934072, 46.13058521412313, 836.96], [-122.17163541354239, 46.13054850138724, 838.41], [-122.17157749459147, 46.130471136420965, 846.58], [-122.17160766944289, 46.13046367652714, 831.68], [-122.17166659422219, 46.13041967153549, 838.89], [-122.1716832742095, 46.13047180697322, 840.33], [-122.17163080349565, 46.13051346503198, 840.33], [-122.17151924036443, 46.130581106990576, 831.68], [-122.17143760062754, 46.13072594627738, 823.03], [-122.17146609909832, 46.130780428647995, 820.14], [-122.17164513655007, 46.130830720067024, 818.22], [-122.17170431278646, 46.13092836923897, 822.55], [-122.17179433442652, 46.13099617883563, 824.95], [-122.17186449095607, 46.13110355101526, 826.87], [-122.17185736633837, 46.131250066682696, 829.76], [-122.17182685621083, 46.13128895871341, 827.35], [-122.17184009961784, 46.13130882382393, 827.35], [-122.1717279497534, 46.13142273388803, 830.24], [-122.17150054872036, 46.1316316947341, 837.45], [-122.17149635776877, 46.13174426369369, 840.33], [-122.1716282889247, 46.131840320304036, 840.33], [-122.17184227891266, 46.1319097224623, 836.48], [-122.17188083566725, 46.13198566250503, 837.93], [-122.17176608741283, 46.132165202870965, 838.41], [-122.17183532193303, 46.132313311100006, 839.85], [-122.17200237326324, 46.13246644847095, 841.29], [-122.17205165885389, 46.13265763968229, 841.29], [-122.17203112319112, 46.132524786517024, 835.52], [-122.172038750723, 46.132772052660584, 835.52], [-122.17176038771868, 46.132933320477605, 832.64], [-122.17155327089131, 46.133007667958736, 833.6], [-122.1714480780065, 46.13301068544388, 835.52], [-122.17130918987095, 46.133034490048885, 838.89], [-122.1710859797895, 46.133128786459565, 840.81], [-122.17072924599051, 46.1332063190639, 841.77], [-122.17055230401456, 46.133285192772746, 841.77], [-122.17037335038185, 46.13350169733167, 840.33], [-122.17027645558119, 46.133709317073226, 841.77], [-122.17004117555916, 46.13387502729893, 844.66], [-122.1698800753802, 46.13405934534967, 847.54], [-122.16977437958121, 46.13420594483614, 848.98], [-122.1695697773248, 46.13460115157068, 853.31], [-122.16935964301229, 46.13483961671591, 855.23], [-122.16929074376822, 46.135018318891525, 858.59], [-122.16925361193717, 46.1351303011179, 859.08], [-122.1691723074764, 46.1352458037436, 860.52], [-122.16907490976155, 46.135477563366294, 862.92], [-122.169099887833, 46.135655008256435, 864.84], [-122.16920264996588, 46.13580487668514, 860.52], [-122.16927096247673, 46.13594435155392, 857.63], [-122.16942669823766, 46.13596740178764, 855.71], [-122.16966952197254, 46.13604862242937, 854.27], [-122.16999557800591, 46.13618231378496, 853.79], [-122.17046647332609, 46.13636227324605, 855.71], [-122.17077903449535, 46.136474926024675, 859.08], [-122.17099947854877, 46.13659235648811, 861.96], [-122.17119586654007, 46.136678606271744, 865.32], [-122.17134967446327, 46.136784218251705, 869.17], [-122.1714552026242, 46.136878011748195, 872.05], [-122.17153038829565, 46.13697943277657, 873.5], [-122.17157908715308, 46.1371748149395, 876.38], [-122.17160758562386, 46.1373230908066, 880.71], [-122.17160247266293, 46.1374787427485, 882.63], [-122.17162376269698, 46.13765216432512, 882.15], [-122.17166885733604, 46.13777747377753, 883.11], [-122.17169274576008, 46.137903118506074, 885.51], [-122.1716639958322, 46.13807553425431, 883.11], [-122.17172702774405, 46.13821651786566, 884.55], [-122.17173214070499, 46.13838750869036, 885.99], [-122.17178704217076, 46.13850703462958, 887.91], [-122.17178746126592, 46.13868188112974, 890.32], [-122.17173381708562, 46.13881238736212, 893.68], [-122.17170850373805, 46.13906007260084, 896.57], [-122.17158319428563, 46.13936475478113, 895.12], [-122.17151680961251, 46.13943248055875, 896.09], [-122.17142343521118, 46.139680333435535, 894.64], [-122.17135420069098, 46.1397891305387, 896.57], [-122.17128002084792, 46.139925085008144, 896.57], [-122.17116242274642, 46.14001661539078, 897.53], [-122.17094256542623, 46.140235885977745, 901.37], [-122.17084089294076, 46.140371672809124, 901.85], [-122.17073653824627, 46.14047979936004, 900.89], [-122.1706211194396, 46.14058658480644, 903.3], [-122.17053386382759, 46.14072530530393, 902.82], [-122.17041827738285, 46.14085908047855, 904.26], [-122.17027888633311, 46.141032837331295, 905.22], [-122.17010202817619, 46.141174994409084, 905.22], [-122.16962023638189, 46.14126367494464, 906.18], [-122.1694228425622, 46.14125202409923, 907.14], [-122.16913349926472, 46.14130332134664, 910.99], [-122.16891473159194, 46.141442293301225, 918.2], [-122.16880400665104, 46.141566848382354, 923.0], [-122.16869881376624, 46.14171185530722, 928.29], [-122.16855481266975, 46.14182090386748, 928.29], [-122.16843042522669, 46.14187848754227, 927.33], [-122.16830788180232, 46.141983764246106, 925.89], [-122.16818341054022, 46.1420463770628, 927.81], [-122.1680813189596, 46.14212801679969, 929.73], [-122.16791158542037, 46.14224385470152, 932.14], [-122.16771586798131, 46.14251450635493, 932.62], [-122.16767756268382, 46.142622381448746, 933.58], [-122.16762165538967, 46.14273025654256, 933.58], [-122.16757270507514, 46.14303074777126, 941.27], [-122.16757488436997, 46.143170055001974, 939.35], [-122.16754839755595, 46.14333542995155, 939.83], [-122.16754051856697, 46.14347607828677, 941.27], [-122.16759810224175, 46.1435969453305, 942.23], [-122.16769357211888, 46.143737928941846, 944.63], [-122.1678202226758, 46.14386332221329, 948.96], [-122.16789775528014, 46.144001204520464, 951.84], [-122.16798735782504, 46.144126849249005, 952.8], [-122.16805525124073, 46.14427168853581, 951.36], [-122.16802666895092, 46.14443429745734, 951.84], [-122.16804980300367, 46.144562205299735, 953.28], [-122.16800722293556, 46.14468608982861, 953.77], [-122.1679650619626, 46.14483310841024, 952.32], [-122.16781720519066, 46.14508825354278, 952.8], [-122.16783480718732, 46.14523569121957, 956.17], [-122.16790353879333, 46.14537298679352, 958.57], [-122.16789096593857, 46.145519921556115, 960.49], [-122.16791921295226, 46.1457902379334, 964.82], [-122.16795927844942, 46.1459231749177, 968.67], [-122.1680398285389, 46.14608251489699, 970.59], [-122.16813798062503, 46.14619508385658, 972.03], [-122.16819833032787, 46.14633715711534, 972.51], [-122.168312324211, 46.146461041644216, 972.99], [-122.16848297975957, 46.14657796919346, 970.59], [-122.16854341328144, 46.14660110324621, 971.07], [-122.1686926111579, 46.1466948967427, 970.59], [-122.16883476823568, 46.1467535700649, 971.07], [-122.16913190670311, 46.14690042100847, 972.51], [-122.16933877207339, 46.14701651036739, 973.95], [-122.1694178134203, 46.14712715148926, 974.91], [-122.16947556473315, 46.14724759943783, 976.84], [-122.16953524388373, 46.14734910428524, 980.2], [-122.16959785670042, 46.147481705993414, 982.12], [-122.169668097049, 46.147594694048166, 983.09], [-122.16972031630576, 46.14769896492362, 985.01], [-122.16982215642929, 46.14779317751527, 986.93], [-122.16986331157386, 46.14791991189122, 988.85], [-122.16992299072444, 46.14801404066384, 992.7], [-122.16998325660825, 46.148193664848804, 994.14], [-122.1700996812433, 46.148417545482516, 998.95], [-122.170101525262, 46.14852567203343, 1000.87], [-122.17006833292544, 46.1485771369189, 1001.83], [-122.16994562186301, 46.14866581745446, 1000.39], [-122.1696699410677, 46.14884368143976, 1001.35], [-122.16965426690876, 46.14886153489351, 1000.87], [-122.16947179287672, 46.14897821098566, 1002.31], [-122.16941798105836, 46.149030178785324, 1002.31], [-122.1693332400173, 46.149149956181645, 1003.27], [-122.16931748203933, 46.14921994507313, 1005.2], [-122.16935184784234, 46.149351289495826, 1006.16], [-122.16934665106237, 46.14948682487011, 1007.6], [-122.1694159694016, 46.14966116845608, 1010.48], [-122.16935402713716, 46.14979921840131, 1009.52], [-122.16933634132147, 46.14993928000331, 1010.0], [-122.16931530274451, 46.15004589781165, 1012.41], [-122.1692711301148, 46.150168189778924, 1014.81], [-122.16919627971947, 46.150275729596615, 1018.17], [-122.1691416297108, 46.15040204487741, 1020.58], [-122.16908790171146, 46.15050598047674, 1022.02], [-122.16905093751848, 46.15074402652681, 1022.5], [-122.16901883482933, 46.150856763124466, 1024.42], [-122.16901070438325, 46.15099489688873, 1025.38], [-122.16908312402666, 46.15119162015617, 1028.75], [-122.16907541267574, 46.15132003091276, 1028.75], [-122.16911589726806, 46.15142589434981, 1029.23], [-122.1691812761128, 46.15153955295682, 1031.15], [-122.16922477819026, 46.151707945391536, 1034.04], [-122.16920231468976, 46.15171884186566, 1033.55], [-122.1691876463592, 46.15183275192976, 1032.59], [-122.16920197941363, 46.1520498432219, 1033.07], [-122.16920231468976, 46.152439350262284, 1036.44], [-122.16917708516121, 46.15259072743356, 1039.32], [-122.16916979290545, 46.15278359502554, 1039.8], [-122.16912017203867, 46.15297386422753, 1041.73], [-122.16911598108709, 46.153072183951735, 1042.69], [-122.16917130164802, 46.153231021016836, 1047.01], [-122.16935126110911, 46.153350211679935, 1048.94], [-122.16947405599058, 46.15343738347292, 1050.86], [-122.16958603821695, 46.1535298358649, 1051.82], [-122.16967765241861, 46.15366612561047, 1053.26], [-122.16970640234649, 46.15367936901748, 1053.74], [-122.16985694132745, 46.153790429234505, 1054.22], [-122.16992885805666, 46.15389193408191, 1056.63], [-122.16998350806534, 46.153991762548685, 1059.51], [-122.17000219970942, 46.15408094599843, 1060.47], [-122.1699820831418, 46.15420072339475, 1061.43], [-122.16989474371076, 46.15433877333999, 1062.87], [-122.16987328603864, 46.15439476445317, 1063.36], [-122.16986733488739, 46.154510686174035, 1062.39], [-122.16991938650608, 46.154668936505914, 1063.36], [-122.17001787386835, 46.15481151267886, 1064.32], [-122.17022306285799, 46.15499482490122, 1065.76], [-122.17024091631174, 46.155105885118246, 1067.68], [-122.17025290243328, 46.15523588843644, 1069.6], [-122.1702809818089, 46.155349630862474, 1071.53], [-122.17028140090406, 46.15548198111355, 1072.97], [-122.1702915430069, 46.1556195281446, 1074.41], [-122.17032683081925, 46.15570359863341, 1075.37], [-122.1704707480967, 46.15590610541403, 1076.81], [-122.17055808752775, 46.156020015478134, 1076.33], [-122.17063059099019, 46.156135937199, 1078.74], [-122.1707107219845, 46.15622545592487, 1081.62], [-122.17085028067231, 46.15634221583605, 1082.58], [-122.17112143523991, 46.15653374232352, 1083.06], [-122.17126434668899, 46.156659722328186, 1083.54], [-122.17138948850334, 46.15672183223069, 1085.95], [-122.1716246008873, 46.156787630170584, 1086.91], [-122.17189131304622, 46.15691897459328, 1089.79], [-122.17197672463953, 46.15691495127976, 1092.2], [-122.17216330580413, 46.15698133595288, 1096.52], [-122.17227495275438, 46.15704051218927, 1098.92], [-122.17241224832833, 46.15714369341731, 1101.81], [-122.17241786420345, 46.157169761136174, 1101.81], [-122.17249506153166, 46.157246036455035, 1102.29], [-122.1725865919143, 46.15735340863466, 1101.81], [-122.17266253195703, 46.15745826624334, 1102.77], [-122.1728215366602, 46.15762791596353, 1107.58], [-122.17293469235301, 46.157687259837985, 1109.98], [-122.17303519137204, 46.15776387043297, 1111.9], [-122.17314776033163, 46.15786294452846, 1113.82], [-122.17328002676368, 46.15793528035283, 1115.75], [-122.1734463237226, 46.15800719708204, 1117.19], [-122.1735707949847, 46.158066876232624, 1119.11], [-122.17379769310355, 46.15814918652177, 1123.92], [-122.17386768199503, 46.15815999917686, 1125.36], [-122.17407370917499, 46.15814432501793, 1125.84], [-122.17413707636297, 46.15813376381993, 1125.84], [-122.17425190843642, 46.158080119639635, 1127.76], [-122.17436598613858, 46.15804282017052, 1127.28], [-122.17450202442706, 46.158100152388215, 1128.24], [-122.17454594559968, 46.1581442411989, 1128.24], [-122.1747193671763, 46.15823099389672, 1130.17], [-122.17481969855726, 46.15830676630139, 1131.61], [-122.17487543821335, 46.15835999138653, 1132.57], [-122.17515606433153, 46.15850541740656, 1135.94], [-122.1752926055342, 46.158621506765485, 1139.78], [-122.17538765631616, 46.158745558932424, 1143.63], [-122.17542571015656, 46.1588641628623, 1146.03], [-122.1754234470427, 46.15898435935378, 1147.47], [-122.17543836683035, 46.1590975150466, 1148.43], [-122.17552654445171, 46.1592182982713, 1149.87], [-122.17556308954954, 46.15925660356879, 1151.32], [-122.17560491524637, 46.159272864460945, 1153.24], [-122.17567440122366, 46.15934679284692, 1155.64], [-122.17577607370913, 46.15936213172972, 1159.01], [-122.1758864633739, 46.15944251418114, 1161.89], [-122.17594128102064, 46.159518705680966, 1163.33], [-122.17607983388007, 46.159612415358424, 1165.74], [-122.17614806257188, 46.15969330072403, 1166.7], [-122.17620329931378, 46.15978516638279, 1168.14], [-122.17629835009575, 46.1599694006145, 1171.5], [-122.17631553299725, 46.159990606829524, 1171.98], [-122.17632575891912, 46.160121615976095, 1172.95], [-122.17635903507471, 46.16021566092968, 1175.83], [-122.17635945416987, 46.160282799974084, 1180.16], [-122.17648727819324, 46.16036754101515, 1183.52], [-122.176579143852, 46.16045705974102, 1186.4], [-122.17664116993546, 46.160541297867894, 1188.33], [-122.17667629010975, 46.16060541942716, 1189.29], [-122.17670579440892, 46.160704577341676, 1191.69], [-122.17674233950675, 46.160955699160695, 1197.94], [-122.1767570078373, 46.161025520414114, 1198.42], [-122.17675432562828, 46.161148734390736, 1200.82], [-122.17682632617652, 46.16135073825717, 1205.15], [-122.17677662149072, 46.16144369356334, 1206.59], [-122.1767654735595, 46.16156053729355, 1208.51], [-122.17674443498254, 46.161685762926936, 1209.0], [-122.17676245607436, 46.16180813871324, 1210.92], [-122.17675918713212, 46.16191081702709, 1212.84], [-122.17673907056451, 46.16201366297901, 1213.32], [-122.17674837447703, 46.162105947732925, 1214.28], [-122.17673496343195, 46.16229336708784, 1218.61], [-122.17670696787536, 46.16241775453091, 1222.45], [-122.17670688405633, 46.16249210201204, 1223.42], [-122.17668282799423, 46.16268455050886, 1226.78], [-122.17663178220391, 46.1628392804414, 1229.66], [-122.17658811248839, 46.163025023415685, 1232.55], [-122.17657352797687, 46.163223925977945, 1235.43], [-122.17659196816385, 46.16341260261834, 1239.28], [-122.17659221962094, 46.16348653100431, 1242.16], [-122.17653874307871, 46.163681745529175, 1246.49], [-122.17651234008372, 46.16384536027908, 1249.37], [-122.17648258432746, 46.16393898613751, 1251.29], [-122.17646012082696, 46.1640446819365, 1253.22], [-122.17646087519825, 46.16412665694952, 1255.14], [-122.17650773003697, 46.164271999150515, 1258.5], [-122.17650353908539, 46.164373587816954, 1259.94], [-122.17644696123898, 46.164510045200586, 1262.83], [-122.1764213964343, 46.16459763608873, 1265.23], [-122.17630019411445, 46.16479888558388, 1268.6], [-122.17627219855785, 46.164875412359834, 1269.08], [-122.17621318995953, 46.16496694274247, 1271.96], [-122.17620539478958, 46.16504858247936, 1273.4], [-122.17602618969977, 46.16534471511841, 1282.06], [-122.17595259658992, 46.165497517213225, 1285.9], [-122.1759189851582, 46.16562718525529, 1290.23], [-122.17588176950812, 46.165870847180486, 1294.55], [-122.17587883584201, 46.165968999266624, 1298.4], [-122.17590004205704, 46.1660844180733, 1303.69], [-122.17589451000094, 46.16622473113239, 1305.61], [-122.1759091783315, 46.166289774701, 1308.49], [-122.17588755302131, 46.166388262063265, 1311.86], [-122.17588445171714, 46.166494293138385, 1316.66], [-122.1758328191936, 46.166631085798144, 1321.47], [-122.17587204650044, 46.166658913716674, 1322.43], [-122.17583172954619, 46.166757149621844, 1326.76], [-122.17578487470746, 46.16682772524655, 1330.12], [-122.17584690079093, 46.166869634762406, 1331.56], [-122.17581580393016, 46.16694540716708, 1335.41], [-122.17581865377724, 46.16707155480981, 1340.7], [-122.17583893798292, 46.1671463213861, 1342.62], [-122.1758412849158, 46.16720709018409, 1345.5], [-122.17582586221397, 46.16726475767791, 1347.43], [-122.17587917111814, 46.16729283705354, 1345.98], [-122.17585813254118, 46.167337177321315, 1347.43], [-122.17585419304669, 46.167422169819474, 1350.79], [-122.17582929879427, 46.16750992834568, 1355.12], [-122.17580951750278, 46.16766532883048, 1358.96], [-122.17583248391747, 46.1677560210228, 1361.84], [-122.17575252056122, 46.16788946092129, 1368.09], [-122.17572871595621, 46.16798819974065, 1370.02], [-122.17569502070546, 46.168062798678875, 1373.86], [-122.17568806372583, 46.16815089248121, 1375.78], [-122.17570960521698, 46.1682119127363, 1378.19], [-122.17571312561631, 46.168272932991385, 1380.59], [-122.1757469046861, 46.168377036228776, 1385.4], [-122.17574154026806, 46.168419029563665, 1388.76], [-122.17575922608376, 46.16847845725715, 1391.17], [-122.17578881420195, 46.16865171119571, 1395.49], [-122.17582041397691, 46.168717006221414, 1398.37], [-122.17584145255387, 46.16884139366448, 1404.62], [-122.17586265876889, 46.16891171783209, 1407.99], [-122.17588252387941, 46.169055718928576, 1414.24], [-122.1759327314794, 46.16922955960035, 1424.33], [-122.17591412365437, 46.16927674971521, 1426.73], [-122.175944885239, 46.16934414021671, 1428.66], [-122.1759575419128, 46.16945872083306, 1435.39], [-122.17594941146672, 46.16957011632621, 1440.67], [-122.17600188218057, 46.169643960893154, 1442.6], [-122.17619416303933, 46.16978385485709, 1447.4], [-122.17628644779325, 46.16990178823471, 1451.25], [-122.17628234066069, 46.16996725089848, 1453.65], [-122.17635970562696, 46.17020362056792, 1464.71], [-122.17642265371978, 46.17032733745873, 1469.03], [-122.17643070034683, 46.17038684897125, 1470.47], [-122.17657436616719, 46.170578794553876, 1476.24], [-122.1766016073525, 46.170645179226995, 1477.68], [-122.17664217576385, 46.17068055085838, 1480.57], [-122.17669389210641, 46.17077778093517, 1486.34], [-122.17670210637152, 46.17088624276221, 1488.26], [-122.17673018574715, 46.170974588021636, 1494.51], [-122.17678248882294, 46.17090082727373, 1497.39], [-122.1767673175782, 46.171002918854356, 1498.35], [-122.17680662870407, 46.17108816280961, 1501.24], [-122.17689547687769, 46.17121774703264, 1512.77], [-122.17689421959221, 46.17127298377454, 1514.21], [-122.17692908830941, 46.17132822051644, 1516.62], [-122.17693747021258, 46.17137096822262, 1520.46], [-122.17691609635949, 46.17141212336719, 1523.35], [-122.17692757956684, 46.17145772092044, 1525.27], [-122.17691341415048, 46.17158998735249, 1534.88], [-122.17695582658052, 46.17171496152878, 1544.01], [-122.17699455097318, 46.1717467289418, 1545.46], [-122.17700008302927, 46.17178411222994, 1548.34], [-122.17703587375581, 46.17184194736183, 1550.74], [-122.17712949961424, 46.17188184522092, 1555.55], [-122.17715615406632, 46.17192015051842, 1557.47], [-122.17720585875213, 46.17194043472409, 1559.88], [-122.17738447710872, 46.17205501534045, 1567.57], [-122.17740492895246, 46.17204981856048, 1569.01], [-122.17759888619184, 46.1721783131361, 1574.78], [-122.17774204909801, 46.17222332395613, 1580.54], [-122.17784036882222, 46.1722422670573, 1583.91], [-122.17795050702989, 46.17227554321289, 1586.79], [-122.17809383757412, 46.172333462163806, 1593.52], [-122.17816424556077, 46.17238878272474, 1593.52], [-122.17830321751535, 46.17251484654844, 1601.69], [-122.17836909927428, 46.17262498475611, 1607.46], [-122.17851251363754, 46.17279253900051, 1613.71], [-122.17853606678545, 46.17284199222922, 1616.59], [-122.17872683890164, 46.173085905611515, 1633.9], [-122.17875081114471, 46.17314248345792, 1636.3], [-122.1787563432008, 46.17327382788062, 1640.63], [-122.1787893678993, 46.17335328832269, 1646.4], [-122.17883639037609, 46.173409363254905, 1648.32], [-122.17885374091566, 46.1734701320529, 1651.2], [-122.17892632819712, 46.17361790500581, 1655.05], [-122.17902800068259, 46.17376618087292, 1661.78], [-122.17906479723752, 46.17388017475605, 1667.06], [-122.17911793850362, 46.17394940927625, 1673.31], [-122.17915783636272, 46.173976650461555, 1675.23], [-122.17917476780713, 46.17401881143451, 1676.68], [-122.17929781414568, 46.17410941980779, 1684.37], [-122.1794714871794, 46.17429876700044, 1693.02], [-122.17951130121946, 46.174320643767715, 1695.42], [-122.17966016381979, 46.17451443336904, 1705.04], [-122.17967298813164, 46.174582578241825, 1700.71], [-122.17972872778773, 46.174664720892906, 1705.04], [-122.17983283102512, 46.174729680642486, 1711.76], [-122.17995772138238, 46.17488147690892, 1722.82], [-122.18003567308187, 46.17493118159473, 1728.11], [-122.18018990010023, 46.17512027733028, 1738.68], [-122.18039575964212, 46.17532957345247, 1745.89], [-122.1805003657937, 46.175421522930264, 1753.1], [-122.18057446181774, 46.175521183758974, 1758.87], [-122.18062718398869, 46.17557340301573, 1762.23], [-122.18070236966014, 46.17568463087082, 1766.08], [-122.18084150925279, 46.17582477629185, 1775.69], [-122.18090001493692, 46.175925610587, 1785.31], [-122.18105290085077, 46.17604027502239, 1796.84], [-122.18104141764343, 46.17607011459768, 1788.67], [-122.18113906681538, 46.17614018730819, 1792.03], [-122.1811914537102, 46.176217468455434, 1794.44], [-122.18129890970886, 46.17630757391453, 1797.8], [-122.18136386945844, 46.176372868940234, 1802.13], [-122.18145581893623, 46.17649516090751, 1813.66], [-122.18150351196527, 46.176505805924535, 1815.59], [-122.1816042624414, 46.17657244205475, 1820.87], [-122.18166067264974, 46.17664662189782, 1825.2], [-122.18167022801936, 46.1767406668514, 1829.53], [-122.18169277533889, 46.17681107483804, 1839.14], [-122.18173602595925, 46.17688567377627, 1842.5], [-122.18184666708112, 46.176969995722175, 1846.83], [-122.18188991770148, 46.177132772281766, 1849.71], [-122.18195663765073, 46.17720385082066, 1854.52], [-122.18191430903971, 46.17722882889211, 1855.48], [-122.18194046057761, 46.17727157659829, 1853.08], [-122.18200500123203, 46.17731432430446, 1856.44], [-122.18205361627042, 46.177371153607965, 1863.65], [-122.18211413361132, 46.17746385745704, 1868.94], [-122.1821878105402, 46.177525632083416, 1874.71], [-122.18219342641532, 46.17758296430111, 1880.0], [-122.18223701231182, 46.17766954936087, 1880.96], [-122.18227632343769, 46.1777145601809, 1882.88], [-122.18230448663235, 46.17771791294217, 1886.24], [-122.18231856822968, 46.1777666117996, 1886.24], [-122.18236366286874, 46.17780332453549, 1891.05], [-122.18240490183234, 46.17780927568674, 1892.97], [-122.18248796649277, 46.177946319803596, 1895.86], [-122.1825401019305, 46.177972638979554, 1899.22], [-122.18255963176489, 46.17803692817688, 1900.66], [-122.1825866214931, 46.17805176414549, 1898.26], [-122.18255921266973, 46.178192077204585, 1901.14], [-122.18273598700762, 46.17838175967336, 1908.35], [-122.18275677412748, 46.17844822816551, 1911.72], [-122.182811005041, 46.17850757203996, 1914.12], [-122.18289339914918, 46.17865299805999, 1918.93], [-122.18291770666838, 46.17872047238052, 1921.81], [-122.18296439386904, 46.17877436801791, 1922.77], [-122.18300957232714, 46.17888844572008, 1930.46], [-122.18314577825367, 46.179087683558464, 1941.52], [-122.18316631391644, 46.1791652161628, 1944.88], [-122.18320361338556, 46.179212322458625, 1948.25], [-122.18324736692011, 46.17933771573007, 1952.09], [-122.18329790979624, 46.17944802157581, 1956.9], [-122.18340176157653, 46.17961146868765, 1962.67], [-122.1835050266236, 46.179801067337394, 1969.4], [-122.18351860530674, 46.17985026910901, 1970.84], [-122.18357518315315, 46.17996619082987, 1978.53], [-122.18364626169205, 46.18006870150566, 1989.1], [-122.18369906768203, 46.18020054884255, 1993.91], [-122.18368506990373, 46.18023575283587, 1992.95], [-122.18370845541358, 46.1802530195564, 1994.87], [-122.18376159667969, 46.180337090045214, 1996.32], [-122.18379152007401, 46.18040766566992, 1998.72], [-122.18385052867234, 46.18049098178744, 2001.12], [-122.18388036824763, 46.18058527819812, 2005.45], [-122.18396225944161, 46.18071771226823, 2011.22], [-122.18397089280188, 46.18076532147825, 2013.14], [-122.18393652699888, 46.180805722251534, 2014.58], [-122.18393602408469, 46.1808420997113, 2016.98], [-122.18397391028702, 46.18087185546756, 2019.39], [-122.1840248722583, 46.180949388071895, 2024.67], [-122.18402897939086, 46.18100697174668, 2029.96], [-122.18397458083928, 46.18104200810194, 2030.44], [-122.18406074680388, 46.181086683645844, 2033.81], [-122.18411170877516, 46.18114669807255, 2035.25], [-122.18418681062758, 46.18121358565986, 2037.65], [-122.18419091776013, 46.181272342801094, 2040.05], [-122.18424648977816, 46.18133386597037, 2043.9], [-122.18425411731005, 46.18138122372329, 2044.86], [-122.18428077176213, 46.18140611797571, 2047.75], [-122.1842896565795, 46.18145238608122, 2049.67], [-122.18437867239118, 46.1815276555717, 2055.92], [-122.184391412884, 46.181564619764686, 2057.84], [-122.1844984497875, 46.18171733804047, 2067.93], [-122.1844950132072, 46.18177282623947, 2069.38], [-122.18452418223023, 46.18182772770524, 2069.86], [-122.18454463407397, 46.181900734081864, 2074.66], [-122.18463398516178, 46.182029815390706, 2083.31], [-122.18468025326729, 46.18211598135531, 2085.24], [-122.18468570150435, 46.182203236967325, 2086.68], [-122.18476516194642, 46.182343885302544, 2090.04], [-122.18479634262621, 46.18238671682775, 2092.45], [-122.18480388633907, 46.182520324364305, 2095.81], [-122.18484462238848, 46.182605819776654, 2098.21], [-122.18494051136076, 46.18276113644242, 2106.39], [-122.18495987355709, 46.182806733995676, 2106.39], [-122.18500681221485, 46.1828588694334, 2108.79], [-122.1850299462676, 46.18291896767914, 2110.23], [-122.18505861237645, 46.18294780142605, 2110.71], [-122.18506732955575, 46.183004546910524, 2112.15], [-122.18511326238513, 46.18312348611653, 2117.44], [-122.18516598455608, 46.18317930959165, 2121.77], [-122.1852855104953, 46.18328785523772, 2127.53], [-122.18539137393236, 46.18335038423538, 2132.82], [-122.18543487600982, 46.18338843807578, 2135.23], [-122.18545708805323, 46.18343722075224, 2137.63], [-122.18548893928528, 46.18356219492853, 2140.99], [-122.18549564480782, 46.183637296780944, 2144.84], [-122.1855154260993, 46.1836673039943, 2147.72], [-122.1855704113841, 46.18368549272418, 2150.13], [-122.18560888431966, 46.18375279940665, 2153.01], [-122.18565087765455, 46.183800073340535, 2155.89], [-122.18567409552634, 46.18392311967909, 2161.66], [-122.18570318073034, 46.18400895036757, 2163.1], [-122.18569655902684, 46.1840489320457, 2165.03], [-122.18575422652066, 46.184197878465056, 2171.76], [-122.1857916098088, 46.1843391135335, 2181.85], [-122.18578238971531, 46.18438873440027, 2178.48], [-122.18580460175872, 46.1844339966774, 2183.29], [-122.1857813000679, 46.18450725451112, 2186.66], [-122.18578515574336, 46.184554947540164, 2189.06], [-122.18580795451999, 46.184584284201264, 2191.94], [-122.1857765223831, 46.18467338383198, 2195.31], [-122.18585296534002, 46.18478528223932, 2202.04], [-122.18585464172065, 46.18481621146202, 2203.48], [-122.18596737831831, 46.18486784398556, 2206.84], [-122.18598179519176, 46.18489885702729, 2208.29], [-122.18594642356038, 46.18511142209172, 2216.94], [-122.18590795062482, 46.18520261719823, 2225.59], [-122.18584030866623, 46.18541669100523, 2233.28], [-122.18573243357241, 46.18570117279887, 2244.33], [-122.18568155542016, 46.18579530157149, 2249.62], [-122.18565297313035, 46.18590694852173, 2252.03], [-122.18554912135005, 46.18608464486897, 2258.75], [-122.18551685102284, 46.1861764267087, 2262.6], [-122.18573570251465, 46.18623208254576, 2267.89], [-122.18594944104552, 46.18628069758415, 2276.06], [-122.18608028255403, 46.18631774559617, 2281.35], [-122.18613769859076, 46.18634691461921, 2284.23], [-122.18625320121646, 46.186381028965116, 2288.56], [-122.18632687814534, 46.18642369285226, 2290.0], [-122.18648948706686, 46.1864766664803, 2293.84], [-122.18667321838439, 46.1865131277591, 2299.13], [-122.18681554310024, 46.18653173558414, 2304.9], [-122.1868899744004, 46.18650156073272, 2307.3], [-122.18693439848721, 46.186458645388484, 2308.26], [-122.18711796216667, 46.186367869377136, 2310.67], [-122.18717915005982, 46.18634649552405, 2312.59], [-122.18736933544278, 46.18638672865927, 2322.2], [-122.18759933486581, 46.186419585719705, 2329.89], [-122.18766689300537, 46.186450934037566, 2331.81], [-122.18778834678233, 46.18647649884224, 2337.1], [-122.1881630178541, 46.18658881634474, 2348.64], [-122.18827181495726, 46.18666023015976, 2352.96], [-122.18848127871752, 46.186844715848565, 2363.54], [-122.18849435448647, 46.18688159622252, 2366.42], [-122.18866827897727, 46.18702392093837, 2375.07], [-122.18883063644171, 46.1872071493417, 2383.25], [-122.18885737471282, 46.187268421053886, 2385.65], [-122.18888629227877, 46.18744075298309, 2391.42], [-122.18890548683703, 46.18750713765621, 2395.26], [-122.1889659203589, 46.1876564193517, 2401.51], [-122.18892585486174, 46.187707129865885, 2404.88], [-122.18891856260598, 46.18780846707523, 2411.12], [-122.1889328956604, 46.187905026599765, 2414.97], [-122.18894169665873, 46.188073167577386, 2422.18], [-122.18893700279295, 46.18811977095902, 2425.06], [-122.18895837664604, 46.1881691403687, 2427.47], [-122.18894898891449, 46.188314566388726, 2435.64], [-122.18892275355756, 46.188343819230795, 2436.12], [-122.18892836943269, 46.1884128022939, 2440.44], [-122.18904010020196, 46.18855210952461, 2446.69], [-122.1891041379422, 46.188610615208745, 2448.62], [-122.18911218456924, 46.188755789771676, 2457.27], [-122.18908871524036, 46.188821168616414, 2461.59], [-122.18908402137458, 46.18889727629721, 2465.44], [-122.18909852206707, 46.188937928527594, 2467.84], [-122.18908469192684, 46.188968773931265, 2470.24], [-122.18907153233886, 46.18907346390188, 2473.61], [-122.18909525312483, 46.1893021222204, 2483.7], [-122.18911335803568, 46.18933288380504, 2485.63], [-122.1891001984477, 46.18940647691488, 2488.99], [-122.1891162917018, 46.18944654241204, 2490.43], [-122.18911897391081, 46.18955341167748, 2494.76], [-122.18914076685905, 46.1896161083132, 2495.72], [-122.18927915208042, 46.189735885709524, 2502.45], [-122.18931997194886, 46.189730521291494, 2501.49], [-122.18935810960829, 46.18976295925677, 2506.77], [-122.18932734802365, 46.189763713628054, 2499.57], [-122.18917395919561, 46.18955282494426, 2492.36], [-122.18903381377459, 46.18944528512657, 2489.95], [-122.18895267695189, 46.18934218771756, 2485.15], [-122.1889138687402, 46.189263481646776, 2482.74], [-122.1713376045227, 46.15630801767111, 1095.56], [-122.17133349739015, 46.15627499297261, 1084.5], [-122.17118849046528, 46.15623643621802, 1084.5], [-122.1709926892072, 46.15622947923839, 1082.1], [-122.17081868089736, 46.15620584227145, 1082.1], [-122.1707838959992, 46.15623786114156, 1082.1], [-122.17074274085462, 46.156214978545904, 1083.06], [-122.17049639672041, 46.15595446899533, 1083.06], [-122.17037536203861, 46.15576378069818, 1082.1], [-122.17026019468904, 46.155533445999026, 1082.1], [-122.17024384997785, 46.15535935387015, 1082.1], [-122.17024225741625, 46.15518073551357, 1079.7], [-122.17023085802794, 46.15498200058937, 1074.41], [-122.17014335095882, 46.15483447909355, 1069.6], [-122.17008308507502, 46.15479676052928, 1068.16], [-122.16989189386368, 46.154615795239806, 1066.24], [-122.16982810758054, 46.15443659015, 1065.76], [-122.169847805053, 46.154380766674876, 1064.8], [-122.16997395269573, 46.154155461117625, 1060.95], [-122.16996414586902, 46.15394256077707, 1059.03], [-122.16993640176952, 46.15387776866555, 1057.11], [-122.16982492245734, 46.1537338513881, 1053.26], [-122.16961436904967, 46.15357325412333, 1050.86], [-122.16950196772814, 46.153424978256226, 1049.9], [-122.16938252560794, 46.15335716865957, 1048.45], [-122.16931815259159, 46.15326002240181, 1045.57], [-122.16926367022097, 46.153247114270926, 1045.57], [-122.16911816038191, 46.15310311317444, 1046.05], [-122.16908697970212, 46.15301719866693, 1046.05], [-122.16910826973617, 46.15289054811001, 1045.09], [-122.16913391835988, 46.15284034051001, 1044.13], [-122.16915772296488, 46.1527253407985, 1039.8], [-122.16915068216622, 46.152618722990155, 1038.84], [-122.16915277764201, 46.15250892005861, 1037.88], [-122.16917138546705, 46.152429627254605, 1037.4], [-122.16920281760395, 46.152349496260285, 1036.92], [-122.16918437741697, 46.15226039662957, 1037.4], [-122.16920424252748, 46.152159897610545, 1037.88], [-122.169184461236, 46.15201111882925, 1037.88], [-122.16919418424368, 46.15197189152241, 1037.88], [-122.16917222365737, 46.151810036972165, 1036.44], [-122.16916962526739, 46.15166360512376, 1032.59], [-122.16919787228107, 46.151576014235616, 1029.71], [-122.16914389282465, 46.151395635679364, 1028.27], [-122.16908312402666, 46.1513024289161, 1027.79], [-122.16903325170279, 46.15107678808272, 1026.34], [-122.1689999755472, 46.15090294741094, 1024.42], [-122.16900441795588, 46.15081015974283, 1023.94], [-122.1690430585295, 46.15070555359125, 1020.58], [-122.1690742392093, 46.150653501972556, 1019.62], [-122.1691030729562, 46.15048326551914, 1017.69], [-122.1691276319325, 46.15039215423167, 1016.73], [-122.16918219812214, 46.15026097744703, 1012.89], [-122.16922997497022, 46.15019484423101, 1010.96], [-122.16932988725603, 46.14988303743303, 1011.44], [-122.16932829469442, 46.1497671995312, 1012.41], [-122.169403815642, 46.149586318060756, 1011.44], [-122.1693123690784, 46.14940342493355, 1010.48], [-122.16933474875987, 46.14928113296628, 1009.52], [-122.16935050673783, 46.149098658934236, 1008.08], [-122.16939761303365, 46.149034202098846, 1008.08], [-122.16946718282998, 46.148977875709534, 1009.04], [-122.16962275095284, 46.14888399839401, 1009.04], [-122.16980698518455, 46.148729771375656, 1007.12], [-122.17010831460357, 46.14854704588652, 1001.83], [-122.17007495462894, 46.148345209658146, 999.43], [-122.17002902179956, 46.14821394905448, 997.99], [-122.16995727270842, 46.14803952164948, 996.06], [-122.16988066211343, 46.14790314808488, 994.14], [-122.16986590996385, 46.14775126799941, 990.3], [-122.16971520334482, 46.14756309427321, 987.41], [-122.16964487917721, 46.147429989650846, 985.01], [-122.1696041431278, 46.147334687411785, 983.57], [-122.169472547248, 46.14715564996004, 981.16], [-122.16940306127071, 46.146996980533004, 978.28], [-122.16923559084535, 46.14685700275004, 974.43], [-122.16907960362732, 46.14676161669195, 974.43], [-122.16893015429378, 46.14671476185322, 974.43], [-122.16867257840931, 46.14664955064654, 973.47], [-122.16846026480198, 46.146496245637536, 972.03], [-122.16825348325074, 46.14632927812636, 971.07], [-122.16810462065041, 46.14612199366093, 967.22], [-122.16801376082003, 46.145982602611184, 963.38], [-122.1679806523025, 46.145874727517366, 961.46], [-122.1678720228374, 46.14566719159484, 956.65], [-122.1678149420768, 46.14549041725695, 957.61], [-122.16779172420502, 46.14531448110938, 958.57], [-122.16773665510118, 46.14510644227266, 956.65], [-122.16775182634592, 46.14498951472342, 953.77], [-122.16786799952388, 46.144787007942796, 949.92], [-122.16793798841536, 46.14453085698187, 946.07], [-122.1679391618818, 46.144313011318445, 942.23], [-122.16788853518665, 46.14412156865001, 943.19], [-122.16786900535226, 46.14402894861996, 943.67], [-122.16774377971888, 46.14388461224735, 943.67], [-122.16770044527948, 46.143850246444345, 944.15], [-122.16752903535962, 46.143637765198946, 945.59], [-122.16745175421238, 46.143440287560225, 941.75], [-122.16745728626847, 46.143384547904134, 941.27], [-122.16753683052957, 46.14321087487042, 938.86], [-122.1675181388855, 46.14288012497127, 937.9], [-122.16755376197398, 46.14272380247712, 940.31], [-122.1676127705723, 46.14258399233222, 940.31], [-122.16767186298966, 46.14256085827947, 941.27], [-122.16771720908582, 46.142362877726555, 940.79], [-122.16782315634191, 46.142223151400685, 939.83], [-122.16793362982571, 46.14211359992623, 941.27], [-122.16808944940567, 46.142013017088175, 940.79], [-122.16822506859899, 46.14193548448384, 939.83], [-122.16828935779631, 46.14191167987883, 939.35], [-122.16852153651416, 46.1417699418962, 938.38], [-122.1686632744968, 46.14164195023477, 936.46], [-122.1687251329422, 46.14155737683177, 935.98], [-122.16894356533885, 46.141318660229445, 931.17], [-122.16922888532281, 46.1411620862782, 923.48], [-122.16929635964334, 46.141154961660504, 922.52], [-122.16937984339893, 46.14117122255266, 921.56], [-122.16952954418957, 46.14115194417536, 918.68], [-122.169768512249, 46.14113526418805, 912.43], [-122.17001904733479, 46.14109352231026, 912.43], [-122.17018559575081, 46.14095429889858, 912.91], [-122.17029958963394, 46.14085095003247, 910.99], [-122.17040939256549, 46.14072907716036, 909.54], [-122.17044845223427, 46.14070183597505, 909.06], [-122.17050100676715, 46.14063042216003, 908.58], [-122.17057107947767, 46.14048055373132, 908.1], [-122.17069840058684, 46.140365386381745, 907.14], [-122.17074039392173, 46.14034426398575, 906.66], [-122.17099168337882, 46.140043856576085, 902.33], [-122.1711200941354, 46.13990924321115, 901.85], [-122.1712360996753, 46.139730121940374, 901.85], [-122.17123492620885, 46.13969726487994, 901.85], [-122.17128999531269, 46.1395232565701, 901.85], [-122.17138814739883, 46.139369113370776, 900.89], [-122.17153902165592, 46.13923106342554, 899.45], [-122.17157430946827, 46.1390623357147, 895.12], [-122.17162543907762, 46.13886267878115, 891.28], [-122.17167698778212, 46.1387359444052, 889.84], [-122.1717094257474, 46.13855732604861, 890.32], [-122.17170431278646, 46.13839362747967, 889.84], [-122.17161395587027, 46.138147534802556, 889.84], [-122.17160255648196, 46.13803831860423, 889.36], [-122.17161839827895, 46.13800554536283, 889.36], [-122.17157003469765, 46.13733423873782, 888.4], [-122.17153617180884, 46.13713541999459, 888.4], [-122.17147171497345, 46.13698965869844, 887.91], [-122.17138311825693, 46.13686359487474, 887.91], [-122.1712205093354, 46.13666242919862, 881.67], [-122.17102739028633, 46.13662269897759, 881.67], [-122.17090669088066, 46.13654298707843, 881.67], [-122.17072304338217, 46.13638515584171, 881.67], [-122.17065674252808, 46.1363476049155, 881.19], [-122.17050150968134, 46.13634844310582, 878.78], [-122.1703832410276, 46.136329248547554, 876.86], [-122.17018760740757, 46.136235957965255, 876.86], [-122.1701477933675, 46.13622707314789, 875.9], [-122.17009549029171, 46.136183654889464, 875.42], [-122.17001024633646, 46.13617753610015, 873.98], [-122.16989164240658, 46.13613654859364, 871.09], [-122.16965057887137, 46.13600738346577, 870.13], [-122.1695608086884, 46.13594728522003, 869.65], [-122.16939903795719, 46.13590395078063, 868.69], [-122.16929267160594, 46.13588358275592, 868.69], [-122.16924279928207, 46.13571762107313, 868.21], [-122.16921145096421, 46.135646626353264, 867.73], [-122.1690361853689, 46.13549072295427, 865.8], [-122.16907700523734, 46.13542936742306, 865.8], [-122.16915504075587, 46.13526877015829, 864.36], [-122.16924003325403, 46.1351128667593, 862.92], [-122.16928470879793, 46.13484741188586, 861.0], [-122.16934262774885, 46.13475571386516, 859.08], [-122.16947573237121, 46.13471103832126, 858.59], [-122.16974303126335, 46.13414735533297, 858.11], [-122.16987236402929, 46.133996648713946, 858.11], [-122.16993330046535, 46.133941914886236, 858.11], [-122.1701741963625, 46.1336830817163, 858.11], [-122.1702104061842, 46.1336503084749, 858.11], [-122.17031526379287, 46.13343673758209, 858.11], [-122.17045834288001, 46.13324537873268, 858.11], [-122.17069244943559, 46.133131217211485, 856.67], [-122.17078397981822, 46.13308067433536, 857.15], [-122.17090585269034, 46.133052594959736, 857.63], [-122.17106929980218, 46.132974391803145, 851.87], [-122.1711274702102, 46.132938181981444, 849.94], [-122.17133190482855, 46.13290674984455, 845.62], [-122.17161688953638, 46.132798958569765, 843.21], [-122.1718492358923, 46.13277280703187, 842.25], [-122.1718836016953, 46.132796946913004, 842.25], [-122.17203481122851, 46.132823433727026, 842.73], [-122.17211997136474, 46.13265520893037, 843.69], [-122.17208099551499, 46.132532665506005, 841.29], [-122.1719713602215, 46.13235647790134, 842.25], [-122.17193800024688, 46.13214340992272, 844.18], [-122.17178964056075, 46.13191785290837, 843.21], [-122.17156332917511, 46.13177049905062, 840.81], [-122.17154488898814, 46.13152038305998, 836.48], [-122.17158772051334, 46.131483586505055, 834.08], [-122.17167237773538, 46.1313481349498, 829.76], [-122.17167916707695, 46.13132114522159, 829.76], [-122.17177916318178, 46.13117504864931, 824.47], [-122.17179416678846, 46.13102350383997, 822.55], [-122.17174027115107, 46.130963237956166, 823.99], [-122.1716922428459, 46.13092937506735, 824.95], [-122.17163960449398, 46.130868857726455, 825.43], [-122.17151563614607, 46.13079383969307, 829.27], [-122.17138705775142, 46.130749164149165, 830.24], [-122.17136509716511, 46.13070289604366, 828.31], [-122.17141153290868, 46.13065109588206, 826.39], [-122.17149803414941, 46.13061354495585, 823.99], [-122.17159132473171, 46.130555123090744, 821.1], [-122.17160976491868, 46.130564510822296, 820.14]]}}