{"type": "Feature", "properties": {}, "geometry": {"type": "LineString", "coordinates": [[-122.340494, 41.372697, 1374.5], [-122.340686, 41.372738, 1382.2], [-122.340887, 41.37248, 1386.4], [-122.340962, 41.372479, 1387.3], [-122.341351, 41.372708, 1392.3], [-122.341532, 41.372702, 1394.0], [-122.341817, 41.372583, 1397.1], [-122.342029, 41.372674, 1399.6], [-122.34229, 41.372647, 1402.4], [-122.342534, 41.372672, 1404.8], [-122.342785, 41.372561, 1407.7], [-122.34339, 41.372579, 1413.6], [-122.343584, 41.372679, 1416.1], [-122.34397, 41.372665, 1420.0], [-122.344164, 41.372612, 1422.3], [-122.344344, 41.372491, 1424.8], [-122.344576, 41.372413, 1427.4], [-122.34493, 41.372434, 1431.3], [-122.34559, 41.372653, 1439.5], [-122.345838, 41.372715, 1442.0], [-122.346038, 41.372827, 1444.7], [-122.346264, 41.372872, 1447.3], [-122.346645, 41.373002, 1452.1], [-122.346841, 41.373136, 1455.1], [-122.347041, 41.373384, 1458.8], [-122.347766, 41.37364, 1467.3], [-122.348265, 41.373705, 1472.7], [-122.348768, 41.37369, 1478.3], [-122.349239, 41.373782, 1482.9], [-122.349442, 41.373856, 1485.5], [-122.349949, 41.373977, 1491.9], [-122.350232, 41.373934, 1494.5], [-122.350711, 41.373974, 1499.2], [-122.350933, 41.374026, 1502.1], [-122.351367, 41.374016, 1506.9], [-122.351582, 41.374057, 1509.5], [-122.351866, 41.374016, 1513.1], [-122.352392, 41.374003, 1519.8], [-122.352923, 41.373896, 1526.6], [-122.353419, 41.373863, 1533.0], [-122.353699, 41.373776, 1536.7], [-122.353832, 41.373787, 1538.3], [-122.354169, 41.373727, 1542.8], [-122.3544, 41.373619, 1546.3], [-122.354557, 41.373594, 1548.3], [-122.355062, 41.373351, 1556.0], [-122.355337, 41.373162, 1560.7], [-122.355649, 41.373049, 1564.9], [-122.355858, 41.373009, 1567.4], [-122.356081, 41.372799, 1571.3], [-122.356329, 41.372626, 1575.2], [-122.356586, 41.372281, 1581.7], [-122.356693, 41.372219, 1583.3], [-122.356733, 41.372028, 1586.2], [-122.357085, 41.37166, 1594.3], [-122.357163, 41.371523, 1596.8], [-122.357156, 41.371311, 1599.8], [-122.357272, 41.37123, 1601.6], [-122.357385, 41.371014, 1605.6], [-122.357482, 41.370724, 1610.8], [-122.357481, 41.370414, 1615.8], [-122.357524, 41.37032, 1617.3], [-122.35746, 41.370099, 1621.1], [-122.357492, 41.370048, 1622.1], [-122.357399, 41.369801, 1626.6], [-122.357422, 41.369613, 1629.7], [-122.357371, 41.369363, 1634.0], [-122.357412, 41.369285, 1635.4], [-122.357418, 41.369018, 1639.7], [-122.357374, 41.368822, 1643.1], [-122.357381, 41.368609, 1646.7], [-122.357312, 41.368387, 1650.5], [-122.357224, 41.368267, 1652.6], [-122.356872, 41.367958, 1655.3], [-122.356772, 41.367985, 1656.3], [-122.356646, 41.368206, 1660.2], [-122.356352, 41.368371, 1664.5], [-122.356251, 41.368522, 1666.9], [-122.356075, 41.368571, 1669.0], [-122.355919, 41.368825, 1672.2], [-122.355423, 41.369203, 1679.8], [-122.355373, 41.369314, 1681.5], [-122.35519, 41.369477, 1684.4], [-122.354678, 41.369731, 1691.1], [-122.354512, 41.369858, 1693.5], [-122.353835, 41.370051, 1699.7], [-122.35348, 41.370117, 1703.4], [-122.353175, 41.370221, 1706.2], [-122.353047, 41.370297, 1707.7], [-122.352852, 41.370322, 1709.3], [-122.352676, 41.37042, 1711.5], [-122.352258, 41.370496, 1716.3], [-122.351946, 41.370529, 1719.3], [-122.351772, 41.370639, 1721.9], [-122.351574, 41.370663, 1724.1], [-122.351001, 41.370604, 1729.6], [-122.350606, 41.370504, 1732.1], [-122.350409, 41.370486, 1732.8], [-122.349665, 41.37016, 1734.8], [-122.349185, 41.369889, 1738.2], [-122.348616, 41.369419, 1744.0], [-122.348643, 41.369176, 1747.1], [-122.348544, 41.369053, 1748.9], [-122.348149, 41.368867, 1753.9], [-122.347789, 41.368732, 1758.6], [-122.347643, 41.368535, 1762.5], [-122.347269, 41.368228, 1769.1], [-122.347236, 41.368102, 1770.9], [-122.347048, 41.367938, 1774.2], [-122.346809, 41.367672, 1778.5], [-122.346792, 41.367564, 1780.4], [-122.346462, 41.367034, 1789.8], [-122.346235, 41.366763, 1795.5], [-122.346203, 41.366652, 1806.2], [-122.346503, 41.366776, 1809.6], [-122.346824, 41.366958, 1813.6], [-122.34707, 41.367187, 1818.5], [-122.347201, 41.367215, 1820.4], [-122.347383, 41.367402, 1824.1], [-122.347741, 41.367679, 1830.1], [-122.348064, 41.367828, 1834.3], [-122.348229, 41.367845, 1836.3], [-122.348419, 41.367938, 1838.4], [-122.348885, 41.367969, 1842.2], [-122.349437, 41.367758, 1850.5], [-122.349552, 41.367517, 1856.3], [-122.349559, 41.367353, 1859.4], [-122.349475, 41.367268, 1861.3], [-122.349462, 41.366926, 1866.8], [-122.349284, 41.366699, 1871.2], [-122.349081, 41.366577, 1874.9], [-122.349285, 41.366876, 1881.5], [-122.349241, 41.367259, 1887.7], [-122.349119, 41.367341, 1889.8], [-122.348918, 41.367385, 1892.8], [-122.34908, 41.367118, 1898.4], [-122.348959, 41.366967, 1903.1], [-122.348832, 41.367001, 1908.5], [-122.348633, 41.366844, 1916.7], [-122.348421, 41.366753, 1916.9], [-122.348363, 41.366619, 1917.0], [-122.348161, 41.366536, 1916.7], [-122.348331, 41.366725, 1917.1], [-122.348499, 41.366759, 1916.6], [-122.348511, 41.366874, 1916.2], [-122.348643, 41.366923, 1915.4], [-122.348619, 41.36711, 1914.8], [-122.348927, 41.367016, 1909.1], [-122.34907, 41.367063, 1903.6], [-122.349119, 41.367148, 1901.5], [-122.348894, 41.367301, 1896.9], [-122.348913, 41.367363, 1895.4], [-122.349084, 41.367357, 1892.9], [-122.349188, 41.367264, 1890.6], [-122.34925, 41.366942, 1885.2], [-122.34913, 41.36674, 1881.4], [-122.349124, 41.366618, 1879.1], [-122.34921, 41.366663, 1877.3], [-122.349421, 41.366915, 1871.6], [-122.349498, 41.367063, 1868.7], [-122.349488, 41.367312, 1865.0], [-122.34956, 41.367396, 1863.3], [-122.349445, 41.367667, 1858.0], [-122.349214, 41.367894, 1849.7], [-122.348871, 41.367973, 1844.6], [-122.348671, 41.367964, 1842.4], [-122.348396, 41.367883, 1840.2], [-122.348066, 41.36774, 1836.8], [-122.347691, 41.367647, 1831.8], [-122.347558, 41.367415, 1828.3], [-122.347363, 41.367273, 1824.9], [-122.347051, 41.367153, 1820.7], [-122.34682, 41.366922, 1815.6], [-122.346337, 41.366669, 1809.3], [-122.346188, 41.366633, 1807.7], [-122.346074, 41.366462, 1805.1], [-122.346115, 41.36667, 1801.4], [-122.346393, 41.366938, 1794.5], [-122.346462, 41.3671, 1790.4], [-122.346671, 41.36725, 1786.8], [-122.346707, 41.367489, 1783.0], [-122.346812, 41.367559, 1780.7], [-122.346913, 41.367809, 1776.6], [-122.347146, 41.367986, 1773.0], [-122.347525, 41.368515, 1763.6], [-122.347893, 41.368801, 1756.6], [-122.348077, 41.368861, 1754.5], [-122.348547, 41.369083, 1749.0], [-122.348606, 41.369279, 1746.5], [-122.348808, 41.369261, 1743.2], [-122.348689, 41.369467, 1740.9], [-122.348907, 41.36971, 1738.8], [-122.349175, 41.369939, 1736.2], [-122.349303, 41.370105, 1735.0], [-122.34964, 41.370306, 1733.9], [-122.350332, 41.370492, 1732.2], [-122.350655, 41.370486, 1730.9], [-122.351051, 41.37066, 1727.0], [-122.351196, 41.370657, 1725.7], [-122.351539, 41.370728, 1722.2], [-122.351802, 41.370705, 1719.2], [-122.351911, 41.370607, 1717.7], [-122.352119, 41.370533, 1715.6], [-122.35259, 41.370501, 1710.5], [-122.353442, 41.370145, 1702.4], [-122.353769, 41.370091, 1699.3], [-122.354203, 41.369964, 1695.8], [-122.354488, 41.369915, 1693.1], [-122.354725, 41.369799, 1690.3], [-122.354829, 41.369654, 1688.1], [-122.355328, 41.36944, 1682.2], [-122.355423, 41.369261, 1679.6], [-122.355722, 41.368988, 1674.3], [-122.356016, 41.368765, 1670.7], [-122.356096, 41.368635, 1669.1], [-122.356259, 41.36855, 1667.3], [-122.356341, 41.368355, 1664.2], [-122.356657, 41.36823, 1660.3], [-122.356798, 41.367943, 1655.7], [-122.356882, 41.367948, 1655.1], [-122.357014, 41.368084, 1654.2], [-122.357147, 41.368324, 1652.2], [-122.357158, 41.368585, 1648.0], [-122.357251, 41.368973, 1641.4], [-122.357275, 41.36933, 1635.6], [-122.357439, 41.369848, 1626.7], [-122.357435, 41.369984, 1624.4], [-122.357502, 41.370335, 1618.3], [-122.357372, 41.370698, 1612.4], [-122.357287, 41.371313, 1601.7], [-122.357188, 41.371394, 1600.1], [-122.357051, 41.371773, 1594.0], [-122.356752, 41.372064, 1587.4], [-122.356615, 41.372356, 1582.6], [-122.35645, 41.372466, 1579.9], [-122.356294, 41.37271, 1575.4], [-122.355896, 41.372999, 1569.3], [-122.35554, 41.373042, 1565.2], [-122.355267, 41.373263, 1560.4], [-122.354872, 41.373414, 1554.8], [-122.354637, 41.373438, 1551.8], [-122.354192, 41.373581, 1545.6], [-122.354007, 41.373717, 1542.2], [-122.35375, 41.373777, 1538.8], [-122.353235, 41.373818, 1532.4], [-122.352934, 41.373808, 1528.5], [-122.352524, 41.373844, 1521.8], [-122.352259, 41.373922, 1517.8], [-122.351964, 41.373921, 1514.3], [-122.35171, 41.373994, 1510.8], [-122.351125, 41.374013, 1504.0], [-122.35034, 41.373869, 1495.0], [-122.349964, 41.373889, 1491.4], [-122.349695, 41.373855, 1487.9], [-122.349408, 41.373877, 1484.6], [-122.348979, 41.373758, 1479.9], [-122.348751, 41.373671, 1477.1], [-122.348287, 41.373621, 1471.7], [-122.347716, 41.3735, 1465.2], [-122.347137, 41.373312, 1458.2], [-122.346784, 41.373028, 1452.8], [-122.346533, 41.372896, 1449.0], [-122.346134, 41.372808, 1444.2], [-122.345268, 41.372454, 1433.2], [-122.34516, 41.372432, 1431.8], [-122.344587, 41.372445, 1425.4], [-122.344372, 41.37249, 1423.0], [-122.344081, 41.372682, 1416.7], [-122.343741, 41.372641, 1412.1], [-122.343493, 41.372714, 1409.3], [-122.343353, 41.372663, 1407.8], [-122.343152, 41.372662, 1405.4], [-122.343037, 41.372473, 1408.9], [-122.34306, 41.372312, 1413.9], [-122.342896, 41.372128, 1421.4], [-122.342621, 41.371887, 1424.3], [-122.342386, 41.37195, 1416.0], [-122.342028, 41.372163, 1404.0]]}}