{"type": "Feature", "properties": {}, "geometry": {"type": "LineString", "coordinates": [[-121.72979378141463, 46.80355506017804, 2106.87], [-121.72980451025069, 46.80354801937938, 2108.79], [-121.72978623770177, 46.803540559485555, 2108.79], [-121.72980668954551, 46.8035398889333, 2107.83], [-121.72978883609176, 46.80355950258672, 2107.35], [-121.72975488938391, 46.8035435769707, 2106.39], [-121.72973762266338, 46.80353159084916, 2106.87], [-121.72973779030144, 46.80354768410325, 2108.79], [-121.72978917136788, 46.80354776792228, 2108.31], [-121.72978933900595, 46.80355313234031, 2107.35], [-121.72974843531847, 46.803542990237474, 2106.39], [-121.72968657687306, 46.803554808720946, 2106.87], [-121.729681128636, 46.80357257835567, 2105.91], [-121.72964089550078, 46.80357157252729, 2105.91], [-121.72953687608242, 46.80362245067954, 2105.42], [-121.72942933626473, 46.803686739876866, 2104.46], [-121.7292963154614, 46.80376519449055, 2103.98], [-121.72919791191816, 46.80381347425282, 2103.5], [-121.72916614450514, 46.80394406430423, 2104.46], [-121.7291596904397, 46.8040288053453, 2105.42], [-121.72913127578795, 46.804086808115244, 2105.42], [-121.72908877953887, 46.80410952307284, 2105.42], [-121.72896321862936, 46.80415688082576, 2105.91], [-121.72885400243104, 46.804239274933934, 2106.39], [-121.72878937795758, 46.80426609702408, 2107.35], [-121.72879415564239, 46.80429928936064, 2108.79], [-121.72878066077828, 46.80431429296732, 2109.27], [-121.72875987365842, 46.80437061935663, 2110.71], [-121.72868728637695, 46.80440632626414, 2113.12], [-121.72865007072687, 46.804447984322906, 2114.08], [-121.72858720645308, 46.8045121897012, 2115.04], [-121.72852207906544, 46.80455267429352, 2116.0], [-121.72847220674157, 46.80460128933191, 2118.88], [-121.72842652536929, 46.804635571315885, 2122.25], [-121.72840381041169, 46.804673206061125, 2125.13], [-121.7283618170768, 46.80468812584877, 2128.5], [-121.72831915318966, 46.80472869426012, 2131.38], [-121.7282701190561, 46.80477169342339, 2133.3], [-121.72825151123106, 46.804795917123556, 2135.23], [-121.72824136912823, 46.804829025641084, 2136.19], [-121.72818613238633, 46.804953748360276, 2139.55], [-121.72814673744142, 46.80502608418465, 2139.55], [-121.72805755399168, 46.80515918880701, 2140.51], [-121.72797339968383, 46.805241499096155, 2140.99], [-121.72787407413125, 46.805324982851744, 2142.92], [-121.72783954069018, 46.80536823347211, 2143.4], [-121.72775957733393, 46.80544048547745, 2143.88], [-121.72773879021406, 46.805486334487796, 2145.8], [-121.72776376828551, 46.80551734752953, 2145.8], [-121.72781221568584, 46.805535200983286, 2146.76], [-121.72779318876565, 46.80555548518896, 2145.32], [-121.72771196812391, 46.80561709217727, 2146.28], [-121.72767961397767, 46.80563108995557, 2146.28], [-121.7275639437139, 46.80572387762368, 2146.76], [-121.72748532146215, 46.80578070692718, 2148.2], [-121.72741499729455, 46.805850863456726, 2147.72], [-121.72733335755765, 46.805915823206306, 2147.72], [-121.72722925432026, 46.805985225364566, 2150.13], [-121.72712380997837, 46.806016992777586, 2152.05], [-121.72688283026218, 46.806153785437346, 2156.37], [-121.7267940659076, 46.80620474740863, 2157.34], [-121.72669775784016, 46.806272557005286, 2159.26], [-121.7266090773046, 46.806328631937504, 2160.22], [-121.72651855275035, 46.806393256410956, 2161.66], [-121.72642392106354, 46.80647841654718, 2163.58], [-121.72630322165787, 46.80653256364167, 2165.51], [-121.72620750032365, 46.806602301076055, 2167.43], [-121.72611739486456, 46.80665913037956, 2168.39], [-121.72603349201381, 46.806713193655014, 2169.35], [-121.72595025971532, 46.80677496828139, 2170.79], [-121.72586342319846, 46.80682643316686, 2171.76], [-121.72576610930264, 46.80689097382128, 2172.24], [-121.72564172185957, 46.806986443698406, 2173.2], [-121.72560257837176, 46.807012343779206, 2174.64], [-121.72557827085257, 46.807020641863346, 2176.56], [-121.72553736716509, 46.80704427883029, 2178.0], [-121.72546905465424, 46.80707914754748, 2178.97], [-121.72540124505758, 46.8071180395782, 2179.93], [-121.72535221092403, 46.807162296026945, 2182.33], [-121.72529621981084, 46.807209234684706, 2183.77], [-121.72521357424557, 46.80727008730173, 2185.69], [-121.72515171580017, 46.80733202956617, 2187.14], [-121.7250846605748, 46.80737653747201, 2189.06], [-121.72503386624157, 46.807424649596214, 2190.02], [-121.72497661784291, 46.807470582425594, 2191.46], [-121.72492926009, 46.80752548389137, 2193.39], [-121.72487804666162, 46.80756236426532, 2194.83], [-121.72483152709901, 46.80760636925697, 2196.27], [-121.72476824373007, 46.80765246972442, 2199.15], [-121.72470638528466, 46.8076825607568, 2201.08], [-121.72465274110436, 46.8077224586159, 2202.04], [-121.72459725290537, 46.80774542503059, 2203.48], [-121.72458040528, 46.80775481276214, 2203.48], [-121.72451980412006, 46.807807283475995, 2204.92], [-121.72446062788367, 46.8078538030386, 2205.88], [-121.72438770532608, 46.80790292099118, 2206.36], [-121.72432743944228, 46.807945501059294, 2207.81], [-121.72426449134946, 46.80798782967031, 2208.77], [-121.72419106587768, 46.80802554823458, 2210.69], [-121.72416910529137, 46.80804600007832, 2210.69], [-121.72408151440322, 46.808082377538085, 2212.61], [-121.72407145611942, 46.80811766535044, 2214.05], [-121.72401504591107, 46.808135602623224, 2215.5], [-121.72388345003128, 46.8082145601511, 2219.34], [-121.72383978031576, 46.80824683047831, 2220.78], [-121.72373785637319, 46.80831413716078, 2224.63], [-121.72367096878588, 46.80834800004959, 2226.07], [-121.72358849085867, 46.80838613770902, 2226.55], [-121.72353576868773, 46.80840658955276, 2226.55], [-121.72348782420158, 46.808421425521374, 2228.47], [-121.72342236153781, 46.808471381664276, 2230.88], [-121.72336368821561, 46.80852125398815, 2234.24], [-121.72330811619759, 46.808557882905006, 2236.64], [-121.72325866296887, 46.80858260951936, 2238.57], [-121.72320367768407, 46.80863172747195, 2242.41], [-121.72313930466771, 46.808678498491645, 2244.82], [-121.72311717644334, 46.80869149044156, 2245.3], [-121.72303436324, 46.808708254247904, 2244.82], [-121.72298289835453, 46.80873390287161, 2244.82], [-121.72291668131948, 46.808711271733046, 2244.82], [-121.72287879511714, 46.80869341827929, 2244.33], [-121.72286530025303, 46.80865268222988, 2243.85], [-121.7228358797729, 46.808593003079295, 2243.37], [-121.72282783314586, 46.808586632832885, 2244.82], [-121.72282724641263, 46.80860021151602, 2246.26], [-121.72284862026572, 46.80857774801552, 2248.66], [-121.72284157946706, 46.80857255123556, 2251.06], [-121.72286764718592, 46.8086117785424, 2251.54], [-121.72292724251747, 46.80865100584924, 2250.58], [-121.72294643707573, 46.8086963519454, 2250.58], [-121.72296420671046, 46.8087153788656, 2250.1], [-121.7229968123138, 46.80871940217912, 2250.1], [-121.72308205626905, 46.80870381183922, 2248.18], [-121.72315246425569, 46.80868411436677, 2246.26], [-121.72316906042397, 46.808669278398156, 2246.26], [-121.72324826940894, 46.8085753172636, 2243.85], [-121.72329294495285, 46.80854480713606, 2243.37], [-121.72338129021227, 46.808477165177464, 2241.45], [-121.72346401959658, 46.80842695757747, 2238.09], [-121.72354616224766, 46.80836979299784, 2235.2], [-121.7236506845802, 46.80830692872405, 2231.36], [-121.72370650805533, 46.808296451345086, 2227.03], [-121.72377825714648, 46.80826770141721, 2225.59], [-121.7239028122276, 46.8082060944289, 2222.71], [-121.72411730512977, 46.80812864564359, 2218.38], [-121.72429030761123, 46.80803426541388, 2215.01], [-121.72440639697015, 46.80794533342123, 2211.65], [-121.724554002285, 46.80781826376915, 2207.81], [-121.72465374693274, 46.80773662403226, 2204.92], [-121.72468652017415, 46.80771365761757, 2204.44], [-121.72483521513641, 46.80769848637283, 2203.48], [-121.72484963200986, 46.80769597180188, 2202.52], [-121.72485784627497, 46.807685075327754, 2203.0], [-121.72486497089267, 46.80769412778318, 2203.0], [-121.72499841079116, 46.807586839422584, 2200.59], [-121.72536151483655, 46.80725768208504, 2188.58], [-121.72537836246192, 46.80722423829138, 2186.66], [-121.72547693364322, 46.807128516957164, 2182.33], [-121.72561263665557, 46.806986862793565, 2178.97], [-121.72581958584487, 46.80679106153548, 2173.2], [-121.72606660053134, 46.80658310651779, 2171.27], [-121.72626432962716, 46.80641823448241, 2168.87], [-121.72643691301346, 46.80625922977924, 2165.03], [-121.72662952914834, 46.806085892021656, 2163.1], [-121.726792473346, 46.805978436023, 2161.66], [-121.72680085524917, 46.805958822369576, 2161.66], [-121.72682650387287, 46.80597516708076, 2161.66], [-121.72708198428154, 46.805939208716154, 2161.18], [-121.72713537700474, 46.80590618401766, 2160.22], [-121.72718005254865, 46.80590786039829, 2157.82], [-121.72720251604915, 46.80584507994354, 2157.34], [-121.72717343084514, 46.80581289343536, 2157.34], [-121.72715255990624, 46.80579344742, 2157.34], [-121.72715549357235, 46.80578079074621, 2159.74], [-121.72719019465148, 46.80578112602234, 2157.82], [-121.72719505615532, 46.80579344742, 2157.34], [-121.72721810638905, 46.80579923093319, 2158.78], [-121.72726177610457, 46.80580300278962, 2158.3], [-121.72724417410791, 46.80579587817192, 2157.82], [-121.72723587602377, 46.80580912157893, 2159.74], [-121.72729270532727, 46.80584424175322, 2158.78], [-121.72733075916767, 46.80584114044905, 2156.37], [-121.72734936699271, 46.80581783875823, 2155.89], [-121.72736269421875, 46.805814150720835, 2155.89], [-121.72742899507284, 46.80577542632818, 2153.01], [-121.72743955627084, 46.80579839274287, 2152.53], [-121.72746520489454, 46.80575153790414, 2152.53], [-121.72753795981407, 46.80567400529981, 2152.05], [-121.72768263146281, 46.80555841885507, 2150.61], [-121.72782990150154, 46.80543478578329, 2148.68], [-121.72794414684176, 46.805325066670775, 2146.28], [-121.72795102000237, 46.80531391873956, 2146.28], [-121.72798144631088, 46.80524711497128, 2145.32], [-121.72802243381739, 46.80509615689516, 2141.47], [-121.72802419401705, 46.805085092782974, 2140.99], [-121.72802620567381, 46.80500579997897, 2138.59], [-121.7280594818294, 46.80490111000836, 2135.23], [-121.72804472967982, 46.80490798316896, 2133.3], [-121.72803458757699, 46.80489524267614, 2132.34], [-121.72783015295863, 46.8046694342047, 2118.4], [-121.72782143577933, 46.80464110337198, 2112.63], [-121.7278475034982, 46.80459684692323, 2111.67], [-121.72783275134861, 46.8045174703002, 2110.23], [-121.72781540080905, 46.80448913946748, 2109.27], [-121.72776896506548, 46.804493917152286, 2108.79], [-121.72777751460671, 46.804450834169984, 2106.87], [-121.72774423845112, 46.80449701845646, 2106.87], [-121.72764122486115, 46.80467681027949, 2109.75], [-121.72752966172993, 46.80481511168182, 2113.12], [-121.72754466533661, 46.80484503507614, 2116.96], [-121.72723629511893, 46.8046382535249, 2106.87], [-121.72695902176201, 46.80449467152357, 2093.41], [-121.7268316168338, 46.804390819743276, 2084.76], [-121.72661829739809, 46.80421899072826, 2077.55], [-121.7265126015991, 46.80401145480573, 2065.53], [-121.72652249224484, 46.80394599214196, 2061.2], [-121.72656632959843, 46.80375488474965, 2052.55], [-121.72654621303082, 46.803760416805744, 2045.82], [-121.72647806815803, 46.803766367956996, 2044.86], [-121.72642677091062, 46.8037642724812, 2044.86], [-121.72637740150094, 46.80377156473696, 2045.34], [-121.72632375732064, 46.803759913891554, 2045.34], [-121.72616072930396, 46.803802493959665, 2047.75], [-121.72604623250663, 46.80381339043379, 2050.63], [-121.72603634186089, 46.80380718782544, 2052.07], [-121.72608663327992, 46.80346269160509, 2037.17], [-121.72608386725187, 46.80338582955301, 2033.33], [-121.72599744983017, 46.80308307521045, 2016.02], [-121.72600817866623, 46.80301937274635, 2014.1], [-121.7260638345033, 46.80287830531597, 2012.18], [-121.72607079148293, 46.802857518196106, 2011.7], [-121.72608755528927, 46.80284360423684, 2012.18], [-121.72609987668693, 46.80280202999711, 2012.66], [-121.7261167243123, 46.8027869425714, 2013.14], [-121.72615461051464, 46.802673786878586, 2014.1], [-121.72616232186556, 46.80266708135605, 2014.1], [-121.72618914395571, 46.80263062007725, 2014.1], [-121.7261999566108, 46.80258988402784, 2010.25], [-121.72632182948291, 46.80245719850063, 2009.29], [-121.72640288248658, 46.80240045301616, 2008.81], [-121.7264193110168, 46.802381090819836, 2008.33], [-121.72644219361246, 46.80236172862351, 2007.37], [-121.72631026245654, 46.802056124433875, 1993.91], [-121.72630506567657, 46.801898293197155, 1985.74], [-121.72631805762649, 46.8018857203424, 1984.78], [-121.72630556859076, 46.80188085883856, 1991.03], [-121.72629517503083, 46.80186920799315, 1988.14], [-121.72629819251597, 46.80189066566527, 1988.14], [-121.72628922387958, 46.8018751591444, 1988.62], [-121.72626147978008, 46.80185806006193, 1988.14], [-121.72628972679377, 46.801862083375454, 1986.22], [-121.72634303569794, 46.80174029432237, 1985.74], [-121.72637932933867, 46.80168631486595, 1986.7], [-121.72640422359109, 46.801544493064284, 1987.18], [-121.72640724107623, 46.80147257633507, 1989.1], [-121.72639735043049, 46.80145430378616, 1988.62], [-121.72636759467423, 46.80135866627097, 1988.62], [-121.72634018585086, 46.80133477784693, 1989.1], [-121.72639810480177, 46.80128725245595, 1988.62], [-121.72640288248658, 46.801291946321726, 1989.59], [-121.72629869543016, 46.801341315731406, 1989.1], [-121.72609853558242, 46.8013658747077, 1989.59], [-121.72610901296139, 46.801389176398516, 1990.07], [-121.72610658220947, 46.801408203318715, 1984.3], [-121.72608671709895, 46.80142178200185, 1966.51], [-121.7260966077447, 46.8013933673501, 1989.1], [-121.72609090805054, 46.801395546644926, 1989.59], [-121.72584037296474, 46.801138473674655, 1981.9], [-121.72585738822818, 46.80106529965997, 1979.01], [-121.72578295692801, 46.800644025206566, 1958.82], [-121.7256801109761, 46.80037312209606, 1941.04], [-121.72565228305757, 46.80024169385433, 1925.18], [-121.72566041350365, 46.80020875297487, 1913.16], [-121.7256301548332, 46.80018922314048, 1909.32], [-121.72561263665557, 46.800077240914106, 1902.11], [-121.72567592002451, 46.79994044825435, 1894.42], [-121.72594640403986, 46.79961179383099, 1880.0], [-121.72636214643717, 46.7993832193315, 1867.98], [-121.72661854885519, 46.79923175834119, 1859.33], [-121.72681845724583, 46.799133103340864, 1854.52], [-121.72715733759105, 46.798922549933195, 1842.98], [-121.72717234119773, 46.798931770026684, 1842.98], [-121.72721651382744, 46.79888566955924, 1842.5], [-121.72734014689922, 46.79879087023437, 1839.14], [-121.72734928317368, 46.79881350137293, 1838.66], [-121.72733277082443, 46.79881484247744, 1838.18], [-121.72725071199238, 46.79877016693354, 1838.66], [-121.72723176889122, 46.79875407367945, 1837.7], [-121.72712070867419, 46.79870202206075, 1836.74], [-121.7270755302161, 46.798665476962924, 1836.74], [-121.72701585106552, 46.79862951859832, 1836.74], [-121.72696908004582, 46.7986046243459, 1834.33], [-121.72688081860542, 46.79857553914189, 1833.37], [-121.72689573839307, 46.79855525493622, 1835.29], [-121.72692180611193, 46.79855047725141, 1837.22], [-121.72687562182546, 46.79856564849615, 1835.29], [-121.7269132565707, 46.798564894124866, 1834.81], [-121.72692951746285, 46.79855349473655, 1834.81], [-121.72691912390292, 46.79854804649949, 1834.81], [-121.72694544307888, 46.79853614419699, 1834.33], [-121.72699481248856, 46.79852030239999, 1835.77], [-121.72698576003313, 46.798506723716855, 1837.22], [-121.72700503841043, 46.79851384833455, 1838.66], [-121.72696329653263, 46.798539496958256, 1835.77], [-121.72697226516902, 46.798522900789976, 1836.26], [-121.72697980888188, 46.79849800653756, 1835.77], [-121.72702632844448, 46.79845073260367, 1834.81], [-121.72709598205984, 46.79833791218698, 1831.93], [-121.7271445132792, 46.798282004892826, 1830.97], [-121.72719245776534, 46.798209669068456, 1829.05], [-121.72724140807986, 46.79806658998132, 1826.16], [-121.7272861674428, 46.797980424016714, 1825.2], [-121.7273382190615, 46.79784698411822, 1824.24], [-121.72737895511091, 46.79778177291155, 1824.24], [-121.72739529982209, 46.79775117896497, 1823.76], [-121.727395048365, 46.79773357696831, 1823.76], [-121.72747123986483, 46.79762067273259, 1822.8], [-121.72754868865013, 46.79749494418502, 1819.43], [-121.72757618129253, 46.797358486801386, 1818.95], [-121.7276035901159, 46.797271901741624, 1817.99], [-121.72766192816198, 46.79718623869121, 1817.99], [-121.72770182602108, 46.79705807939172, 1816.55], [-121.72777466475964, 46.796917766332626, 1814.15], [-121.72784423455596, 46.79682346992195, 1814.63], [-121.72791891731322, 46.796753564849496, 1814.63], [-121.72797800973058, 46.796692460775375, 1814.15], [-121.72799938358366, 46.79662716574967, 1810.78], [-121.72795663587749, 46.796561451628804, 1809.34], [-121.72795563004911, 46.79653102532029, 1807.9], [-121.72793425619602, 46.79646589793265, 1805.49], [-121.72797608189285, 46.79643773473799, 1805.01], [-121.72817381098866, 46.7963991779834, 1803.57], [-121.72820976935327, 46.796386102214456, 1803.57], [-121.72825008630753, 46.79635064676404, 1804.05], [-121.72838838770986, 46.796266324818134, 1803.09], [-121.72844471409917, 46.796257104724646, 1801.65], [-121.728370282799, 46.79626129567623, 1803.57], [-121.72848084010184, 46.79623296484351, 1801.65], [-121.72880756668746, 46.796033224090934, 1790.11], [-121.72906044870615, 46.79588444530964, 1780.5], [-121.7295310087502, 46.79584429599345, 1763.2], [-121.72955883666873, 46.79579559713602, 1759.83], [-121.72956042923033, 46.79566903039813, 1759.83], [-121.72950594685972, 46.79560356773436, 1759.35], [-121.72947267070413, 46.7955447267741, 1762.71], [-121.72940854914486, 46.79543634876609, 1764.16], [-121.72938541509211, 46.795407850295305, 1764.64], [-121.72934979200363, 46.795345824211836, 1765.6], [-121.7292204592377, 46.795218754559755, 1768.48], [-121.72910520806909, 46.79509595967829, 1772.33], [-121.72903505153954, 46.79502932354808, 1774.73], [-121.72897662967443, 46.79494081065059, 1777.61], [-121.7289435211569, 46.794903595000505, 1778.58], [-121.72890010289848, 46.79482824169099, 1780.5], [-121.72890194691718, 46.79475490003824, 1780.98], [-121.72889297828078, 46.794676361605525, 1781.94], [-121.72894285060465, 46.794514674693346, 1784.34], [-121.72898132354021, 46.79445239715278, 1785.31], [-121.72908240929246, 46.79450444877148, 1781.94], [-121.72915734350681, 46.794535126537085, 1780.02], [-121.72931936569512, 46.79452498443425, 1777.13], [-121.72945917584002, 46.79452020674944, 1773.77], [-121.72976008616388, 46.794468658044934, 1760.31], [-121.72976771369576, 46.794471088796854, 1758.87], [-121.7298024147749, 46.794326081871986, 1754.54], [-121.72981037758291, 46.79418518207967, 1754.06], [-121.72975237481296, 46.79399608634412, 1755.5], [-121.72971331514418, 46.793880416080356, 1756.47], [-121.72968448139727, 46.79383674636483, 1756.95], [-121.73019862733781, 46.79367036558688, 1746.37], [-121.73034380190074, 46.79360079579055, 1739.16], [-121.73041060566902, 46.793566681444645, 1739.16], [-121.73062308691442, 46.79350038059056, 1736.28], [-121.73069818876684, 46.793472887948155, 1735.32], [-121.7309156153351, 46.793381441384554, 1732.43], [-121.7311008553952, 46.79327264428139, 1730.99], [-121.731261536479, 46.793172312900424, 1730.51], [-121.73134753480554, 46.79311263374984, 1729.07], [-121.731459768489, 46.793068796396255, 1727.63], [-121.73151802271605, 46.79303099401295, 1725.7], [-121.73155691474676, 46.79300953634083, 1724.74], [-121.7315995786339, 46.79297382943332, 1724.74], [-121.7316167615354, 46.79295714944601, 1724.74], [-121.7317687254399, 46.79286243394017, 1723.3], [-121.73183578066528, 46.79280426353216, 1722.82], [-121.73184701241553, 46.79277777671814, 1722.34], [-121.73197651281953, 46.7926674708724, 1721.86], [-121.73200450837612, 46.7926450073719, 1721.38], [-121.73205421306193, 46.792585579678416, 1720.42], [-121.7320628464222, 46.792521458119154, 1718.01], [-121.73209964297712, 46.79241760633886, 1716.09], [-121.73222704790533, 46.792304115369916, 1713.69], [-121.73230491578579, 46.79217235185206, 1712.25], [-121.73231539316475, 46.79204201325774, 1708.88], [-121.73234699293971, 46.79194604046643, 1707.92], [-121.73240558244288, 46.791788041591644, 1705.04], [-121.73242913559079, 46.79175023920834, 1705.04], [-121.73243978060782, 46.79169315844774, 1706.0], [-121.7325840331614, 46.79158444516361, 1705.04], [-121.73268067650497, 46.791527615860105, 1703.59], [-121.73273264430463, 46.79146961309016, 1704.55], [-121.73279953189194, 46.79141630418599, 1707.92], [-121.73284739255905, 46.79131966084242, 1709.36], [-121.73286306671798, 46.79130608215928, 1709.84], [-121.73287069424987, 46.791288731619716, 1709.84], [-121.73291863873601, 46.7911134660244, 1707.44], [-121.73294252716005, 46.79106677882373, 1706.96], [-121.7329328879714, 46.79093367420137, 1704.55], [-121.73290480859578, 46.790785398334265, 1703.11], [-121.73284018412232, 46.79072848521173, 1702.15], [-121.73280674032867, 46.79055850021541, 1701.19], [-121.73277740366757, 46.79047183133662, 1700.23], [-121.73277195543051, 46.7903171852231, 1697.83], [-121.73274781554937, 46.79010244086385, 1693.02], [-121.73270079307258, 46.78989482112229, 1689.65], [-121.73265242949128, 46.78970731794834, 1685.81], [-121.73259283415973, 46.78948947228491, 1684.85], [-121.73248152248561, 46.78926416672766, 1682.93], [-121.73249065876007, 46.78905730135739, 1680.04], [-121.7324629984796, 46.788874827325344, 1679.08], [-121.73248873092234, 46.788699477910995, 1679.08], [-121.73253533430398, 46.78849479183555, 1676.68], [-121.73254740424454, 46.78846813738346, 1676.2], [-121.73275376670063, 46.78839102387428, 1673.31], [-121.73274538479745, 46.78831038996577, 1671.87], [-121.73274362459779, 46.78825372830033, 1670.43], [-121.73276315443218, 46.78812221623957, 1668.02], [-121.73275510780513, 46.78807226009667, 1667.06], [-121.7328065726906, 46.787971844896674, 1664.18], [-121.73278746195138, 46.787980226799846, 1659.37], [-121.73278293572366, 46.78796145133674, 1660.33], [-121.73281109891832, 46.78796145133674, 1664.18], [-121.73278922215104, 46.78794560953975, 1656.49], [-121.73279634676874, 46.78795684129, 1661.3], [-121.73279986716807, 46.78792431950569, 1662.74], [-121.73280741088092, 46.787930857390165, 1661.78], [-121.73280975781381, 46.787950387224555, 1660.81], [-121.73282149247825, 46.78791266866028, 1661.78], [-121.73284177668393, 46.7879275046289, 1664.18]]}}