<?xml version="1.0" encoding="UTF-8"?>
<gpx xmlns="http://www.topografix.com/GPX/1/1" xmlns:xsi="http://www.w3.org/2001/XMLSchema-instance" xsi:schemaLocation="http://www.topografix.com/GPX/1/1 http://www.topografix.com/GPX/1/1/gpx.xsd" version="1.1" creator="gpx.py -- https://github.com/tkrajina/gpxpy">
  <metadata>
    <name>Uphiller? I barely know her!</name>
    <desc>https://www.strava.com/activities/8815476907</desc>
    <time>2023-04-01T15:36:05Z</time>
  </metadata>
  <trk>
    <name>Uphiller? I barely know her!</name>
    <trkseg>
      <trkpt lat="39.305311" lon="-120.33266">
        <ele>2136.0</ele>
        <time>2023-04-01T15:36:05Z</time>
      </trkpt>
      <trkpt lat="39.305255" lon="-120.332757">
        <ele>2135.5</ele>
        <time>2023-04-01T15:39:44Z</time>
      </trkpt>
      <trkpt lat="39.305012" lon="-120.332707">
        <ele>2135.9</ele>
        <time>2023-04-01T15:45:20Z</time>
      </trkpt>
      <trkpt lat="39.305013" lon="-120.332609">
        <ele>2136.4</ele>
        <time>2023-04-01T15:46:42Z</time>
      </trkpt>
      <trkpt lat="39.304801" lon="-120.332787">
        <ele>2135.4</ele>
        <time>2023-04-01T15:47:11Z</time>
      </trkpt>
      <trkpt lat="39.304661" lon="-120.333013">
        <ele>2133.9</ele>
        <time>2023-04-01T15:47:23Z</time>
      </trkpt>
      <trkpt lat="39.304396" lon="-120.33372">
        <ele>2129.2</ele>
        <time>2023-04-01T15:47:56Z</time>
      </trkpt>
      <trkpt lat="39.304411" lon="-120.334084">
        <ele>2126.5</ele>
        <time>2023-04-01T15:48:06Z</time>
      </trkpt>
      <trkpt lat="39.304604" lon="-120.334372">
        <ele>2123.3</ele>
        <time>2023-04-01T15:48:27Z</time>
      </trkpt>
      <trkpt lat="39.305012" lon="-120.334711">
        <ele>2119.9</ele>
        <time>2023-04-01T15:48:56Z</time>
      </trkpt>
      <trkpt lat="39.305161" lon="-120.335022">
        <ele>2118.0</ele>
        <time>2023-04-01T15:49:16Z</time>
      </trkpt>
      <trkpt lat="39.305149" lon="-120.335154">
        <ele>2117.5</ele>
        <time>2023-04-01T15:49:25Z</time>
      </trkpt>
      <trkpt lat="39.304974" lon="-120.335311">
        <ele>2118.2</ele>
        <time>2023-04-01T15:49:34Z</time>
      </trkpt>
      <trkpt lat="39.304799" lon="-120.335616">
        <ele>2119.2</ele>
        <time>2023-04-01T15:49:47Z</time>
      </trkpt>
      <trkpt lat="39.304529" lon="-120.335821">
        <ele>2119.9</ele>
        <time>2023-04-01T15:50:04Z</time>
      </trkpt>
      <trkpt lat="39.304574" lon="-120.33622">
        <ele>2119.8</ele>
        <time>2023-04-01T15:50:29Z</time>
      </trkpt>
      <trkpt lat="39.304507" lon="-120.336431">
        <ele>2120.0</ele>
        <time>2023-04-01T15:50:38Z</time>
      </trkpt>
      <trkpt lat="39.304096" lon="-120.336538">
        <ele>2120.4</ele>
        <time>2023-04-01T15:51:15Z</time>
      </trkpt>
      <trkpt lat="39.303706" lon="-120.33681">
        <ele>2120.7</ele>
        <time>2023-04-01T15:51:49Z</time>
      </trkpt>
      <trkpt lat="39.303565" lon="-120.336971">
        <ele>2121.0</ele>
        <time>2023-04-01T15:52:04Z</time>
      </trkpt>
      <trkpt lat="39.30306" lon="-120.336902">
        <ele>2126.2</ele>
        <time>2023-04-01T15:53:00Z</time>
      </trkpt>
      <trkpt lat="39.302906" lon="-120.336941">
        <ele>2128.3</ele>
        <time>2023-04-01T15:53:15Z</time>
      </trkpt>
      <trkpt lat="39.302375" lon="-120.336868">
        <ele>2136.8</ele>
        <time>2023-04-01T15:54:08Z</time>
      </trkpt>
      <trkpt lat="39.301968" lon="-120.336696">
        <ele>2141.2</ele>
        <time>2023-04-01T15:54:52Z</time>
      </trkpt>
      <trkpt lat="39.30148" lon="-120.336398">
        <ele>2146.0</ele>
        <time>2023-04-01T15:55:44Z</time>
      </trkpt>
      <trkpt lat="39.300564" lon="-120.336106">
        <ele>2152.0</ele>
        <time>2023-04-01T15:57:08Z</time>
      </trkpt>
      <trkpt lat="39.299963" lon="-120.335787">
        <ele>2156.0</ele>
        <time>2023-04-01T15:57:59Z</time>
      </trkpt>
      <trkpt lat="39.299619" lon="-120.335692">
        <ele>2158.0</ele>
        <time>2023-04-01T15:58:27Z</time>
      </trkpt>
      <trkpt lat="39.299062" lon="-120.335271">
        <ele>2162.4</ele>
        <time>2023-04-01T15:59:18Z</time>
      </trkpt>
      <trkpt lat="39.298576" lon="-120.335102">
        <ele>2167.4</ele>
        <time>2023-04-01T16:00:01Z</time>
      </trkpt>
      <trkpt lat="39.298302" lon="-120.335094">
        <ele>2171.6</ele>
        <time>2023-04-01T16:00:26Z</time>
      </trkpt>
      <trkpt lat="39.29796" lon="-120.334844">
        <ele>2177.7</ele>
        <time>2023-04-01T16:01:07Z</time>
      </trkpt>
      <trkpt lat="39.297487" lon="-120.334752">
        <ele>2186.4</ele>
        <time>2023-04-01T16:01:58Z</time>
      </trkpt>
      <trkpt lat="39.297271" lon="-120.334628">
        <ele>2191.1</ele>
        <time>2023-04-01T16:02:27Z</time>
      </trkpt>
      <trkpt lat="39.29663" lon="-120.334396">
        <ele>2201.7</ele>
        <time>2023-04-01T16:03:41Z</time>
      </trkpt>
      <trkpt lat="39.296263" lon="-120.334003">
        <ele>2207.5</ele>
        <time>2023-04-01T16:04:35Z</time>
      </trkpt>
      <trkpt lat="39.295942" lon="-120.333486">
        <ele>2213.9</ele>
        <time>2023-04-01T16:05:27Z</time>
      </trkpt>
      <trkpt lat="39.295779" lon="-120.333299">
        <ele>2216.2</ele>
        <time>2023-04-01T16:05:52Z</time>
      </trkpt>
      <trkpt lat="39.295586" lon="-120.332885">
        <ele>2220.1</ele>
        <time>2023-04-01T16:06:28Z</time>
      </trkpt>
      <trkpt lat="39.295444" lon="-120.332746">
        <ele>2222.5</ele>
        <time>2023-04-01T16:06:44Z</time>
      </trkpt>
      <trkpt lat="39.295101" lon="-120.332077">
        <ele>2230.9</ele>
        <time>2023-04-01T16:07:41Z</time>
      </trkpt>
      <trkpt lat="39.294823" lon="-120.33168">
        <ele>2237.6</ele>
        <time>2023-04-01T16:08:20Z</time>
      </trkpt>
      <trkpt lat="39.294804" lon="-120.331365">
        <ele>2242.4</ele>
        <time>2023-04-01T16:08:42Z</time>
      </trkpt>
      <trkpt lat="39.2949" lon="-120.330865">
        <ele>2249.8</ele>
        <time>2023-04-01T16:09:24Z</time>
      </trkpt>
      <trkpt lat="39.294986" lon="-120.330709">
        <ele>2252.2</ele>
        <time>2023-04-01T16:09:43Z</time>
      </trkpt>
      <trkpt lat="39.295373" lon="-120.330308">
        <ele>2262.5</ele>
        <time>2023-04-01T16:10:41Z</time>
      </trkpt>
      <trkpt lat="39.295708" lon="-120.330165">
        <ele>2269.9</ele>
        <time>2023-04-01T16:11:36Z</time>
      </trkpt>
      <trkpt lat="39.296118" lon="-120.330233">
        <ele>2277.6</ele>
        <time>2023-04-01T16:12:51Z</time>
      </trkpt>
      <trkpt lat="39.296179" lon="-120.330191">
        <ele>2278.5</ele>
        <time>2023-04-01T16:13:02Z</time>
      </trkpt>
      <trkpt lat="39.296139" lon="-120.328972">
        <ele>2288.3</ele>
        <time>2023-04-01T16:14:46Z</time>
      </trkpt>
      <trkpt lat="39.296236" lon="-120.328506">
        <ele>2293.0</ele>
        <time>2023-04-01T16:15:27Z</time>
      </trkpt>
      <trkpt lat="39.296128" lon="-120.327871">
        <ele>2301.1</ele>
        <time>2023-04-01T16:16:23Z</time>
      </trkpt>
      <trkpt lat="39.295811" lon="-120.327524">
        <ele>2305.6</ele>
        <time>2023-04-01T16:17:03Z</time>
      </trkpt>
      <trkpt lat="39.29522" lon="-120.327336">
        <ele>2317.7</ele>
        <time>2023-04-01T16:18:28Z</time>
      </trkpt>
      <trkpt lat="39.294873" lon="-120.327138">
        <ele>2328.8</ele>
        <time>2023-04-01T16:19:35Z</time>
      </trkpt>
      <trkpt lat="39.294505" lon="-120.326849">
        <ele>2340.7</ele>
        <time>2023-04-01T16:20:51Z</time>
      </trkpt>
      <trkpt lat="39.294336" lon="-120.326626">
        <ele>2346.7</ele>
        <time>2023-04-01T16:21:31Z</time>
      </trkpt>
      <trkpt lat="39.293982" lon="-120.326294">
        <ele>2357.4</ele>
        <time>2023-04-01T16:22:26Z</time>
      </trkpt>
      <trkpt lat="39.293893" lon="-120.326123">
        <ele>2359.8</ele>
        <time>2023-04-01T16:22:47Z</time>
      </trkpt>
      <trkpt lat="39.293725" lon="-120.326032">
        <ele>2365.2</ele>
        <time>2023-04-01T16:23:15Z</time>
      </trkpt>
      <trkpt lat="39.29348" lon="-120.325736">
        <ele>2375.3</ele>
        <time>2023-04-01T16:24:05Z</time>
      </trkpt>
      <trkpt lat="39.293126" lon="-120.325013">
        <ele>2395.6</ele>
        <time>2023-04-01T16:25:56Z</time>
      </trkpt>
      <trkpt lat="39.293041" lon="-120.32496">
        <ele>2398.1</ele>
        <time>2023-04-01T16:26:10Z</time>
      </trkpt>
      <trkpt lat="39.292852" lon="-120.324533">
        <ele>2402.2</ele>
        <time>2023-04-01T16:26:47Z</time>
      </trkpt>
      <trkpt lat="39.29233" lon="-120.32384">
        <ele>2411.5</ele>
        <time>2023-04-01T16:28:00Z</time>
      </trkpt>
      <trkpt lat="39.292004" lon="-120.32354">
        <ele>2418.8</ele>
        <time>2023-04-01T16:28:46Z</time>
      </trkpt>
      <trkpt lat="39.291493" lon="-120.323249">
        <ele>2428.1</ele>
        <time>2023-04-01T16:29:54Z</time>
      </trkpt>
      <trkpt lat="39.291187" lon="-120.32319">
        <ele>2432.9</ele>
        <time>2023-04-01T16:30:29Z</time>
      </trkpt>
      <trkpt lat="39.290798" lon="-120.323257">
        <ele>2439.9</ele>
        <time>2023-04-01T16:31:13Z</time>
      </trkpt>
      <trkpt lat="39.290533" lon="-120.323391">
        <ele>2445.1</ele>
        <time>2023-04-01T16:31:55Z</time>
      </trkpt>
      <trkpt lat="39.290255" lon="-120.323792">
        <ele>2456.2</ele>
        <time>2023-04-01T16:33:04Z</time>
      </trkpt>
      <trkpt lat="39.289932" lon="-120.324172">
        <ele>2466.7</ele>
        <time>2023-04-01T16:34:18Z</time>
      </trkpt>
      <trkpt lat="39.289739" lon="-120.324613">
        <ele>2484.4</ele>
        <time>2023-04-01T16:35:38Z</time>
      </trkpt>
      <trkpt lat="39.289558" lon="-120.324748">
        <ele>2489.9</ele>
        <time>2023-04-01T16:36:21Z</time>
      </trkpt>
      <trkpt lat="39.289479" lon="-120.325049">
        <ele>2498.8</ele>
        <time>2023-04-01T16:37:04Z</time>
      </trkpt>
      <trkpt lat="39.289565" lon="-120.325432">
        <ele>2503.8</ele>
        <time>2023-04-01T16:37:40Z</time>
      </trkpt>
      <trkpt lat="39.289341" lon="-120.32642">
        <ele>2513.5</ele>
        <time>2023-04-01T16:39:21Z</time>
      </trkpt>
      <trkpt lat="39.28918" lon="-120.326773">
        <ele>2518.0</ele>
        <time>2023-04-01T16:39:56Z</time>
      </trkpt>
      <trkpt lat="39.288831" lon="-120.327108">
        <ele>2525.4</ele>
        <time>2023-04-01T16:40:55Z</time>
      </trkpt>
      <trkpt lat="39.288584" lon="-120.327444">
        <ele>2532.9</ele>
        <time>2023-04-01T16:41:44Z</time>
      </trkpt>
      <trkpt lat="39.288417" lon="-120.327878">
        <ele>2539.0</ele>
        <time>2023-04-01T16:42:29Z</time>
      </trkpt>
      <trkpt lat="39.288288" lon="-120.328039">
        <ele>2541.7</ele>
        <time>2023-04-01T16:42:51Z</time>
      </trkpt>
      <trkpt lat="39.28797" lon="-120.328251">
        <ele>2547.0</ele>
        <time>2023-04-01T16:43:34Z</time>
      </trkpt>
      <trkpt lat="39.287924" lon="-120.328054">
        <ele>2553.6</ele>
        <time>2023-04-01T16:49:43Z</time>
      </trkpt>
      <trkpt lat="39.288435" lon="-120.327774">
        <ele>2537.2</ele>
        <time>2023-04-01T16:50:19Z</time>
      </trkpt>
      <trkpt lat="39.288696" lon="-120.327398">
        <ele>2529.9</ele>
        <time>2023-04-01T16:50:28Z</time>
      </trkpt>
      <trkpt lat="39.288998" lon="-120.327408">
        <ele>2517.7</ele>
        <time>2023-04-01T16:50:34Z</time>
      </trkpt>
      <trkpt lat="39.289508" lon="-120.327539">
        <ele>2495.7</ele>
        <time>2023-04-01T16:50:42Z</time>
      </trkpt>
      <trkpt lat="39.290059" lon="-120.32734">
        <ele>2472.5</ele>
        <time>2023-04-01T16:50:50Z</time>
      </trkpt>
      <trkpt lat="39.29039" lon="-120.327121">
        <ele>2459.5</ele>
        <time>2023-04-01T16:50:54Z</time>
      </trkpt>
      <trkpt lat="39.290445" lon="-120.326924">
        <ele>2457.5</ele>
        <time>2023-04-01T16:50:56Z</time>
      </trkpt>
      <trkpt lat="39.290729" lon="-120.326622">
        <ele>2447.4</ele>
        <time>2023-04-01T16:51:01Z</time>
      </trkpt>
      <trkpt lat="39.290781" lon="-120.326483">
        <ele>2443.8</ele>
        <time>2023-04-01T16:51:03Z</time>
      </trkpt>
      <trkpt lat="39.291119" lon="-120.326126">
        <ele>2426.5</ele>
        <time>2023-04-01T16:51:09Z</time>
      </trkpt>
      <trkpt lat="39.291191" lon="-120.32594">
        <ele>2423.5</ele>
        <time>2023-04-01T16:51:11Z</time>
      </trkpt>
      <trkpt lat="39.291391" lon="-120.325806">
        <ele>2416.2</ele>
        <time>2023-04-01T16:51:14Z</time>
      </trkpt>
      <trkpt lat="39.291732" lon="-120.325858">
        <ele>2399.5</ele>
        <time>2023-04-01T16:51:19Z</time>
      </trkpt>
      <trkpt lat="39.29194" lon="-120.326019">
        <ele>2394.2</ele>
        <time>2023-04-01T16:51:22Z</time>
      </trkpt>
      <trkpt lat="39.292055" lon="-120.326213">
        <ele>2389.1</ele>
        <time>2023-04-01T16:51:24Z</time>
      </trkpt>
      <trkpt lat="39.292502" lon="-120.326597">
        <ele>2384.6</ele>
        <time>2023-04-01T16:51:31Z</time>
      </trkpt>
      <trkpt lat="39.292731" lon="-120.326705">
        <ele>2380.3</ele>
        <time>2023-04-01T16:51:34Z</time>
      </trkpt>
      <trkpt lat="39.293309" lon="-120.327092">
        <ele>2366.8</ele>
        <time>2023-04-01T16:51:42Z</time>
      </trkpt>
      <trkpt lat="39.293666" lon="-120.327432">
        <ele>2358.5</ele>
        <time>2023-04-01T16:51:48Z</time>
      </trkpt>
      <trkpt lat="39.294034" lon="-120.327546">
        <ele>2351.7</ele>
        <time>2023-04-01T16:51:54Z</time>
      </trkpt>
      <trkpt lat="39.294495" lon="-120.327426">
        <ele>2339.6</ele>
        <time>2023-04-01T16:52:00Z</time>
      </trkpt>
      <trkpt lat="39.294652" lon="-120.32749">
        <ele>2336.2</ele>
        <time>2023-04-01T16:52:02Z</time>
      </trkpt>
      <trkpt lat="39.295072" lon="-120.327437">
        <ele>2324.5</ele>
        <time>2023-04-01T16:52:07Z</time>
      </trkpt>
      <trkpt lat="39.295609" lon="-120.32759">
        <ele>2309.4</ele>
        <time>2023-04-01T16:52:14Z</time>
      </trkpt>
      <trkpt lat="39.295976" lon="-120.328003">
        <ele>2301.3</ele>
        <time>2023-04-01T16:52:21Z</time>
      </trkpt>
      <trkpt lat="39.296048" lon="-120.328289">
        <ele>2298.4</ele>
        <time>2023-04-01T16:52:25Z</time>
      </trkpt>
      <trkpt lat="39.296123" lon="-120.328884">
        <ele>2290.0</ele>
        <time>2023-04-01T16:52:33Z</time>
      </trkpt>
      <trkpt lat="39.296201" lon="-120.328917">
        <ele>2290.1</ele>
        <time>2023-04-01T16:52:43Z</time>
      </trkpt>
      <trkpt lat="39.296071" lon="-120.329363">
        <ele>2282.8</ele>
        <time>2023-04-01T16:53:16Z</time>
      </trkpt>
      <trkpt lat="39.295791" lon="-120.329668">
        <ele>2272.6</ele>
        <time>2023-04-01T16:53:22Z</time>
      </trkpt>
      <trkpt lat="39.295561" lon="-120.330037">
        <ele>2258.8</ele>
        <time>2023-04-01T16:53:27Z</time>
      </trkpt>
      <trkpt lat="39.295222" lon="-120.330282">
        <ele>2251.7</ele>
        <time>2023-04-01T16:53:32Z</time>
      </trkpt>
      <trkpt lat="39.29501" lon="-120.330547">
        <ele>2247.2</ele>
        <time>2023-04-01T16:53:36Z</time>
      </trkpt>
      <trkpt lat="39.294965" lon="-120.330906">
        <ele>2241.7</ele>
        <time>2023-04-01T16:53:39Z</time>
      </trkpt>
      <trkpt lat="39.294984" lon="-120.331392">
        <ele>2235.1</ele>
        <time>2023-04-01T16:53:43Z</time>
      </trkpt>
      <trkpt lat="39.295043" lon="-120.331741">
        <ele>2231.0</ele>
        <time>2023-04-01T16:53:46Z</time>
      </trkpt>
      <trkpt lat="39.29541" lon="-120.332542">
        <ele>2221.7</ele>
        <time>2023-04-01T16:53:54Z</time>
      </trkpt>
      <trkpt lat="39.296027" lon="-120.333622">
        <ele>2211.6</ele>
        <time>2023-04-01T16:54:08Z</time>
      </trkpt>
      <trkpt lat="39.296309" lon="-120.333967">
        <ele>2207.4</ele>
        <time>2023-04-01T16:54:14Z</time>
      </trkpt>
      <trkpt lat="39.296674" lon="-120.334208">
        <ele>2194.9</ele>
        <time>2023-04-01T16:54:20Z</time>
      </trkpt>
      <trkpt lat="39.297241" lon="-120.334243">
        <ele>2187.4</ele>
        <time>2023-04-01T16:54:29Z</time>
      </trkpt>
      <trkpt lat="39.297688" lon="-120.334397">
        <ele>2179.0</ele>
        <time>2023-04-01T16:54:36Z</time>
      </trkpt>
      <trkpt lat="39.298399" lon="-120.334178">
        <ele>2169.6</ele>
        <time>2023-04-01T16:54:45Z</time>
      </trkpt>
      <trkpt lat="39.298855" lon="-120.334313">
        <ele>2164.7</ele>
        <time>2023-04-01T16:54:53Z</time>
      </trkpt>
      <trkpt lat="39.298986" lon="-120.334427">
        <ele>2163.0</ele>
        <time>2023-04-01T16:55:05Z</time>
      </trkpt>
      <trkpt lat="39.299131" lon="-120.334734">
        <ele>2161.0</ele>
        <time>2023-04-01T16:55:15Z</time>
      </trkpt>
      <trkpt lat="39.299265" lon="-120.335253">
        <ele>2160.6</ele>
        <time>2023-04-01T16:55:28Z</time>
      </trkpt>
      <trkpt lat="39.299372" lon="-120.33541">
        <ele>2159.9</ele>
        <time>2023-04-01T16:55:32Z</time>
      </trkpt>
      <trkpt lat="39.299805" lon="-120.335632">
        <ele>2157.2</ele>
        <time>2023-04-01T16:55:48Z</time>
      </trkpt>
      <trkpt lat="39.300335" lon="-120.335805">
        <ele>2154.0</ele>
        <time>2023-04-01T16:56:00Z</time>
      </trkpt>
      <trkpt lat="39.300896" lon="-120.336124">
        <ele>2150.0</ele>
        <time>2023-04-01T16:56:12Z</time>
      </trkpt>
      <trkpt lat="39.301047" lon="-120.33627">
        <ele>2148.9</ele>
        <time>2023-04-01T16:56:16Z</time>
      </trkpt>
      <trkpt lat="39.301664" lon="-120.336637">
        <ele>2143.9</ele>
        <time>2023-04-01T16:56:29Z</time>
      </trkpt>
      <trkpt lat="39.302137" lon="-120.33686">
        <ele>2139.0</ele>
        <time>2023-04-01T16:56:38Z</time>
      </trkpt>
      <trkpt lat="39.302654" lon="-120.337016">
        <ele>2133.5</ele>
        <time>2023-04-01T16:56:46Z</time>
      </trkpt>
      <trkpt lat="39.303116" lon="-120.337047">
        <ele>2125.7</ele>
        <time>2023-04-01T16:56:53Z</time>
      </trkpt>
      <trkpt lat="39.303481" lon="-120.337141">
        <ele>2122.0</ele>
        <time>2023-04-01T16:56:59Z</time>
      </trkpt>
      <trkpt lat="39.303864" lon="-120.336802">
        <ele>2120.7</ele>
        <time>2023-04-01T16:57:10Z</time>
      </trkpt>
      <trkpt lat="39.304181" lon="-120.336738">
        <ele>2120.4</ele>
        <time>2023-04-01T16:57:24Z</time>
      </trkpt>
      <trkpt lat="39.304554" lon="-120.336447">
        <ele>2119.9</ele>
        <time>2023-04-01T16:57:33Z</time>
      </trkpt>
      <trkpt lat="39.304647" lon="-120.336202">
        <ele>2119.7</ele>
        <time>2023-04-01T16:57:39Z</time>
      </trkpt>
      <trkpt lat="39.304603" lon="-120.335863">
        <ele>2119.9</ele>
        <time>2023-04-01T16:57:50Z</time>
      </trkpt>
      <trkpt lat="39.304697" lon="-120.335678">
        <ele>2119.7</ele>
        <time>2023-04-01T16:57:57Z</time>
      </trkpt>
      <trkpt lat="39.305142" lon="-120.335389">
        <ele>2117.8</ele>
        <time>2023-04-01T16:58:17Z</time>
      </trkpt>
      <trkpt lat="39.305192" lon="-120.335085">
        <ele>2118.8</ele>
        <time>2023-04-01T16:58:27Z</time>
      </trkpt>
      <trkpt lat="39.305044" lon="-120.334653">
        <ele>2121.0</ele>
        <time>2023-04-01T16:58:42Z</time>
      </trkpt>
      <trkpt lat="39.304758" lon="-120.334245">
        <ele>2124.0</ele>
        <time>2023-04-01T16:59:26Z</time>
      </trkpt>
      <trkpt lat="39.304881" lon="-120.33371">
        <ele>2128.6</ele>
        <time>2023-04-01T17:00:03Z</time>
      </trkpt>
      <trkpt lat="39.304882" lon="-120.332695">
        <ele>2136.7</ele>
        <time>2023-04-01T17:02:30Z</time>
      </trkpt>
      <trkpt lat="39.304415" lon="-120.333845">
        <ele>2128.9</ele>
        <time>2023-04-01T17:05:20Z</time>
      </trkpt>
      <trkpt lat="39.30444" lon="-120.33416">
        <ele>2126.2</ele>
        <time>2023-04-01T17:05:23Z</time>
      </trkpt>
      <trkpt lat="39.304839" lon="-120.334563">
        <ele>2121.5</ele>
        <time>2023-04-01T17:05:31Z</time>
      </trkpt>
      <trkpt lat="39.305146" lon="-120.335062">
        <ele>2118.5</ele>
        <time>2023-04-01T17:05:42Z</time>
      </trkpt>
      <trkpt lat="39.305106" lon="-120.3353">
        <ele>2117.8</ele>
        <time>2023-04-01T17:05:47Z</time>
      </trkpt>
      <trkpt lat="39.304633" lon="-120.335692">
        <ele>2119.9</ele>
        <time>2023-04-01T17:06:03Z</time>
      </trkpt>
      <trkpt lat="39.304585" lon="-120.336171">
        <ele>2119.7</ele>
        <time>2023-04-01T17:06:13Z</time>
      </trkpt>
      <trkpt lat="39.304479" lon="-120.336426">
        <ele>2120.3</ele>
        <time>2023-04-01T17:11:17Z</time>
      </trkpt>
      <trkpt lat="39.304105" lon="-120.336569">
        <ele>2120.5</ele>
        <time>2023-04-01T17:12:16Z</time>
      </trkpt>
      <trkpt lat="39.303735" lon="-120.336829">
        <ele>2120.6</ele>
        <time>2023-04-01T17:12:50Z</time>
      </trkpt>
      <trkpt lat="39.303527" lon="-120.337077">
        <ele>2121.4</ele>
        <time>2023-04-01T17:13:14Z</time>
      </trkpt>
      <trkpt lat="39.303385" lon="-120.336974">
        <ele>2122.8</ele>
        <time>2023-04-01T17:13:28Z</time>
      </trkpt>
      <trkpt lat="39.303028" lon="-120.336897">
        <ele>2126.8</ele>
        <time>2023-04-01T17:13:59Z</time>
      </trkpt>
      <trkpt lat="39.302311" lon="-120.336819">
        <ele>2137.4</ele>
        <time>2023-04-01T17:15:12Z</time>
      </trkpt>
      <trkpt lat="39.301658" lon="-120.336508">
        <ele>2144.2</ele>
        <time>2023-04-01T17:16:20Z</time>
      </trkpt>
      <trkpt lat="39.301193" lon="-120.336211">
        <ele>2147.9</ele>
        <time>2023-04-01T17:17:11Z</time>
      </trkpt>
      <trkpt lat="39.300951" lon="-120.336254">
        <ele>2149.4</ele>
        <time>2023-04-01T17:17:32Z</time>
      </trkpt>
      <trkpt lat="39.300329" lon="-120.335971">
        <ele>2153.5</ele>
        <time>2023-04-01T17:18:23Z</time>
      </trkpt>
      <trkpt lat="39.300023" lon="-120.335763">
        <ele>2155.5</ele>
        <time>2023-04-01T17:18:49Z</time>
      </trkpt>
      <trkpt lat="39.299342" lon="-120.335544">
        <ele>2159.5</ele>
        <time>2023-04-01T17:19:56Z</time>
      </trkpt>
      <trkpt lat="39.299155" lon="-120.335326">
        <ele>2161.7</ele>
        <time>2023-04-01T17:20:17Z</time>
      </trkpt>
      <trkpt lat="39.29854" lon="-120.335082">
        <ele>2168.8</ele>
        <time>2023-04-01T17:21:18Z</time>
      </trkpt>
      <trkpt lat="39.298261" lon="-120.335054">
        <ele>2172.9</ele>
        <time>2023-04-01T17:21:44Z</time>
      </trkpt>
      <trkpt lat="39.298198" lon="-120.334944">
        <ele>2174.3</ele>
        <time>2023-04-01T17:21:54Z</time>
      </trkpt>
      <trkpt lat="39.29792" lon="-120.334793">
        <ele>2178.8</ele>
        <time>2023-04-01T17:22:28Z</time>
      </trkpt>
      <trkpt lat="39.297664" lon="-120.33473">
        <ele>2182.8</ele>
        <time>2023-04-01T17:22:55Z</time>
      </trkpt>
      <trkpt lat="39.297201" lon="-120.334706">
        <ele>2191.0</ele>
        <time>2023-04-01T17:23:47Z</time>
      </trkpt>
      <trkpt lat="39.296584" lon="-120.334444">
        <ele>2201.0</ele>
        <time>2023-04-01T17:25:05Z</time>
      </trkpt>
      <trkpt lat="39.296226" lon="-120.333999">
        <ele>2206.6</ele>
        <time>2023-04-01T17:25:59Z</time>
      </trkpt>
      <trkpt lat="39.295854" lon="-120.333471">
        <ele>2213.2</ele>
        <time>2023-04-01T17:26:58Z</time>
      </trkpt>
      <trkpt lat="39.29575" lon="-120.333232">
        <ele>2215.3</ele>
        <time>2023-04-01T17:27:17Z</time>
      </trkpt>
      <trkpt lat="39.295397" lon="-120.332759">
        <ele>2220.3</ele>
        <time>2023-04-01T17:28:04Z</time>
      </trkpt>
      <trkpt lat="39.29525" lon="-120.332328">
        <ele>2225.0</ele>
        <time>2023-04-01T17:28:35Z</time>
      </trkpt>
      <trkpt lat="39.294852" lon="-120.331785">
        <ele>2232.4</ele>
        <time>2023-04-01T17:29:59Z</time>
      </trkpt>
      <trkpt lat="39.294793" lon="-120.331231">
        <ele>2239.3</ele>
        <time>2023-04-01T17:30:44Z</time>
      </trkpt>
      <trkpt lat="39.294892" lon="-120.330849">
        <ele>2245.3</ele>
        <time>2023-04-01T17:31:21Z</time>
      </trkpt>
      <trkpt lat="39.295277" lon="-120.33046">
        <ele>2253.1</ele>
        <time>2023-04-01T17:32:19Z</time>
      </trkpt>
      <trkpt lat="39.295677" lon="-120.330207">
        <ele>2261.3</ele>
        <time>2023-04-01T17:33:25Z</time>
      </trkpt>
      <trkpt lat="39.296213" lon="-120.330148">
        <ele>2278.8</ele>
        <time>2023-04-01T17:35:05Z</time>
      </trkpt>
      <trkpt lat="39.296177" lon="-120.329623">
        <ele>2283.1</ele>
        <time>2023-04-01T17:35:54Z</time>
      </trkpt>
      <trkpt lat="39.296104" lon="-120.329153">
        <ele>2286.6</ele>
        <time>2023-04-01T17:36:39Z</time>
      </trkpt>
      <trkpt lat="39.296169" lon="-120.328741">
        <ele>2290.2</ele>
        <time>2023-04-01T17:37:23Z</time>
      </trkpt>
      <trkpt lat="39.29615" lon="-120.327843">
        <ele>2301.2</ele>
        <time>2023-04-01T17:38:47Z</time>
      </trkpt>
      <trkpt lat="39.295912" lon="-120.327549">
        <ele>2304.6</ele>
        <time>2023-04-01T17:39:36Z</time>
      </trkpt>
      <trkpt lat="39.295759" lon="-120.327549">
        <ele>2306.9</ele>
        <time>2023-04-01T17:39:55Z</time>
      </trkpt>
      <trkpt lat="39.29553" lon="-120.327384">
        <ele>2312.2</ele>
        <time>2023-04-01T17:40:38Z</time>
      </trkpt>
      <trkpt lat="39.294882" lon="-120.327082">
        <ele>2330.6</ele>
        <time>2023-04-01T17:42:42Z</time>
      </trkpt>
      <trkpt lat="39.294621" lon="-120.326785">
        <ele>2338.8</ele>
        <time>2023-04-01T17:43:22Z</time>
      </trkpt>
      <trkpt lat="39.294535" lon="-120.326832">
        <ele>2341.1</ele>
        <time>2023-04-01T17:44:00Z</time>
      </trkpt>
      <trkpt lat="39.293843" lon="-120.326102">
        <ele>2362.9</ele>
        <time>2023-04-01T17:46:22Z</time>
      </trkpt>
      <trkpt lat="39.293267" lon="-120.325279">
        <ele>2384.8</ele>
        <time>2023-04-01T17:48:41Z</time>
      </trkpt>
      <trkpt lat="39.293176" lon="-120.325043">
        <ele>2388.2</ele>
        <time>2023-04-01T17:49:15Z</time>
      </trkpt>
      <trkpt lat="39.292923" lon="-120.324733">
        <ele>2393.1</ele>
        <time>2023-04-01T17:50:00Z</time>
      </trkpt>
      <trkpt lat="39.292622" lon="-120.324174">
        <ele>2398.2</ele>
        <time>2023-04-01T17:51:00Z</time>
      </trkpt>
      <trkpt lat="39.292062" lon="-120.323554">
        <ele>2410.5</ele>
        <time>2023-04-01T17:52:25Z</time>
      </trkpt>
      <trkpt lat="39.29148" lon="-120.323174">
        <ele>2420.6</ele>
        <time>2023-04-01T17:53:53Z</time>
      </trkpt>
      <trkpt lat="39.290988" lon="-120.323142">
        <ele>2428.9</ele>
        <time>2023-04-01T17:55:00Z</time>
      </trkpt>
      <trkpt lat="39.290661" lon="-120.323243">
        <ele>2433.5</ele>
        <time>2023-04-01T17:55:43Z</time>
      </trkpt>
      <trkpt lat="39.29024" lon="-120.323631">
        <ele>2444.4</ele>
        <time>2023-04-01T17:57:11Z</time>
      </trkpt>
      <trkpt lat="39.289866" lon="-120.324291">
        <ele>2470.5</ele>
        <time>2023-04-01T17:59:27Z</time>
      </trkpt>
      <trkpt lat="39.289684" lon="-120.324547">
        <ele>2484.0</ele>
        <time>2023-04-01T18:00:28Z</time>
      </trkpt>
      <trkpt lat="39.289463" lon="-120.325057">
        <ele>2498.1</ele>
        <time>2023-04-01T18:02:26Z</time>
      </trkpt>
      <trkpt lat="39.289571" lon="-120.325429">
        <ele>2503.0</ele>
        <time>2023-04-01T18:03:04Z</time>
      </trkpt>
      <trkpt lat="39.289415" lon="-120.326135">
        <ele>2509.2</ele>
        <time>2023-04-01T18:04:30Z</time>
      </trkpt>
      <trkpt lat="39.289231" lon="-120.326672">
        <ele>2514.7</ele>
        <time>2023-04-01T18:05:26Z</time>
      </trkpt>
      <trkpt lat="39.288627" lon="-120.327269">
        <ele>2526.4</ele>
        <time>2023-04-01T18:07:29Z</time>
      </trkpt>
      <trkpt lat="39.288489" lon="-120.327657">
        <ele>2532.7</ele>
        <time>2023-04-01T18:08:27Z</time>
      </trkpt>
      <trkpt lat="39.288271" lon="-120.328011">
        <ele>2538.0</ele>
        <time>2023-04-01T18:09:24Z</time>
      </trkpt>
      <trkpt lat="39.288126" lon="-120.328048">
        <ele>2550.1</ele>
        <time>2023-04-01T18:18:21Z</time>
      </trkpt>
      <trkpt lat="39.288242" lon="-120.327701">
        <ele>2545.1</ele>
        <time>2023-04-01T18:18:33Z</time>
      </trkpt>
      <trkpt lat="39.288465" lon="-120.327546">
        <ele>2541.0</ele>
        <time>2023-04-01T18:18:41Z</time>
      </trkpt>
      <trkpt lat="39.288829" lon="-120.327098">
        <ele>2532.2</ele>
        <time>2023-04-01T18:18:54Z</time>
      </trkpt>
      <trkpt lat="39.289181" lon="-120.326841">
        <ele>2523.0</ele>
        <time>2023-04-01T18:19:01Z</time>
      </trkpt>
      <trkpt lat="39.289472" lon="-120.326003">
        <ele>2511.1</ele>
        <time>2023-04-01T18:19:15Z</time>
      </trkpt>
      <trkpt lat="39.289655" lon="-120.325208">
        <ele>2502.0</ele>
        <time>2023-04-01T18:19:37Z</time>
      </trkpt>
      <trkpt lat="39.289659" lon="-120.324768">
        <ele>2492.4</ele>
        <time>2023-04-01T18:20:19Z</time>
      </trkpt>
      <trkpt lat="39.289958" lon="-120.324361">
        <ele>2474.3</ele>
        <time>2023-04-01T18:20:27Z</time>
      </trkpt>
      <trkpt lat="39.290094" lon="-120.324068">
        <ele>2464.4</ele>
        <time>2023-04-01T18:20:32Z</time>
      </trkpt>
      <trkpt lat="39.290492" lon="-120.323539">
        <ele>2449.2</ele>
        <time>2023-04-01T18:20:41Z</time>
      </trkpt>
      <trkpt lat="39.290712" lon="-120.323376">
        <ele>2443.5</ele>
        <time>2023-04-01T18:20:45Z</time>
      </trkpt>
      <trkpt lat="39.290998" lon="-120.323326">
        <ele>2438.6</ele>
        <time>2023-04-01T18:20:49Z</time>
      </trkpt>
      <trkpt lat="39.29135" lon="-120.323346">
        <ele>2431.8</ele>
        <time>2023-04-01T18:20:54Z</time>
      </trkpt>
      <trkpt lat="39.291917" lon="-120.323566">
        <ele>2422.0</ele>
        <time>2023-04-01T18:21:03Z</time>
      </trkpt>
      <trkpt lat="39.292241" lon="-120.323902">
        <ele>2414.6</ele>
        <time>2023-04-01T18:21:08Z</time>
      </trkpt>
      <trkpt lat="39.292342" lon="-120.324073">
        <ele>2412.2</ele>
        <time>2023-04-01T18:21:10Z</time>
      </trkpt>
      <trkpt lat="39.292719" lon="-120.32446">
        <ele>2405.7</ele>
        <time>2023-04-01T18:21:16Z</time>
      </trkpt>
      <trkpt lat="39.292968" lon="-120.324999">
        <ele>2400.8</ele>
        <time>2023-04-01T18:21:24Z</time>
      </trkpt>
      <trkpt lat="39.293283" lon="-120.325505">
        <ele>2392.4</ele>
        <time>2023-04-01T18:21:33Z</time>
      </trkpt>
      <trkpt lat="39.293839" lon="-120.325525">
        <ele>2376.4</ele>
        <time>2023-04-01T18:21:43Z</time>
      </trkpt>
      <trkpt lat="39.293915" lon="-120.325478">
        <ele>2374.7</ele>
        <time>2023-04-01T18:21:45Z</time>
      </trkpt>
      <trkpt lat="39.294538" lon="-120.325563">
        <ele>2350.7</ele>
        <time>2023-04-01T18:22:28Z</time>
      </trkpt>
      <trkpt lat="39.295233" lon="-120.32526">
        <ele>2319.1</ele>
        <time>2023-04-01T18:22:36Z</time>
      </trkpt>
      <trkpt lat="39.295618" lon="-120.325276">
        <ele>2312.1</ele>
        <time>2023-04-01T18:23:04Z</time>
      </trkpt>
      <trkpt lat="39.296086" lon="-120.325208">
        <ele>2308.1</ele>
        <time>2023-04-01T18:23:12Z</time>
      </trkpt>
      <trkpt lat="39.296405" lon="-120.32511">
        <ele>2305.6</ele>
        <time>2023-04-01T18:23:18Z</time>
      </trkpt>
      <trkpt lat="39.297141" lon="-120.325054">
        <ele>2300.1</ele>
        <time>2023-04-01T18:23:30Z</time>
      </trkpt>
      <trkpt lat="39.298435" lon="-120.325206">
        <ele>2293.6</ele>
        <time>2023-04-01T18:23:45Z</time>
      </trkpt>
      <trkpt lat="39.299248" lon="-120.325473">
        <ele>2284.9</ele>
        <time>2023-04-01T18:23:56Z</time>
      </trkpt>
      <trkpt lat="39.30005" lon="-120.325949">
        <ele>2275.8</ele>
        <time>2023-04-01T18:24:09Z</time>
      </trkpt>
      <trkpt lat="39.30029" lon="-120.326376">
        <ele>2271.7</ele>
        <time>2023-04-01T18:24:15Z</time>
      </trkpt>
      <trkpt lat="39.300606" lon="-120.326692">
        <ele>2270.0</ele>
        <time>2023-04-01T18:24:21Z</time>
      </trkpt>
      <trkpt lat="39.300839" lon="-120.327076">
        <ele>2264.4</ele>
        <time>2023-04-01T18:24:26Z</time>
      </trkpt>
      <trkpt lat="39.300976" lon="-120.32741">
        <ele>2261.5</ele>
        <time>2023-04-01T18:24:30Z</time>
      </trkpt>
      <trkpt lat="39.301122" lon="-120.32813">
        <ele>2258.3</ele>
        <time>2023-04-01T18:24:41Z</time>
      </trkpt>
      <trkpt lat="39.301198" lon="-120.328762">
        <ele>2253.3</ele>
        <time>2023-04-01T18:24:54Z</time>
      </trkpt>
      <trkpt lat="39.301425" lon="-120.329357">
        <ele>2247.5</ele>
        <time>2023-04-01T18:25:07Z</time>
      </trkpt>
      <trkpt lat="39.301448" lon="-120.329581">
        <ele>2243.7</ele>
        <time>2023-04-01T18:25:10Z</time>
      </trkpt>
      <trkpt lat="39.301728" lon="-120.329945">
        <ele>2238.0</ele>
        <time>2023-04-01T18:25:18Z</time>
      </trkpt>
      <trkpt lat="39.301777" lon="-120.330147">
        <ele>2233.6</ele>
        <time>2023-04-01T18:25:22Z</time>
      </trkpt>
      <trkpt lat="39.301959" lon="-120.330187">
        <ele>2231.7</ele>
        <time>2023-04-01T18:25:29Z</time>
      </trkpt>
      <trkpt lat="39.301988" lon="-120.33036">
        <ele>2228.4</ele>
        <time>2023-04-01T18:25:52Z</time>
      </trkpt>
      <trkpt lat="39.302321" lon="-120.330219">
        <ele>2224.9</ele>
        <time>2023-04-01T18:26:02Z</time>
      </trkpt>
      <trkpt lat="39.302622" lon="-120.330539">
        <ele>2209.4</ele>
        <time>2023-04-01T18:26:15Z</time>
      </trkpt>
      <trkpt lat="39.302935" lon="-120.330619">
        <ele>2191.9</ele>
        <time>2023-04-01T18:26:25Z</time>
      </trkpt>
      <trkpt lat="39.303081" lon="-120.330821">
        <ele>2179.1</ele>
        <time>2023-04-01T18:26:35Z</time>
      </trkpt>
      <trkpt lat="39.303256" lon="-120.330885">
        <ele>2172.0</ele>
        <time>2023-04-01T18:26:43Z</time>
      </trkpt>
      <trkpt lat="39.303381" lon="-120.331078">
        <ele>2165.0</ele>
        <time>2023-04-01T18:26:50Z</time>
      </trkpt>
      <trkpt lat="39.303588" lon="-120.331131">
        <ele>2156.6</ele>
        <time>2023-04-01T18:26:56Z</time>
      </trkpt>
      <trkpt lat="39.303923" lon="-120.331434">
        <ele>2150.6</ele>
        <time>2023-04-01T18:27:03Z</time>
      </trkpt>
      <trkpt lat="39.3042" lon="-120.33198">
        <ele>2147.6</ele>
        <time>2023-04-01T18:27:10Z</time>
      </trkpt>
      <trkpt lat="39.304486" lon="-120.332074">
        <ele>2146.4</ele>
        <time>2023-04-01T18:27:28Z</time>
      </trkpt>
      <trkpt lat="39.304642" lon="-120.332301">
        <ele>2145.1</ele>
        <time>2023-04-01T18:27:35Z</time>
      </trkpt>
      <trkpt lat="39.304772" lon="-120.332654">
        <ele>2142.9</ele>
        <time>2023-04-01T18:27:41Z</time>
      </trkpt>
      <trkpt lat="39.304794" lon="-120.332888">
        <ele>2141.7</ele>
        <time>2023-04-01T18:27:57Z</time>
      </trkpt>
      <trkpt lat="39.305051" lon="-120.332824">
        <ele>2142.0</ele>
        <time>2023-04-01T18:30:14Z</time>
      </trkpt>
      <trkpt lat="39.305157" lon="-120.332646">
        <ele>2143.1</ele>
        <time>2023-04-01T18:30:29Z</time>
      </trkpt>
      <trkpt lat="39.305241" lon="-120.33283">
        <ele>2141.9</ele>
        <time>2023-04-01T18:30:41Z</time>
      </trkpt>
      <trkpt lat="39.305495" lon="-120.332864">
        <ele>2135.9</ele>
        <time>2023-04-01T18:44:46Z</time>
      </trkpt>
      <trkpt lat="39.305476" lon="-120.332496">
        <ele>2137.7</ele>
        <time>2023-04-01T18:45:16Z</time>
      </trkpt>
      <trkpt lat="39.305386" lon="-120.332743">
        <ele>2135.8</ele>
        <time>2023-04-01T19:10:53Z</time>
      </trkpt>
      <trkpt lat="39.305178" lon="-120.332688">
        <ele>2136.6</ele>
        <time>2023-04-01T19:12:39Z</time>
      </trkpt>
      <trkpt lat="39.304787" lon="-120.332847">
        <ele>2135.6</ele>
        <time>2023-04-01T19:15:21Z</time>
      </trkpt>
      <trkpt lat="39.304442" lon="-120.333819">
        <ele>2128.7</ele>
        <time>2023-04-01T19:17:33Z</time>
      </trkpt>
      <trkpt lat="39.304504" lon="-120.334192">
        <ele>2125.8</ele>
        <time>2023-04-01T19:17:37Z</time>
      </trkpt>
      <trkpt lat="39.305012" lon="-120.334648">
        <ele>2120.6</ele>
        <time>2023-04-01T19:17:47Z</time>
      </trkpt>
      <trkpt lat="39.305203" lon="-120.335016">
        <ele>2118.4</ele>
        <time>2023-04-01T19:17:57Z</time>
      </trkpt>
      <trkpt lat="39.305021" lon="-120.335382">
        <ele>2118.1</ele>
        <time>2023-04-01T19:18:06Z</time>
      </trkpt>
      <trkpt lat="39.304667" lon="-120.3356">
        <ele>2119.6</ele>
        <time>2023-04-01T19:18:19Z</time>
      </trkpt>
      <trkpt lat="39.304611" lon="-120.335699">
        <ele>2119.9</ele>
        <time>2023-04-01T19:18:22Z</time>
      </trkpt>
      <trkpt lat="39.304592" lon="-120.336275">
        <ele>2119.8</ele>
        <time>2023-04-01T19:18:36Z</time>
      </trkpt>
      <trkpt lat="39.304402" lon="-120.336473">
        <ele>2120.3</ele>
        <time>2023-04-01T19:24:07Z</time>
      </trkpt>
      <trkpt lat="39.30409" lon="-120.336566">
        <ele>2120.5</ele>
        <time>2023-04-01T19:24:43Z</time>
      </trkpt>
      <trkpt lat="39.303756" lon="-120.336785">
        <ele>2120.7</ele>
        <time>2023-04-01T19:25:18Z</time>
      </trkpt>
      <trkpt lat="39.303554" lon="-120.337007">
        <ele>2121.2</ele>
        <time>2023-04-01T19:25:41Z</time>
      </trkpt>
      <trkpt lat="39.302992" lon="-120.336887">
        <ele>2127.3</ele>
        <time>2023-04-01T19:26:48Z</time>
      </trkpt>
      <trkpt lat="39.302747" lon="-120.33688">
        <ele>2133.2</ele>
        <time>2023-04-01T19:27:17Z</time>
      </trkpt>
      <trkpt lat="39.302183" lon="-120.336766">
        <ele>2138.9</ele>
        <time>2023-04-01T19:28:22Z</time>
      </trkpt>
      <trkpt lat="39.301605" lon="-120.336481">
        <ele>2144.9</ele>
        <time>2023-04-01T19:29:38Z</time>
      </trkpt>
      <trkpt lat="39.301286" lon="-120.336253">
        <ele>2147.5</ele>
        <time>2023-04-01T19:30:16Z</time>
      </trkpt>
      <trkpt lat="39.300998" lon="-120.336223">
        <ele>2149.3</ele>
        <time>2023-04-01T19:30:43Z</time>
      </trkpt>
      <trkpt lat="39.299662" lon="-120.335662">
        <ele>2157.8</ele>
        <time>2023-04-01T19:32:54Z</time>
      </trkpt>
      <trkpt lat="39.299526" lon="-120.33563">
        <ele>2158.5</ele>
        <time>2023-04-01T19:33:08Z</time>
      </trkpt>
      <trkpt lat="39.299131" lon="-120.335304">
        <ele>2161.9</ele>
        <time>2023-04-01T19:33:46Z</time>
      </trkpt>
      <trkpt lat="39.298764" lon="-120.335232">
        <ele>2165.3</ele>
        <time>2023-04-01T19:34:23Z</time>
      </trkpt>
      <trkpt lat="39.298174" lon="-120.335026">
        <ele>2174.1</ele>
        <time>2023-04-01T19:35:19Z</time>
      </trkpt>
      <trkpt lat="39.298118" lon="-120.334868">
        <ele>2176.0</ele>
        <time>2023-04-01T19:35:44Z</time>
      </trkpt>
      <trkpt lat="39.297605" lon="-120.334759">
        <ele>2184.2</ele>
        <time>2023-04-01T19:36:53Z</time>
      </trkpt>
      <trkpt lat="39.297452" lon="-120.334657">
        <ele>2187.2</ele>
        <time>2023-04-01T19:37:18Z</time>
      </trkpt>
      <trkpt lat="39.297047" lon="-120.334618">
        <ele>2194.1</ele>
        <time>2023-04-01T19:38:15Z</time>
      </trkpt>
      <trkpt lat="39.29672" lon="-120.334455">
        <ele>2199.2</ele>
        <time>2023-04-01T19:39:00Z</time>
      </trkpt>
      <trkpt lat="39.296349" lon="-120.334132">
        <ele>2204.5</ele>
        <time>2023-04-01T19:39:54Z</time>
      </trkpt>
      <trkpt lat="39.295839" lon="-120.333459">
        <ele>2213.5</ele>
        <time>2023-04-01T19:41:20Z</time>
      </trkpt>
      <trkpt lat="39.295761" lon="-120.33323">
        <ele>2215.3</ele>
        <time>2023-04-01T19:41:38Z</time>
      </trkpt>
      <trkpt lat="39.295639" lon="-120.33314">
        <ele>2216.7</ele>
        <time>2023-04-01T19:41:54Z</time>
      </trkpt>
      <trkpt lat="39.295225" lon="-120.332298">
        <ele>2225.5</ele>
        <time>2023-04-01T19:43:16Z</time>
      </trkpt>
      <trkpt lat="39.295042" lon="-120.332064">
        <ele>2228.5</ele>
        <time>2023-04-01T19:43:43Z</time>
      </trkpt>
      <trkpt lat="39.294834" lon="-120.331576">
        <ele>2234.4</ele>
        <time>2023-04-01T19:44:34Z</time>
      </trkpt>
      <trkpt lat="39.294855" lon="-120.330859">
        <ele>2244.5</ele>
        <time>2023-04-01T19:45:40Z</time>
      </trkpt>
      <trkpt lat="39.295062" lon="-120.330575">
        <ele>2249.4</ele>
        <time>2023-04-01T19:46:18Z</time>
      </trkpt>
      <trkpt lat="39.295549" lon="-120.330266">
        <ele>2258.8</ele>
        <time>2023-04-01T19:47:54Z</time>
      </trkpt>
      <trkpt lat="39.295921" lon="-120.330264">
        <ele>2270.7</ele>
        <time>2023-04-01T19:49:07Z</time>
      </trkpt>
      <trkpt lat="39.296171" lon="-120.330107">
        <ele>2279.2</ele>
        <time>2023-04-01T19:49:58Z</time>
      </trkpt>
      <trkpt lat="39.296157" lon="-120.329179">
        <ele>2286.5</ele>
        <time>2023-04-01T19:51:26Z</time>
      </trkpt>
      <trkpt lat="39.296251" lon="-120.328597">
        <ele>2292.1</ele>
        <time>2023-04-01T19:52:24Z</time>
      </trkpt>
      <trkpt lat="39.296155" lon="-120.327934">
        <ele>2300.7</ele>
        <time>2023-04-01T19:53:33Z</time>
      </trkpt>
      <trkpt lat="39.296031" lon="-120.327681">
        <ele>2302.7</ele>
        <time>2023-04-01T19:54:04Z</time>
      </trkpt>
      <trkpt lat="39.295487" lon="-120.327379">
        <ele>2312.8</ele>
        <time>2023-04-01T19:55:36Z</time>
      </trkpt>
      <trkpt lat="39.295207" lon="-120.327297">
        <ele>2319.9</ele>
        <time>2023-04-01T19:56:35Z</time>
      </trkpt>
      <trkpt lat="39.294862" lon="-120.327078">
        <ele>2330.6</ele>
        <time>2023-04-01T19:57:45Z</time>
      </trkpt>
      <trkpt lat="39.294739" lon="-120.326923">
        <ele>2335.6</ele>
        <time>2023-04-01T19:58:21Z</time>
      </trkpt>
      <trkpt lat="39.29433" lon="-120.326604">
        <ele>2348.6</ele>
        <time>2023-04-01T20:00:01Z</time>
      </trkpt>
      <trkpt lat="39.293929" lon="-120.326204">
        <ele>2361.0</ele>
        <time>2023-04-01T20:01:27Z</time>
      </trkpt>
      <trkpt lat="39.293869" lon="-120.326066">
        <ele>2363.3</ele>
        <time>2023-04-01T20:01:44Z</time>
      </trkpt>
      <trkpt lat="39.293572" lon="-120.325744">
        <ele>2374.6</ele>
        <time>2023-04-01T20:02:50Z</time>
      </trkpt>
      <trkpt lat="39.293337" lon="-120.325361">
        <ele>2384.0</ele>
        <time>2023-04-01T20:03:53Z</time>
      </trkpt>
      <trkpt lat="39.293249" lon="-120.325105">
        <ele>2388.7</ele>
        <time>2023-04-01T20:04:42Z</time>
      </trkpt>
      <trkpt lat="39.29303" lon="-120.324858">
        <ele>2393.1</ele>
        <time>2023-04-01T20:05:28Z</time>
      </trkpt>
      <trkpt lat="39.292739" lon="-120.324306">
        <ele>2398.7</ele>
        <time>2023-04-01T20:06:30Z</time>
      </trkpt>
      <trkpt lat="39.2923" lon="-120.323772">
        <ele>2407.5</ele>
        <time>2023-04-01T20:07:39Z</time>
      </trkpt>
      <trkpt lat="39.291695" lon="-120.323324">
        <ele>2420.5</ele>
        <time>2023-04-01T20:09:20Z</time>
      </trkpt>
      <trkpt lat="39.291156" lon="-120.323166">
        <ele>2429.6</ele>
        <time>2023-04-01T20:10:34Z</time>
      </trkpt>
      <trkpt lat="39.290661" lon="-120.323284">
        <ele>2438.0</ele>
        <time>2023-04-01T20:11:39Z</time>
      </trkpt>
      <trkpt lat="39.289963" lon="-120.323983">
        <ele>2459.0</ele>
        <time>2023-04-01T20:14:32Z</time>
      </trkpt>
      <trkpt lat="39.289764" lon="-120.324438">
        <ele>2476.0</ele>
        <time>2023-04-01T20:16:05Z</time>
      </trkpt>
      <trkpt lat="39.289517" lon="-120.324878">
        <ele>2492.6</ele>
        <time>2023-04-01T20:18:05Z</time>
      </trkpt>
      <trkpt lat="39.289472" lon="-120.325178">
        <ele>2500.2</ele>
        <time>2023-04-01T20:18:50Z</time>
      </trkpt>
      <trkpt lat="39.28956" lon="-120.325616">
        <ele>2506.3</ele>
        <time>2023-04-01T20:19:45Z</time>
      </trkpt>
      <trkpt lat="39.289366" lon="-120.326251">
        <ele>2516.0</ele>
        <time>2023-04-01T20:20:53Z</time>
      </trkpt>
      <trkpt lat="39.289118" lon="-120.326834">
        <ele>2525.3</ele>
        <time>2023-04-01T20:22:06Z</time>
      </trkpt>
      <trkpt lat="39.288637" lon="-120.327421">
        <ele>2536.5</ele>
        <time>2023-04-01T20:24:09Z</time>
      </trkpt>
      <trkpt lat="39.288336" lon="-120.328011">
        <ele>2543.5</ele>
        <time>2023-04-01T20:25:29Z</time>
      </trkpt>
      <trkpt lat="39.28798" lon="-120.328307">
        <ele>2549.4</ele>
        <time>2023-04-01T20:26:46Z</time>
      </trkpt>
      <trkpt lat="39.288566" lon="-120.327573">
        <ele>2539.7</ele>
        <time>2023-04-01T20:33:37Z</time>
      </trkpt>
      <trkpt lat="39.288633" lon="-120.327395">
        <ele>2537.1</ele>
        <time>2023-04-01T20:33:41Z</time>
      </trkpt>
      <trkpt lat="39.288846" lon="-120.32715">
        <ele>2531.6</ele>
        <time>2023-04-01T20:33:47Z</time>
      </trkpt>
      <trkpt lat="39.289209" lon="-120.326853">
        <ele>2521.7</ele>
        <time>2023-04-01T20:33:54Z</time>
      </trkpt>
      <trkpt lat="39.289384" lon="-120.32649">
        <ele>2516.0</ele>
        <time>2023-04-01T20:34:00Z</time>
      </trkpt>
      <trkpt lat="39.289463" lon="-120.32614">
        <ele>2511.5</ele>
        <time>2023-04-01T20:34:05Z</time>
      </trkpt>
      <trkpt lat="39.289629" lon="-120.325793">
        <ele>2507.3</ele>
        <time>2023-04-01T20:34:11Z</time>
      </trkpt>
      <trkpt lat="39.289637" lon="-120.325402">
        <ele>2503.1</ele>
        <time>2023-04-01T20:34:17Z</time>
      </trkpt>
      <trkpt lat="39.289538" lon="-120.325039">
        <ele>2496.1</ele>
        <time>2023-04-01T20:34:27Z</time>
      </trkpt>
      <trkpt lat="39.289696" lon="-120.324928">
        <ele>2491.6</ele>
        <time>2023-04-01T20:35:28Z</time>
      </trkpt>
      <trkpt lat="39.289885" lon="-120.324485">
        <ele>2476.7</ele>
        <time>2023-04-01T20:35:36Z</time>
      </trkpt>
      <trkpt lat="39.290207" lon="-120.324056">
        <ele>2457.9</ele>
        <time>2023-04-01T20:35:44Z</time>
      </trkpt>
      <trkpt lat="39.290354" lon="-120.323636">
        <ele>2448.6</ele>
        <time>2023-04-01T20:35:50Z</time>
      </trkpt>
      <trkpt lat="39.29086" lon="-120.323315">
        <ele>2436.5</ele>
        <time>2023-04-01T20:35:59Z</time>
      </trkpt>
      <trkpt lat="39.291049" lon="-120.323377">
        <ele>2432.6</ele>
        <time>2023-04-01T20:36:02Z</time>
      </trkpt>
      <trkpt lat="39.291521" lon="-120.32334">
        <ele>2424.5</ele>
        <time>2023-04-01T20:36:09Z</time>
      </trkpt>
      <trkpt lat="39.292123" lon="-120.323647">
        <ele>2413.5</ele>
        <time>2023-04-01T20:36:17Z</time>
      </trkpt>
      <trkpt lat="39.292468" lon="-120.324058">
        <ele>2405.4</ele>
        <time>2023-04-01T20:36:22Z</time>
      </trkpt>
      <trkpt lat="39.293031" lon="-120.325008">
        <ele>2395.0</ele>
        <time>2023-04-01T20:36:35Z</time>
      </trkpt>
      <trkpt lat="39.293351" lon="-120.325475">
        <ele>2386.1</ele>
        <time>2023-04-01T20:36:44Z</time>
      </trkpt>
      <trkpt lat="39.293518" lon="-120.325573">
        <ele>2380.9</ele>
        <time>2023-04-01T20:36:47Z</time>
      </trkpt>
      <trkpt lat="39.293674" lon="-120.325353">
        <ele>2378.0</ele>
        <time>2023-04-01T20:36:54Z</time>
      </trkpt>
      <trkpt lat="39.294256" lon="-120.325401">
        <ele>2355.9</ele>
        <time>2023-04-01T20:37:09Z</time>
      </trkpt>
      <trkpt lat="39.294561" lon="-120.325276">
        <ele>2343.4</ele>
        <time>2023-04-01T20:37:16Z</time>
      </trkpt>
      <trkpt lat="39.294971" lon="-120.325293">
        <ele>2321.6</ele>
        <time>2023-04-01T20:37:24Z</time>
      </trkpt>
      <trkpt lat="39.29513" lon="-120.325197">
        <ele>2315.9</ele>
        <time>2023-04-01T20:37:26Z</time>
      </trkpt>
      <trkpt lat="39.295551" lon="-120.325108">
        <ele>2306.4</ele>
        <time>2023-04-01T20:37:30Z</time>
      </trkpt>
      <trkpt lat="39.295882" lon="-120.325127">
        <ele>2304.1</ele>
        <time>2023-04-01T20:37:33Z</time>
      </trkpt>
      <trkpt lat="39.296222" lon="-120.325067">
        <ele>2301.4</ele>
        <time>2023-04-01T20:37:37Z</time>
      </trkpt>
      <trkpt lat="39.296915" lon="-120.325034">
        <ele>2295.9</ele>
        <time>2023-04-01T20:37:49Z</time>
      </trkpt>
      <trkpt lat="39.297266" lon="-120.324949">
        <ele>2293.7</ele>
        <time>2023-04-01T20:37:55Z</time>
      </trkpt>
      <trkpt lat="39.29828" lon="-120.325192">
        <ele>2289.7</ele>
        <time>2023-04-01T20:38:11Z</time>
      </trkpt>
      <trkpt lat="39.298882" lon="-120.325231">
        <ele>2281.6</ele>
        <time>2023-04-01T20:38:20Z</time>
      </trkpt>
      <trkpt lat="39.299343" lon="-120.325406">
        <ele>2278.5</ele>
        <time>2023-04-01T20:38:28Z</time>
      </trkpt>
      <trkpt lat="39.299926" lon="-120.325825">
        <ele>2272.2</ele>
        <time>2023-04-01T20:38:38Z</time>
      </trkpt>
      <trkpt lat="39.300273" lon="-120.326211">
        <ele>2267.0</ele>
        <time>2023-04-01T20:38:45Z</time>
      </trkpt>
      <trkpt lat="39.300486" lon="-120.326636">
        <ele>2264.8</ele>
        <time>2023-04-01T20:38:52Z</time>
      </trkpt>
      <trkpt lat="39.300975" lon="-120.327236">
        <ele>2257.8</ele>
        <time>2023-04-01T20:39:02Z</time>
      </trkpt>
      <trkpt lat="39.301146" lon="-120.327965">
        <ele>2254.2</ele>
        <time>2023-04-01T20:39:11Z</time>
      </trkpt>
      <trkpt lat="39.301181" lon="-120.328694">
        <ele>2248.0</ele>
        <time>2023-04-01T20:39:23Z</time>
      </trkpt>
      <trkpt lat="39.301264" lon="-120.329286">
        <ele>2241.9</ele>
        <time>2023-04-01T20:39:34Z</time>
      </trkpt>
      <trkpt lat="39.301502" lon="-120.329882">
        <ele>2232.3</ele>
        <time>2023-04-01T20:40:39Z</time>
      </trkpt>
      <trkpt lat="39.301502" lon="-120.330443">
        <ele>2221.8</ele>
        <time>2023-04-01T20:40:47Z</time>
      </trkpt>
      <trkpt lat="39.301602" lon="-120.331253">
        <ele>2203.8</ele>
        <time>2023-04-01T20:40:55Z</time>
      </trkpt>
      <trkpt lat="39.301555" lon="-120.332098">
        <ele>2182.2</ele>
        <time>2023-04-01T20:41:03Z</time>
      </trkpt>
      <trkpt lat="39.301497" lon="-120.332331">
        <ele>2178.1</ele>
        <time>2023-04-01T20:41:05Z</time>
      </trkpt>
      <trkpt lat="39.3016" lon="-120.332655">
        <ele>2171.9</ele>
        <time>2023-04-01T20:41:09Z</time>
      </trkpt>
      <trkpt lat="39.301864" lon="-120.332964">
        <ele>2163.6</ele>
        <time>2023-04-01T20:41:13Z</time>
      </trkpt>
      <trkpt lat="39.302261" lon="-120.332852">
        <ele>2156.3</ele>
        <time>2023-04-01T20:41:17Z</time>
      </trkpt>
      <trkpt lat="39.303456" lon="-120.331999">
        <ele>2143.1</ele>
        <time>2023-04-01T20:41:29Z</time>
      </trkpt>
      <trkpt lat="39.30372" lon="-120.331855">
        <ele>2140.6</ele>
        <time>2023-04-01T20:41:32Z</time>
      </trkpt>
      <trkpt lat="39.304162" lon="-120.332036">
        <ele>2138.1</ele>
        <time>2023-04-01T20:41:37Z</time>
      </trkpt>
      <trkpt lat="39.304561" lon="-120.332091">
        <ele>2137.0</ele>
        <time>2023-04-01T20:41:46Z</time>
      </trkpt>
      <trkpt lat="39.304721" lon="-120.332362">
        <ele>2135.1</ele>
        <time>2023-04-01T20:41:53Z</time>
      </trkpt>
      <trkpt lat="39.304736" lon="-120.333003">
        <ele>2131.5</ele>
        <time>2023-04-01T20:42:08Z</time>
      </trkpt>
      <trkpt lat="39.304937" lon="-120.332788">
        <ele>2132.9</ele>
        <time>2023-04-01T20:47:15Z</time>
      </trkpt>
      <trkpt lat="39.305126" lon="-120.332736">
        <ele>2133.3</ele>
        <time>2023-04-01T20:50:24Z</time>
      </trkpt>
      <trkpt lat="39.305258" lon="-120.33287">
        <ele>2132.2</ele>
        <time>2023-04-01T20:50:55Z</time>
      </trkpt>
      <trkpt lat="39.305283" lon="-120.332658">
        <ele>2133.5</ele>
        <time>2023-04-01T20:51:15Z</time>
      </trkpt>
      <trkpt lat="39.305532" lon="-120.332664">
        <ele>2132.9</ele>
        <time>2023-04-01T20:51:39Z</time>
      </trkpt>
      <trkpt lat="39.305427" lon="-120.332556">
        <ele>2133.8</ele>
        <time>2023-04-01T21:03:01Z</time>
      </trkpt>
    </trkseg>
  </trk>
</gpx>