{"type": "Feature", "properties": {}, "geometry": {"type": "LineString", "coordinates": [[-119.645104, 38.336488, 2852.9], [-119.645259, 38.336523, 2853.0], [-119.6453, 38.336555, 2852.9], [-119.645304, 38.336568, 2852.4], [-119.645339, 38.336592, 2851.9], [-119.645478, 38.336608, 2853.9], [-119.645497, 38.336608, 2854.1], [-119.64554, 38.336623, 2853.9], [-119.645547, 38.336671, 2854.8], [-119.645531, 38.33671, 2855.1], [-119.645475, 38.336744, 2856.5], [-119.645464, 38.336754, 2855.3], [-119.645429, 38.336847, 2854.8], [-119.645445, 38.33691, 2857.4], [-119.645444, 38.336925, 2855.9], [-119.645458, 38.337016, 2855.1], [-119.645486, 38.337091, 2853.9], [-119.64561, 38.337206, 2855.4], [-119.645664, 38.337299, 2855.6], [-119.645672, 38.337372, 2855.4], [-119.645652, 38.337405, 2854.0], [-119.645642, 38.337466, 2855.0], [-119.645694, 38.337523, 2856.3], [-119.645694, 38.337526, 2859.8], [-119.645745, 38.337687, 2860.2], [-119.645738, 38.337778, 2860.2], [-119.645695, 38.337932, 2858.6], [-119.645771, 38.337962, 2860.3], [-119.645786, 38.337999, 2863.9], [-119.645823, 38.338029, 2865.2], [-119.645911, 38.338172, 2871.1], [-119.645912, 38.338187, 2871.3], [-119.64596, 38.338257, 2872.4], [-119.645956, 38.338315, 2872.9], [-119.645976, 38.338342, 2873.2], [-119.645996, 38.338351, 2874.7], [-119.646, 38.338376, 2875.7], [-119.646004, 38.338469, 2872.2], [-119.646023, 38.338522, 2871.0], [-119.64604, 38.338582, 2872.4], [-119.646079, 38.33864, 2872.7], [-119.646124, 38.33868, 2873.0], [-119.646158, 38.338705, 2873.4], [-119.646197, 38.338761, 2875.6], [-119.646203, 38.338807, 2876.4], [-119.646235, 38.338825, 2877.5], [-119.646244, 38.338835, 2877.8], [-119.646295, 38.338924, 2880.0], [-119.646353, 38.338987, 2881.9], [-119.64636, 38.339027, 2882.5], [-119.646316, 38.339157, 2880.9], [-119.646291, 38.339236, 2885.0], [-119.646294, 38.33926, 2886.2], [-119.646276, 38.339294, 2886.0], [-119.64628, 38.339325, 2886.0], [-119.646276, 38.339336, 2886.2], [-119.646244, 38.339385, 2887.5], [-119.646208, 38.339504, 2886.5], [-119.646145, 38.339553, 2885.9], [-119.646163, 38.339572, 2887.1], [-119.646148, 38.339627, 2887.4], [-119.646136, 38.339642, 2888.1], [-119.646128, 38.339664, 2888.4], [-119.646133, 38.339689, 2888.1], [-119.646113, 38.339754, 2888.1], [-119.646142, 38.339827, 2891.3], [-119.646126, 38.339905, 2891.5], [-119.646098, 38.339961, 2889.0], [-119.646106, 38.339998, 2891.1], [-119.646128, 38.340026, 2891.5], [-119.646124, 38.340051, 2890.5], [-119.646082, 38.340086, 2893.1], [-119.646111, 38.340161, 2895.0], [-119.646151, 38.340224, 2895.0], [-119.646251, 38.340319, 2902.4], [-119.646258, 38.340323, 2902.9], [-119.646292, 38.340373, 2902.2], [-119.64636, 38.340405, 2901.8], [-119.646397, 38.34045, 2903.7], [-119.646402, 38.34046, 2903.2], [-119.646456, 38.340528, 2905.0], [-119.646462, 38.340595, 2905.5], [-119.646453, 38.340637, 2905.0], [-119.646454, 38.34072, 2904.1], [-119.646493, 38.340805, 2907.1], [-119.646518, 38.340824, 2907.7], [-119.646545, 38.340855, 2908.7], [-119.646656, 38.340916, 2911.8], [-119.646673, 38.340941, 2909.6], [-119.646681, 38.340944, 2910.8], [-119.646732, 38.34098, 2911.0], [-119.646878, 38.341005, 2915.3], [-119.647008, 38.341085, 2916.8], [-119.64702, 38.341105, 2915.9], [-119.647021, 38.341142, 2913.9], [-119.647018, 38.341155, 2912.6], [-119.646988, 38.341178, 2913.4], [-119.646973, 38.341331, 2910.6], [-119.646956, 38.341383, 2909.7], [-119.646949, 38.34147, 2908.8], [-119.646961, 38.341524, 2911.8], [-119.646985, 38.34156, 2911.7], [-119.646985, 38.341587, 2912.7], [-119.646964, 38.341636, 2912.8], [-119.646951, 38.341704, 2912.7], [-119.646945, 38.341714, 2912.2], [-119.646934, 38.341763, 2913.6], [-119.646911, 38.3418, 2914.6], [-119.646905, 38.341863, 2915.4], [-119.646893, 38.341935, 2915.7], [-119.646899, 38.341987, 2917.3], [-119.646883, 38.342026, 2917.0], [-119.646882, 38.342075, 2918.6], [-119.646892, 38.342258, 2917.2], [-119.646915, 38.342308, 2917.3], [-119.646944, 38.342343, 2918.9], [-119.646961, 38.342418, 2919.4], [-119.646952, 38.342602, 2921.8], [-119.646953, 38.342611, 2922.0], [-119.646983, 38.342699, 2922.6], [-119.646986, 38.342748, 2924.8], [-119.647006, 38.342781, 2924.0], [-119.647069, 38.342833, 2926.1], [-119.647083, 38.342925, 2927.2], [-119.647082, 38.342934, 2927.6], [-119.6471, 38.34303, 2928.6], [-119.647167, 38.343102, 2930.0], [-119.647177, 38.343151, 2929.4], [-119.647166, 38.343196, 2928.1], [-119.647195, 38.343268, 2931.3], [-119.647191, 38.3433, 2929.0], [-119.647206, 38.343323, 2930.2], [-119.647236, 38.343337, 2930.0], [-119.647274, 38.343398, 2933.4], [-119.647298, 38.343418, 2934.9], [-119.647323, 38.343448, 2936.7], [-119.64734, 38.343517, 2938.9], [-119.647358, 38.343538, 2938.1], [-119.647331, 38.343597, 2942.7], [-119.64729, 38.343776, 2946.2], [-119.647287, 38.343782, 2947.2], [-119.647281, 38.343838, 2950.5], [-119.647294, 38.343882, 2952.6], [-119.647289, 38.343907, 2952.4], [-119.647273, 38.343929, 2951.6], [-119.64727, 38.343972, 2949.6], [-119.647214, 38.344084, 2953.6], [-119.647232, 38.344136, 2954.8], [-119.647236, 38.344171, 2954.7], [-119.647278, 38.344255, 2957.4], [-119.64727, 38.344308, 2959.6], [-119.647232, 38.344368, 2960.0], [-119.647229, 38.344413, 2961.9], [-119.647243, 38.344487, 2962.7], [-119.647241, 38.344496, 2963.0], [-119.647248, 38.344623, 2967.0], [-119.647236, 38.344681, 2970.3], [-119.647206, 38.344803, 2971.2], [-119.64722, 38.344854, 2969.9], [-119.647217, 38.344886, 2971.0], [-119.647206, 38.344908, 2973.7], [-119.647183, 38.344923, 2972.6], [-119.647173, 38.344949, 2973.2], [-119.647172, 38.34503, 2976.6], [-119.647217, 38.345098, 2981.1], [-119.647214, 38.345119, 2979.5], [-119.647228, 38.345143, 2980.3], [-119.647307, 38.34518, 2982.5], [-119.647359, 38.34524, 2982.3], [-119.647363, 38.345266, 2981.0], [-119.647341, 38.345274, 2983.2], [-119.647364, 38.345285, 2984.7], [-119.647382, 38.345312, 2987.3], [-119.647382, 38.34532, 2987.7], [-119.647347, 38.345367, 2986.2], [-119.6473, 38.345409, 2987.3], [-119.647323, 38.345447, 2989.5], [-119.647324, 38.345455, 2989.5], [-119.647247, 38.345502, 2985.8], [-119.647233, 38.345526, 2984.5], [-119.64724, 38.34548, 2984.3], [-119.647264, 38.345454, 2983.5], [-119.647378, 38.345367, 2985.1], [-119.647347, 38.345367, 2985.4], [-119.647296, 38.345434, 2979.3], [-119.647273, 38.345475, 2977.8], [-119.647237, 38.345509, 2977.0], [-119.647245, 38.345572, 2978.0], [-119.647221, 38.3456, 2984.0], [-119.647186, 38.345671, 2984.5], [-119.647176, 38.345716, 2986.5], [-119.647154, 38.345736, 2988.5], [-119.647115, 38.345749, 2988.9], [-119.647122, 38.345771, 2991.1], [-119.647114, 38.345788, 2990.0], [-119.647113, 38.345927, 2987.3], [-119.647106, 38.346092, 2993.0], [-119.647108, 38.346216, 2991.9], [-119.6471, 38.34624, 2990.7], [-119.64707, 38.346265, 2991.2], [-119.647047, 38.346298, 2990.4], [-119.647072, 38.346363, 2991.6], [-119.647066, 38.346401, 2994.5], [-119.647079, 38.346435, 2995.9], [-119.647119, 38.346517, 2996.9], [-119.647141, 38.346533, 2999.5], [-119.64718, 38.346604, 2996.7], [-119.647212, 38.346692, 2996.4], [-119.647244, 38.346735, 2999.4], [-119.647265, 38.346786, 3000.9], [-119.64731, 38.346828, 3006.0], [-119.647334, 38.346815, 3004.4], [-119.647359, 38.34683, 3008.0], [-119.647355, 38.346856, 3011.9], [-119.647337, 38.346873, 3015.6], [-119.647346, 38.346912, 3012.6], [-119.647433, 38.346982, 3017.4], [-119.647449, 38.347024, 3019.0], [-119.647501, 38.347048, 3022.0], [-119.647554, 38.347085, 3018.3], [-119.647693, 38.347143, 3026.5], [-119.6477, 38.347149, 3027.5], [-119.647713, 38.347197, 3024.5], [-119.647745, 38.347204, 3029.5], [-119.647747, 38.347225, 3029.2], [-119.647774, 38.347266, 3031.7], [-119.647778, 38.347301, 3029.8], [-119.647867, 38.347302, 3036.2], [-119.647906, 38.347366, 3035.5], [-119.647909, 38.347434, 3036.5], [-119.647888, 38.347469, 3037.7], [-119.647878, 38.347515, 3040.4], [-119.647949, 38.347591, 3045.9], [-119.647963, 38.347632, 3046.8], [-119.648039, 38.347705, 3046.4], [-119.648132, 38.347752, 3049.1], [-119.648132, 38.347779, 3047.8], [-119.648149, 38.347795, 3047.7], [-119.648215, 38.347802, 3045.5], [-119.64823, 38.347809, 3046.0], [-119.648379, 38.347854, 3052.4], [-119.648401, 38.347871, 3049.7], [-119.648426, 38.347916, 3051.3], [-119.64846, 38.347963, 3051.5], [-119.648463, 38.348002, 3052.8], [-119.648494, 38.348043, 3055.4], [-119.648505, 38.348084, 3056.0], [-119.648592, 38.348231, 3061.8], [-119.648616, 38.348275, 3061.1], [-119.648607, 38.34836, 3060.8], [-119.648614, 38.348388, 3060.3], [-119.648671, 38.348437, 3058.6], [-119.648714, 38.3485, 3059.2], [-119.648713, 38.348553, 3060.5], [-119.648701, 38.348569, 3059.0], [-119.648698, 38.348615, 3058.5], [-119.648733, 38.348651, 3061.3], [-119.648728, 38.348677, 3062.3], [-119.64874, 38.348698, 3060.9], [-119.648796, 38.348719, 3065.5], [-119.648796, 38.348743, 3063.7], [-119.648764, 38.348783, 3064.1], [-119.648797, 38.348821, 3069.4], [-119.648817, 38.348882, 3076.5], [-119.648801, 38.34894, 3077.2], [-119.648826, 38.348954, 3077.4], [-119.648841, 38.348992, 3077.4], [-119.648821, 38.349042, 3077.2], [-119.648767, 38.349096, 3079.3], [-119.648766, 38.349123, 3081.3], [-119.648753, 38.349147, 3077.7], [-119.648762, 38.349168, 3082.6], [-119.648733, 38.349223, 3080.4], [-119.648704, 38.349325, 3084.7], [-119.648687, 38.349345, 3084.5], [-119.648662, 38.349329, 3082.8], [-119.648629, 38.349357, 3080.3], [-119.648593, 38.34943, 3080.6], [-119.648561, 38.349471, 3081.5], [-119.648539, 38.349553, 3083.3], [-119.648472, 38.349638, 3087.5], [-119.648477, 38.349664, 3086.9], [-119.648495, 38.349686, 3084.7], [-119.648492, 38.34972, 3085.1], [-119.648525, 38.349726, 3084.7], [-119.648549, 38.349812, 3086.3], [-119.648533, 38.349847, 3085.0], [-119.648489, 38.349888, 3087.6], [-119.648486, 38.349945, 3088.7], [-119.648468, 38.349993, 3090.6], [-119.648508, 38.350043, 3092.8], [-119.648537, 38.350055, 3092.5], [-119.648533, 38.35008, 3094.1], [-119.648553, 38.350167, 3095.3], [-119.648554, 38.350208, 3094.0], [-119.648591, 38.350248, 3095.0], [-119.648597, 38.350295, 3093.5], [-119.648644, 38.350349, 3098.9], [-119.648705, 38.350372, 3102.9], [-119.648765, 38.35037, 3106.0], [-119.648795, 38.350378, 3103.8], [-119.648806, 38.350392, 3102.3], [-119.648766, 38.350415, 3099.4], [-119.648777, 38.350413, 3103.1], [-119.648868, 38.350446, 3104.1], [-119.648879, 38.350469, 3104.7], [-119.648909, 38.350481, 3104.7], [-119.648936, 38.350537, 3103.9], [-119.648938, 38.350546, 3103.8], [-119.648965, 38.350588, 3102.6], [-119.649055, 38.350684, 3106.8], [-119.649072, 38.350721, 3106.6], [-119.649074, 38.350772, 3109.4], [-119.649137, 38.350871, 3118.9], [-119.64914, 38.350915, 3118.9], [-119.649107, 38.350955, 3113.5], [-119.649141, 38.350997, 3117.9], [-119.649155, 38.351035, 3120.3], [-119.649189, 38.351109, 3123.8], [-119.649193, 38.351132, 3123.6], [-119.64918, 38.351163, 3127.8], [-119.649188, 38.351221, 3127.3], [-119.649172, 38.351297, 3128.6], [-119.649135, 38.35135, 3129.8], [-119.649128, 38.351379, 3129.4], [-119.649149, 38.351497, 3134.3], [-119.649147, 38.351573, 3136.4], [-119.649137, 38.351651, 3136.2], [-119.649155, 38.35175, 3142.1], [-119.649156, 38.351765, 3143.1], [-119.649144, 38.351863, 3145.8], [-119.649162, 38.351937, 3146.7], [-119.649149, 38.351965, 3146.2], [-119.649142, 38.352012, 3148.8], [-119.649149, 38.352054, 3149.7], [-119.649143, 38.352099, 3148.7], [-119.649123, 38.352187, 3148.1], [-119.649087, 38.352286, 3145.4], [-119.649039, 38.352362, 3142.2], [-119.649071, 38.352409, 3142.7], [-119.64905, 38.352438, 3142.8], [-119.649038, 38.352448, 3142.0], [-119.648915, 38.352617, 3141.6], [-119.648883, 38.352647, 3141.6], [-119.648847, 38.35271, 3140.3], [-119.648774, 38.352778, 3140.0], [-119.648717, 38.352869, 3140.2], [-119.648652, 38.352945, 3140.4], [-119.648639, 38.353018, 3140.0], [-119.648607, 38.353119, 3139.1], [-119.6486, 38.353135, 3140.2], [-119.648564, 38.353304, 3139.1], [-119.648488, 38.353472, 3135.9], [-119.648481, 38.353482, 3136.1], [-119.648374, 38.353652, 3136.7], [-119.648374, 38.353662, 3136.9], [-119.648399, 38.353736, 3135.0], [-119.648408, 38.353724, 3135.7], [-119.648407, 38.353677, 3135.2], [-119.648419, 38.353721, 3134.7], [-119.648389, 38.353783, 3134.1], [-119.648331, 38.353851, 3133.8], [-119.648327, 38.353944, 3134.3], [-119.648306, 38.354123, 3132.9], [-119.648302, 38.354312, 3131.9], [-119.648305, 38.354325, 3132.4], [-119.648282, 38.354479, 3129.1], [-119.648285, 38.354493, 3129.1], [-119.648288, 38.354597, 3130.0], [-119.648271, 38.354653, 3130.0], [-119.64827, 38.354665, 3130.3], [-119.648285, 38.354832, 3131.2], [-119.648305, 38.354927, 3129.3], [-119.648285, 38.355024, 3128.9], [-119.648288, 38.355037, 3128.5], [-119.648342, 38.355124, 3129.1], [-119.648367, 38.355212, 3130.0], [-119.64838, 38.355247, 3129.8], [-119.648416, 38.355277, 3129.7], [-119.648465, 38.355347, 3130.2], [-119.648496, 38.355452, 3131.3], [-119.648505, 38.355532, 3132.6], [-119.648503, 38.355542, 3132.2], [-119.648509, 38.355721, 3132.4], [-119.648511, 38.355732, 3132.6], [-119.648572, 38.355911, 3133.1], [-119.648561, 38.355916, 3133.6], [-119.648583, 38.355946, 3132.1], [-119.648598, 38.356029, 3130.1], [-119.64864, 38.356089, 3129.9], [-119.648648, 38.356149, 3131.1], [-119.648701, 38.356267, 3131.2], [-119.648711, 38.35631, 3131.5], [-119.648701, 38.356483, 3131.3], [-119.648658, 38.356593, 3130.6], [-119.648665, 38.356625, 3130.3], [-119.648664, 38.35664, 3129.0], [-119.648641, 38.356734, 3128.1], [-119.648665, 38.356777, 3129.6], [-119.648675, 38.356827, 3132.2], [-119.648713, 38.35691, 3130.2], [-119.648724, 38.356987, 3129.3], [-119.648727, 38.35711, 3130.9], [-119.648743, 38.357158, 3129.9], [-119.648759, 38.357306, 3130.1], [-119.64878, 38.357354, 3131.3], [-119.648795, 38.35742, 3131.8], [-119.648842, 38.357519, 3132.0], [-119.648844, 38.357531, 3131.5], [-119.648841, 38.357578, 3130.7], [-119.648859, 38.357691, 3131.3], [-119.648861, 38.357741, 3131.2], [-119.648882, 38.357802, 3129.1], [-119.648921, 38.35787, 3130.7], [-119.648937, 38.357946, 3131.9], [-119.648974, 38.358024, 3131.8], [-119.648976, 38.358037, 3130.5], [-119.648965, 38.358102, 3129.1], [-119.649018, 38.358148, 3128.1], [-119.649028, 38.358187, 3127.6], [-119.649083, 38.358218, 3125.8], [-119.649071, 38.358252, 3125.9], [-119.649105, 38.358298, 3126.7], [-119.649085, 38.358321, 3127.4], [-119.649105, 38.358344, 3126.6], [-119.649129, 38.358405, 3125.6], [-119.649129, 38.35848, 3126.0], [-119.649114, 38.358552, 3122.9], [-119.649144, 38.358653, 3124.4], [-119.649143, 38.358662, 3123.6], [-119.649151, 38.358714, 3123.1], [-119.649207, 38.358817, 3125.7], [-119.649216, 38.358837, 3125.8], [-119.649221, 38.358866, 3125.8], [-119.649213, 38.358913, 3125.7], [-119.649221, 38.358945, 3126.6], [-119.649215, 38.358995, 3125.3], [-119.649191, 38.359051, 3125.6], [-119.649213, 38.359114, 3125.5], [-119.649197, 38.359164, 3125.0], [-119.649163, 38.359252, 3125.6], [-119.649156, 38.359345, 3123.5], [-119.649151, 38.359381, 3122.4], [-119.649175, 38.359417, 3119.8], [-119.649161, 38.359465, 3121.4], [-119.649191, 38.359517, 3120.4], [-119.649208, 38.359593, 3120.3], [-119.649234, 38.359628, 3119.8], [-119.649255, 38.35964, 3120.4], [-119.649269, 38.359691, 3119.9], [-119.649325, 38.359841, 3123.3], [-119.649314, 38.359888, 3120.1], [-119.649372, 38.359994, 3119.8], [-119.649357, 38.360059, 3119.5], [-119.649379, 38.360135, 3120.7], [-119.649394, 38.360287, 3122.2], [-119.649361, 38.360338, 3118.3], [-119.649349, 38.360406, 3118.8], [-119.649349, 38.360419, 3119.5], [-119.649399, 38.360575, 3120.6], [-119.649399, 38.360585, 3120.4], [-119.649381, 38.360681, 3117.4], [-119.649332, 38.360761, 3118.2], [-119.649307, 38.360794, 3115.6], [-119.64929, 38.360886, 3118.0], [-119.649315, 38.360898, 3119.1], [-119.64931, 38.360925, 3118.8], [-119.649299, 38.36095, 3119.3], [-119.649306, 38.360972, 3120.0], [-119.649343, 38.361014, 3120.2], [-119.64936, 38.361052, 3119.4], [-119.64941, 38.361086, 3120.0], [-119.649414, 38.361096, 3119.8], [-119.649394, 38.361144, 3120.7], [-119.649398, 38.361167, 3120.0], [-119.649449, 38.361239, 3120.5], [-119.649441, 38.361261, 3119.8], [-119.649448, 38.361421, 3119.0], [-119.649431, 38.361472, 3117.8], [-119.649501, 38.361573, 3118.9], [-119.64943, 38.361658, 3114.9], [-119.649421, 38.361671, 3115.5], [-119.649445, 38.361712, 3116.8], [-119.649452, 38.361758, 3116.3], [-119.649479, 38.361788, 3116.3], [-119.649467, 38.361833, 3114.8], [-119.649481, 38.361881, 3114.3], [-119.649564, 38.361924, 3113.7], [-119.649588, 38.361951, 3114.3], [-119.649588, 38.361966, 3113.8], [-119.649634, 38.361986, 3116.6], [-119.649673, 38.362024, 3118.5], [-119.649703, 38.362061, 3114.9], [-119.649717, 38.362105, 3112.0], [-119.649779, 38.362168, 3113.5], [-119.649779, 38.362194, 3111.7], [-119.649812, 38.362197, 3113.4], [-119.649856, 38.362235, 3116.1], [-119.64987, 38.36228, 3116.3], [-119.649864, 38.362305, 3114.0], [-119.649895, 38.362333, 3121.7], [-119.649898, 38.362392, 3122.2], [-119.649915, 38.362405, 3124.6], [-119.649926, 38.362434, 3124.4], [-119.649959, 38.362472, 3124.2], [-119.650079, 38.362564, 3126.4], [-119.650093, 38.362604, 3126.2], [-119.650118, 38.362621, 3126.1], [-119.650136, 38.362696, 3126.9], [-119.650144, 38.362706, 3126.8], [-119.650199, 38.362743, 3128.5], [-119.650229, 38.362803, 3130.3], [-119.650237, 38.362911, 3130.9], [-119.650275, 38.362964, 3131.3], [-119.650282, 38.363024, 3130.8], [-119.650303, 38.36311, 3127.1], [-119.650291, 38.363147, 3126.6], [-119.650312, 38.363191, 3126.3], [-119.650356, 38.363258, 3127.0], [-119.65036, 38.363283, 3127.9], [-119.650311, 38.363354, 3127.0], [-119.650307, 38.363369, 3127.0], [-119.650316, 38.36341, 3127.1], [-119.650364, 38.363495, 3127.5], [-119.650368, 38.363507, 3127.4], [-119.650425, 38.363716, 3127.5], [-119.650438, 38.363775, 3127.3], [-119.650417, 38.363822, 3126.4], [-119.650399, 38.363909, 3126.1], [-119.650399, 38.363922, 3126.0], [-119.650383, 38.363977, 3126.4], [-119.650388, 38.36405, 3126.1], [-119.65037, 38.364111, 3125.0], [-119.650366, 38.364221, 3124.5], [-119.650341, 38.364286, 3124.1], [-119.650309, 38.364434, 3123.9], [-119.650318, 38.364496, 3123.4], [-119.650345, 38.364608, 3121.1], [-119.650336, 38.364689, 3120.2], [-119.650394, 38.364764, 3119.2], [-119.650399, 38.364839, 3121.7], [-119.650402, 38.36485, 3121.8], [-119.650352, 38.364899, 3119.5], [-119.650362, 38.364916, 3119.8], [-119.650452, 38.364938, 3124.1], [-119.65052, 38.36499, 3122.5], [-119.65054, 38.365051, 3120.2], [-119.650577, 38.365107, 3122.1], [-119.650584, 38.365158, 3120.6], [-119.650629, 38.365235, 3124.1], [-119.650623, 38.365265, 3122.9], [-119.650606, 38.365277, 3120.7], [-119.650586, 38.365316, 3120.2], [-119.650611, 38.365355, 3120.6], [-119.650634, 38.365426, 3118.2], [-119.650633, 38.365449, 3118.2], [-119.650623, 38.365459, 3116.5], [-119.650596, 38.365513, 3115.7], [-119.650621, 38.365552, 3117.9], [-119.650602, 38.365594, 3115.6], [-119.650601, 38.365644, 3113.7], [-119.650623, 38.365664, 3114.3], [-119.650702, 38.365715, 3116.0], [-119.650722, 38.365743, 3116.9], [-119.650734, 38.365786, 3118.4], [-119.650712, 38.365914, 3116.4], [-119.650737, 38.365953, 3116.0], [-119.650741, 38.365965, 3115.0], [-119.650779, 38.366045, 3113.2], [-119.650786, 38.366129, 3111.9], [-119.65085, 38.366179, 3114.2], [-119.650878, 38.36622, 3113.5], [-119.650928, 38.366253, 3113.1], [-119.650942, 38.366265, 3113.7], [-119.651083, 38.366396, 3113.6], [-119.651095, 38.366404, 3115.1], [-119.65121, 38.366463, 3115.2], [-119.651249, 38.366519, 3112.9], [-119.65127, 38.366558, 3113.2], [-119.651365, 38.366654, 3112.4], [-119.651381, 38.366665, 3112.6], [-119.651421, 38.366731, 3110.9], [-119.651505, 38.366789, 3110.8], [-119.651516, 38.366799, 3110.0], [-119.651561, 38.366813, 3109.7], [-119.651678, 38.366939, 3107.9], [-119.651734, 38.366975, 3108.3], [-119.651809, 38.367002, 3107.0], [-119.651849, 38.367039, 3104.0], [-119.651868, 38.36705, 3104.4], [-119.65204, 38.367156, 3102.2], [-119.652053, 38.367163, 3102.6], [-119.652241, 38.367226, 3103.1], [-119.652262, 38.367231, 3103.4], [-119.652462, 38.367299, 3106.5], [-119.652532, 38.367335, 3107.5], [-119.652629, 38.367353, 3108.6], [-119.65265, 38.367361, 3108.9], [-119.652784, 38.367389, 3104.9], [-119.652874, 38.367437, 3105.0], [-119.652889, 38.367442, 3106.2], [-119.653063, 38.367483, 3106.3], [-119.653082, 38.367484, 3106.5], [-119.653205, 38.367502, 3106.6], [-119.653264, 38.367525, 3107.1], [-119.653281, 38.367528, 3107.1], [-119.653464, 38.367597, 3108.4], [-119.653481, 38.367605, 3108.3], [-119.653531, 38.36762, 3107.5], [-119.653602, 38.367622, 3110.8], [-119.653679, 38.367649, 3112.2], [-119.653713, 38.367673, 3114.6], [-119.653795, 38.367707, 3113.0], [-119.653864, 38.367716, 3112.9], [-119.653989, 38.367762, 3113.3], [-119.654017, 38.367752, 3113.8], [-119.654086, 38.367753, 3114.9], [-119.654101, 38.367757, 3115.4], [-119.654288, 38.367832, 3114.6], [-119.654363, 38.36783, 3113.0], [-119.654424, 38.367809, 3114.0], [-119.654452, 38.367814, 3112.4], [-119.65447, 38.367837, 3114.9], [-119.654657, 38.367909, 3117.0], [-119.65471, 38.367932, 3116.9], [-119.654731, 38.367953, 3116.7], [-119.654847, 38.368001, 3115.3], [-119.65486, 38.368008, 3115.8], [-119.655029, 38.36808, 3119.9], [-119.655075, 38.368119, 3119.7], [-119.65518, 38.368176, 3119.2], [-119.655194, 38.36818, 3121.1], [-119.655286, 38.368216, 3123.4], [-119.655346, 38.368263, 3122.9], [-119.65536, 38.368299, 3122.1], [-119.655414, 38.36835, 3122.1], [-119.655506, 38.368414, 3123.0], [-119.655516, 38.368423, 3123.3], [-119.655591, 38.368469, 3123.9], [-119.655671, 38.368544, 3123.8], [-119.655778, 38.368628, 3123.9], [-119.655839, 38.36866, 3124.9], [-119.65586, 38.368668, 3125.4], [-119.655927, 38.368716, 3125.7], [-119.655936, 38.368738, 3125.0], [-119.655913, 38.36878, 3124.4], [-119.655955, 38.368814, 3126.4], [-119.656112, 38.368909, 3131.3], [-119.65613, 38.368921, 3130.4], [-119.656186, 38.368972, 3129.9], [-119.656179, 38.369015, 3126.2], [-119.656205, 38.369067, 3126.3], [-119.656213, 38.369076, 3126.3], [-119.656315, 38.369138, 3126.9], [-119.656398, 38.369213, 3127.6], [-119.656539, 38.369354, 3129.8], [-119.656688, 38.369516, 3130.4], [-119.656724, 38.369606, 3129.3], [-119.656769, 38.369676, 3130.1], [-119.656872, 38.369826, 3130.6], [-119.656897, 38.369857, 3130.4], [-119.656947, 38.369882, 3131.5], [-119.656953, 38.369929, 3130.4], [-119.656979, 38.369969, 3130.0], [-119.656975, 38.369982, 3130.2], [-119.657011, 38.370028, 3129.9], [-119.657136, 38.37011, 3132.7], [-119.657186, 38.370153, 3131.3], [-119.657206, 38.370214, 3132.7], [-119.657234, 38.370256, 3131.6], [-119.657291, 38.370348, 3133.3], [-119.657317, 38.370424, 3133.3], [-119.657325, 38.370433, 3134.2], [-119.657355, 38.370539, 3133.2], [-119.657389, 38.370574, 3134.0], [-119.657403, 38.370583, 3132.7], [-119.657437, 38.370639, 3132.5], [-119.657394, 38.370667, 3133.2], [-119.65739, 38.370687, 3132.0], [-119.657398, 38.370712, 3133.3], [-119.657438, 38.370751, 3133.5], [-119.657608, 38.370844, 3138.9], [-119.657625, 38.370854, 3139.2], [-119.65773, 38.370946, 3137.4], [-119.657785, 38.370978, 3136.8], [-119.657913, 38.371084, 3141.3], [-119.657946, 38.371121, 3138.5], [-119.658004, 38.371125, 3138.9], [-119.658006, 38.371153, 3135.5], [-119.658033, 38.371216, 3138.0], [-119.658056, 38.371243, 3137.8], [-119.658159, 38.371304, 3135.6], [-119.658185, 38.371351, 3136.2], [-119.658217, 38.37142, 3135.1], [-119.658273, 38.371492, 3136.5], [-119.658283, 38.371498, 3134.9], [-119.658393, 38.371614, 3138.2], [-119.658434, 38.371661, 3138.5], [-119.658443, 38.371744, 3139.6], [-119.658468, 38.371787, 3139.7], [-119.658488, 38.371813, 3140.1], [-119.658505, 38.371869, 3139.7], [-119.658498, 38.371908, 3139.7], [-119.658523, 38.371943, 3138.8], [-119.658579, 38.371987, 3137.9], [-119.658586, 38.372013, 3137.3], [-119.658573, 38.372037, 3136.0], [-119.658613, 38.372098, 3137.0], [-119.658616, 38.372113, 3136.5], [-119.658653, 38.372226, 3136.7], [-119.658671, 38.372254, 3137.6], [-119.658698, 38.372308, 3140.0], [-119.658696, 38.372369, 3138.0], [-119.658729, 38.37242, 3135.4], [-119.65873, 38.372432, 3136.2], [-119.658761, 38.372589, 3138.0], [-119.658768, 38.372606, 3139.1], [-119.658851, 38.372702, 3136.3], [-119.658867, 38.372766, 3132.7], [-119.658873, 38.372779, 3132.4], [-119.6589, 38.372924, 3128.4], [-119.658901, 38.372937, 3127.3], [-119.65895, 38.373089, 3124.2], [-119.658978, 38.373158, 3123.3], [-119.659005, 38.373195, 3121.9], [-119.659092, 38.373214, 3123.5], [-119.659127, 38.373219, 3122.7], [-119.659178, 38.373221, 3124.7], [-119.6592, 38.373235, 3124.4], [-119.659282, 38.373322, 3126.8], [-119.659302, 38.373348, 3126.8], [-119.659357, 38.373367, 3128.2], [-119.659386, 38.373426, 3119.8], [-119.659414, 38.37345, 3122.0], [-119.659474, 38.373472, 3120.9], [-119.659597, 38.373544, 3121.3], [-119.659612, 38.373554, 3121.1], [-119.659647, 38.373589, 3121.4], [-119.659704, 38.37362, 3122.7], [-119.659743, 38.373669, 3124.1], [-119.659755, 38.373677, 3125.3], [-119.659831, 38.373766, 3124.4], [-119.659885, 38.373806, 3123.9], [-119.659896, 38.373818, 3123.6], [-119.659915, 38.373853, 3121.8], [-119.659923, 38.373916, 3120.5], [-119.659972, 38.373959, 3120.2], [-119.659979, 38.373968, 3120.3], [-119.660006, 38.374037, 3120.3], [-119.660069, 38.374076, 3119.4], [-119.660123, 38.374097, 3120.7], [-119.66014, 38.374111, 3120.9], [-119.660198, 38.374222, 3121.9], [-119.660237, 38.374269, 3123.7], [-119.660252, 38.374279, 3124.3], [-119.66033, 38.374303, 3126.7], [-119.660402, 38.374395, 3125.1], [-119.660476, 38.374561, 3125.4], [-119.660483, 38.374574, 3125.4], [-119.660554, 38.374737, 3127.1], [-119.660581, 38.374789, 3127.8], [-119.660581, 38.374832, 3127.9], [-119.660624, 38.374855, 3127.7], [-119.660654, 38.374904, 3128.2], [-119.660754, 38.375062, 3127.8], [-119.66079, 38.375162, 3126.3], [-119.660797, 38.375225, 3126.9], [-119.660786, 38.375266, 3127.2], [-119.660782, 38.375355, 3128.6], [-119.660795, 38.375454, 3129.8], [-119.660821, 38.375642, 3128.9], [-119.660822, 38.375655, 3128.7], [-119.660851, 38.375783, 3130.9], [-119.660848, 38.375847, 3129.6], [-119.660838, 38.375892, 3129.5], [-119.660862, 38.375908, 3126.8], [-119.660865, 38.375932, 3128.5], [-119.660806, 38.376017, 3129.6], [-119.660765, 38.376088, 3131.8], [-119.660747, 38.376197, 3133.2], [-119.660716, 38.376286, 3134.7], [-119.660671, 38.376366, 3136.1], [-119.660642, 38.376469, 3136.3], [-119.660581, 38.37654, 3137.0], [-119.660467, 38.376683, 3140.3], [-119.660465, 38.376696, 3140.0], [-119.660434, 38.37679, 3142.0], [-119.660375, 38.376857, 3145.6], [-119.660369, 38.376861, 3145.5], [-119.660301, 38.376871, 3145.1], [-119.660268, 38.376898, 3146.6], [-119.660214, 38.37697, 3146.8], [-119.660132, 38.377062, 3146.6], [-119.660113, 38.377109, 3146.9], [-119.660087, 38.377146, 3147.2], [-119.660085, 38.377169, 3147.3], [-119.660112, 38.377233, 3146.6], [-119.660112, 38.377301, 3145.5], [-119.660117, 38.377433, 3142.2], [-119.660155, 38.377466, 3142.5], [-119.660159, 38.377474, 3142.8], [-119.660134, 38.377525, 3143.7], [-119.660092, 38.377575, 3143.9], [-119.660085, 38.37763, 3142.7], [-119.660024, 38.377701, 3138.4], [-119.65997, 38.377793, 3138.7], [-119.659963, 38.3778, 3138.6], [-119.65992, 38.377895, 3139.0], [-119.659911, 38.377972, 3136.9], [-119.659888, 38.378123, 3137.9], [-119.659893, 38.378187, 3138.3], [-119.659896, 38.378199, 3138.6], [-119.659891, 38.378344, 3138.3], [-119.659885, 38.378435, 3137.3], [-119.659864, 38.378485, 3137.4], [-119.659855, 38.378543, 3136.7], [-119.659811, 38.378626, 3138.4], [-119.65981, 38.378677, 3146.7], [-119.659767, 38.378717, 3146.8], [-119.659747, 38.378751, 3146.4], [-119.659696, 38.378772, 3144.2], [-119.659656, 38.378814, 3141.4], [-119.659638, 38.378872, 3145.4], [-119.65964, 38.378882, 3145.8], [-119.659652, 38.379003, 3146.5], [-119.659671, 38.379058, 3148.0], [-119.659709, 38.379126, 3148.3], [-119.659735, 38.379233, 3149.6], [-119.659741, 38.379244, 3150.4], [-119.659776, 38.379409, 3147.6], [-119.659777, 38.379418, 3147.2], [-119.659848, 38.379588, 3148.0], [-119.659878, 38.379688, 3148.4], [-119.659912, 38.379749, 3149.1], [-119.659915, 38.379764, 3147.3], [-119.659914, 38.379887, 3145.0], [-119.659886, 38.379937, 3144.2], [-119.659843, 38.379939, 3145.3], [-119.659828, 38.380029, 3151.3], [-119.659858, 38.380103, 3154.3], [-119.659869, 38.380113, 3154.3], [-119.65988, 38.380161, 3154.5], [-119.659932, 38.380273, 3160.2], [-119.659934, 38.380308, 3160.8], [-119.659911, 38.380372, 3162.0], [-119.659903, 38.380447, 3163.1], [-119.65991, 38.380516, 3165.5], [-119.659891, 38.380593, 3165.9], [-119.659893, 38.38063, 3165.1], [-119.659909, 38.380697, 3164.5], [-119.65991, 38.380794, 3163.5], [-119.659931, 38.380844, 3162.1], [-119.659938, 38.381013, 3161.7], [-119.659942, 38.381027, 3161.2], [-119.660005, 38.381112, 3158.8], [-119.660077, 38.381254, 3158.3], [-119.660132, 38.381334, 3157.0], [-119.660174, 38.381407, 3156.0], [-119.660216, 38.381445, 3155.9], [-119.660226, 38.381466, 3155.5], [-119.660202, 38.381507, 3154.2], [-119.660203, 38.381531, 3153.3], [-119.66017, 38.381535, 3153.8], [-119.660117, 38.381559, 3153.4], [-119.660099, 38.381611, 3154.5], [-119.660108, 38.381634, 3154.2], [-119.660085, 38.381661, 3158.6], [-119.660107, 38.381663, 3159.1], [-119.660083, 38.381681, 3157.7], [-119.660169, 38.381696, 3160.1], [-119.660218, 38.381714, 3158.0], [-119.660256, 38.381754, 3157.3], [-119.660238, 38.381795, 3158.0], [-119.660249, 38.381842, 3158.0], [-119.660276, 38.381837, 3157.5], [-119.660308, 38.381851, 3159.2], [-119.660313, 38.381868, 3157.9], [-119.660346, 38.381888, 3157.5], [-119.660453, 38.381915, 3158.8], [-119.660472, 38.381927, 3154.7], [-119.66053, 38.381916, 3155.5], [-119.660585, 38.381929, 3156.8], [-119.660649, 38.38192, 3151.6], [-119.660679, 38.381931, 3151.3], [-119.660704, 38.381956, 3152.3], [-119.660736, 38.382053, 3151.7], [-119.660745, 38.382066, 3150.5], [-119.660811, 38.382087, 3147.7], [-119.660877, 38.382146, 3147.2], [-119.660881, 38.382144, 3148.4], [-119.660947, 38.382178, 3149.0], [-119.66096, 38.382233, 3147.6], [-119.660999, 38.382241, 3149.8], [-119.661183, 38.382226, 3152.1], [-119.661225, 38.382235, 3151.9], [-119.661248, 38.382227, 3153.0], [-119.661241, 38.382202, 3152.8], [-119.661252, 38.38218, 3153.3], [-119.661291, 38.382242, 3160.1], [-119.661317, 38.38226, 3160.8], [-119.661333, 38.382304, 3158.2], [-119.661358, 38.38236, 3156.8], [-119.661356, 38.382453, 3159.9], [-119.661368, 38.38248, 3158.9], [-119.661372, 38.382478, 3159.5], [-119.661375, 38.382506, 3156.5], [-119.66136, 38.382553, 3159.0], [-119.661383, 38.382573, 3160.8], [-119.66145, 38.382528, 3163.5], [-119.66157, 38.382544, 3164.5], [-119.661709, 38.382533, 3168.7], [-119.661737, 38.382491, 3169.1], [-119.66179, 38.382466, 3170.7], [-119.661864, 38.382462, 3167.5], [-119.661881, 38.382484, 3169.2], [-119.661911, 38.382493, 3173.3], [-119.661966, 38.382472, 3173.9], [-119.661994, 38.382482, 3174.5], [-119.662044, 38.382527, 3173.2], [-119.662163, 38.382501, 3176.3], [-119.662147, 38.382523, 3178.1], [-119.66217, 38.382523, 3176.9], [-119.662262, 38.382464, 3178.7], [-119.66228, 38.382412, 3177.1], [-119.66232, 38.382365, 3177.7], [-119.662343, 38.382352, 3178.3], [-119.662367, 38.382371, 3178.7], [-119.662437, 38.382362, 3179.3], [-119.662496, 38.382374, 3180.1], [-119.66254, 38.382345, 3180.3], [-119.662697, 38.382318, 3181.9], [-119.662759, 38.382272, 3184.1], [-119.662841, 38.382207, 3186.8], [-119.662925, 38.382171, 3188.0], [-119.662934, 38.382171, 3187.4], [-119.662998, 38.382186, 3190.6], [-119.663056, 38.382165, 3193.2], [-119.663083, 38.382181, 3192.9], [-119.663138, 38.382165, 3193.5], [-119.663191, 38.382161, 3193.3], [-119.663208, 38.382179, 3193.7], [-119.663212, 38.382205, 3193.2], [-119.663263, 38.382226, 3195.7], [-119.663278, 38.382274, 3194.8], [-119.663317, 38.382286, 3196.5], [-119.663399, 38.382278, 3203.0], [-119.663464, 38.38229, 3205.4], [-119.663491, 38.382306, 3202.7], [-119.663511, 38.382287, 3204.3], [-119.663527, 38.38231, 3203.4], [-119.663576, 38.382335, 3207.5], [-119.663632, 38.382343, 3208.0], [-119.663664, 38.382389, 3209.1], [-119.663664, 38.382393, 3209.7], [-119.66382, 38.382388, 3214.4], [-119.663886, 38.382396, 3216.2], [-119.663955, 38.382399, 3219.3], [-119.664016, 38.382389, 3216.8], [-119.664116, 38.382406, 3219.2], [-119.664204, 38.382395, 3221.7], [-119.664202, 38.382415, 3223.3], [-119.664217, 38.382437, 3224.1], [-119.664273, 38.382469, 3225.1], [-119.664345, 38.382463, 3227.2], [-119.664375, 38.38247, 3228.8], [-119.664425, 38.382494, 3230.9], [-119.664473, 38.382533, 3232.8], [-119.664512, 38.382544, 3234.6], [-119.664529, 38.382565, 3236.7], [-119.66456, 38.382566, 3236.6], [-119.664574, 38.382589, 3238.5], [-119.664651, 38.382629, 3243.6], [-119.664646, 38.382637, 3243.2], [-119.664677, 38.38263, 3244.3], [-119.664705, 38.38264, 3243.4], [-119.664725, 38.382659, 3245.1], [-119.664805, 38.382699, 3250.6], [-119.664826, 38.382721, 3252.1], [-119.66483, 38.382718, 3252.5], [-119.664939, 38.382776, 3257.7], [-119.664973, 38.382777, 3261.0], [-119.665057, 38.382751, 3260.8], [-119.665101, 38.382784, 3261.5], [-119.665146, 38.382747, 3264.3], [-119.665232, 38.382725, 3266.9], [-119.665307, 38.38272, 3266.6], [-119.665358, 38.382783, 3269.0], [-119.665358, 38.382808, 3268.4], [-119.665396, 38.382826, 3276.4], [-119.665403, 38.382854, 3272.4], [-119.665424, 38.382871, 3274.6], [-119.665456, 38.382862, 3276.5], [-119.66546, 38.382884, 3278.0], [-119.665492, 38.382884, 3283.2], [-119.665538, 38.382927, 3283.9], [-119.665579, 38.382933, 3286.2], [-119.665567, 38.383003, 3281.7], [-119.665591, 38.383048, 3284.9], [-119.665623, 38.383064, 3288.3], [-119.665655, 38.383075, 3290.9], [-119.665677, 38.383095, 3291.6], [-119.665684, 38.383118, 3293.6], [-119.665711, 38.383134, 3292.7], [-119.665769, 38.383149, 3300.1], [-119.665768, 38.383185, 3297.6], [-119.665758, 38.383227, 3298.4], [-119.665799, 38.383268, 3305.4], [-119.665887, 38.383248, 3312.2], [-119.665922, 38.383267, 3312.6], [-119.665981, 38.383309, 3314.2], [-119.666012, 38.383311, 3315.9], [-119.666019, 38.383335, 3313.5], [-119.666112, 38.383368, 3322.5], [-119.666117, 38.383373, 3323.0], [-119.666194, 38.383408, 3325.7], [-119.666224, 38.383406, 3328.5], [-119.666252, 38.383391, 3329.3], [-119.666275, 38.383407, 3327.0], [-119.666286, 38.383438, 3330.6], [-119.666313, 38.383449, 3336.0], [-119.666341, 38.383495, 3338.1], [-119.666366, 38.383567, 3342.3], [-119.666395, 38.383597, 3342.9], [-119.666412, 38.383622, 3341.8], [-119.666407, 38.383641, 3346.0], [-119.666431, 38.383658, 3340.3], [-119.666517, 38.38367, 3339.7], [-119.666555, 38.38369, 3341.8], [-119.666527, 38.383684, 3340.9], [-119.666547, 38.383703, 3335.9], [-119.666556, 38.383728, 3343.2], [-119.666606, 38.383757, 3341.8], [-119.666637, 38.383804, 3338.7], [-119.666644, 38.383807, 3337.4], [-119.666645, 38.38383, 3343.1], [-119.666616, 38.383843, 3348.9], [-119.666626, 38.383867, 3349.8], [-119.666686, 38.38389, 3370.5], [-119.666698, 38.383914, 3371.8], [-119.666737, 38.383905, 3374.9], [-119.666748, 38.383899, 3373.3], [-119.666785, 38.3839, 3377.8], [-119.666801, 38.383878, 3380.8], [-119.666832, 38.383879, 3383.9], [-119.666854, 38.383891, 3382.7], [-119.666882, 38.383933, 3383.9], [-119.666914, 38.383947, 3385.1], [-119.666945, 38.383991, 3391.6], [-119.66693, 38.384021, 3396.9], [-119.666945, 38.383967, 3394.0], [-119.666909, 38.383897, 3387.1], [-119.666878, 38.383887, 3388.0], [-119.666803, 38.383819, 3392.7], [-119.666741, 38.383809, 3394.3], [-119.666716, 38.383827, 3395.0], [-119.666715, 38.383801, 3391.1], [-119.666746, 38.383802, 3387.1], [-119.666746, 38.383776, 3380.5], [-119.666716, 38.383759, 3381.0], [-119.666687, 38.383757, 3375.8], [-119.666685, 38.383778, 3374.1], [-119.666696, 38.383729, 3366.9], [-119.666667, 38.383653, 3365.0], [-119.666645, 38.38364, 3366.3], [-119.666656, 38.383618, 3363.8], [-119.666643, 38.383596, 3366.3], [-119.666575, 38.383543, 3366.5], [-119.666602, 38.383516, 3364.2], [-119.666614, 38.383488, 3359.6], [-119.666609, 38.383466, 3356.1], [-119.666632, 38.383446, 3354.7], [-119.666622, 38.383424, 3352.4], [-119.666595, 38.383412, 3344.5], [-119.666527, 38.383427, 3347.3], [-119.666481, 38.383461, 3343.7], [-119.666451, 38.383465, 3342.8], [-119.666421, 38.38346, 3343.6], [-119.666366, 38.383472, 3343.6], [-119.666299, 38.383457, 3344.0], [-119.666286, 38.383427, 3338.7], [-119.666253, 38.383427, 3334.3], [-119.666202, 38.383395, 3335.2], [-119.666174, 38.383407, 3333.2], [-119.666133, 38.383366, 3333.4], [-119.666106, 38.383357, 3330.5], [-119.666043, 38.383366, 3325.6], [-119.666049, 38.383345, 3323.8], [-119.666033, 38.383325, 3321.7], [-119.666008, 38.383308, 3322.0], [-119.665966, 38.383315, 3323.3], [-119.66596, 38.383291, 3318.8], [-119.665941, 38.383313, 3317.4], [-119.665885, 38.383322, 3317.1], [-119.66587, 38.383307, 3314.5], [-119.665872, 38.38328, 3312.9], [-119.665858, 38.383253, 3311.5], [-119.665799, 38.38324, 3316.2], [-119.66576, 38.383199, 3314.6], [-119.66573, 38.38319, 3315.0], [-119.665717, 38.383166, 3313.2], [-119.665729, 38.383129, 3313.7], [-119.665697, 38.383118, 3308.8], [-119.665688, 38.383099, 3299.1], [-119.665741, 38.383098, 3295.4], [-119.665726, 38.383087, 3298.2], [-119.66563, 38.383054, 3296.8], [-119.665636, 38.383032, 3291.3], [-119.66555, 38.382923, 3296.3], [-119.665529, 38.382934, 3289.9], [-119.665521, 38.382959, 3292.4], [-119.66552, 38.382929, 3291.1], [-119.665487, 38.382925, 3285.4], [-119.665483, 38.382901, 3279.6], [-119.665438, 38.382862, 3282.3], [-119.66542, 38.382836, 3281.2], [-119.665387, 38.38285, 3281.0], [-119.665354, 38.382812, 3280.5], [-119.665327, 38.382796, 3272.8], [-119.665293, 38.38272, 3273.2], [-119.66532, 38.382743, 3270.0], [-119.665219, 38.382744, 3267.2], [-119.665214, 38.382722, 3267.4], [-119.665196, 38.382701, 3269.5], [-119.665158, 38.382693, 3273.6], [-119.665141, 38.382704, 3272.9], [-119.665159, 38.382681, 3268.9], [-119.665109, 38.382626, 3271.5], [-119.665084, 38.382547, 3261.8], [-119.665038, 38.382504, 3262.2], [-119.665057, 38.382433, 3253.7], [-119.665032, 38.382384, 3256.1], [-119.665004, 38.382352, 3260.0], [-119.665015, 38.382331, 3254.2], [-119.664998, 38.382308, 3257.0], [-119.664999, 38.382282, 3256.0], [-119.665007, 38.382256, 3252.9], [-119.665046, 38.382215, 3250.2], [-119.665003, 38.382202, 3249.9], [-119.66503, 38.382219, 3245.9], [-119.665001, 38.382232, 3242.9], [-119.664943, 38.382227, 3241.8], [-119.664879, 38.382207, 3241.8], [-119.664842, 38.3822, 3238.3], [-119.664821, 38.38218, 3240.0], [-119.664789, 38.382183, 3238.6], [-119.664771, 38.382204, 3239.1], [-119.664766, 38.382227, 3234.3], [-119.664742, 38.382238, 3233.4], [-119.664701, 38.382228, 3230.7], [-119.664694, 38.382222, 3231.0], [-119.664716, 38.382179, 3232.1], [-119.664738, 38.382162, 3231.3], [-119.66474, 38.38214, 3230.7], [-119.664706, 38.382137, 3229.1], [-119.664682, 38.38212, 3224.4], [-119.664637, 38.382125, 3224.8], [-119.664554, 38.382167, 3223.2], [-119.664477, 38.38214, 3222.4], [-119.664438, 38.382139, 3220.7], [-119.664363, 38.382165, 3216.5], [-119.66432, 38.382136, 3213.9], [-119.664246, 38.38216, 3212.4], [-119.664174, 38.382142, 3209.1], [-119.664095, 38.382159, 3211.1], [-119.664016, 38.382152, 3212.4], [-119.663916, 38.382147, 3210.5], [-119.663833, 38.382131, 3207.0], [-119.663781, 38.382137, 3208.0], [-119.66356, 38.382142, 3204.9], [-119.663545, 38.38214, 3204.1], [-119.663513, 38.38215, 3201.3], [-119.663453, 38.382148, 3199.5], [-119.663398, 38.382177, 3196.8], [-119.663346, 38.382163, 3197.0], [-119.663325, 38.382166, 3196.8], [-119.663293, 38.382187, 3194.2], [-119.663115, 38.382207, 3191.6], [-119.663105, 38.382212, 3192.1], [-119.663016, 38.382283, 3192.8], [-119.662959, 38.382307, 3191.4], [-119.662875, 38.382331, 3191.3], [-119.662797, 38.382317, 3188.4], [-119.662776, 38.382337, 3186.6], [-119.662768, 38.382362, 3184.7], [-119.662752, 38.382363, 3184.7], [-119.66269, 38.38235, 3184.9], [-119.662623, 38.382348, 3185.6], [-119.662554, 38.382394, 3183.6], [-119.662489, 38.382451, 3182.2], [-119.662455, 38.38255, 3178.4], [-119.662421, 38.382521, 3178.7], [-119.66244, 38.3825, 3178.0], [-119.66244, 38.382479, 3177.9], [-119.662416, 38.382417, 3179.1], [-119.662403, 38.382407, 3178.9], [-119.662357, 38.382406, 3179.2], [-119.662313, 38.382432, 3177.5], [-119.662298, 38.382451, 3176.2], [-119.662322, 38.38251, 3175.8], [-119.662258, 38.382516, 3176.3], [-119.662161, 38.382573, 3178.5], [-119.662125, 38.382602, 3175.3], [-119.662053, 38.382574, 3176.1], [-119.662033, 38.382584, 3177.5], [-119.662035, 38.382562, 3177.8], [-119.662015, 38.382539, 3177.7], [-119.661977, 38.382521, 3177.2], [-119.661946, 38.382522, 3176.1], [-119.661902, 38.382501, 3173.3], [-119.661822, 38.382518, 3173.7], [-119.66169, 38.382579, 3175.9], [-119.661722, 38.382579, 3175.5], [-119.661702, 38.382598, 3173.3], [-119.661674, 38.382594, 3173.0], [-119.661617, 38.382572, 3172.3], [-119.661586, 38.38258, 3172.0], [-119.661587, 38.382554, 3169.6], [-119.661568, 38.382535, 3168.6], [-119.661519, 38.382531, 3168.8], [-119.661519, 38.38251, 3168.7], [-119.661529, 38.382454, 3169.2], [-119.661498, 38.382448, 3169.4], [-119.661534, 38.382413, 3163.4], [-119.661522, 38.382371, 3162.4], [-119.661508, 38.382366, 3162.9], [-119.661498, 38.382389, 3162.3], [-119.661518, 38.382436, 3161.4], [-119.661513, 38.382462, 3161.3], [-119.661434, 38.382493, 3159.7], [-119.661421, 38.382481, 3158.6], [-119.661407, 38.382404, 3154.7], [-119.661372, 38.382385, 3156.8], [-119.661285, 38.38237, 3159.2], [-119.661237, 38.382367, 3158.1], [-119.661072, 38.382393, 3156.8], [-119.660948, 38.382389, 3154.8], [-119.660923, 38.382382, 3154.2], [-119.660888, 38.382356, 3152.2], [-119.660874, 38.382336, 3151.8], [-119.660884, 38.382323, 3147.6], [-119.660873, 38.3823, 3152.0], [-119.660918, 38.382262, 3154.7], [-119.660883, 38.382214, 3156.6], [-119.660877, 38.382199, 3157.7], [-119.660852, 38.382172, 3154.0], [-119.660821, 38.382097, 3150.6], [-119.660789, 38.382095, 3148.6], [-119.660774, 38.382072, 3149.3], [-119.66077, 38.382049, 3148.3], [-119.660784, 38.382036, 3146.0], [-119.660788, 38.38201, 3145.7], [-119.660771, 38.38199, 3146.3], [-119.660693, 38.38195, 3148.7], [-119.660637, 38.381938, 3152.1], [-119.660557, 38.381857, 3152.4], [-119.660531, 38.381805, 3151.9], [-119.660521, 38.38177, 3152.3], [-119.660441, 38.381674, 3154.3], [-119.660424, 38.381664, 3153.6], [-119.660333, 38.381556, 3154.8], [-119.660339, 38.381522, 3157.1], [-119.660337, 38.38151, 3156.5], [-119.660307, 38.38148, 3156.3], [-119.660259, 38.381457, 3157.4], [-119.660202, 38.381414, 3156.7], [-119.660188, 38.381401, 3156.2], [-119.660154, 38.381348, 3153.0], [-119.6601, 38.381306, 3152.6], [-119.660075, 38.381256, 3152.0], [-119.660082, 38.381159, 3151.6], [-119.660032, 38.381099, 3149.9], [-119.660016, 38.381058, 3148.1], [-119.660014, 38.381041, 3146.6], [-119.660015, 38.380983, 3145.8], [-119.660039, 38.380936, 3147.6], [-119.660088, 38.380898, 3146.5], [-119.660096, 38.380881, 3146.0], [-119.660095, 38.380865, 3147.0], [-119.660024, 38.380788, 3151.4], [-119.660004, 38.380753, 3151.8], [-119.659999, 38.380708, 3151.1], [-119.659984, 38.380644, 3152.7], [-119.660017, 38.380547, 3152.8], [-119.66003, 38.380535, 3153.3], [-119.660012, 38.380453, 3157.1], [-119.660019, 38.380344, 3159.1], [-119.65997, 38.380225, 3156.1], [-119.659989, 38.380171, 3159.6], [-119.65999, 38.380158, 3159.3], [-119.659934, 38.380103, 3160.1], [-119.65993, 38.380026, 3158.7], [-119.659966, 38.379996, 3161.3], [-119.659979, 38.379931, 3159.3], [-119.66001, 38.379881, 3157.4], [-119.660009, 38.379872, 3158.1], [-119.659962, 38.379697, 3160.4], [-119.659953, 38.379682, 3158.6], [-119.659869, 38.379521, 3156.4], [-119.659864, 38.379509, 3155.7], [-119.65978, 38.379346, 3158.9], [-119.659769, 38.379266, 3157.6], [-119.659718, 38.379169, 3155.3], [-119.659688, 38.379104, 3155.1], [-119.65969, 38.379041, 3154.2], [-119.659678, 38.378994, 3153.0], [-119.659691, 38.378964, 3147.9], [-119.65971, 38.378948, 3147.9], [-119.65971, 38.378875, 3144.1], [-119.659731, 38.378845, 3144.0], [-119.659775, 38.378823, 3144.5], [-119.659798, 38.378775, 3145.1], [-119.659846, 38.378711, 3148.2], [-119.65985, 38.378693, 3149.0], [-119.659852, 38.378566, 3148.0], [-119.659886, 38.378532, 3142.5], [-119.659893, 38.378509, 3143.5], [-119.659917, 38.378478, 3142.3], [-119.659909, 38.378441, 3141.1], [-119.659916, 38.378402, 3141.6], [-119.65991, 38.378355, 3141.1], [-119.659915, 38.378192, 3144.2], [-119.659935, 38.378154, 3143.1], [-119.659913, 38.378118, 3142.9], [-119.659932, 38.37808, 3142.9], [-119.659956, 38.378061, 3145.2], [-119.659949, 38.37802, 3146.6], [-119.659934, 38.377878, 3147.8], [-119.65995, 38.377835, 3148.0], [-119.659969, 38.377744, 3145.1], [-119.660008, 38.377674, 3146.2], [-119.660029, 38.377647, 3146.0], [-119.660022, 38.377624, 3143.2], [-119.660049, 38.377566, 3142.9], [-119.660115, 38.377527, 3142.6], [-119.660111, 38.377579, 3142.7], [-119.660181, 38.377561, 3141.6], [-119.660155, 38.377508, 3141.3], [-119.660144, 38.377458, 3139.1], [-119.660143, 38.377336, 3139.9], [-119.660133, 38.377234, 3141.2], [-119.660118, 38.37719, 3141.0], [-119.66012, 38.377142, 3139.8], [-119.660158, 38.377048, 3143.9], [-119.660213, 38.376976, 3145.7], [-119.660262, 38.376894, 3142.1], [-119.660286, 38.37688, 3142.2], [-119.660345, 38.376888, 3140.1], [-119.660372, 38.376865, 3138.9], [-119.660419, 38.376793, 3135.6], [-119.660483, 38.376722, 3130.6], [-119.660491, 38.376705, 3131.2], [-119.660587, 38.376548, 3127.0], [-119.660593, 38.376533, 3127.0], [-119.660608, 38.376451, 3125.7], [-119.660639, 38.376393, 3125.9], [-119.66064, 38.376379, 3126.7], [-119.660713, 38.376217, 3126.8], [-119.660764, 38.376034, 3126.7], [-119.660822, 38.375868, 3125.3], [-119.660828, 38.375802, 3126.2], [-119.660802, 38.375705, 3125.1], [-119.660808, 38.375694, 3126.1], [-119.660813, 38.375662, 3125.7], [-119.660803, 38.37554, 3126.6], [-119.660789, 38.375396, 3122.1], [-119.660794, 38.375388, 3121.7], [-119.660822, 38.375302, 3118.6], [-119.660814, 38.375217, 3119.3], [-119.660807, 38.375204, 3118.7], [-119.660806, 38.375142, 3118.9], [-119.660747, 38.375024, 3125.1], [-119.66072, 38.374984, 3125.6], [-119.660672, 38.374946, 3124.0], [-119.660606, 38.374855, 3124.5], [-119.660606, 38.374829, 3121.8], [-119.660574, 38.374731, 3122.3], [-119.660546, 38.374671, 3120.7], [-119.660539, 38.374625, 3121.4], [-119.660506, 38.374569, 3122.8], [-119.660428, 38.374418, 3123.1], [-119.660418, 38.374403, 3123.8], [-119.660363, 38.37436, 3122.7], [-119.660278, 38.374255, 3122.1], [-119.660267, 38.374247, 3122.3], [-119.660154, 38.374182, 3125.1], [-119.66012, 38.37413, 3121.6], [-119.660112, 38.374112, 3122.1], [-119.659992, 38.373967, 3123.8], [-119.659984, 38.373953, 3123.1], [-119.659926, 38.373873, 3121.3], [-119.659876, 38.373857, 3121.5], [-119.659856, 38.373828, 3124.7], [-119.659849, 38.373807, 3125.0], [-119.659824, 38.373769, 3124.9], [-119.659715, 38.373703, 3130.6], [-119.659672, 38.373661, 3130.0], [-119.659631, 38.373649, 3131.2], [-119.659538, 38.373586, 3133.8], [-119.659527, 38.373576, 3133.1], [-119.659469, 38.373501, 3128.1], [-119.659386, 38.373447, 3130.1], [-119.659375, 38.373444, 3130.2], [-119.659272, 38.373315, 3129.8], [-119.659262, 38.373304, 3128.6], [-119.659186, 38.373249, 3125.2], [-119.659074, 38.373224, 3124.1], [-119.659062, 38.373217, 3124.0], [-119.659028, 38.373186, 3126.3], [-119.658999, 38.373117, 3128.4], [-119.658956, 38.373063, 3128.2], [-119.658953, 38.373054, 3128.6], [-119.658947, 38.372995, 3130.4], [-119.658906, 38.372877, 3129.8], [-119.658867, 38.372795, 3130.8], [-119.658824, 38.372734, 3129.9], [-119.658793, 38.372708, 3131.9], [-119.658741, 38.372608, 3132.6], [-119.658719, 38.372524, 3133.2], [-119.658672, 38.372436, 3134.8], [-119.658651, 38.372349, 3136.3], [-119.658595, 38.372283, 3135.0], [-119.658585, 38.372207, 3138.5], [-119.65857, 38.372177, 3140.0], [-119.658541, 38.37214, 3139.5], [-119.658526, 38.372045, 3139.5], [-119.658488, 38.371997, 3139.4], [-119.658471, 38.37197, 3140.0], [-119.65849, 38.371906, 3138.1], [-119.658475, 38.371828, 3136.3], [-119.65847, 38.371819, 3135.8], [-119.658443, 38.371735, 3135.0], [-119.658402, 38.371693, 3135.5], [-119.658385, 38.371646, 3137.0], [-119.658346, 38.371594, 3137.9], [-119.658283, 38.371541, 3138.0], [-119.658229, 38.371478, 3139.2], [-119.658169, 38.371372, 3138.7], [-119.658159, 38.371365, 3139.0], [-119.65813, 38.371316, 3138.2], [-119.658086, 38.371291, 3140.0], [-119.658032, 38.371221, 3136.6], [-119.65795, 38.37115, 3137.0], [-119.657905, 38.371087, 3138.3], [-119.657891, 38.371077, 3137.9], [-119.657741, 38.370953, 3142.0], [-119.657649, 38.3709, 3138.6], [-119.65758, 38.370814, 3138.0], [-119.65756, 38.370777, 3136.6], [-119.6575, 38.370731, 3135.1], [-119.65746, 38.370662, 3135.0], [-119.657409, 38.370561, 3134.6], [-119.65733, 38.370473, 3134.9], [-119.657261, 38.37039, 3133.0], [-119.657231, 38.370337, 3132.4], [-119.657223, 38.370328, 3132.4], [-119.657136, 38.370195, 3131.6], [-119.657062, 38.370128, 3129.8], [-119.657004, 38.370054, 3131.0], [-119.656996, 38.370048, 3130.4], [-119.656903, 38.369918, 3131.6], [-119.656863, 38.369843, 3131.7], [-119.656874, 38.369805, 3132.4], [-119.656867, 38.369782, 3132.7], [-119.656827, 38.369741, 3131.3], [-119.656713, 38.36964, 3129.9], [-119.656675, 38.369603, 3129.5], [-119.656614, 38.369476, 3129.6], [-119.656603, 38.369465, 3129.2], [-119.656538, 38.369381, 3129.8], [-119.656488, 38.369337, 3130.1], [-119.656461, 38.369316, 3131.0], [-119.656386, 38.369218, 3132.6], [-119.656378, 38.36921, 3133.3], [-119.656328, 38.369181, 3133.6], [-119.65625, 38.369083, 3136.2], [-119.656118, 38.368953, 3135.8], [-119.656107, 38.368945, 3135.7], [-119.655993, 38.368827, 3135.4], [-119.655982, 38.368817, 3134.8], [-119.655842, 38.368676, 3128.1], [-119.65568, 38.368554, 3127.4], [-119.655666, 38.368545, 3127.8], [-119.655579, 38.36847, 3128.7], [-119.655505, 38.368429, 3129.0], [-119.655416, 38.36837, 3127.6], [-119.655388, 38.368358, 3126.7], [-119.655365, 38.368361, 3125.7], [-119.655348, 38.368332, 3125.4], [-119.655263, 38.368242, 3122.8], [-119.655195, 38.368187, 3123.0], [-119.655006, 38.368073, 3120.1], [-119.654991, 38.368067, 3119.8], [-119.654783, 38.367994, 3115.7], [-119.654767, 38.367991, 3115.9], [-119.654579, 38.367939, 3113.8], [-119.654528, 38.367938, 3113.5], [-119.654458, 38.367906, 3111.2], [-119.654361, 38.3679, 3109.2], [-119.654239, 38.367891, 3109.4], [-119.654117, 38.367843, 3107.0], [-119.654111, 38.367838, 3106.7], [-119.654064, 38.367831, 3109.4], [-119.653998, 38.367838, 3108.1], [-119.653894, 38.367818, 3106.8], [-119.653783, 38.367781, 3107.2], [-119.653721, 38.367773, 3107.2], [-119.653664, 38.367737, 3105.7], [-119.653649, 38.367735, 3105.7], [-119.653555, 38.367712, 3104.5], [-119.653471, 38.367663, 3103.1], [-119.653458, 38.367657, 3103.7], [-119.653402, 38.367622, 3103.0], [-119.653304, 38.367595, 3102.0], [-119.653287, 38.367592, 3102.1], [-119.653186, 38.36756, 3102.4], [-119.653077, 38.367555, 3100.3], [-119.653056, 38.367557, 3100.1], [-119.652989, 38.36755, 3101.8], [-119.65286, 38.367505, 3099.1], [-119.652853, 38.367497, 3098.9], [-119.652782, 38.367439, 3098.2], [-119.652659, 38.367404, 3100.2], [-119.652538, 38.367384, 3100.9], [-119.652421, 38.367328, 3102.9], [-119.652407, 38.367316, 3102.9], [-119.652397, 38.367293, 3102.8], [-119.652372, 38.367276, 3104.3], [-119.65226, 38.367247, 3106.1], [-119.65218, 38.36721, 3106.4], [-119.652061, 38.367176, 3107.8], [-119.651976, 38.367132, 3108.2], [-119.651843, 38.367031, 3107.9], [-119.651776, 38.367009, 3108.8], [-119.651763, 38.367009, 3109.3], [-119.651726, 38.366994, 3108.4], [-119.651677, 38.366931, 3108.7], [-119.651585, 38.366865, 3110.5], [-119.651384, 38.366738, 3111.9], [-119.651255, 38.366599, 3113.1], [-119.651136, 38.366451, 3111.2], [-119.651127, 38.366443, 3111.7], [-119.651037, 38.366349, 3111.8], [-119.651012, 38.366298, 3111.8], [-119.650995, 38.366256, 3111.3], [-119.650908, 38.366133, 3112.1], [-119.65082, 38.366027, 3114.0], [-119.650809, 38.365977, 3114.6], [-119.650776, 38.36589, 3115.3], [-119.650766, 38.365778, 3117.9], [-119.650746, 38.365705, 3118.1], [-119.650693, 38.365614, 3119.9], [-119.65069, 38.365605, 3119.7], [-119.650685, 38.365424, 3121.6], [-119.650662, 38.365369, 3120.4], [-119.650647, 38.365264, 3120.6], [-119.650649, 38.365262, 3120.7], [-119.650647, 38.365182, 3123.8], [-119.650623, 38.365134, 3123.8], [-119.650524, 38.365006, 3122.7], [-119.650435, 38.364937, 3122.3], [-119.650429, 38.364928, 3122.1], [-119.650388, 38.364846, 3121.3], [-119.650367, 38.36475, 3120.9], [-119.650347, 38.364689, 3120.6], [-119.650328, 38.364562, 3121.7], [-119.650312, 38.364469, 3122.0], [-119.650337, 38.364375, 3121.6], [-119.650344, 38.364364, 3121.4], [-119.650379, 38.364186, 3121.0], [-119.650378, 38.364176, 3122.7], [-119.650398, 38.36401, 3125.4], [-119.650393, 38.363992, 3125.3], [-119.650413, 38.363944, 3126.1], [-119.650428, 38.363825, 3125.7], [-119.650423, 38.363721, 3126.9], [-119.650387, 38.36363, 3126.4], [-119.650363, 38.363491, 3126.4], [-119.650337, 38.363434, 3127.8], [-119.65033, 38.363336, 3127.9], [-119.650349, 38.363322, 3128.4], [-119.650328, 38.363261, 3129.0], [-119.6503, 38.363192, 3128.5], [-119.650306, 38.363166, 3129.7], [-119.650296, 38.363087, 3131.2], [-119.650282, 38.3629, 3131.1], [-119.650277, 38.362889, 3131.2], [-119.650258, 38.362802, 3134.3], [-119.650188, 38.362738, 3131.7], [-119.650194, 38.36269, 3130.5], [-119.650186, 38.362667, 3129.8], [-119.650075, 38.362558, 3127.4], [-119.650012, 38.362506, 3126.8], [-119.650028, 38.362489, 3126.9], [-119.650019, 38.362462, 3125.8], [-119.649977, 38.362445, 3126.7], [-119.649943, 38.362418, 3125.6], [-119.649941, 38.362401, 3125.1], [-119.649903, 38.362341, 3124.0], [-119.649866, 38.362298, 3122.4], [-119.649826, 38.362237, 3121.5], [-119.649786, 38.36221, 3120.7], [-119.649747, 38.362135, 3119.2], [-119.649696, 38.362095, 3117.2], [-119.64963, 38.362067, 3117.5], [-119.649559, 38.362005, 3117.7], [-119.649511, 38.361943, 3119.0], [-119.649511, 38.361895, 3117.3], [-119.64946, 38.361872, 3116.8], [-119.649454, 38.36186, 3117.0], [-119.649439, 38.361761, 3119.3], [-119.649403, 38.361679, 3118.1], [-119.649381, 38.361552, 3117.8], [-119.64939, 38.361493, 3120.8], [-119.649416, 38.361374, 3120.6], [-119.649407, 38.361355, 3120.4], [-119.649409, 38.361293, 3119.5], [-119.649412, 38.361285, 3120.2], [-119.649414, 38.361224, 3119.7], [-119.649358, 38.361131, 3119.7], [-119.649375, 38.361077, 3118.9], [-119.649311, 38.360972, 3120.0], [-119.649305, 38.360893, 3120.9], [-119.649342, 38.36086, 3120.9], [-119.64935, 38.360824, 3120.8], [-119.649354, 38.36076, 3119.9], [-119.649384, 38.360708, 3120.0], [-119.649403, 38.360691, 3118.6], [-119.649418, 38.360651, 3119.0], [-119.64944, 38.360551, 3119.4], [-119.649436, 38.360525, 3119.6], [-119.6494, 38.360475, 3119.6], [-119.649376, 38.360418, 3119.3], [-119.649364, 38.360282, 3118.7], [-119.649366, 38.360185, 3119.7], [-119.649354, 38.360112, 3118.8], [-119.649347, 38.360096, 3119.1], [-119.649318, 38.359937, 3120.5], [-119.649287, 38.359851, 3120.5], [-119.64928, 38.359772, 3120.8], [-119.649275, 38.359737, 3122.4], [-119.649222, 38.359601, 3122.7], [-119.649215, 38.359588, 3123.5], [-119.649163, 38.35954, 3122.7], [-119.649122, 38.359424, 3121.6], [-119.649128, 38.359391, 3124.0], [-119.649114, 38.359299, 3124.7], [-119.649146, 38.359206, 3125.5], [-119.649206, 38.359127, 3124.4], [-119.649204, 38.359103, 3124.5], [-119.649174, 38.359064, 3123.9], [-119.649154, 38.358981, 3124.6], [-119.649179, 38.358916, 3123.5], [-119.64919, 38.358857, 3125.0], [-119.649182, 38.358818, 3125.4], [-119.649136, 38.358742, 3126.4], [-119.649153, 38.358672, 3126.0], [-119.649137, 38.358627, 3124.9], [-119.64916, 38.358642, 3125.2], [-119.64917, 38.358696, 3125.3], [-119.64918, 38.358764, 3125.2], [-119.649182, 38.358739, 3123.7], [-119.649165, 38.358707, 3122.4], [-119.649174, 38.358652, 3121.4], [-119.649173, 38.358635, 3121.7], [-119.649134, 38.358532, 3123.9], [-119.649133, 38.358426, 3125.7], [-119.649141, 38.358372, 3122.5], [-119.649107, 38.358299, 3125.6], [-119.649111, 38.358275, 3126.2], [-119.649063, 38.358248, 3126.8], [-119.649012, 38.358207, 3130.0], [-119.648967, 38.35815, 3130.5], [-119.648985, 38.358111, 3126.7], [-119.648982, 38.358105, 3127.9], [-119.64892, 38.357935, 3130.7], [-119.648878, 38.35785, 3131.4], [-119.648868, 38.357752, 3132.9], [-119.648871, 38.35772, 3131.2], [-119.648824, 38.357591, 3135.7], [-119.648806, 38.357515, 3135.0], [-119.648776, 38.35745, 3135.2], [-119.648774, 38.357381, 3134.8], [-119.648744, 38.357249, 3135.7], [-119.64874, 38.357236, 3135.2], [-119.648747, 38.357081, 3133.9], [-119.648762, 38.356963, 3133.2], [-119.64873, 38.356904, 3134.0], [-119.648679, 38.35684, 3133.7], [-119.64864, 38.356737, 3132.5], [-119.64864, 38.356722, 3133.2], [-119.648686, 38.356666, 3131.6], [-119.648687, 38.356617, 3132.1], [-119.648721, 38.356552, 3132.7], [-119.648733, 38.356505, 3131.8], [-119.64872, 38.35638, 3131.2], [-119.648709, 38.356313, 3131.0], [-119.648658, 38.356217, 3130.5], [-119.648616, 38.356098, 3131.1], [-119.648578, 38.356039, 3130.6], [-119.648529, 38.355874, 3130.1], [-119.648527, 38.355858, 3130.5], [-119.648486, 38.355732, 3131.3], [-119.648491, 38.355675, 3131.1], [-119.64849, 38.355662, 3131.1], [-119.648489, 38.355488, 3128.4], [-119.648461, 38.355319, 3127.4], [-119.648421, 38.35526, 3126.2], [-119.648378, 38.355234, 3125.7], [-119.648355, 38.355159, 3128.6], [-119.648382, 38.355149, 3128.1], [-119.648367, 38.355096, 3128.6], [-119.648357, 38.355123, 3130.0], [-119.648343, 38.355084, 3129.9], [-119.648311, 38.355044, 3130.6], [-119.648316, 38.354975, 3129.9], [-119.648326, 38.354953, 3129.9], [-119.64832, 38.354918, 3130.5], [-119.648321, 38.354904, 3130.4], [-119.648306, 38.354861, 3129.4], [-119.64829, 38.35475, 3129.1], [-119.648285, 38.354671, 3128.6], [-119.648305, 38.354589, 3128.2], [-119.648305, 38.354576, 3128.1], [-119.648286, 38.354543, 3128.8], [-119.648203, 38.354473, 3128.4], [-119.648073, 38.354297, 3129.8], [-119.648032, 38.354224, 3131.9], [-119.648087, 38.354248, 3133.9], [-119.648131, 38.354247, 3135.3], [-119.648248, 38.354328, 3133.6], [-119.648246, 38.354313, 3134.4], [-119.648278, 38.354319, 3133.7], [-119.648309, 38.354312, 3129.8], [-119.648315, 38.354237, 3129.8], [-119.648307, 38.354205, 3130.9], [-119.648306, 38.354149, 3132.3], [-119.648292, 38.3541, 3130.6], [-119.648309, 38.354059, 3130.5], [-119.648314, 38.354057, 3130.8], [-119.648333, 38.353949, 3132.6], [-119.648361, 38.353887, 3134.2], [-119.648418, 38.353796, 3135.3], [-119.648424, 38.353732, 3137.1], [-119.648423, 38.353717, 3137.3], [-119.64841, 38.353667, 3137.9], [-119.648471, 38.353593, 3141.7], [-119.648481, 38.353567, 3141.2], [-119.648562, 38.353391, 3140.0], [-119.648567, 38.353373, 3139.7], [-119.648574, 38.353269, 3137.0], [-119.648563, 38.35321, 3137.3], [-119.648578, 38.353163, 3139.4], [-119.648639, 38.353092, 3140.2], [-119.648659, 38.353027, 3140.7], [-119.648687, 38.352966, 3142.3], [-119.648763, 38.352889, 3140.4], [-119.648808, 38.352793, 3140.8], [-119.648873, 38.352706, 3142.8], [-119.6489, 38.352606, 3141.9], [-119.648934, 38.352554, 3140.4], [-119.648999, 38.352471, 3142.0], [-119.649041, 38.352394, 3142.9], [-119.649048, 38.352384, 3142.9], [-119.649073, 38.35233, 3142.9], [-119.649106, 38.352222, 3143.0], [-119.649111, 38.352141, 3143.1], [-119.649159, 38.352069, 3143.8], [-119.649167, 38.352049, 3143.8], [-119.649157, 38.352017, 3143.5], [-119.649182, 38.351967, 3145.6], [-119.649173, 38.351943, 3144.3], [-119.64913, 38.351904, 3146.5], [-119.649134, 38.351837, 3144.3], [-119.649145, 38.351802, 3143.3], [-119.649152, 38.351657, 3141.4], [-119.64915, 38.351643, 3141.4], [-119.649158, 38.35156, 3138.6], [-119.649143, 38.351471, 3139.4], [-119.649147, 38.351388, 3139.3], [-119.649194, 38.351308, 3135.5], [-119.649198, 38.351297, 3135.7], [-119.649213, 38.351208, 3134.6], [-119.649179, 38.351145, 3133.3], [-119.649166, 38.351138, 3132.4], [-119.649146, 38.35111, 3129.5], [-119.64915, 38.351047, 3127.2], [-119.649135, 38.350976, 3123.2], [-119.649111, 38.350896, 3119.6], [-119.6491, 38.350822, 3119.1], [-119.649097, 38.350789, 3118.2], [-119.649071, 38.350757, 3118.3], [-119.648951, 38.350673, 3116.0], [-119.648935, 38.350657, 3115.3], [-119.648871, 38.350555, 3115.2], [-119.648866, 38.350525, 3114.1], [-119.64884, 38.350496, 3114.0], [-119.648826, 38.350488, 3115.0], [-119.648696, 38.350441, 3115.9], [-119.648659, 38.3504, 3116.6], [-119.64865, 38.350386, 3115.1], [-119.648553, 38.350303, 3115.1], [-119.648545, 38.350282, 3113.9], [-119.648544, 38.350192, 3113.4], [-119.648533, 38.350132, 3110.4], [-119.648485, 38.350067, 3107.0], [-119.64848, 38.350046, 3106.8], [-119.648499, 38.350034, 3106.4], [-119.648517, 38.350015, 3101.7], [-119.648518, 38.349955, 3101.8], [-119.648556, 38.349892, 3099.8], [-119.648564, 38.349875, 3099.1], [-119.648567, 38.349831, 3099.3], [-119.648518, 38.349725, 3099.7], [-119.648509, 38.349669, 3100.0], [-119.648469, 38.349603, 3098.0], [-119.648492, 38.349559, 3097.2], [-119.648549, 38.349533, 3091.4], [-119.648584, 38.349498, 3090.8], [-119.648661, 38.349377, 3085.5], [-119.648725, 38.34932, 3084.4], [-119.648783, 38.349207, 3080.5], [-119.648785, 38.349194, 3079.0], [-119.648781, 38.349147, 3076.6], [-119.648792, 38.349061, 3074.3], [-119.648786, 38.349046, 3074.9], [-119.648759, 38.349, 3076.8], [-119.648756, 38.348965, 3076.9], [-119.648781, 38.348875, 3068.5], [-119.648828, 38.348833, 3066.1], [-119.648821, 38.34882, 3066.1], [-119.648747, 38.348765, 3065.4], [-119.648714, 38.348708, 3065.4], [-119.648685, 38.348551, 3065.8], [-119.648666, 38.34851, 3062.6], [-119.648655, 38.348495, 3062.9], [-119.648592, 38.34838, 3060.2], [-119.648604, 38.34832, 3058.0], [-119.648604, 38.348307, 3057.8], [-119.648526, 38.348207, 3059.0], [-119.648513, 38.34816, 3061.0], [-119.648484, 38.348074, 3057.4], [-119.648482, 38.347992, 3052.0], [-119.648479, 38.347979, 3050.6], [-119.648452, 38.347939, 3046.7], [-119.648424, 38.347858, 3048.2], [-119.648392, 38.347822, 3047.3], [-119.648379, 38.347816, 3046.6], [-119.648371, 38.347825, 3046.7], [-119.648337, 38.347822, 3049.2], [-119.648306, 38.347784, 3048.6], [-119.648268, 38.347764, 3047.5], [-119.648184, 38.347755, 3046.5], [-119.648139, 38.347739, 3046.9], [-119.648097, 38.347707, 3046.6], [-119.648001, 38.347681, 3051.9], [-119.647994, 38.347672, 3051.9], [-119.647966, 38.347662, 3049.5], [-119.647923, 38.347614, 3047.6], [-119.647905, 38.347579, 3044.9], [-119.647905, 38.347535, 3044.8], [-119.647964, 38.347436, 3038.6], [-119.647958, 38.347416, 3037.6], [-119.647886, 38.347344, 3037.1], [-119.647827, 38.347325, 3037.9], [-119.647805, 38.347268, 3037.4], [-119.647777, 38.347251, 3039.4], [-119.647735, 38.347202, 3034.4], [-119.647673, 38.34719, 3035.1], [-119.647616, 38.34715, 3033.9], [-119.64757, 38.347103, 3031.3], [-119.647437, 38.347017, 3027.2], [-119.647343, 38.346953, 3024.1], [-119.647305, 38.34686, 3019.4], [-119.647273, 38.34682, 3018.6], [-119.647231, 38.346698, 3016.9], [-119.647219, 38.346678, 3015.9], [-119.647121, 38.346457, 3009.0], [-119.647109, 38.346425, 3007.8], [-119.647075, 38.34632, 3006.5], [-119.647112, 38.346209, 3005.3], [-119.647114, 38.346186, 3003.9], [-119.647116, 38.346094, 3003.8], [-119.647131, 38.346022, 3004.0], [-119.64712, 38.345941, 3002.0], [-119.647123, 38.345769, 2998.3], [-119.64714, 38.345752, 2997.2], [-119.647185, 38.345723, 2996.8], [-119.647215, 38.345607, 2993.1], [-119.647219, 38.345516, 2990.4], [-119.647284, 38.345428, 2987.6], [-119.647331, 38.345396, 2987.6], [-119.64736, 38.345349, 2985.7], [-119.647369, 38.345314, 2985.7], [-119.647359, 38.345282, 2985.9], [-119.647345, 38.345268, 2986.2], [-119.647245, 38.345205, 2987.9], [-119.647219, 38.345171, 2988.6], [-119.64721, 38.345127, 2986.3], [-119.647173, 38.345046, 2981.5], [-119.647171, 38.345011, 2981.2], [-119.647191, 38.344942, 2977.1], [-119.6472, 38.344891, 2975.0], [-119.647185, 38.344824, 2974.2], [-119.647197, 38.344784, 2972.9], [-119.647206, 38.344767, 2972.1], [-119.647224, 38.344692, 2970.4], [-119.647231, 38.344601, 2968.5], [-119.647216, 38.344499, 2967.6], [-119.647221, 38.344399, 2965.1], [-119.647226, 38.344376, 2965.2], [-119.647266, 38.344287, 2963.3], [-119.647263, 38.344217, 2964.2], [-119.64721, 38.344141, 2960.8], [-119.647188, 38.34406, 2958.9], [-119.647192, 38.344044, 2958.9], [-119.647253, 38.343963, 2959.3], [-119.647276, 38.343887, 2957.9], [-119.647251, 38.343834, 2957.2], [-119.647249, 38.343802, 2956.2], [-119.647278, 38.343747, 2954.0], [-119.647282, 38.343732, 2953.8], [-119.647309, 38.343674, 2953.3], [-119.64732, 38.343586, 2955.5], [-119.64732, 38.343569, 2955.1], [-119.647281, 38.343474, 2950.6], [-119.64724, 38.343431, 2947.7], [-119.647198, 38.343395, 2946.1], [-119.647134, 38.343275, 2942.2], [-119.647102, 38.343225, 2942.1], [-119.647087, 38.34315, 2941.3], [-119.647044, 38.343092, 2938.8], [-119.64704, 38.343076, 2938.7], [-119.647058, 38.343036, 2937.3], [-119.647051, 38.342915, 2933.8], [-119.646976, 38.342768, 2930.4], [-119.646966, 38.342746, 2928.9], [-119.646929, 38.342639, 2927.6], [-119.646921, 38.342577, 2923.3], [-119.646924, 38.342558, 2923.1], [-119.646945, 38.342474, 2920.7], [-119.646922, 38.342368, 2919.6], [-119.646895, 38.342286, 2919.0], [-119.646883, 38.342212, 2919.4], [-119.646887, 38.342075, 2921.6], [-119.646909, 38.342054, 2924.1], [-119.646878, 38.342042, 2926.5], [-119.646873, 38.342034, 2928.6], [-119.646873, 38.341959, 2923.7], [-119.64694, 38.341823, 2921.9], [-119.646946, 38.341797, 2921.4], [-119.64699, 38.341718, 2921.9], [-119.646971, 38.341545, 2921.5], [-119.646962, 38.34152, 2921.3], [-119.646939, 38.341433, 2918.2], [-119.646956, 38.341224, 2914.5], [-119.646958, 38.341191, 2916.6], [-119.646955, 38.34114, 2916.1], [-119.646922, 38.341089, 2914.7], [-119.646845, 38.341036, 2913.0], [-119.646788, 38.341011, 2913.3], [-119.646754, 38.341, 2912.9], [-119.646667, 38.340982, 2913.3], [-119.646588, 38.34092, 2913.3], [-119.646529, 38.340888, 2911.7], [-119.646505, 38.340877, 2910.1], [-119.646473, 38.34085, 2908.9], [-119.646433, 38.340737, 2906.9], [-119.646416, 38.340659, 2905.1], [-119.646412, 38.340632, 2904.9], [-119.646388, 38.340557, 2904.9], [-119.646344, 38.340509, 2904.5], [-119.646315, 38.340456, 2901.9], [-119.646268, 38.340417, 2901.3], [-119.646237, 38.340354, 2898.0], [-119.646124, 38.340247, 2898.4], [-119.646086, 38.340158, 2892.6], [-119.646109, 38.340055, 2888.3], [-119.646102, 38.340011, 2886.2], [-119.646093, 38.339991, 2886.1], [-119.646071, 38.339899, 2886.1], [-119.646048, 38.339849, 2886.0], [-119.646056, 38.339763, 2884.0], [-119.646063, 38.339739, 2884.5], [-119.646084, 38.339687, 2883.2], [-119.64613, 38.339615, 2884.2], [-119.646167, 38.339517, 2883.1], [-119.646174, 38.339494, 2883.2], [-119.646205, 38.339352, 2883.1], [-119.646247, 38.339262, 2882.0], [-119.64627, 38.339101, 2877.6], [-119.646265, 38.339018, 2878.2], [-119.646245, 38.338974, 2878.2], [-119.646239, 38.338945, 2878.2], [-119.646136, 38.338787, 2874.7], [-119.646039, 38.338664, 2875.7], [-119.645994, 38.33856, 2874.1], [-119.645914, 38.338398, 2870.9], [-119.645908, 38.338332, 2870.1], [-119.645896, 38.338313, 2870.4], [-119.645853, 38.338269, 2869.9], [-119.645808, 38.338192, 2868.3], [-119.645718, 38.338126, 2872.0], [-119.645695, 38.3381, 2870.1], [-119.645636, 38.338014, 2869.0], [-119.645585, 38.337908, 2868.6], [-119.645566, 38.337834, 2867.7], [-119.645568, 38.337794, 2868.1], [-119.645612, 38.337607, 2866.5], [-119.6456, 38.337566, 2865.7], [-119.645585, 38.337539, 2863.7], [-119.645603, 38.337382, 2858.6], [-119.645594, 38.337322, 2857.6], [-119.645552, 38.337262, 2857.7], [-119.645352, 38.337055, 2856.9], [-119.645334, 38.337026, 2856.0], [-119.645318, 38.336974, 2854.7], [-119.645321, 38.336919, 2854.7], [-119.645339, 38.336821, 2853.4], [-119.645365, 38.336755, 2855.1], [-119.645384, 38.336734, 2855.0], [-119.645461, 38.336662, 2855.7], [-119.645479, 38.33663, 2855.5], [-119.645481, 38.336607, 2856.6], [-119.645471, 38.336595, 2855.4], [-119.645425, 38.336591, 2853.9], [-119.645403, 38.336596, 2852.3], [-119.645322, 38.336592, 2851.6], [-119.6452, 38.336509, 2851.7], [-119.645101, 38.336446, 2850.7], [-119.645075, 38.336405, 2851.3], [-119.645073, 38.336364, 2851.6], [-119.645053, 38.336348, 2852.1], [-119.645074, 38.336244, 2849.5], [-119.645108, 38.336236, 2858.7], [-119.645076, 38.336266, 2855.6], [-119.645009, 38.336289, 2854.9], [-119.645, 38.336319, 2858.1], [-119.645006, 38.336341, 2857.1], [-119.644982, 38.336409, 2856.0], [-119.644987, 38.336457, 2856.4], [-119.645043, 38.336495, 2856.4], [-119.645173, 38.336562, 2856.5], [-119.645247, 38.336591, 2855.1], [-119.645331, 38.33661, 2854.7], [-119.645468, 38.33662, 2854.8], [-119.645499, 38.336639, 2857.4], [-119.645545, 38.336698, 2853.1], [-119.645509, 38.33675, 2855.3], [-119.645445, 38.336835, 2855.9], [-119.64541, 38.336935, 2855.3], [-119.645409, 38.336963, 2855.5], [-119.645415, 38.337024, 2855.5], [-119.645438, 38.337092, 2856.5], [-119.645544, 38.337269, 2859.8], [-119.645564, 38.337298, 2859.8], [-119.645586, 38.337315, 2859.6], [-119.645646, 38.337305, 2860.6], [-119.645666, 38.337288, 2860.0], [-119.645659, 38.33725, 2858.1], [-119.64564, 38.337228, 2857.2], [-119.645587, 38.3372, 2857.3], [-119.645554, 38.337187, 2856.6], [-119.645458, 38.337121, 2856.0], [-119.645457, 38.337068, 2857.0], [-119.645429, 38.336965, 2856.5], [-119.645426, 38.336943, 2856.0], [-119.645441, 38.336823, 2854.3], [-119.64546, 38.336773, 2853.9], [-119.645468, 38.336765, 2853.5], [-119.645543, 38.336724, 2853.6], [-119.645555, 38.336709, 2853.9], [-119.645572, 38.336637, 2853.2], [-119.645591, 38.336618, 2853.1], [-119.645626, 38.336603, 2853.1], [-119.64584, 38.336606, 2852.0], [-119.646026, 38.336589, 2851.2], [-119.646276, 38.33658, 2850.2], [-119.646409, 38.336564, 2850.1], [-119.646555, 38.336566, 2849.3], [-119.647595, 38.33662, 2842.5], [-119.647756, 38.336612, 2842.0], [-119.647913, 38.336571, 2842.6], [-119.648056, 38.336521, 2841.2], [-119.648183, 38.336442, 2841.1], [-119.648314, 38.336366, 2839.6], [-119.648433, 38.33627, 2839.6], [-119.649015, 38.335754, 2837.2], [-119.649302, 38.335609, 2832.8], [-119.649456, 38.33554, 2831.6], [-119.64979, 38.335478, 2831.6], [-119.650547, 38.335412, 2828.3], [-119.650691, 38.335414, 2825.8], [-119.650832, 38.33544, 2827.5], [-119.65096, 38.335487, 2826.2], [-119.651086, 38.335541, 2825.2], [-119.651159, 38.335656, 2824.4], [-119.651382, 38.335934, 2823.1], [-119.651471, 38.336025, 2823.8], [-119.651585, 38.336107, 2822.7], [-119.651714, 38.336181, 2822.0], [-119.65185, 38.336225, 2821.5], [-119.651975, 38.336253, 2819.7], [-119.652113, 38.336258, 2820.3], [-119.652378, 38.336251, 2820.9], [-119.652524, 38.336202, 2818.3], [-119.652608, 38.336084, 2818.2], [-119.652714, 38.336018, 2816.5], [-119.652792, 38.335937, 2813.6], [-119.652869, 38.335833, 2813.0], [-119.652986, 38.335596, 2811.6], [-119.653046, 38.33548, 2810.3], [-119.653115, 38.335376, 2809.5], [-119.653305, 38.335182, 2808.6], [-119.653485, 38.334953, 2807.1], [-119.653612, 38.334704, 2803.0], [-119.653659, 38.334569, 2801.5], [-119.653691, 38.33442, 2799.2], [-119.653734, 38.334282, 2800.3], [-119.653847, 38.333865, 2796.8], [-119.653997, 38.333451, 2796.2], [-119.654066, 38.333297, 2795.7], [-119.654234, 38.333044, 2792.6], [-119.654324, 38.33291, 2792.6], [-119.654977, 38.331993, 2789.8], [-119.655083, 38.331871, 2789.4], [-119.655178, 38.331742, 2789.2], [-119.655278, 38.331617, 2789.6], [-119.655479, 38.331357, 2789.7], [-119.655645, 38.331102, 2789.7], [-119.655749, 38.330983, 2790.4], [-119.655809, 38.330832, 2789.4], [-119.655975, 38.330571, 2790.1], [-119.656054, 38.330426, 2790.1], [-119.656142, 38.330295, 2787.0], [-119.656406, 38.329852, 2786.5], [-119.656602, 38.329571, 2785.5], [-119.656843, 38.329305, 2785.7], [-119.657004, 38.329238, 2786.0], [-119.657137, 38.329117, 2785.1], [-119.657266, 38.329002, 2785.8], [-119.657384, 38.32891, 2787.5], [-119.657612, 38.328618, 2787.5], [-119.657658, 38.32853, 2789.3], [-119.657615, 38.32839, 2788.2], [-119.657572, 38.328175, 2787.9], [-119.657527, 38.328051, 2786.7], [-119.65748, 38.327798, 2785.7], [-119.657478, 38.32765, 2784.1], [-119.657519, 38.327542, 2784.5], [-119.657679, 38.327282, 2784.3], [-119.657801, 38.327187, 2784.5], [-119.657951, 38.327144, 2783.5], [-119.658154, 38.327171, 2781.4], [-119.658311, 38.327141, 2781.2], [-119.658484, 38.327182, 2777.8], [-119.658623, 38.327132, 2780.5], [-119.658887, 38.327102, 2778.1], [-119.658991, 38.327037, 2777.5], [-119.658993, 38.326869, 2776.3], [-119.659041, 38.326766, 2775.3], [-119.659123, 38.326648, 2775.5], [-119.659305, 38.32642, 2774.0], [-119.659407, 38.326314, 2773.4], [-119.659517, 38.32619, 2774.1], [-119.659608, 38.326143, 2772.7], [-119.659739, 38.325933, 2771.6], [-119.659776, 38.325826, 2773.3], [-119.659772, 38.325715, 2772.7], [-119.65969, 38.325478, 2771.1], [-119.659698, 38.325356, 2770.6], [-119.659702, 38.32524, 2770.9], [-119.659734, 38.325124, 2769.1], [-119.659795, 38.325005, 2769.0], [-119.660025, 38.324767, 2769.0], [-119.660226, 38.324596, 2767.8], [-119.660525, 38.324287, 2764.7], [-119.660615, 38.324174, 2764.8], [-119.660705, 38.324077, 2761.5], [-119.660865, 38.323851, 2757.7], [-119.661055, 38.323625, 2756.7], [-119.661469, 38.323196, 2750.7], [-119.66154, 38.323065, 2749.2], [-119.661782, 38.322575, 2746.0], [-119.662042, 38.322208, 2739.2], [-119.662154, 38.322091, 2737.3], [-119.662258, 38.321967, 2734.3], [-119.662359, 38.321838, 2733.3], [-119.662455, 38.32171, 2732.4], [-119.662536, 38.32158, 2731.9], [-119.66268, 38.321316, 2730.4], [-119.662712, 38.321179, 2729.0], [-119.662702, 38.321059, 2726.8], [-119.66267, 38.320921, 2725.8], [-119.662658, 38.320694, 2723.6], [-119.662701, 38.320575, 2721.5], [-119.662804, 38.320365, 2720.1], [-119.662912, 38.320273, 2718.7], [-119.663143, 38.320169, 2719.3], [-119.663251, 38.320082, 2717.6], [-119.663405, 38.319859, 2714.2], [-119.663472, 38.319727, 2712.2], [-119.663529, 38.31959, 2711.4], [-119.663726, 38.319162, 2706.5], [-119.66385, 38.318922, 2703.1], [-119.663945, 38.318681, 2700.3], [-119.663996, 38.318585, 2699.3], [-119.664052, 38.318516, 2694.6], [-119.664153, 38.318448, 2690.8], [-119.664355, 38.318264, 2689.1], [-119.66453, 38.318202, 2686.4], [-119.664673, 38.318135, 2684.4], [-119.664973, 38.318051, 2680.3], [-119.665413, 38.317882, 2676.0], [-119.665541, 38.317794, 2675.0], [-119.665808, 38.317637, 2669.8], [-119.666241, 38.317411, 2663.7], [-119.666353, 38.317324, 2660.5], [-119.666533, 38.317152, 2655.2], [-119.666593, 38.317082, 2653.4], [-119.666655, 38.31702, 2652.6], [-119.666738, 38.316971, 2652.0], [-119.666822, 38.316946, 2650.8], [-119.666953, 38.316976, 2645.8], [-119.666973, 38.317094, 2642.4], [-119.666974, 38.317166, 2639.7], [-119.666942, 38.317339, 2634.8], [-119.666943, 38.317443, 2634.3], [-119.666959, 38.317535, 2632.9], [-119.667012, 38.317622, 2630.6], [-119.667279, 38.317899, 2624.8], [-119.667454, 38.318113, 2622.7], [-119.667533, 38.318183, 2620.2], [-119.667639, 38.318241, 2618.6], [-119.667729, 38.318277, 2617.8], [-119.667848, 38.318289, 2617.7], [-119.667965, 38.318267, 2616.1], [-119.668081, 38.318222, 2615.7], [-119.668555, 38.317936, 2609.2], [-119.668946, 38.317739, 2607.2], [-119.669267, 38.317855, 2599.1], [-119.669349, 38.317975, 2597.0], [-119.669442, 38.318076, 2597.1], [-119.669598, 38.318297, 2592.3], [-119.669915, 38.318649, 2584.1], [-119.670028, 38.318767, 2579.8], [-119.670291, 38.319019, 2578.1], [-119.670508, 38.319275, 2571.5], [-119.670724, 38.319555, 2569.9], [-119.670904, 38.319867, 2565.5], [-119.671016, 38.320024, 2564.1], [-119.671111, 38.320179, 2562.5], [-119.67122, 38.320337, 2561.9], [-119.671326, 38.320472, 2560.2], [-119.671451, 38.320608, 2558.5], [-119.671752, 38.320836, 2556.0], [-119.671914, 38.320946, 2555.7], [-119.672281, 38.321152, 2552.2], [-119.672462, 38.321264, 2551.5], [-119.672636, 38.321367, 2550.6], [-119.673002, 38.321531, 2547.0], [-119.673194, 38.321598, 2546.1], [-119.673587, 38.321721, 2543.5], [-119.673787, 38.321771, 2542.9], [-119.674199, 38.321897, 2539.5], [-119.674398, 38.321967, 2538.3], [-119.674606, 38.322066, 2534.0], [-119.674827, 38.322145, 2532.6], [-119.675055, 38.32221, 2532.4], [-119.675284, 38.322267, 2531.2], [-119.675747, 38.322354, 2529.5], [-119.675966, 38.322411, 2527.8], [-119.676547, 38.322608, 2527.6], [-119.676751, 38.322659, 2526.8], [-119.677333, 38.322844, 2518.6]]}}