{"type": "Feature", "properties": {}, "geometry": {"type": "LineString", "coordinates": [[-121.61052784882486, 48.30915626138449, 1031.63], [-121.6105393320322, 48.309150310233235, 1035.0], [-121.6105443611741, 48.30911275930703, 1030.19], [-121.61060814745724, 48.30910060554743, 1031.63], [-121.6105707641691, 48.30910068936646, 1038.84], [-121.61053706891835, 48.30907545983791, 1024.9], [-121.61047236062586, 48.309073615819216, 1025.38], [-121.61043321713805, 48.30915290862322, 1024.42], [-121.61043087020516, 48.309240248054266, 1025.38], [-121.61031888797879, 48.309375615790486, 1019.13], [-121.61027412861586, 48.30949262715876, 1019.13], [-121.61027446389198, 48.30953160300851, 1019.13], [-121.61021495237947, 48.309716172516346, 1021.06], [-121.61021268926561, 48.30982723273337, 1021.54], [-121.61019223742187, 48.30998674035072, 1020.1], [-121.61019106395543, 48.31012990325689, 1022.02], [-121.61010724492371, 48.31024666316807, 1027.79], [-121.6100437939167, 48.310425616800785, 1032.59], [-121.60996668040752, 48.31057531759143, 1035.0], [-121.60987758077681, 48.31073264591396, 1036.44], [-121.60978563129902, 48.31087865866721, 1041.25], [-121.60977590829134, 48.31092819571495, 1042.69], [-121.60976937040687, 48.31109658814967, 1045.57], [-121.60981647670269, 48.3113176189363, 1049.9], [-121.60984438844025, 48.31146757118404, 1054.22], [-121.6098313126713, 48.31172271631658, 1060.95], [-121.60989384166896, 48.311925642192364, 1063.84], [-121.60996575839818, 48.31203879788518, 1065.28], [-121.6100371722132, 48.31228229217231, 1061.91], [-121.61018326878548, 48.3124640956521, 1061.43], [-121.6102438699454, 48.312570713460445, 1060.47], [-121.61028326489031, 48.312816973775625, 1061.91], [-121.61028385162354, 48.31308351829648, 1062.87], [-121.61025074310601, 48.3133467938751, 1063.36], [-121.61023599095643, 48.313636891543865, 1066.72], [-121.61014152690768, 48.3138682320714, 1067.2], [-121.61002577282488, 48.31421063281596, 1065.76], [-121.61002770066261, 48.314504669979215, 1065.76], [-121.61001680418849, 48.31481371074915, 1060.95], [-121.60993047058582, 48.31501948647201, 1065.28], [-121.6097657661885, 48.31511822529137, 1065.76], [-121.60960927605629, 48.31517522223294, 1066.72], [-121.60943074151874, 48.31520087085664, 1070.08], [-121.60937508568168, 48.315220316872, 1070.08], [-121.60914056003094, 48.31522283144295, 1072.49], [-121.6091013327241, 48.315206822007895, 1072.97], [-121.60885859280825, 48.3152409363538, 1072.01], [-121.60864770412445, 48.31535937264562, 1072.01], [-121.60848601721227, 48.31552851945162, 1071.53], [-121.60821377299726, 48.31568073481321, 1067.68], [-121.60804714076221, 48.31577545031905, 1066.72], [-121.60802987404168, 48.31579573452473, 1066.72], [-121.60775310359895, 48.316273083910346, 1071.05], [-121.60755654796958, 48.31635933369398, 1072.49], [-121.60748915746808, 48.31655220128596, 1081.14], [-121.60748781636357, 48.31675889901817, 1095.56], [-121.60737977363169, 48.3169402834028, 1097.96], [-121.60727282054722, 48.3170594740659, 1097.48], [-121.60717030987144, 48.317181430757046, 1094.6], [-121.60708531737328, 48.317257957533, 1093.16], [-121.60689437761903, 48.31737119704485, 1092.68], [-121.60676831379533, 48.31748552620411, 1092.2], [-121.60671886056662, 48.31751259975135, 1092.68], [-121.60657217726111, 48.317615278065205, 1092.2], [-121.60642582923174, 48.317704712972045, 1090.75], [-121.60630554892123, 48.31773136742413, 1090.75], [-121.6060499008745, 48.317885510623455, 1089.31], [-121.60558956675231, 48.318154737353325, 1086.43], [-121.60552242770791, 48.318249536678195, 1091.71], [-121.60539225675166, 48.31826588138938, 1093.16], [-121.6053574718535, 48.31828063353896, 1094.12], [-121.6051259636879, 48.31830745562911, 1097.48], [-121.60500777885318, 48.3183322660625, 1096.52], [-121.60495229065418, 48.318322878330946, 1092.2], [-121.60469454713166, 48.31841994076967, 1089.31], [-121.60437326878309, 48.31850920803845, 1086.91], [-121.60410085693002, 48.318580789491534, 1083.54], [-121.60389298573136, 48.31864055246115, 1082.1], [-121.60383146256208, 48.318872982636094, 1096.52], [-121.60371721722186, 48.319000136107206, 1102.29], [-121.60361872985959, 48.31912402063608, 1106.61], [-121.6034836973995, 48.31924161873758, 1106.61], [-121.6034625750035, 48.31927799619734, 1106.61], [-121.60335126332939, 48.31936919130385, 1106.13], [-121.60308589227498, 48.319516042247415, 1105.17], [-121.60294231027365, 48.319658786058426, 1105.17], [-121.60278900526464, 48.319733468815684, 1104.69], [-121.60264852456748, 48.319814102724195, 1104.69], [-121.60249781794846, 48.31993656232953, 1103.73], [-121.60239480435848, 48.32005575299263, 1103.73], [-121.60220512188971, 48.32015164196491, 1102.77], [-121.60204594954848, 48.320248033851385, 1109.02], [-121.60190848633647, 48.32029270939529, 1109.98], [-121.60174202173948, 48.320303773507476, 1109.5], [-121.60165786743164, 48.32032556645572, 1110.46], [-121.60155896097422, 48.32032120786607, 1112.86], [-121.60147271119058, 48.320307126268744, 1114.31], [-121.60137933678925, 48.32022724673152, 1115.75], [-121.60134362988174, 48.320084838196635, 1119.11], [-121.60144614055753, 48.31993815489113, 1121.52], [-121.60156264901161, 48.319829273968935, 1122.96], [-121.60191326402128, 48.31944731064141, 1122.48], [-121.60209523513913, 48.319123685359955, 1122.96], [-121.60211250185966, 48.3189002238214, 1123.92], [-121.60211803391576, 48.318722024559975, 1121.03], [-121.60214468836784, 48.31850375980139, 1122.48], [-121.60224426537752, 48.31831265240908, 1126.32], [-121.60239363089204, 48.31810402683914, 1130.17], [-121.60253109410405, 48.31793454475701, 1133.53], [-121.60272580571473, 48.31777629442513, 1135.94], [-121.60294172354043, 48.317641261965036, 1145.55], [-121.6030672006309, 48.31760773435235, 1148.43], [-121.60316828638315, 48.31770446151495, 1149.87], [-121.60308136604726, 48.31791275180876, 1152.28], [-121.6030328348279, 48.31799623556435, 1153.72], [-121.60297374241054, 48.318219697102904, 1154.68], [-121.6029427293688, 48.31828926689923, 1155.64], [-121.60302638076246, 48.31831248477101, 1156.12], [-121.60300685092807, 48.31834316253662, 1155.64], [-121.60293392837048, 48.31833612173796, 1154.68], [-121.60290006548166, 48.31832706928253, 1154.68], [-121.60297349095345, 48.318308629095554, 1152.28], [-121.602967036888, 48.31835875287652, 1147.95], [-121.6030238661915, 48.31834324635565, 1143.14], [-121.6030227765441, 48.31831122748554, 1145.55], [-121.60303643904626, 48.318286165595055, 1145.55], [-121.60300383344293, 48.3182836510241, 1148.91], [-121.60302562639117, 48.318297900259495, 1148.43], [-121.60301716066897, 48.318266635760665, 1150.35], [-121.6030413005501, 48.31819798797369, 1151.32], [-121.6031884867698, 48.31787142902613, 1152.28], [-121.60321706905961, 48.31777838990092, 1151.32], [-121.60293057560921, 48.31766481511295, 1146.51], [-121.60267199389637, 48.31780177541077, 1141.7], [-121.60249019041657, 48.317933455109596, 1138.82], [-121.60238524898887, 48.31807686947286, 1137.38], [-121.60226580686867, 48.31826185807586, 1136.42], [-121.60211216658354, 48.31849227659404, 1133.53], [-121.60207905806601, 48.31870794296265, 1130.65], [-121.60206187516451, 48.31918361596763, 1126.8], [-121.60193983465433, 48.319389475509524, 1123.92], [-121.60174436867237, 48.31961310468614, 1120.07], [-121.6015166323632, 48.31984075717628, 1115.75], [-121.60133541561663, 48.320054579526186, 1112.86], [-121.6014373395592, 48.320225067436695, 1104.69], [-121.60173716023564, 48.320288518443704, 1100.37], [-121.6018295288086, 48.320279298350215, 1099.89], [-121.60194243304431, 48.32025507465005, 1099.89], [-121.60223663784564, 48.32015549764037, 1098.44], [-121.60245347768068, 48.31999280489981, 1099.89], [-121.60269169136882, 48.319862047210336, 1099.89], [-121.6031554620713, 48.31952425651252, 1104.69], [-121.60341437906027, 48.319364581257105, 1108.06], [-121.60360054112971, 48.31916584633291, 1112.86], [-121.6037944983691, 48.319070460274816, 1114.31], [-121.60392626188695, 48.31899393349886, 1116.23], [-121.60416757687926, 48.318862169981, 1118.15], [-121.60445122048259, 48.318744990974665, 1118.63], [-121.60477191209793, 48.31868028268218, 1119.59], [-121.60503728315234, 48.318566707894206, 1122.0], [-121.60538119263947, 48.31852111034095, 1120.07], [-121.60569710657, 48.31839353777468, 1114.31], [-121.60586097277701, 48.3182577509433, 1112.86], [-121.60608200356364, 48.31811693497002, 1110.94], [-121.60629188641906, 48.31793471239507, 1111.42], [-121.60656270571053, 48.31774813123047, 1112.86], [-121.60683293826878, 48.31760723143816, 1112.86], [-121.60718321800232, 48.317422242835164, 1110.94], [-121.6073652729392, 48.31724328920245, 1110.94], [-121.60747658461332, 48.31679075025022, 1099.89], [-121.60753425210714, 48.31650593318045, 1090.27], [-121.60765185020864, 48.31644424237311, 1090.27], [-121.60781831480563, 48.31638992764056, 1090.27], [-121.60799156874418, 48.316193455830216, 1090.27], [-121.60819290205836, 48.315902603790164, 1090.75], [-121.6084622964263, 48.3157298527658, 1091.71], [-121.60872641019523, 48.31551116891205, 1089.79], [-121.60896671935916, 48.315380327403545, 1089.31], [-121.60931733436882, 48.31529466435313, 1087.39], [-121.60966333933175, 48.31525074318051, 1084.5], [-121.60980080254376, 48.31520028412342, 1082.1], [-121.60996802151203, 48.315039770677686, 1080.66], [-121.610028706491, 48.3148302230984, 1074.89], [-121.61002610810101, 48.314534928649664, 1071.53], [-121.61011185497046, 48.314212476834655, 1069.6], [-121.61018771119416, 48.31386177800596, 1064.8], [-121.61023138090968, 48.313683327287436, 1065.76], [-121.61029583774507, 48.31352516077459, 1067.2], [-121.61031050607562, 48.31333472393453, 1067.2], [-121.6102842707187, 48.31306600011885, 1063.84], [-121.61031100898981, 48.31272527575493, 1061.91], [-121.61019315943122, 48.31245361827314, 1059.03], [-121.61008075810969, 48.31226360052824, 1057.59], [-121.60990968346596, 48.31212286837399, 1056.15], [-121.60988847725093, 48.31208917312324, 1055.67], [-121.6098038200289, 48.31185355782509, 1053.74], [-121.60979736596346, 48.311493219807744, 1050.38], [-121.60986492410302, 48.31129716709256, 1048.45], [-121.60997615195811, 48.310995837673545, 1046.53], [-121.6100094281137, 48.31083431839943, 1045.09], [-121.61009777337313, 48.31068528816104, 1039.8], [-121.61018251441419, 48.31046886742115, 1033.07], [-121.61023180000484, 48.31014306284487, 1025.86], [-121.61040404811502, 48.30976311117411, 1017.21], [-121.61050161346793, 48.30945013090968, 1009.52], [-121.61065357737243, 48.309038830921054, 1015.29], [-121.61067662760615, 48.30899080261588, 1022.02], [-121.61067143082619, 48.30907772295177, 1023.46], [-121.61057453602552, 48.309068670496345, 1033.55]]}}