{"type": "Feature", "properties": {}, "geometry": {"type": "LineString", "coordinates": [[-121.739598, 46.784821, 1620.0], [-121.739627, 46.784892, 1624.7], [-121.739589, 46.784874, 1624.1], [-121.739559, 46.78489, 1624.0], [-121.739524, 46.784925, 1623.8], [-121.736459, 46.796381, 1809.9], [-121.736477, 46.796399, 1811.0], [-121.736451, 46.796405, 1813.6], [-121.734681, 46.80145, 1928.5], [-121.734735, 46.801486, 1910.9], [-121.734743, 46.801576, 1912.1], [-121.73472, 46.801561, 1913.7], [-121.73469, 46.801577, 1916.7], [-121.734681, 46.801571, 1918.5], [-121.734542, 46.801732, 1921.1], [-121.734431, 46.801909, 1923.0], [-121.734331, 46.802016, 1923.0], [-121.734308, 46.802066, 1923.9], [-121.734305, 46.802156, 1924.0], [-121.734315, 46.802227, 1922.8], [-121.734266, 46.802361, 1925.8], [-121.734262, 46.80244, 1924.3], [-121.734248, 46.802498, 1927.9], [-121.734327, 46.802615, 1930.9], [-121.734382, 46.80273, 1933.8], [-121.734422, 46.802783, 1934.5], [-121.734524, 46.80287, 1937.8], [-121.734575, 46.802946, 1936.1], [-121.734599, 46.80299, 1937.7], [-121.734604, 46.803039, 1936.2], [-121.734651, 46.803109, 1935.4], [-121.734646, 46.803137, 1935.3], [-121.734622, 46.803158, 1936.2], [-121.734605, 46.803226, 1937.1], [-121.734556, 46.803281, 1937.6], [-121.734514, 46.803375, 1941.8], [-121.734507, 46.803456, 1943.1], [-121.734501, 46.803466, 1941.8], [-121.734405, 46.803496, 1940.2], [-121.734257, 46.803516, 1937.4], [-121.734115, 46.803556, 1941.5], [-121.734035, 46.803608, 1942.1], [-121.734029, 46.803623, 1942.1], [-121.733986, 46.803661, 1943.5], [-121.733845, 46.803708, 1946.4], [-121.733824, 46.803743, 1948.7], [-121.733826, 46.803815, 1949.2], [-121.733806, 46.803834, 1950.8], [-121.733743, 46.80384, 1953.7], [-121.733727, 46.803874, 1952.7], [-121.733726, 46.803904, 1951.6], [-121.733737, 46.803922, 1953.1], [-121.733798, 46.803946, 1956.0], [-121.733823, 46.803985, 1956.6], [-121.733815, 46.804016, 1957.9], [-121.733771, 46.804062, 1958.1], [-121.733696, 46.804171, 1963.7], [-121.733687, 46.804198, 1964.6], [-121.733715, 46.804279, 1966.7], [-121.733665, 46.804327, 1967.9], [-121.733584, 46.804347, 1965.6], [-121.733566, 46.804372, 1965.7], [-121.733564, 46.804415, 1964.3], [-121.733549, 46.80444, 1963.8], [-121.733506, 46.804472, 1964.1], [-121.733406, 46.804488, 1962.9], [-121.733372, 46.804475, 1965.0], [-121.733354, 46.804451, 1968.6], [-121.733334, 46.804475, 1969.0], [-121.73328, 46.804483, 1970.1], [-121.733175, 46.804477, 1973.2], [-121.733134, 46.804506, 1973.8], [-121.733128, 46.804551, 1974.9], [-121.733109, 46.804584, 1973.5], [-121.733081, 46.804588, 1976.6], [-121.733039, 46.804617, 1977.9], [-121.733029, 46.80459, 1978.2], [-121.733036, 46.804646, 1984.2], [-121.733028, 46.804684, 1982.6], [-121.732997, 46.804683, 1981.1], [-121.732965, 46.804631, 1982.9], [-121.732908, 46.80459, 1984.4], [-121.732823, 46.804514, 1990.6], [-121.732785, 46.804472, 1992.2], [-121.732769, 46.80444, 1998.6], [-121.732729, 46.80439, 2001.8], [-121.732797, 46.804398, 1994.7], [-121.732842, 46.804433, 1991.3], [-121.732893, 46.804446, 1991.6], [-121.732815, 46.804437, 1990.0], [-121.732785, 46.80442, 1991.6], [-121.732761, 46.804379, 1992.7], [-121.732715, 46.804353, 1995.0], [-121.732726, 46.804331, 1996.4], [-121.732726, 46.804265, 2001.6], [-121.732693, 46.804179, 2002.5], [-121.732635, 46.80412, 2006.3], [-121.732592, 46.804013, 2006.2], [-121.732495, 46.803871, 2009.1], [-121.732463, 46.80381, 2012.2], [-121.732458, 46.803784, 2012.2], [-121.732398, 46.803702, 2012.5], [-121.732378, 46.803649, 2011.8], [-121.732294, 46.803547, 2012.2], [-121.732268, 46.803481, 2011.4], [-121.732227, 46.803417, 2010.8], [-121.7322, 46.803439, 2011.4], [-121.732194, 46.803466, 2011.8], [-121.732144, 46.803501, 2014.2], [-121.732171, 46.803564, 2011.0], [-121.732162, 46.803601, 2012.4], [-121.732163, 46.803648, 2012.4], [-121.732124, 46.803704, 2012.8], [-121.732119, 46.80377, 2013.7], [-121.73214, 46.803938, 2015.8], [-121.732077, 46.804007, 2018.0], [-121.73207, 46.804057, 2020.2], [-121.732042, 46.804073, 2020.7], [-121.732029, 46.804106, 2022.9], [-121.732016, 46.804167, 2023.6], [-121.732019, 46.804215, 2026.8], [-121.732006, 46.804238, 2027.2], [-121.731955, 46.804275, 2028.7], [-121.731949, 46.804308, 2029.1], [-121.731907, 46.804368, 2033.0], [-121.731902, 46.804424, 2033.9], [-121.731884, 46.804452, 2035.2], [-121.731854, 46.804461, 2035.3], [-121.731784, 46.804506, 2036.7], [-121.731765, 46.804529, 2037.8], [-121.731728, 46.804545, 2038.8], [-121.731721, 46.804577, 2040.8], [-121.731671, 46.80464, 2043.5], [-121.731658, 46.804727, 2045.7], [-121.731589, 46.804719, 2043.9], [-121.731486, 46.80475, 2042.8], [-121.731428, 46.80469, 2044.3], [-121.731379, 46.804619, 2047.8], [-121.731373, 46.804594, 2047.8], [-121.731311, 46.804624, 2048.6], [-121.731268, 46.804604, 2049.3], [-121.731186, 46.804599, 2051.7], [-121.731158, 46.804612, 2052.7], [-121.731109, 46.804671, 2055.1], [-121.731073, 46.804696, 2055.4], [-121.731032, 46.804741, 2056.9], [-121.731016, 46.804792, 2058.1], [-121.730971, 46.804855, 2061.5], [-121.730922, 46.804863, 2062.7], [-121.730913, 46.80491, 2064.4], [-121.730879, 46.804958, 2064.4], [-121.730812, 46.804998, 2064.8], [-121.730768, 46.804994, 2064.9], [-121.730744, 46.805005, 2068.1], [-121.730599, 46.805124, 2068.8], [-121.730543, 46.805153, 2071.7], [-121.73053, 46.805173, 2071.9], [-121.730455, 46.805225, 2070.1], [-121.730312, 46.805254, 2072.0], [-121.730247, 46.80525, 2073.7], [-121.730212, 46.805235, 2072.8], [-121.730162, 46.805227, 2074.2], [-121.730118, 46.80519, 2075.9], [-121.730082, 46.805189, 2077.6], [-121.730024, 46.805262, 2081.8], [-121.729957, 46.805341, 2082.7], [-121.729903, 46.805362, 2084.9], [-121.72985, 46.805354, 2083.4], [-121.729809, 46.805358, 2083.9], [-121.729629, 46.805443, 2087.9], [-121.729547, 46.805477, 2090.2], [-121.729361, 46.805466, 2095.5], [-121.729316, 46.805467, 2096.7], [-121.729259, 46.805449, 2097.8], [-121.72922, 46.80545, 2098.5], [-121.729193, 46.805461, 2099.9], [-121.72914, 46.805515, 2101.0], [-121.729137, 46.805524, 2100.4], [-121.729076, 46.805581, 2101.8], [-121.729012, 46.805625, 2107.5], [-121.728977, 46.805608, 2107.5], [-121.728892, 46.805684, 2111.4], [-121.728867, 46.805731, 2112.4], [-121.728866, 46.805775, 2113.1], [-121.728788, 46.805862, 2116.5], [-121.728678, 46.805922, 2117.0], [-121.728663, 46.80601, 2117.0], [-121.728635, 46.806049, 2119.4], [-121.728583, 46.806071, 2117.0], [-121.728568, 46.806106, 2118.8], [-121.728464, 46.806144, 2121.0], [-121.728412, 46.806182, 2121.0], [-121.728338, 46.80625, 2123.4], [-121.728295, 46.806308, 2123.8], [-121.728252, 46.806337, 2123.3], [-121.728167, 46.806455, 2126.3], [-121.72811, 46.806508, 2126.7], [-121.728094, 46.806533, 2127.5], [-121.728143, 46.806601, 2130.1], [-121.728064, 46.806684, 2133.1], [-121.728073, 46.80671, 2133.8], [-121.728049, 46.806731, 2136.4], [-121.728047, 46.806751, 2134.9], [-121.727992, 46.806832, 2135.2], [-121.727989, 46.806867, 2136.4], [-121.728009, 46.806884, 2137.2], [-121.728026, 46.806972, 2139.1], [-121.728014, 46.807006, 2141.0], [-121.728028, 46.807047, 2142.2], [-121.728008, 46.807086, 2144.3], [-121.72798, 46.807234, 2145.8], [-121.727959, 46.807281, 2147.2], [-121.727959, 46.807307, 2148.1], [-121.727908, 46.807371, 2148.5], [-121.727917, 46.807415, 2149.1], [-121.727891, 46.807455, 2149.5], [-121.727905, 46.807535, 2151.0], [-121.727899, 46.807608, 2152.2], [-121.727849, 46.807642, 2150.9], [-121.727776, 46.807667, 2150.8], [-121.727711, 46.807677, 2151.8], [-121.727618, 46.80771, 2153.2], [-121.727568, 46.807744, 2153.2], [-121.727551, 46.807777, 2152.5], [-121.727398, 46.80783, 2154.2], [-121.727352, 46.807872, 2152.7], [-121.72732, 46.807909, 2152.4], [-121.727262, 46.807927, 2153.4], [-121.727245, 46.807964, 2152.6], [-121.727178, 46.807998, 2151.9], [-121.727063, 46.808125, 2150.9], [-121.727052, 46.808133, 2152.5], [-121.726922, 46.808264, 2156.5], [-121.726883, 46.808317, 2157.7], [-121.726874, 46.808402, 2159.3], [-121.726834, 46.808425, 2158.2], [-121.726835, 46.808461, 2160.4], [-121.726825, 46.808484, 2160.8], [-121.726805, 46.808499, 2158.2], [-121.726796, 46.808536, 2157.5], [-121.726744, 46.80858, 2157.1], [-121.726733, 46.808624, 2156.3], [-121.726703, 46.808675, 2156.7], [-121.726691, 46.808748, 2156.6], [-121.726627, 46.808785, 2156.8], [-121.726549, 46.808855, 2159.7], [-121.726532, 46.808891, 2160.2], [-121.726515, 46.808903, 2159.4], [-121.726523, 46.808925, 2159.8], [-121.726522, 46.808995, 2162.6], [-121.726512, 46.809019, 2165.1], [-121.726459, 46.809056, 2165.5], [-121.726314, 46.809124, 2165.1], [-121.726257, 46.809164, 2167.6], [-121.72616, 46.809244, 2168.6], [-121.726103, 46.809273, 2167.2], [-121.726041, 46.809353, 2167.7], [-121.725924, 46.809437, 2172.4], [-121.725876, 46.80948, 2172.3], [-121.725846, 46.809466, 2174.1], [-121.725806, 46.809431, 2177.6], [-121.725739, 46.809425, 2176.7], [-121.725695, 46.809433, 2176.7], [-121.725665, 46.809469, 2176.8], [-121.725605, 46.809515, 2177.7], [-121.725554, 46.809536, 2176.8], [-121.725503, 46.809577, 2178.8], [-121.725439, 46.809597, 2179.9], [-121.725395, 46.809631, 2180.5], [-121.725347, 46.809644, 2182.0], [-121.725233, 46.809644, 2189.2], [-121.72511, 46.8097, 2192.2], [-121.725038, 46.809716, 2194.7], [-121.724935, 46.809711, 2198.1], [-121.7249, 46.809701, 2196.4], [-121.724863, 46.809726, 2196.5], [-121.724822, 46.809715, 2201.1], [-121.724787, 46.809728, 2203.1], [-121.72477, 46.809703, 2201.6], [-121.724778, 46.809677, 2201.9], [-121.724659, 46.809666, 2204.5], [-121.724604, 46.809646, 2205.9], [-121.724464, 46.80965, 2211.0], [-121.72443, 46.809641, 2210.9], [-121.724379, 46.809659, 2210.9], [-121.724343, 46.809653, 2211.9], [-121.724277, 46.809667, 2211.7], [-121.724228, 46.8097, 2212.9], [-121.724158, 46.809723, 2212.6], [-121.72415, 46.80973, 2212.1], [-121.724071, 46.809735, 2215.0], [-121.724038, 46.809722, 2216.9], [-121.723971, 46.809716, 2219.5], [-121.723938, 46.809704, 2221.4], [-121.723869, 46.809632, 2224.7], [-121.723795, 46.809626, 2228.1], [-121.723699, 46.809668, 2227.8], [-121.72362, 46.809693, 2228.2], [-121.723599, 46.809731, 2229.4], [-121.723544, 46.809761, 2228.9], [-121.723523, 46.809787, 2230.1], [-121.723531, 46.8098, 2230.1], [-121.72351, 46.809849, 2232.2], [-121.723411, 46.80991, 2233.7], [-121.723356, 46.809905, 2237.4], [-121.723326, 46.809919, 2237.5], [-121.723323, 46.809951, 2236.7], [-121.723274, 46.810014, 2238.1], [-121.723267, 46.81005, 2239.4], [-121.723237, 46.810071, 2240.5], [-121.723226, 46.810092, 2242.3], [-121.723212, 46.810164, 2245.0], [-121.723159, 46.810204, 2245.5], [-121.723124, 46.810192, 2245.2], [-121.723069, 46.810221, 2247.3], [-121.723035, 46.810264, 2247.1], [-121.723005, 46.810276, 2250.8], [-121.72298, 46.810307, 2250.2], [-121.722795, 46.810358, 2257.0], [-121.722726, 46.81039, 2261.1], [-121.72271, 46.810483, 2260.7], [-121.722641, 46.810546, 2264.3], [-121.722623, 46.810576, 2263.9], [-121.722547, 46.810575, 2265.3], [-121.722521, 46.810586, 2265.7], [-121.722508, 46.810611, 2266.6], [-121.722509, 46.810673, 2266.8], [-121.722527, 46.810731, 2265.6], [-121.722488, 46.810815, 2265.3], [-121.722452, 46.81085, 2263.4], [-121.722343, 46.810893, 2265.9], [-121.722215, 46.810916, 2267.3], [-121.722202, 46.810935, 2267.6], [-121.722203, 46.810968, 2266.6], [-121.722143, 46.811028, 2268.8], [-121.722111, 46.811024, 2270.0], [-121.722082, 46.811039, 2271.3], [-121.72208, 46.811067, 2271.1], [-121.72205, 46.811077, 2274.6], [-121.722075, 46.811058, 2273.2], [-121.722464, 46.811798, 2268.3], [-121.722486, 46.811804, 2267.5], [-121.722485, 46.811779, 2275.5], [-121.72651, 46.822748, 2628.2], [-121.726818, 46.822752, 2618.7], [-121.726799, 46.822733, 2612.1], [-121.72676, 46.822717, 2606.7], [-121.726748, 46.8227, 2603.6], [-121.727763, 46.825504, 2704.4], [-121.727762, 46.825534, 2711.8], [-121.72773, 46.825517, 2710.8], [-121.727766, 46.825522, 2711.2], [-121.727841, 46.825603, 2717.4], [-121.727842, 46.825656, 2716.6], [-121.727826, 46.82568, 2716.8], [-121.72783, 46.825705, 2718.8], [-121.727867, 46.825707, 2718.9], [-121.727893, 46.825723, 2718.0], [-121.727903, 46.825749, 2719.4], [-121.727927, 46.825773, 2721.5], [-121.727938, 46.825806, 2723.1], [-121.72789, 46.825843, 2724.1], [-121.727927, 46.825882, 2726.3], [-121.727952, 46.825937, 2728.4], [-121.727959, 46.825972, 2728.3], [-121.727982, 46.82599, 2729.4], [-121.72801, 46.826038, 2730.3], [-121.728065, 46.826071, 2730.6], [-121.728085, 46.826099, 2733.9], [-121.728128, 46.826113, 2735.5], [-121.728141, 46.826138, 2735.8], [-121.728145, 46.826182, 2735.7], [-121.728171, 46.826226, 2738.2], [-121.728156, 46.826292, 2736.7], [-121.728132, 46.826313, 2736.2], [-121.728153, 46.826358, 2740.5], [-121.728183, 46.826369, 2742.6], [-121.728187, 46.826421, 2741.8], [-121.728197, 46.826456, 2742.9], [-121.728258, 46.826485, 2746.2], [-121.728271, 46.826507, 2746.7], [-121.728437, 46.826584, 2753.1], [-121.728515, 46.826639, 2756.5], [-121.728551, 46.826651, 2757.2], [-121.728572, 46.826681, 2757.7], [-121.728611, 46.826702, 2760.4], [-121.728614, 46.826727, 2760.5], [-121.728635, 46.826743, 2761.8], [-121.728643, 46.826767, 2759.7], [-121.72867, 46.826783, 2760.5], [-121.728755, 46.826899, 2762.9], [-121.728758, 46.826923, 2764.4], [-121.728797, 46.826964, 2768.1], [-121.728804, 46.827087, 2770.6], [-121.728828, 46.827105, 2772.4], [-121.728848, 46.827151, 2774.3], [-121.728843, 46.827187, 2774.2], [-121.728879, 46.827261, 2776.5], [-121.728848, 46.827334, 2778.5], [-121.728822, 46.827361, 2778.2], [-121.728783, 46.827443, 2780.3], [-121.72882, 46.827446, 2787.6], [-121.728842, 46.827466, 2786.3], [-121.728812, 46.827549, 2785.8], [-121.72883, 46.82757, 2789.5], [-121.72882, 46.827614, 2787.5], [-121.728779, 46.827687, 2786.6], [-121.728784, 46.827744, 2790.7], [-121.728777, 46.827764, 2791.7], [-121.728787, 46.827789, 2793.9], [-121.72878, 46.827814, 2794.9], [-121.728806, 46.827831, 2797.4], [-121.728802, 46.827858, 2800.0], [-121.728834, 46.827873, 2801.3], [-121.728839, 46.827923, 2805.6], [-121.728809, 46.82794, 2805.4], [-121.728826, 46.827988, 2805.7], [-121.728811, 46.82801, 2806.4], [-121.728802, 46.828062, 2805.8], [-121.728816, 46.828086, 2808.1], [-121.7288, 46.82813, 2807.5], [-121.728818, 46.828241, 2817.1], [-121.728849, 46.828255, 2818.6], [-121.728839, 46.828281, 2819.3], [-121.728865, 46.828297, 2819.6], [-121.728874, 46.828378, 2822.2], [-121.728857, 46.828401, 2823.7], [-121.728863, 46.828476, 2826.6], [-121.728875, 46.828501, 2829.0], [-121.728861, 46.828522, 2829.9], [-121.728873, 46.828561, 2831.1], [-121.728841, 46.828604, 2827.6], [-121.728846, 46.828675, 2834.3], [-121.72883, 46.828693, 2834.1], [-121.728835, 46.82873, 2835.4], [-121.728848, 46.828762, 2836.4], [-121.728848, 46.828834, 2840.1], [-121.728871, 46.828913, 2842.2], [-121.728855, 46.828949, 2843.6], [-121.72886, 46.828974, 2846.7], [-121.728838, 46.829019, 2847.3], [-121.728893, 46.829097, 2848.4], [-121.728906, 46.82918, 2853.3], [-121.728921, 46.829201, 2853.8], [-121.728906, 46.829279, 2856.7], [-121.728943, 46.829299, 2859.5], [-121.728955, 46.829351, 2859.3], [-121.729028, 46.829402, 2860.4], [-121.729035, 46.829433, 2861.8], [-121.729079, 46.829495, 2861.0], [-121.729094, 46.829571, 2861.9], [-121.729117, 46.829593, 2864.1], [-121.7291, 46.829616, 2864.5], [-121.729128, 46.829679, 2870.1], [-121.729108, 46.829722, 2870.5], [-121.729127, 46.82975, 2873.9], [-121.729131, 46.829779, 2876.5], [-121.729223, 46.829915, 2882.1], [-121.729227, 46.829942, 2882.2], [-121.729263, 46.829981, 2883.4], [-121.729261, 46.830007, 2883.8], [-121.729294, 46.830085, 2886.7], [-121.729346, 46.830186, 2890.7], [-121.729424, 46.830245, 2894.9], [-121.729449, 46.830322, 2899.5], [-121.729485, 46.830366, 2900.2], [-121.729465, 46.830383, 2900.1], [-121.729456, 46.830414, 2896.6], [-121.729457, 46.830475, 2897.2], [-121.729486, 46.830524, 2895.3], [-121.729487, 46.830547, 2897.3], [-121.729565, 46.83063, 2901.4], [-121.729558, 46.83068, 2901.5], [-121.729597, 46.830717, 2903.3], [-121.729608, 46.830748, 2904.8], [-121.729652, 46.830771, 2907.2], [-121.729677, 46.830819, 2907.7], [-121.729663, 46.830865, 2911.5], [-121.729688, 46.830878, 2910.5], [-121.729671, 46.830898, 2909.7], [-121.729685, 46.830943, 2908.8], [-121.729711, 46.83096, 2909.6], [-121.729712, 46.830983, 2907.1], [-121.729698, 46.831006, 2909.0], [-121.72974, 46.831075, 2910.7], [-121.729778, 46.831125, 2913.8], [-121.729827, 46.831162, 2915.7], [-121.729837, 46.831184, 2915.4], [-121.729868, 46.831196, 2918.0], [-121.729911, 46.831248, 2918.9], [-121.729913, 46.831295, 2919.0], [-121.729959, 46.831312, 2920.6], [-121.729986, 46.831293, 2923.1], [-121.729996, 46.831312, 2922.7], [-121.72997, 46.831344, 2921.4], [-121.729976, 46.831357, 2921.5], [-121.730015, 46.83138, 2922.7], [-121.729997, 46.831424, 2922.6], [-121.729998, 46.831447, 2923.3], [-121.730019, 46.831468, 2925.7], [-121.730089, 46.831495, 2929.1], [-121.73014, 46.831533, 2929.7], [-121.730205, 46.831552, 2932.4], [-121.730206, 46.831577, 2933.6], [-121.730183, 46.83159, 2936.2], [-121.730253, 46.831575, 2934.3], [-121.730253, 46.83162, 2933.2], [-121.730267, 46.831643, 2935.1], [-121.730303, 46.831644, 2935.5], [-121.730333, 46.831659, 2935.0], [-121.730352, 46.831683, 2933.1], [-121.730355, 46.831721, 2934.3], [-121.730327, 46.83177, 2933.5], [-121.730334, 46.831791, 2935.0], [-121.730354, 46.831806, 2936.4], [-121.730371, 46.831868, 2937.1], [-121.730361, 46.831886, 2938.1], [-121.730415, 46.831922, 2937.6], [-121.730419, 46.831943, 2936.9], [-121.730466, 46.831981, 2938.7], [-121.73043, 46.832051, 2939.8], [-121.730522, 46.832029, 2943.1], [-121.730524, 46.832052, 2943.3], [-121.730491, 46.832097, 2943.2], [-121.730514, 46.832119, 2945.1], [-121.730573, 46.832117, 2946.7], [-121.730587, 46.832145, 2946.6], [-121.730582, 46.83217, 2945.5], [-121.730515, 46.832236, 2942.6], [-121.730626, 46.832237, 2943.9], [-121.730727, 46.832241, 2949.0], [-121.730759, 46.832255, 2952.9], [-121.730797, 46.832295, 2953.7], [-121.730809, 46.832373, 2955.5], [-121.730773, 46.832419, 2956.4], [-121.730772, 46.832443, 2955.8], [-121.730799, 46.832457, 2956.7], [-121.730826, 46.832454, 2957.3], [-121.730857, 46.832479, 2958.4], [-121.730873, 46.832454, 2962.1], [-121.730942, 46.832476, 2963.7], [-121.730974, 46.832597, 2958.7], [-121.730973, 46.832605, 2958.8], [-121.731068, 46.832676, 2959.4], [-121.731013, 46.832752, 2959.7], [-121.731041, 46.832756, 2960.3], [-121.731066, 46.832741, 2960.7], [-121.731116, 46.832771, 2963.4], [-121.731108, 46.832796, 2965.1], [-121.73113, 46.832812, 2966.4], [-121.731164, 46.832816, 2968.7], [-121.731185, 46.832837, 2968.7], [-121.731229, 46.832851, 2967.8], [-121.731227, 46.832907, 2969.3], [-121.731243, 46.832932, 2971.2], [-121.731205, 46.832967, 2973.0], [-121.731276, 46.833012, 2976.4], [-121.73131, 46.83301, 2981.1], [-121.73136, 46.833043, 2983.0], [-121.731354, 46.833069, 2985.1], [-121.731397, 46.83316, 2984.3], [-121.73144, 46.8332, 2981.5], [-121.731494, 46.833233, 2984.0], [-121.731492, 46.833254, 2981.2], [-121.731444, 46.833309, 2983.6], [-121.731536, 46.833321, 2987.1], [-121.731537, 46.833347, 2989.8], [-121.73158, 46.83342, 2993.4], [-121.731602, 46.833424, 2994.0], [-121.731619, 46.833445, 2995.6], [-121.731653, 46.833449, 2995.5], [-121.731654, 46.833475, 2994.3], [-121.731685, 46.833487, 2993.3], [-121.731689, 46.83351, 2993.2], [-121.731719, 46.833517, 2996.0], [-121.731747, 46.833536, 3002.0], [-121.73177, 46.833567, 2998.3], [-121.731759, 46.833588, 2997.7], [-121.731701, 46.833616, 2998.3], [-121.731707, 46.83364, 3002.5], [-121.731792, 46.833667, 3002.1], [-121.731829, 46.833665, 3006.6], [-121.731838, 46.833733, 3010.4], [-121.731779, 46.833788, 3009.6], [-121.731883, 46.833828, 3008.1], [-121.731898, 46.833853, 3011.4], [-121.731883, 46.833877, 3010.9], [-121.731915, 46.833889, 3009.7], [-121.73191, 46.833933, 3010.2], [-121.731942, 46.833947, 3007.8], [-121.731905, 46.833954, 3012.8], [-121.731937, 46.833994, 3015.8], [-121.731966, 46.834011, 3020.1], [-121.731983, 46.834071, 3027.0], [-121.732061, 46.834195, 3020.3], [-121.732076, 46.834249, 3019.2], [-121.732071, 46.834288, 3018.4], [-121.732085, 46.834311, 3019.4], [-121.732121, 46.834315, 3021.6], [-121.732141, 46.834299, 3029.1], [-121.73213, 46.834352, 3032.0], [-121.732135, 46.83439, 3036.0], [-121.732245, 46.834415, 3035.6], [-121.732263, 46.834438, 3038.9], [-121.732251, 46.834465, 3040.1], [-121.732261, 46.834509, 3034.5], [-121.732209, 46.83455, 3034.5], [-121.732252, 46.834559, 3040.2], [-121.732282, 46.834606, 3038.6], [-121.732317, 46.834595, 3041.4], [-121.732337, 46.834614, 3042.5], [-121.73229, 46.834663, 3038.0], [-121.732285, 46.834692, 3040.6], [-121.732332, 46.83473, 3038.7], [-121.732352, 46.834773, 3041.1], [-121.732381, 46.834786, 3044.1], [-121.732393, 46.834834, 3044.5], [-121.732434, 46.834844, 3041.1], [-121.732421, 46.834867, 3041.7], [-121.732435, 46.834889, 3043.3], [-121.732498, 46.834901, 3042.9], [-121.732519, 46.834923, 3044.1], [-121.732527, 46.834947, 3046.3], [-121.732465, 46.83499, 3046.9], [-121.732464, 46.835057, 3046.6], [-121.732487, 46.835072, 3048.7], [-121.732513, 46.835124, 3049.3], [-121.732493, 46.835161, 3049.6], [-121.732514, 46.83518, 3050.6], [-121.732538, 46.835248, 3049.5], [-121.732561, 46.835262, 3047.8], [-121.732575, 46.835296, 3051.3], [-121.732547, 46.835339, 3051.5], [-121.732543, 46.835382, 3058.9], [-121.732518, 46.835399, 3056.9], [-121.732516, 46.835454, 3060.8], [-121.732412, 46.835429, 3051.3], [-121.732321, 46.835461, 3055.6], [-121.7323, 46.835484, 3054.8], [-121.732296, 46.835515, 3058.8], [-121.732228, 46.835507, 3057.0], [-121.73228, 46.835519, 3056.3], [-121.732348, 46.835517, 3056.0], [-121.732393, 46.835496, 3059.1], [-121.732431, 46.835495, 3056.2], [-121.732074, 46.835772, 3049.5], [-121.73205, 46.835727, 3054.4], [-121.732082, 46.835698, 3055.9], [-121.732038, 46.835659, 3057.2], [-121.732057, 46.835696, 3057.6], [-121.732045, 46.835709, 3059.1], [-121.732042, 46.835685, 3055.8], [-121.732096, 46.835738, 3056.6], [-121.73212, 46.835793, 3057.6], [-121.732075, 46.83591, 3055.1], [-121.732091, 46.835926, 3055.7], [-121.732102, 46.835973, 3053.5], [-121.732172, 46.836044, 3055.4], [-121.732179, 46.836085, 3056.4], [-121.732211, 46.836148, 3056.0], [-121.732241, 46.836162, 3058.9], [-121.732285, 46.836203, 3055.6], [-121.732327, 46.836214, 3056.5], [-121.732405, 46.836247, 3058.3], [-121.73244, 46.836331, 3053.6], [-121.732542, 46.836444, 3059.6], [-121.732555, 46.836488, 3062.2], [-121.732601, 46.836509, 3064.6], [-121.732651, 46.836516, 3064.2], [-121.732701, 46.836545, 3063.7], [-121.732723, 46.83658, 3065.1], [-121.732729, 46.83663, 3063.3], [-121.732788, 46.836741, 3062.9], [-121.732853, 46.836763, 3062.2], [-121.732865, 46.836762, 3063.3], [-121.732903, 46.836823, 3063.6], [-121.732903, 46.836846, 3061.6], [-121.732863, 46.83686, 3059.7], [-121.732873, 46.836907, 3060.3], [-121.732975, 46.836947, 3061.5], [-121.733033, 46.837036, 3059.1], [-121.733077, 46.837138, 3057.6], [-121.73308, 46.837181, 3060.5], [-121.733108, 46.837214, 3060.2], [-121.733099, 46.837229, 3059.9], [-121.733109, 46.837252, 3058.9], [-121.73317, 46.837313, 3058.9], [-121.733209, 46.837384, 3061.5], [-121.733218, 46.837464, 3063.4], [-121.733263, 46.837565, 3064.7], [-121.733281, 46.837613, 3062.9], [-121.733304, 46.837632, 3064.7], [-121.733304, 46.837679, 3066.0], [-121.733331, 46.837721, 3063.5], [-121.733364, 46.83775, 3063.8], [-121.73336, 46.837854, 3067.5], [-121.733375, 46.837934, 3070.9], [-121.733351, 46.837962, 3072.0], [-121.733339, 46.83806, 3074.7], [-121.733345, 46.838086, 3074.6], [-121.733323, 46.83819, 3081.5], [-121.733329, 46.838215, 3083.7], [-121.733313, 46.838263, 3085.7], [-121.733335, 46.838323, 3080.0], [-121.733298, 46.838364, 3080.8], [-121.733296, 46.838501, 3081.8], [-121.733277, 46.838524, 3083.4], [-121.733279, 46.838546, 3085.1], [-121.733245, 46.838586, 3085.8], [-121.733238, 46.838641, 3083.0], [-121.733245, 46.838721, 3086.2], [-121.733233, 46.838799, 3088.6], [-121.733195, 46.838817, 3090.0], [-121.733179, 46.838848, 3091.0], [-121.733112, 46.838907, 3092.2], [-121.733095, 46.838983, 3090.1], [-121.7331, 46.839006, 3090.3], [-121.733079, 46.839067, 3092.0], [-121.733072, 46.839127, 3090.5], [-121.733075, 46.839175, 3093.4], [-121.733058, 46.839196, 3094.3], [-121.733075, 46.839294, 3094.8], [-121.733028, 46.839344, 3100.1], [-121.733007, 46.83939, 3102.0], [-121.733017, 46.839414, 3102.8], [-121.732972, 46.839443, 3101.8], [-121.732942, 46.839496, 3107.6], [-121.732917, 46.839518, 3109.1], [-121.732905, 46.839567, 3107.5], [-121.732908, 46.839592, 3106.5], [-121.732926, 46.83961, 3106.7], [-121.732919, 46.839662, 3106.1], [-121.73292, 46.839699, 3104.8], [-121.732905, 46.839722, 3105.4], [-121.7328, 46.839748, 3118.0], [-121.732788, 46.839763, 3117.7], [-121.732792, 46.839813, 3112.0], [-121.73281, 46.839841, 3107.5], [-121.73281, 46.839868, 3104.6], [-121.732792, 46.839917, 3107.5], [-121.73276, 46.839909, 3117.0], [-121.732741, 46.839886, 3115.6], [-121.732765, 46.839865, 3116.4], [-121.732704, 46.839882, 3113.2], [-121.732744, 46.839896, 3117.0], [-121.732715, 46.839912, 3115.1], [-121.732702, 46.839963, 3114.9], [-121.732716, 46.840022, 3116.3], [-121.732716, 46.840066, 3115.0], [-121.732685, 46.84017, 3116.3], [-121.732656, 46.840213, 3118.2], [-121.732631, 46.840234, 3119.0], [-121.732652, 46.840311, 3120.9], [-121.732658, 46.84038, 3114.0], [-121.732642, 46.840426, 3123.2], [-121.732662, 46.840449, 3120.8], [-121.732667, 46.840497, 3124.9], [-121.732653, 46.840521, 3125.6], [-121.73266, 46.840542, 3125.6], [-121.732659, 46.8406, 3121.3], [-121.732688, 46.840675, 3123.8], [-121.732666, 46.840653, 3123.1], [-121.732671, 46.840679, 3126.9], [-121.73263, 46.840707, 3131.7], [-121.732611, 46.840749, 3131.0], [-121.732613, 46.840824, 3131.0], [-121.732593, 46.840803, 3135.3], [-121.732572, 46.840824, 3133.1], [-121.732569, 46.840857, 3132.2], [-121.732544, 46.840883, 3131.4], [-121.732564, 46.8409, 3130.0], [-121.732553, 46.840962, 3130.0], [-121.732487, 46.841001, 3130.4], [-121.732473, 46.841022, 3128.7], [-121.73244, 46.841008, 3132.4], [-121.73239, 46.841056, 3130.1], [-121.7323, 46.841066, 3132.3], [-121.732286, 46.841099, 3134.3], [-121.73219, 46.841172, 3129.3], [-121.732141, 46.84124, 3130.0], [-121.732113, 46.841259, 3129.4], [-121.732097, 46.841296, 3125.9], [-121.732022, 46.84137, 3123.8], [-121.731981, 46.84139, 3127.0], [-121.731877, 46.841387, 3137.4], [-121.731844, 46.841375, 3136.2], [-121.73181, 46.841384, 3135.1], [-121.731783, 46.841424, 3134.4], [-121.731761, 46.841468, 3135.1], [-121.731696, 46.841456, 3132.4], [-121.731665, 46.841472, 3137.1], [-121.731592, 46.841475, 3134.1], [-121.73155, 46.841485, 3139.5], [-121.731522, 46.84147, 3145.7], [-121.731487, 46.841477, 3147.7], [-121.731436, 46.841505, 3146.2], [-121.73141, 46.841552, 3146.9], [-121.731321, 46.841612, 3147.9], [-121.731259, 46.84169, 3145.1], [-121.731209, 46.841697, 3149.8], [-121.731127, 46.841728, 3146.2], [-121.731091, 46.84173, 3147.1], [-121.731079, 46.841705, 3144.9], [-121.731029, 46.841715, 3147.2], [-121.730956, 46.841745, 3148.5], [-121.730923, 46.841746, 3150.8], [-121.730892, 46.841759, 3148.5], [-121.730824, 46.841761, 3150.2], [-121.730697, 46.841803, 3147.9], [-121.730603, 46.841784, 3151.7], [-121.730554, 46.841799, 3154.6], [-121.730392, 46.841837, 3157.2], [-121.730311, 46.841844, 3159.3], [-121.730268, 46.841874, 3157.8], [-121.730168, 46.841854, 3160.3], [-121.73012, 46.841827, 3161.6], [-121.730025, 46.841806, 3158.1], [-121.729883, 46.8418, 3155.7], [-121.729809, 46.841811, 3152.3], [-121.729701, 46.841783, 3154.8], [-121.729646, 46.841758, 3159.5], [-121.729564, 46.841694, 3162.9], [-121.729579, 46.841655, 3179.7], [-121.729622, 46.841612, 3184.1], [-121.729658, 46.841611, 3186.0], [-121.729666, 46.841585, 3186.6], [-121.729697, 46.84156, 3184.3], [-121.729651, 46.841611, 3172.8], [-121.729509, 46.841647, 3170.4], [-121.729464, 46.841655, 3170.6], [-121.729429, 46.841648, 3173.8], [-121.729395, 46.841661, 3174.3], [-121.729363, 46.841648, 3170.9], [-121.729309, 46.841683, 3172.7], [-121.729264, 46.841694, 3173.8], [-121.729222, 46.841694, 3174.4], [-121.729176, 46.841664, 3177.0], [-121.729153, 46.841682, 3176.8], [-121.729057, 46.841714, 3184.2], [-121.729028, 46.841707, 3187.1], [-121.728982, 46.841747, 3185.8], [-121.728972, 46.841773, 3186.6], [-121.728998, 46.841819, 3189.8], [-121.729042, 46.8418, 3193.4], [-121.729076, 46.841818, 3195.6], [-121.729136, 46.841807, 3200.3], [-121.729189, 46.84176, 3202.7], [-121.729254, 46.841739, 3206.8], [-121.729293, 46.841709, 3207.0], [-121.729323, 46.841722, 3206.1], [-121.729295, 46.841766, 3204.3], [-121.729292, 46.841788, 3202.7], [-121.729243, 46.841826, 3201.6], [-121.729173, 46.841856, 3201.7], [-121.72918, 46.841891, 3196.5], [-121.729212, 46.841928, 3193.0], [-121.729215, 46.841954, 3189.7], [-121.729234, 46.841973, 3188.7], [-121.729266, 46.841972, 3187.4], [-121.729372, 46.841918, 3188.1], [-121.729304, 46.841973, 3189.8], [-121.729314, 46.842031, 3200.0], [-121.729305, 46.842053, 3200.0], [-121.729362, 46.842063, 3211.2], [-121.729379, 46.84203, 3210.0], [-121.729408, 46.842042, 3213.6], [-121.729393, 46.842063, 3212.4], [-121.72943, 46.842059, 3212.2], [-121.729424, 46.842085, 3208.9], [-121.729456, 46.842098, 3211.9], [-121.729466, 46.842118, 3206.9], [-121.729433, 46.842148, 3204.5], [-121.729354, 46.842206, 3210.9], [-121.729301, 46.842274, 3218.9], [-121.729293, 46.842301, 3218.5], [-121.729271, 46.842321, 3219.4], [-121.729237, 46.842331, 3219.7], [-121.729189, 46.842367, 3219.2], [-121.729074, 46.842375, 3222.1], [-121.729029, 46.842385, 3227.4], [-121.729018, 46.84241, 3227.9], [-121.72902, 46.842435, 3229.2], [-121.729072, 46.842501, 3234.6], [-121.729055, 46.842528, 3236.5], [-121.729024, 46.842518, 3235.0], [-121.729065, 46.84256, 3239.0], [-121.729097, 46.842578, 3239.8], [-121.729182, 46.842597, 3241.5], [-121.729241, 46.842628, 3245.2], [-121.729311, 46.842625, 3247.7], [-121.729355, 46.842672, 3247.8], [-121.729468, 46.842689, 3246.8], [-121.72947, 46.842713, 3250.1], [-121.729486, 46.842737, 3251.4], [-121.729486, 46.842768, 3251.2], [-121.729518, 46.842786, 3252.8], [-121.729553, 46.842788, 3252.6], [-121.729621, 46.842772, 3252.5], [-121.729643, 46.842791, 3250.6], [-121.729701, 46.842811, 3251.5], [-121.729753, 46.842798, 3253.4], [-121.72978, 46.842815, 3252.3], [-121.729853, 46.842803, 3255.2], [-121.729874, 46.842826, 3253.9], [-121.729879, 46.842873, 3252.4], [-121.72993, 46.842881, 3253.1], [-121.729973, 46.842867, 3252.9], [-121.730034, 46.842893, 3255.6], [-121.730053, 46.842944, 3255.0], [-121.73012, 46.842963, 3253.7], [-121.730155, 46.843005, 3262.3], [-121.730227, 46.842992, 3262.9], [-121.730263, 46.843002, 3263.6], [-121.73034, 46.843, 3263.3], [-121.730384, 46.843003, 3265.2], [-121.730413, 46.843021, 3264.4], [-121.730446, 46.843007, 3266.4], [-121.73051, 46.843032, 3264.1], [-121.730519, 46.843058, 3266.9], [-121.730553, 46.843077, 3265.9], [-121.730593, 46.843075, 3265.8], [-121.730613, 46.843095, 3267.4], [-121.730614, 46.843121, 3266.9], [-121.730649, 46.843167, 3270.0], [-121.730646, 46.84322, 3272.4], [-121.730679, 46.843271, 3274.3], [-121.7307, 46.843345, 3279.5], [-121.730779, 46.843436, 3285.8], [-121.730783, 46.843461, 3287.6], [-121.730811, 46.843506, 3287.8], [-121.730843, 46.843515, 3287.3], [-121.730842, 46.843546, 3288.6], [-121.730916, 46.84354, 3287.6], [-121.731018, 46.843573, 3293.4], [-121.731086, 46.843551, 3293.0], [-121.731124, 46.843561, 3295.0], [-121.731156, 46.843552, 3294.0], [-121.731174, 46.843572, 3296.6], [-121.731212, 46.843579, 3298.0], [-121.73124, 46.843564, 3296.4], [-121.731265, 46.843577, 3296.8], [-121.731299, 46.843564, 3295.5], [-121.731337, 46.843608, 3298.2], [-121.731376, 46.843608, 3298.4], [-121.731395, 46.843587, 3297.7], [-121.731411, 46.843587, 3297.3], [-121.731444, 46.843609, 3300.5], [-121.731458, 46.84363, 3303.0], [-121.731489, 46.843639, 3303.2], [-121.731524, 46.843628, 3301.9], [-121.731638, 46.843631, 3300.4], [-121.731721, 46.843649, 3300.2], [-121.731758, 46.843647, 3302.8], [-121.731781, 46.843667, 3306.4], [-121.731813, 46.843657, 3306.3], [-121.731836, 46.843678, 3309.0], [-121.731873, 46.843687, 3308.2], [-121.731885, 46.843709, 3314.0], [-121.73191, 46.843694, 3312.1], [-121.731978, 46.843705, 3308.6], [-121.732092, 46.843706, 3309.5], [-121.732231, 46.843726, 3303.1], [-121.732251, 46.843745, 3304.0], [-121.732287, 46.843754, 3302.0], [-121.732325, 46.843776, 3304.0], [-121.732342, 46.843799, 3306.9], [-121.732388, 46.843798, 3309.8], [-121.732404, 46.843819, 3313.6], [-121.732498, 46.843839, 3312.1], [-121.732482, 46.843864, 3312.5], [-121.73252, 46.843891, 3311.0], [-121.732557, 46.843935, 3316.3], [-121.732542, 46.844022, 3327.0], [-121.732557, 46.844034, 3327.1], [-121.732676, 46.8441, 3324.1], [-121.73269, 46.844149, 3323.5], [-121.732711, 46.84417, 3321.7], [-121.732702, 46.844186, 3323.9], [-121.732736, 46.844239, 3319.5], [-121.732739, 46.844281, 3323.2], [-121.732782, 46.844321, 3322.2], [-121.732821, 46.84433, 3319.2], [-121.73289, 46.844361, 3318.3], [-121.732928, 46.844365, 3319.9], [-121.732952, 46.844384, 3319.0], [-121.73297, 46.844428, 3317.4], [-121.733107, 46.844434, 3315.3], [-121.733135, 46.844478, 3313.8], [-121.733183, 46.844514, 3319.0], [-121.733224, 46.844517, 3315.3], [-121.733289, 46.844541, 3315.7], [-121.733305, 46.844514, 3313.6], [-121.733311, 46.844559, 3316.6], [-121.733384, 46.844586, 3318.4], [-121.733429, 46.844596, 3318.6], [-121.733478, 46.844628, 3314.9], [-121.733485, 46.844648, 3315.9], [-121.733588, 46.844688, 3312.2], [-121.733669, 46.844697, 3309.6], [-121.733742, 46.844749, 3313.8], [-121.733771, 46.844749, 3311.5], [-121.733817, 46.844723, 3314.9], [-121.733919, 46.844734, 3312.8], [-121.733989, 46.844754, 3315.0], [-121.734059, 46.844738, 3316.6], [-121.734084, 46.8447, 3317.7], [-121.734119, 46.844675, 3325.3], [-121.734233, 46.844699, 3333.5], [-121.734336, 46.844737, 3333.5], [-121.734343, 46.844759, 3337.2], [-121.73426, 46.844813, 3344.0], [-121.734217, 46.84481, 3346.7], [-121.734162, 46.844859, 3361.0], [-121.734149, 46.844838, 3366.7], [-121.738553, 46.8488, 3564.3], [-121.738572, 46.848825, 3564.0], [-121.738517, 46.848782, 3564.3], [-121.738532, 46.848778, 3572.9], [-121.738519, 46.848811, 3572.5], [-121.73848, 46.848802, 3575.2], [-121.738472, 46.848792, 3574.4], [-121.738545, 46.848776, 3576.4], [-121.738671, 46.848718, 3585.7], [-121.73874, 46.848695, 3583.8], [-121.738855, 46.848693, 3591.9], [-121.738889, 46.848682, 3591.7], [-121.73893, 46.848688, 3595.9], [-121.739107, 46.848642, 3603.9], [-121.73916, 46.848603, 3609.4], [-121.739241, 46.848583, 3614.0], [-121.739425, 46.848553, 3623.0], [-121.739519, 46.848534, 3624.9], [-121.739542, 46.848555, 3623.9], [-121.739616, 46.848555, 3621.9], [-121.739654, 46.848543, 3625.8], [-121.739797, 46.848535, 3632.5], [-121.739815, 46.848557, 3630.0], [-121.739823, 46.848609, 3630.7], [-121.739836, 46.848635, 3631.1], [-121.739837, 46.848683, 3635.0], [-121.739854, 46.848697, 3636.5], [-121.73984, 46.848721, 3635.8], [-121.739875, 46.848831, 3640.3], [-121.739919, 46.848873, 3647.1], [-121.739877, 46.848915, 3652.7], [-121.739895, 46.848967, 3651.0], [-121.739919, 46.84898, 3656.7], [-121.739991, 46.848965, 3660.0], [-121.740042, 46.848934, 3666.0], [-121.740061, 46.848958, 3664.2], [-121.740086, 46.849055, 3664.5], [-121.740152, 46.849031, 3670.7], [-121.74014, 46.849058, 3669.6], [-121.740172, 46.849046, 3671.4], [-121.740195, 46.849025, 3674.8], [-121.740207, 46.849044, 3674.7], [-121.740202, 46.849068, 3675.3], [-121.740229, 46.849086, 3678.1], [-121.740262, 46.849073, 3681.1], [-121.740288, 46.849048, 3683.0], [-121.740322, 46.848998, 3682.0], [-121.740399, 46.849, 3687.7], [-121.740408, 46.849026, 3685.5], [-121.740388, 46.849048, 3684.9], [-121.740413, 46.849072, 3685.4], [-121.740426, 46.849106, 3687.9], [-121.740465, 46.84911, 3690.2], [-121.740478, 46.849085, 3692.1], [-121.740508, 46.849069, 3694.2], [-121.740526, 46.849045, 3695.7], [-121.740564, 46.849045, 3696.8], [-121.740599, 46.849021, 3699.0], [-121.740646, 46.848978, 3702.8], [-121.740737, 46.848938, 3703.4], [-121.740781, 46.848894, 3710.1], [-121.74081, 46.848876, 3708.2], [-121.740879, 46.848868, 3709.7], [-121.740997, 46.84881, 3709.4], [-121.741001, 46.848813, 3709.7], [-121.741093, 46.848786, 3719.3], [-121.741128, 46.848785, 3717.5], [-121.741151, 46.848768, 3722.8], [-121.741222, 46.848743, 3723.8], [-121.741252, 46.84872, 3725.0], [-121.741282, 46.848736, 3723.1], [-121.741299, 46.848767, 3722.6], [-121.741286, 46.848809, 3720.9], [-121.741298, 46.848895, 3716.0], [-121.741351, 46.848954, 3708.5], [-121.741348, 46.848973, 3708.8], [-121.741384, 46.848977, 3712.1], [-121.741403, 46.849005, 3710.4], [-121.741368, 46.849036, 3713.9], [-121.741355, 46.849011, 3721.0], [-121.74138, 46.849001, 3721.7], [-121.741453, 46.84902, 3718.5], [-121.741454, 46.849046, 3714.2], [-121.741426, 46.849073, 3715.3], [-121.741442, 46.849095, 3720.0], [-121.741476, 46.849112, 3718.5], [-121.741445, 46.849118, 3726.1], [-121.741432, 46.849136, 3723.6], [-121.741492, 46.849121, 3725.9], [-121.741543, 46.849131, 3720.5], [-121.741529, 46.849155, 3723.8], [-121.74156, 46.84917, 3724.2], [-121.741569, 46.849194, 3721.6], [-121.741563, 46.849214, 3718.6], [-121.741596, 46.849204, 3723.9], [-121.741664, 46.849211, 3730.9], [-121.741691, 46.849198, 3732.6], [-121.741701, 46.849214, 3730.1], [-121.741694, 46.849237, 3728.8], [-121.741766, 46.84931, 3728.3], [-121.741812, 46.849393, 3737.3], [-121.741847, 46.849402, 3738.7], [-121.741864, 46.849441, 3744.7], [-121.741869, 46.849494, 3737.7], [-121.741884, 46.849501, 3737.9], [-121.741885, 46.849527, 3739.9], [-121.741909, 46.849507, 3742.9], [-121.741896, 46.849482, 3741.5], [-121.741857, 46.849482, 3739.3], [-121.741913, 46.849452, 3734.0], [-121.741934, 46.849403, 3736.5], [-121.742001, 46.849428, 3738.7], [-121.742069, 46.84941, 3740.4], [-121.742094, 46.849392, 3740.7], [-121.742135, 46.84939, 3738.7], [-121.742176, 46.849371, 3739.2], [-121.742209, 46.849332, 3740.6], [-121.742236, 46.849342, 3741.0], [-121.742322, 46.849293, 3739.0], [-121.742332, 46.84927, 3738.4], [-121.742354, 46.849252, 3739.9], [-121.742419, 46.849228, 3741.0], [-121.742465, 46.849192, 3737.5], [-121.742554, 46.849169, 3735.8], [-121.742653, 46.849092, 3750.2], [-121.742719, 46.849068, 3746.6], [-121.742772, 46.849098, 3744.5], [-121.742809, 46.8491, 3744.2], [-121.742828, 46.849079, 3745.3], [-121.742938, 46.849063, 3748.1], [-121.742974, 46.849072, 3750.0], [-121.743011, 46.849033, 3753.2], [-121.743029, 46.848984, 3755.9], [-121.743064, 46.848945, 3754.4], [-121.74307, 46.848898, 3755.9], [-121.743099, 46.84886, 3756.5], [-121.743126, 46.848843, 3758.7], [-121.743229, 46.84886, 3756.1], [-121.743251, 46.848882, 3755.7], [-121.743292, 46.848896, 3755.5], [-121.74333, 46.848882, 3758.0], [-121.743393, 46.848902, 3764.7], [-121.743427, 46.848895, 3764.4], [-121.743466, 46.848909, 3766.7], [-121.743547, 46.848915, 3767.4], [-121.743588, 46.848926, 3764.8], [-121.743659, 46.848919, 3765.5], [-121.743672, 46.84889, 3772.1], [-121.743692, 46.848918, 3767.2], [-121.743692, 46.84894, 3766.6], [-121.743727, 46.848976, 3763.9], [-121.743755, 46.849014, 3762.1], [-121.743777, 46.849027, 3759.0], [-121.743794, 46.849053, 3757.0], [-121.743795, 46.849079, 3757.8], [-121.743836, 46.849097, 3766.6], [-121.743909, 46.849151, 3767.9], [-121.743904, 46.849172, 3763.9], [-121.743867, 46.84917, 3768.7], [-121.743938, 46.849149, 3776.8], [-121.744009, 46.849142, 3782.9], [-121.744037, 46.849126, 3785.1], [-121.744074, 46.849122, 3785.5], [-121.744121, 46.849083, 3787.1], [-121.744156, 46.849071, 3788.4], [-121.74426, 46.848997, 3796.6], [-121.744348, 46.849036, 3793.1], [-121.744358, 46.849017, 3794.2], [-121.74434, 46.848993, 3795.4], [-121.744386, 46.848953, 3800.0], [-121.744454, 46.848963, 3799.4], [-121.744493, 46.848981, 3796.5], [-121.7445, 46.849037, 3793.9], [-121.744463, 46.849044, 3793.4], [-121.744463, 46.849069, 3791.4], [-121.744487, 46.849088, 3790.5], [-121.744522, 46.849096, 3790.3], [-121.744558, 46.849159, 3799.5], [-121.744538, 46.849204, 3796.9], [-121.744557, 46.849226, 3794.3], [-121.744589, 46.849235, 3794.3], [-121.744667, 46.849171, 3804.9], [-121.744731, 46.849156, 3806.1], [-121.744818, 46.849108, 3811.1], [-121.744847, 46.849124, 3810.4], [-121.744835, 46.849198, 3804.7], [-121.744852, 46.84929, 3799.8], [-121.744804, 46.849306, 3805.2], [-121.744817, 46.84933, 3806.6], [-121.744852, 46.849328, 3801.1], [-121.744883, 46.849342, 3803.2], [-121.744895, 46.849366, 3803.8], [-121.744976, 46.849414, 3804.5], [-121.745049, 46.849423, 3806.8], [-121.74507, 46.849473, 3806.5], [-121.745103, 46.849479, 3806.3], [-121.745092, 46.849553, 3807.7], [-121.745132, 46.84955, 3814.3], [-121.745138, 46.849531, 3813.7], [-121.745167, 46.849515, 3819.7], [-121.745181, 46.849496, 3825.3], [-121.745213, 46.849491, 3825.0], [-121.74529, 46.849526, 3826.7], [-121.745264, 46.849497, 3828.6], [-121.745272, 46.849521, 3827.1], [-121.745295, 46.84954, 3824.8], [-121.745306, 46.849563, 3824.9], [-121.745399, 46.849602, 3826.2], [-121.74545, 46.849602, 3824.4], [-121.745483, 46.849621, 3824.0], [-121.745451, 46.849657, 3826.7], [-121.745417, 46.849678, 3827.5], [-121.745415, 46.849717, 3825.0], [-121.74551, 46.849777, 3832.8], [-121.745511, 46.849794, 3833.0], [-121.74559, 46.84978, 3837.1], [-121.745604, 46.849804, 3837.4], [-121.745601, 46.84985, 3832.9], [-121.745637, 46.84987, 3834.2], [-121.745636, 46.849903, 3836.5], [-121.745646, 46.849928, 3832.7], [-121.745561, 46.849996, 3844.4], [-121.745556, 46.849968, 3844.7], [-121.745596, 46.849982, 3844.4], [-121.745518, 46.849989, 3848.3], [-121.745474, 46.84998, 3851.4], [-121.745393, 46.850039, 3855.9], [-121.745474, 46.850016, 3852.3], [-121.745526, 46.85002, 3847.4], [-121.745565, 46.850035, 3846.5], [-121.745687, 46.85001, 3837.8], [-121.745757, 46.85003, 3835.9], [-121.745685, 46.850019, 3855.8], [-121.745704, 46.850064, 3850.7], [-121.745631, 46.850069, 3859.8], [-121.745619, 46.850091, 3865.5], [-121.745569, 46.850083, 3869.7], [-121.745516, 46.850049, 3867.6], [-121.745557, 46.850101, 3866.8], [-121.745558, 46.85014, 3871.7], [-121.745811, 46.850173, 3862.7], [-121.745798, 46.85022, 3864.5], [-121.74576, 46.85021, 3856.2], [-121.745708, 46.850212, 3859.2], [-121.745635, 46.850246, 3891.5], [-121.745623, 46.850269, 3888.3], [-121.745741, 46.850269, 3880.2], [-121.745695, 46.850305, 3883.4], [-121.745864, 46.850316, 3873.6], [-121.745888, 46.850335, 3873.2], [-121.745863, 46.850373, 3877.1], [-121.745901, 46.850365, 3879.8], [-121.745868, 46.85038, 3881.4], [-121.745928, 46.850413, 3875.1], [-121.745968, 46.850404, 3862.9], [-121.745987, 46.850422, 3863.2], [-121.745984, 46.850455, 3864.5], [-121.746017, 46.85042, 3859.6], [-121.746041, 46.850366, 3855.7], [-121.746158, 46.850394, 3875.5], [-121.746103, 46.85043, 3881.9], [-121.746064, 46.850406, 3889.4], [-121.746014, 46.850405, 3890.6], [-121.74609, 46.850388, 3882.5], [-121.746276, 46.850397, 3877.7], [-121.74625, 46.85042, 3878.9], [-121.746261, 46.850317, 3865.7], [-121.746304, 46.850325, 3860.4], [-121.746289, 46.850362, 3862.2], [-121.746258, 46.850347, 3873.3], [-121.746114, 46.85042, 3888.4], [-121.746084, 46.850453, 3889.8], [-121.746041, 46.850459, 3883.3], [-121.746007, 46.850448, 3881.4], [-121.746002, 46.850422, 3886.2], [-121.745944, 46.850397, 3894.5], [-121.745883, 46.850463, 3898.0], [-121.745838, 46.850462, 3896.4], [-121.745811, 46.850477, 3884.1], [-121.7458, 46.850451, 3877.8], [-121.745825, 46.850408, 3871.0], [-121.745811, 46.850354, 3866.4], [-121.745796, 46.850324, 3866.3], [-121.745807, 46.850305, 3864.2], [-121.745836, 46.85029, 3860.9], [-121.745816, 46.850268, 3862.0], [-121.745836, 46.850248, 3858.8], [-121.745812, 46.850227, 3865.5], [-121.745763, 46.850208, 3865.1], [-121.7458, 46.850198, 3861.7], [-121.745822, 46.85015, 3862.4], [-121.745806, 46.850126, 3862.3], [-121.745813, 46.850099, 3858.7], [-121.745717, 46.850033, 3862.8], [-121.745706, 46.85001, 3856.0], [-121.745743, 46.850005, 3854.9], [-121.745729, 46.849981, 3851.7], [-121.745695, 46.849988, 3842.2], [-121.745603, 46.849957, 3837.7], [-121.745573, 46.849908, 3837.9], [-121.745509, 46.849885, 3837.5], [-121.745446, 46.849825, 3838.1], [-121.745347, 46.849801, 3841.7], [-121.745322, 46.849751, 3835.1], [-121.745331, 46.849727, 3833.0], [-121.745258, 46.849697, 3832.6], [-121.745228, 46.849708, 3831.9], [-121.745145, 46.849658, 3832.9], [-121.745127, 46.849634, 3835.1], [-121.745136, 46.849604, 3833.6], [-121.745125, 46.849578, 3838.1], [-121.74516, 46.849566, 3831.0], [-121.745052, 46.849505, 3819.6], [-121.745022, 46.849525, 3815.9], [-121.745033, 46.849548, 3815.9], [-121.744998, 46.849542, 3811.4], [-121.744982, 46.849525, 3810.4], [-121.744964, 46.849475, 3813.9], [-121.744919, 46.849434, 3813.7], [-121.744899, 46.849407, 3812.2], [-121.744866, 46.849393, 3805.3], [-121.744846, 46.849372, 3804.2], [-121.744821, 46.849325, 3801.5], [-121.744821, 46.849298, 3803.3], [-121.744806, 46.849272, 3802.2], [-121.744809, 46.849237, 3803.7], [-121.74483, 46.849217, 3802.4], [-121.744836, 46.849171, 3802.0], [-121.744738, 46.849204, 3794.4], [-121.74466, 46.849223, 3796.0], [-121.744588, 46.849213, 3796.1], [-121.744518, 46.849148, 3791.9], [-121.744451, 46.849033, 3784.0], [-121.744417, 46.849038, 3783.0], [-121.74432, 46.849125, 3780.4], [-121.744226, 46.849159, 3781.2], [-121.744192, 46.849188, 3782.3], [-121.744059, 46.84924, 3783.0], [-121.74399, 46.84926, 3779.3], [-121.743944, 46.849263, 3774.5], [-121.743907, 46.849255, 3769.1], [-121.743902, 46.849233, 3767.6], [-121.743873, 46.849216, 3766.8], [-121.743836, 46.849174, 3762.3], [-121.743773, 46.849151, 3764.1], [-121.743751, 46.849129, 3763.7], [-121.743699, 46.849099, 3761.4], [-121.743616, 46.849015, 3757.0], [-121.743573, 46.848995, 3755.5], [-121.743474, 46.849008, 3757.0], [-121.74341, 46.848987, 3756.2], [-121.743355, 46.848985, 3757.4], [-121.743291, 46.84899, 3757.6], [-121.743263, 46.84898, 3756.8], [-121.743129, 46.849016, 3756.0], [-121.742931, 46.849099, 3748.4], [-121.7429, 46.849123, 3749.2], [-121.742811, 46.849169, 3749.3], [-121.742673, 46.849198, 3745.5], [-121.742615, 46.849215, 3747.2], [-121.742568, 46.849252, 3744.8], [-121.742429, 46.849321, 3739.8], [-121.742351, 46.849383, 3737.6], [-121.742226, 46.849404, 3733.2], [-121.742197, 46.849402, 3733.5], [-121.742048, 46.849439, 3735.6], [-121.741946, 46.849448, 3733.9], [-121.741909, 46.849468, 3737.4], [-121.741871, 46.849467, 3738.9], [-121.74184, 46.84948, 3746.8], [-121.741856, 46.849459, 3744.8], [-121.741849, 46.849426, 3743.0], [-121.741818, 46.849405, 3740.8], [-121.7418, 46.84936, 3737.0], [-121.741751, 46.849327, 3737.2], [-121.74174, 46.849306, 3736.1], [-121.741704, 46.849285, 3734.7], [-121.741644, 46.849193, 3729.9], [-121.741556, 46.849139, 3727.5], [-121.741505, 46.849092, 3724.2], [-121.741323, 46.848974, 3715.2], [-121.741247, 46.84886, 3705.4], [-121.7412, 46.848843, 3703.5], [-121.74117, 46.848843, 3703.5], [-121.74103, 46.848869, 3701.4], [-121.740946, 46.848893, 3700.0], [-121.740845, 46.848907, 3698.8], [-121.740791, 46.848945, 3698.1], [-121.740713, 46.848974, 3697.2], [-121.740632, 46.849052, 3694.1], [-121.740589, 46.849037, 3693.9], [-121.740531, 46.849069, 3691.3], [-121.740429, 46.849091, 3690.1], [-121.740417, 46.849115, 3687.6], [-121.740387, 46.849097, 3686.4], [-121.740387, 46.849038, 3682.7], [-121.740355, 46.849026, 3683.4], [-121.740341, 46.849003, 3678.6], [-121.740243, 46.849041, 3674.6], [-121.740241, 46.849068, 3670.2], [-121.740203, 46.849069, 3673.7], [-121.74018, 46.849051, 3671.9], [-121.740109, 46.849068, 3675.8], [-121.740074, 46.849061, 3670.3], [-121.74005, 46.849032, 3665.4], [-121.740076, 46.848982, 3664.1], [-121.740041, 46.848975, 3662.7], [-121.740009, 46.848984, 3663.1], [-121.739884, 46.848986, 3661.3], [-121.739879, 46.84896, 3655.2], [-121.739892, 46.848935, 3655.6], [-121.739936, 46.848899, 3651.3], [-121.739889, 46.848858, 3650.0], [-121.739854, 46.848777, 3643.5], [-121.73986, 46.848703, 3640.8], [-121.739839, 46.848649, 3637.3], [-121.739848, 46.848622, 3634.1], [-121.73983, 46.848599, 3632.5], [-121.739819, 46.848547, 3629.7], [-121.739781, 46.84854, 3625.4], [-121.739649, 46.848585, 3624.3], [-121.739466, 46.84859, 3616.6], [-121.739465, 46.848563, 3612.9], [-121.73937, 46.848604, 3610.1], [-121.739253, 46.848625, 3604.8], [-121.73922, 46.848618, 3603.7], [-121.739195, 46.848636, 3602.9], [-121.739103, 46.848643, 3600.9], [-121.739067, 46.848662, 3599.6], [-121.739056, 46.848689, 3593.2], [-121.738991, 46.848707, 3589.7], [-121.738943, 46.848736, 3592.2], [-121.738922, 46.848714, 3589.4], [-121.738885, 46.848725, 3591.8], [-121.738794, 46.848727, 3589.1], [-121.738722, 46.848711, 3581.9], [-121.73852, 46.848794, 3579.0], [-121.738505, 46.848772, 3574.3], [-121.738468, 46.848775, 3574.9], [-121.738398, 46.848799, 3572.1], [-121.738248, 46.848789, 3572.4], [-121.738215, 46.848777, 3569.6], [-121.738124, 46.848783, 3570.4], [-121.738088, 46.848779, 3565.3], [-121.738111, 46.848758, 3559.7], [-121.738113, 46.848732, 3558.7], [-121.73808, 46.848687, 3558.2], [-121.738075, 46.848661, 3558.3], [-121.738099, 46.848639, 3556.9], [-121.738093, 46.848607, 3555.2], [-121.737914, 46.848612, 3550.2], [-121.737877, 46.8486, 3547.3], [-121.737822, 46.848592, 3546.1], [-121.737757, 46.848566, 3541.3], [-121.737652, 46.848567, 3542.8], [-121.737614, 46.848623, 3539.4], [-121.73759, 46.848637, 3540.1], [-121.737517, 46.848647, 3535.5], [-121.737467, 46.848685, 3534.8], [-121.737402, 46.848715, 3535.9], [-121.737388, 46.848691, 3532.5], [-121.737342, 46.848782, 3528.6], [-121.737306, 46.848769, 3528.0], [-121.737285, 46.848718, 3527.0], [-121.737288, 46.848665, 3520.8], [-121.73727, 46.848642, 3520.4], [-121.737242, 46.848627, 3521.6], [-121.737209, 46.848648, 3521.0], [-121.737217, 46.848669, 3520.8], [-121.737196, 46.848719, 3518.1], [-121.7372, 46.848743, 3519.8], [-121.737169, 46.848754, 3519.6], [-121.737136, 46.848741, 3518.5], [-121.737107, 46.84877, 3518.2], [-121.737058, 46.848736, 3514.7], [-121.737061, 46.84871, 3512.8], [-121.736986, 46.848705, 3508.5], [-121.736942, 46.848748, 3505.0], [-121.736958, 46.848775, 3504.2], [-121.736942, 46.848797, 3503.3], [-121.736909, 46.848788, 3500.9], [-121.736879, 46.848802, 3500.2], [-121.736842, 46.848848, 3499.8], [-121.736878, 46.848868, 3498.7], [-121.736844, 46.848868, 3501.5], [-121.736804, 46.84891, 3500.9], [-121.736768, 46.848919, 3500.1], [-121.736735, 46.848904, 3499.5], [-121.736727, 46.848847, 3493.6], [-121.736657, 46.848862, 3493.9], [-121.73664, 46.848881, 3493.9], [-121.736605, 46.848879, 3491.6], [-121.736578, 46.84886, 3488.0], [-121.73654, 46.848867, 3486.0], [-121.736494, 46.848858, 3484.3], [-121.736471, 46.848841, 3483.5], [-121.736372, 46.848876, 3481.5], [-121.736304, 46.848864, 3479.3], [-121.736333, 46.848846, 3477.0], [-121.736285, 46.848853, 3478.0], [-121.736182, 46.848819, 3472.4], [-121.736211, 46.848803, 3472.6], [-121.736244, 46.8488, 3471.4], [-121.736257, 46.84878, 3471.5], [-121.736294, 46.848761, 3470.4], [-121.736331, 46.848731, 3471.4], [-121.736367, 46.848725, 3471.5], [-121.736408, 46.848682, 3470.4], [-121.736411, 46.848655, 3467.1], [-121.736425, 46.848633, 3465.7], [-121.736417, 46.848601, 3461.9], [-121.736439, 46.848552, 3459.1], [-121.736445, 46.848503, 3457.4], [-121.736401, 46.848433, 3451.5], [-121.736432, 46.84842, 3450.6], [-121.736481, 46.848327, 3449.4], [-121.736481, 46.848272, 3447.5], [-121.736547, 46.848208, 3440.0], [-121.736604, 46.848183, 3437.3], [-121.736601, 46.848155, 3445.3], [-121.736673, 46.848168, 3442.6], [-121.736703, 46.848155, 3439.1], [-121.736722, 46.848163, 3438.7], [-121.736746, 46.848195, 3435.7], [-121.736743, 46.848162, 3438.7], [-121.736767, 46.848141, 3441.9], [-121.736775, 46.848163, 3440.9], [-121.736813, 46.848164, 3443.3], [-121.736892, 46.848114, 3452.4], [-121.736934, 46.848115, 3448.1], [-121.736958, 46.848075, 3450.3], [-121.736989, 46.848061, 3453.0], [-121.737056, 46.84806, 3447.7], [-121.737099, 46.84801, 3456.2], [-121.737174, 46.848004, 3455.3], [-121.737219, 46.847973, 3460.2], [-121.737289, 46.84796, 3453.9], [-121.737293, 46.847921, 3455.3], [-121.737336, 46.847881, 3455.9], [-121.737372, 46.84787, 3456.3], [-121.737415, 46.847835, 3454.9], [-121.737491, 46.847826, 3448.3], [-121.737594, 46.847766, 3445.6], [-121.737673, 46.847644, 3450.8], [-121.737748, 46.847598, 3447.5], [-121.737825, 46.847527, 3447.0], [-121.737844, 46.847478, 3448.1], [-121.737871, 46.847468, 3446.1], [-121.737874, 46.847422, 3444.9], [-121.737887, 46.8474, 3445.9], [-121.737885, 46.847362, 3449.1], [-121.737917, 46.847282, 3449.1], [-121.737927, 46.847186, 3451.1], [-121.738018, 46.847084, 3448.8], [-121.738023, 46.847062, 3448.2], [-121.738098, 46.846981, 3450.3], [-121.738145, 46.84695, 3448.0], [-121.738159, 46.846925, 3448.6], [-121.738214, 46.846881, 3446.9], [-121.738234, 46.846852, 3449.4], [-121.738241, 46.846783, 3451.3], [-121.738277, 46.846704, 3451.8], [-121.738314, 46.846654, 3449.5], [-121.738304, 46.846604, 3451.4], [-121.738313, 46.846531, 3454.3], [-121.738333, 46.846476, 3453.1], [-121.738315, 46.846426, 3455.1], [-121.738289, 46.846406, 3456.3], [-121.738286, 46.846382, 3456.7], [-121.738251, 46.846355, 3454.9], [-121.738222, 46.846254, 3454.3], [-121.738259, 46.846208, 3455.0], [-121.738289, 46.846188, 3456.7], [-121.738307, 46.846133, 3459.8], [-121.738292, 46.846084, 3461.4], [-121.738315, 46.846005, 3461.3], [-121.738339, 46.845975, 3463.1], [-121.738373, 46.845965, 3464.5], [-121.738418, 46.845839, 3465.5], [-121.738453, 46.845784, 3462.0], [-121.738454, 46.845758, 3462.1], [-121.738467, 46.845734, 3460.5], [-121.738435, 46.845655, 3456.0], [-121.738374, 46.845684, 3456.7], [-121.738307, 46.8457, 3456.3], [-121.738269, 46.845698, 3455.2], [-121.738205, 46.845739, 3455.4], [-121.738125, 46.845757, 3452.4], [-121.738061, 46.845784, 3452.3], [-121.738023, 46.845783, 3449.2], [-121.737992, 46.845727, 3446.5], [-121.737984, 46.845695, 3444.9], [-121.737958, 46.845676, 3443.8], [-121.737928, 46.845674, 3443.6], [-121.737785, 46.845705, 3442.1], [-121.737674, 46.845735, 3439.4], [-121.737551, 46.845731, 3436.1], [-121.737368, 46.845703, 3431.1], [-121.737226, 46.845604, 3426.1], [-121.737191, 46.845593, 3424.0], [-121.737105, 46.845536, 3421.2], [-121.736854, 46.845487, 3415.9], [-121.736846, 46.845487, 3416.0], [-121.736676, 46.845447, 3411.9], [-121.736608, 46.845416, 3409.8], [-121.736463, 46.845406, 3405.8], [-121.7364, 46.845387, 3404.5], [-121.736339, 46.845382, 3406.2], [-121.736186, 46.845386, 3401.9], [-121.736108, 46.845376, 3395.9], [-121.736011, 46.845368, 3396.3], [-121.735979, 46.845353, 3395.5], [-121.735968, 46.845331, 3393.7], [-121.735842, 46.845314, 3391.9], [-121.735729, 46.845318, 3392.0], [-121.735697, 46.845327, 3391.5], [-121.735584, 46.845293, 3389.1], [-121.735345, 46.845233, 3384.4], [-121.735338, 46.845226, 3383.6], [-121.735103, 46.845151, 3375.9], [-121.73498, 46.845101, 3372.9], [-121.73496, 46.845089, 3372.1], [-121.734949, 46.845067, 3371.6], [-121.734669, 46.844965, 3363.8], [-121.734533, 46.844909, 3360.7], [-121.734416, 46.844885, 3359.9], [-121.734281, 46.844845, 3357.4], [-121.734245, 46.844813, 3355.8], [-121.734173, 46.844787, 3354.3], [-121.734137, 46.844793, 3351.9], [-121.734203, 46.844816, 3349.2], [-121.73419, 46.844794, 3349.3], [-121.734168, 46.844814, 3352.6], [-121.734209, 46.844799, 3351.1], [-121.734261, 46.844823, 3351.5], [-121.734241, 46.844846, 3354.2], [-121.734212, 46.84483, 3349.4], [-121.73418, 46.844843, 3352.9], [-121.734196, 46.844867, 3349.9], [-121.734187, 46.844897, 3351.4], [-121.734198, 46.844912, 3347.4], [-121.734197, 46.845007, 3374.7], [-121.734176, 46.844976, 3377.1], [-121.73416, 46.844924, 3371.3], [-121.734056, 46.844829, 3380.0], [-121.734117, 46.844877, 3370.5], [-121.734201, 46.844825, 3361.5], [-121.734286, 46.84496, 3352.1], [-121.734439, 46.84488, 3341.7], [-121.734173, 46.844685, 3366.0], [-121.734095, 46.844878, 3367.2], [-121.734093, 46.844869, 3366.7], [-121.734009, 46.844856, 3376.2], [-121.734105, 46.844833, 3368.2], [-121.734196, 46.84485, 3367.3], [-121.734221, 46.844811, 3360.5], [-121.731454, 46.843738, 3350.2], [-121.731413, 46.843709, 3323.5], [-121.732246, 46.835664, 3072.5], [-121.732173, 46.835439, 3047.1], [-121.732106, 46.835447, 3038.2], [-121.731992, 46.835626, 3052.3], [-121.732019, 46.835566, 3056.2], [-121.731997, 46.835528, 3060.5], [-121.731977, 46.835522, 3061.9], [-121.731962, 46.835537, 3060.9], [-121.726169, 46.80952, 2137.0], [-121.726118, 46.809593, 2143.4], [-121.726093, 46.809574, 2161.4], [-121.72611, 46.809553, 2183.5], [-121.726077, 46.809567, 2186.4], [-121.726093, 46.809577, 2185.5], [-121.726168, 46.809541, 2181.4], [-121.726312, 46.809453, 2179.6], [-121.726366, 46.809394, 2178.4], [-121.726425, 46.809368, 2175.4], [-121.726426, 46.809307, 2174.8], [-121.726456, 46.809258, 2172.8], [-121.726494, 46.809231, 2172.0], [-121.726518, 46.809134, 2169.7], [-121.726508, 46.809098, 2169.2], [-121.72645, 46.809091, 2166.8], [-121.726423, 46.809077, 2168.1], [-121.726448, 46.809038, 2168.9], [-121.726519, 46.808985, 2164.1], [-121.726543, 46.808906, 2165.0], [-121.726568, 46.808887, 2165.0], [-121.726539, 46.808872, 2166.2], [-121.726532, 46.80885, 2165.4], [-121.726568, 46.808799, 2163.1], [-121.726661, 46.808726, 2164.5], [-121.726716, 46.808647, 2163.7], [-121.726841, 46.808485, 2165.1], [-121.72686, 46.80844, 2164.3], [-121.726853, 46.808374, 2164.1], [-121.72688, 46.808308, 2162.3], [-121.726884, 46.808267, 2160.2], [-121.726969, 46.808124, 2158.6], [-121.727044, 46.808052, 2155.6], [-121.727076, 46.808043, 2157.5], [-121.72711, 46.808003, 2157.8], [-121.727188, 46.807943, 2164.4], [-121.72729, 46.807882, 2158.7], [-121.72735, 46.807856, 2157.7], [-121.727436, 46.807792, 2158.4], [-121.727516, 46.807756, 2157.6], [-121.727728, 46.807668, 2154.3], [-121.727876, 46.807603, 2157.4], [-121.727903, 46.807584, 2154.8], [-121.727923, 46.807553, 2153.6], [-121.727935, 46.807473, 2152.8], [-121.72792, 46.807428, 2152.4], [-121.727946, 46.807392, 2149.9], [-121.727934, 46.807332, 2149.4], [-121.727962, 46.807272, 2149.3], [-121.72795, 46.807233, 2150.0], [-121.727951, 46.807163, 2147.8], [-121.727984, 46.807127, 2147.7], [-121.728019, 46.807051, 2144.3], [-121.728033, 46.807007, 2143.8], [-121.728013, 46.806964, 2143.7], [-121.728034, 46.806918, 2141.3], [-121.727985, 46.806869, 2139.0], [-121.727985, 46.806818, 2139.8], [-121.728015, 46.806771, 2137.8], [-121.728018, 46.806747, 2138.7], [-121.728072, 46.806713, 2135.9], [-121.72809, 46.806671, 2137.5], [-121.728081, 46.806645, 2136.1], [-121.728119, 46.806583, 2134.5], [-121.728127, 46.806552, 2131.0], [-121.728113, 46.80652, 2129.9], [-121.728118, 46.806488, 2128.9], [-121.728179, 46.806432, 2127.1], [-121.728188, 46.806384, 2125.8], [-121.728215, 46.806346, 2125.9], [-121.728334, 46.80627, 2124.8], [-121.728428, 46.80619, 2123.4], [-121.728471, 46.806137, 2119.2], [-121.728489, 46.806127, 2118.9], [-121.728619, 46.806089, 2119.7], [-121.728654, 46.80606, 2121.5], [-121.728681, 46.806018, 2118.1], [-121.728715, 46.805936, 2124.2], [-121.728805, 46.805865, 2118.5], [-121.728837, 46.805835, 2118.9], [-121.728873, 46.805772, 2112.7], [-121.728876, 46.805725, 2117.5], [-121.728928, 46.805649, 2112.3], [-121.72911, 46.805562, 2113.5], [-121.729121, 46.805555, 2113.8], [-121.729163, 46.80549, 2113.5], [-121.72921, 46.805464, 2110.7], [-121.729241, 46.805461, 2109.3], [-121.729283, 46.805484, 2105.6], [-121.729381, 46.805511, 2104.2], [-121.729518, 46.805486, 2094.9], [-121.72969, 46.805444, 2095.3], [-121.729766, 46.805406, 2095.7], [-121.729898, 46.805378, 2092.0], [-121.729979, 46.80533, 2106.1], [-121.729991, 46.805319, 2102.4], [-121.730021, 46.805253, 2094.9], [-121.730095, 46.805188, 2092.1], [-121.730141, 46.805173, 2109.5], [-121.730194, 46.80518, 2091.4], [-121.730402, 46.805044, 2090.0], [-121.730461, 46.805016, 2081.8], [-121.730504, 46.804957, 2085.1], [-121.730669, 46.804839, 2077.8], [-121.730687, 46.804833, 2078.8], [-121.730816, 46.804769, 2093.0], [-121.730898, 46.804751, 2071.5], [-121.73097, 46.804746, 2078.0], [-121.730996, 46.804727, 2068.9], [-121.731057, 46.804707, 2074.9], [-121.731083, 46.804689, 2078.6], [-121.731107, 46.804643, 2068.4], [-121.73115, 46.804605, 2066.7], [-121.731224, 46.804579, 2065.8], [-121.731267, 46.804543, 2064.7], [-121.731296, 46.804552, 2062.6], [-121.731332, 46.804575, 2059.9], [-121.731369, 46.804619, 2057.3], [-121.731374, 46.804645, 2082.9], [-121.731495, 46.804816, 2064.9], [-121.731586, 46.804875, 2074.7], [-121.731599, 46.804894, 2059.3], [-121.731631, 46.804893, 2057.1], [-121.731835, 46.80462, 2048.9], [-121.73185, 46.804608, 2048.4], [-121.731871, 46.804559, 2043.1], [-121.731939, 46.804454, 2043.4], [-121.731972, 46.804348, 2041.2], [-121.732033, 46.804282, 2037.9], [-121.732043, 46.804278, 2038.5], [-121.732075, 46.804231, 2062.2], [-121.732082, 46.804173, 2069.4], [-121.732064, 46.804133, 2048.8], [-121.732099, 46.804059, 2033.8], [-121.732096, 46.804036, 2031.1], [-121.732138, 46.803993, 2024.7], [-121.732147, 46.80394, 2035.1], [-121.73217, 46.8039, 2029.1], [-121.732161, 46.803764, 2026.7], [-121.732167, 46.803685, 2031.0], [-121.732189, 46.803619, 2023.0], [-121.732184, 46.803583, 2021.9], [-121.732226, 46.803534, 2017.8], [-121.732234, 46.803509, 2015.2], [-121.732271, 46.803504, 2011.5], [-121.732304, 46.803517, 2007.5], [-121.732309, 46.803541, 2006.1], [-121.732389, 46.803632, 2002.2], [-121.732393, 46.803692, 2000.8], [-121.732381, 46.803716, 2001.2], [-121.73244, 46.803739, 2065.0], [-121.732459, 46.803827, 2017.8], [-121.732521, 46.803919, 2015.8], [-121.732521, 46.804, 2021.4], [-121.73251, 46.804049, 2006.6], [-121.732541, 46.804092, 2051.3], [-121.732593, 46.804116, 2020.8], [-121.732628, 46.804152, 2072.1], [-121.732615, 46.804175, 2075.2], [-121.73266, 46.804211, 2005.5], [-121.732665, 46.804262, 1997.3], [-121.732723, 46.804315, 1997.6], [-121.732749, 46.804373, 1997.6], [-121.732778, 46.804402, 1996.4], [-121.732749, 46.804399, 2033.4], [-121.732819, 46.804449, 2017.1], [-121.732829, 46.804522, 2017.2], [-121.732816, 46.804555, 2029.3], [-121.732841, 46.804567, 2006.0], [-121.732912, 46.804648, 1998.1], [-121.732965, 46.804669, 2078.0], [-121.733037, 46.804708, 2017.7], [-121.733032, 46.804685, 2025.4], [-121.733042, 46.804663, 1997.5], [-121.733102, 46.804614, 2004.2], [-121.733125, 46.804607, 2004.7], [-121.733178, 46.804555, 1991.6], [-121.733318, 46.804491, 2017.1], [-121.733379, 46.804441, 1992.6], [-121.733291, 46.804337, 1979.1], [-121.733226, 46.804275, 1978.9], [-121.7332, 46.804234, 1980.2], [-121.733196, 46.804174, 1977.9], [-121.733214, 46.804154, 1976.5], [-121.733247, 46.804144, 1976.0], [-121.733336, 46.804144, 1974.3], [-121.733365, 46.804132, 1974.8], [-121.733371, 46.804104, 1973.2], [-121.733357, 46.804071, 1972.5], [-121.733294, 46.804, 1972.0], [-121.733277, 46.803948, 2012.0], [-121.733235, 46.8038, 1979.4], [-121.733182, 46.803718, 1972.7], [-121.733156, 46.803667, 1970.5], [-121.733164, 46.803556, 1967.9], [-121.733155, 46.803457, 1964.2], [-121.733239, 46.803475, 1964.3], [-121.733339, 46.803466, 1963.7], [-121.733388, 46.803451, 1963.7], [-121.733424, 46.803401, 1963.1], [-121.733335, 46.803358, 1962.8], [-121.7333, 46.803259, 1959.7], [-121.733275, 46.803099, 1958.0], [-121.733284, 46.803067, 1957.3], [-121.733278, 46.803027, 1956.2], [-121.733292, 46.802874, 1951.0], [-121.733298, 46.802846, 1950.4], [-121.733302, 46.802715, 1976.4], [-121.733316, 46.802622, 1955.0], [-121.733301, 46.802515, 1944.0], [-121.733223, 46.802364, 1940.4], [-121.733119, 46.802238, 1938.1], [-121.733063, 46.802181, 1935.7], [-121.732923, 46.802102, 1973.1], [-121.732843, 46.80202, 1944.1], [-121.732787, 46.801967, 1937.5], [-121.732783, 46.801952, 1936.8], [-121.732943, 46.801918, 1933.1], [-121.732915, 46.801853, 1930.4], [-121.732797, 46.80167, 1926.6], [-121.732755, 46.801586, 1924.5], [-121.732785, 46.801551, 1923.9], [-121.732857, 46.801564, 1922.6], [-121.733121, 46.801571, 1940.8], [-121.733166, 46.801574, 1936.3], [-121.733263, 46.801564, 1930.7], [-121.733311, 46.801541, 1928.2], [-121.733282, 46.801478, 1919.1], [-121.733288, 46.801438, 1917.4], [-121.733336, 46.80137, 1915.8], [-121.733382, 46.801356, 1915.5], [-121.733431, 46.801354, 1915.4], [-121.733521, 46.801365, 1914.9], [-121.733566, 46.801357, 1910.2], [-121.733605, 46.801338, 1908.6], [-121.73362, 46.80132, 1907.3], [-121.733594, 46.801247, 1905.1], [-121.73359, 46.801207, 1903.7], [-121.733605, 46.801141, 1900.7], [-121.733556, 46.801039, 1899.1], [-121.73357, 46.801002, 1898.5], [-121.733679, 46.800941, 1897.8], [-121.733698, 46.800917, 1897.3], [-121.733692, 46.800885, 1897.1], [-121.733662, 46.800855, 1896.8], [-121.733586, 46.800795, 1896.8], [-121.733665, 46.80078, 1894.7], [-121.733745, 46.800626, 1892.6], [-121.733747, 46.800588, 1893.1], [-121.733731, 46.80056, 1892.4], [-121.733702, 46.800538, 1892.1], [-121.733593, 46.800505, 1891.5], [-121.733532, 46.800468, 1890.9], [-121.733411, 46.800359, 1889.7], [-121.733283, 46.800283, 1889.7], [-121.733238, 46.800261, 1910.1], [-121.733201, 46.800233, 1906.0], [-121.733106, 46.80013, 1894.1], [-121.733004, 46.800052, 1890.4], [-121.732939, 46.799933, 1887.1], [-121.732945, 46.799907, 1884.8], [-121.732982, 46.799893, 1884.1], [-121.733048, 46.799839, 1884.0], [-121.733106, 46.799831, 1882.7], [-121.733135, 46.799841, 1882.4], [-121.733199, 46.799879, 1882.5], [-121.733249, 46.799891, 1881.9], [-121.733432, 46.799899, 1880.8], [-121.733465, 46.799904, 1896.5], [-121.733642, 46.799948, 1884.1], [-121.733674, 46.799946, 1882.3], [-121.733719, 46.799916, 1879.9], [-121.733731, 46.799868, 1878.3], [-121.733745, 46.799844, 1877.6], [-121.733831, 46.799817, 1876.9], [-121.733846, 46.799798, 1876.3], [-121.733834, 46.799729, 1875.9], [-121.733776, 46.799612, 1874.4], [-121.733792, 46.799542, 1873.2], [-121.733794, 46.799417, 1870.7], [-121.7338, 46.799395, 1870.3], [-121.733895, 46.799197, 1867.5], [-121.733909, 46.799159, 1876.2], [-121.733914, 46.79906, 1867.2], [-121.733952, 46.798964, 1863.9], [-121.73398, 46.798745, 1873.5], [-121.733998, 46.798656, 1863.1], [-121.734071, 46.798529, 1858.2], [-121.734108, 46.798459, 1897.5], [-121.734115, 46.798419, 1880.8], [-121.734134, 46.798382, 1867.5], [-121.734125, 46.79835, 1856.5], [-121.734137, 46.798328, 1853.0], [-121.734207, 46.798307, 1877.5], [-121.734259, 46.798332, 1863.3], [-121.734293, 46.798331, 1859.3], [-121.734314, 46.79832, 1858.6], [-121.734312, 46.798278, 1854.4], [-121.734323, 46.798239, 1847.3], [-121.734314, 46.79822, 1845.0], [-121.734361, 46.798191, 1844.3], [-121.734372, 46.798173, 1843.3], [-121.734374, 46.79812, 1839.5], [-121.734414, 46.79807, 1837.5], [-121.734448, 46.798058, 1837.0], [-121.734481, 46.798058, 1837.1], [-121.734499, 46.798078, 1837.5], [-121.734511, 46.798026, 1843.5], [-121.734553, 46.798045, 1838.2], [-121.734576, 46.798013, 1835.7], [-121.73457, 46.797977, 1834.5], [-121.734541, 46.797942, 1831.3], [-121.734534, 46.797844, 1828.1], [-121.734545, 46.797825, 1827.0], [-121.734567, 46.797818, 1861.5], [-121.734623, 46.797821, 1850.8], [-121.734643, 46.797804, 1844.0], [-121.734647, 46.797753, 1833.9], [-121.734664, 46.797731, 1830.1], [-121.734692, 46.797716, 1828.1], [-121.734787, 46.79771, 1823.9], [-121.734803, 46.797667, 1822.6], [-121.734825, 46.797654, 1821.1], [-121.734887, 46.79766, 1820.4], [-121.734972, 46.797608, 1819.9], [-121.734984, 46.797584, 1818.3], [-121.734965, 46.797521, 1816.8], [-121.734976, 46.797504, 1815.4], [-121.735056, 46.797508, 1816.0], [-121.735086, 46.797505, 1816.9], [-121.735163, 46.797473, 1817.4], [-121.735299, 46.797364, 1817.4], [-121.73535, 46.797304, 1816.4], [-121.735366, 46.797262, 1817.7], [-121.735353, 46.797226, 1816.4], [-121.735296, 46.797145, 1815.7], [-121.735244, 46.797091, 1813.5], [-121.735239, 46.797061, 1813.3], [-121.735258, 46.797006, 1811.1], [-121.735219, 46.796908, 1807.2], [-121.735193, 46.796757, 1807.6], [-121.735196, 46.796707, 1806.4], [-121.735215, 46.796592, 1804.9], [-121.735233, 46.796577, 1804.7], [-121.735274, 46.796594, 1806.5], [-121.735259, 46.796571, 1804.7], [-121.735302, 46.796558, 1804.9], [-121.735309, 46.796531, 1801.2], [-121.735494, 46.796408, 1803.1], [-121.735592, 46.796386, 1806.6], [-121.735704, 46.796353, 1808.2], [-121.735794, 46.796275, 1811.3], [-121.735859, 46.796258, 1812.2], [-121.735877, 46.796241, 1812.7], [-121.735827, 46.796176, 1811.9], [-121.735797, 46.79611, 1810.7], [-121.735751, 46.795995, 1810.8], [-121.735771, 46.795949, 1811.4], [-121.735811, 46.795935, 1904.2], [-121.735849, 46.795879, 1812.7], [-121.735873, 46.795867, 1812.3], [-121.735887, 46.795845, 1810.5], [-121.735865, 46.795795, 1810.1], [-121.735872, 46.795749, 1806.3], [-121.735863, 46.795667, 1800.9], [-121.73585, 46.795631, 1799.0], [-121.735854, 46.795601, 1797.2], [-121.73583, 46.79558, 1796.1], [-121.735694, 46.795496, 1792.5], [-121.735681, 46.795483, 1791.6], [-121.735613, 46.795389, 1818.0], [-121.735584, 46.795322, 1802.2], [-121.735558, 46.795244, 1795.7], [-121.735582, 46.795185, 1794.2], [-121.735566, 46.795129, 1793.8], [-121.735586, 46.795091, 1794.0], [-121.735578, 46.795048, 1792.5], [-121.735624, 46.79498, 1792.3], [-121.735633, 46.794976, 1791.5], [-121.735779, 46.794846, 1790.8], [-121.735787, 46.794836, 1788.8], [-121.735847, 46.794805, 1804.9], [-121.735843, 46.794777, 1803.0], [-121.735816, 46.79473, 1799.8], [-121.735816, 46.794713, 1797.7], [-121.735872, 46.794633, 1793.3], [-121.735869, 46.794584, 1790.4], [-121.735935, 46.7945, 1787.2], [-121.735955, 46.794455, 1783.5], [-121.735948, 46.794391, 1783.4], [-121.735915, 46.794357, 1784.5], [-121.735967, 46.794244, 1780.4], [-121.736029, 46.794171, 1780.6], [-121.736141, 46.794063, 1779.6], [-121.736242, 46.794069, 1782.7], [-121.736318, 46.794089, 1783.3], [-121.736353, 46.794085, 1781.7], [-121.736384, 46.794028, 1780.8], [-121.73638, 46.793985, 1779.7], [-121.736451, 46.793819, 1777.3], [-121.736502, 46.793789, 1778.7], [-121.736589, 46.793687, 1777.0], [-121.736651, 46.793658, 1778.6], [-121.736676, 46.793621, 1778.2], [-121.736764, 46.793569, 1775.1], [-121.736811, 46.793519, 1772.1], [-121.736889, 46.793474, 1771.4], [-121.736977, 46.793446, 1773.2], [-121.737002, 46.793397, 1771.8], [-121.737039, 46.793365, 1772.7], [-121.737055, 46.793296, 1768.5], [-121.737174, 46.793166, 1771.4], [-121.737193, 46.793121, 1770.2], [-121.73725, 46.793012, 1764.5], [-121.737278, 46.792982, 1764.5], [-121.737335, 46.792938, 1763.9], [-121.737432, 46.792834, 1763.5], [-121.737546, 46.7927, 1762.8], [-121.73759, 46.79264, 1761.1], [-121.737628, 46.792618, 1761.0], [-121.737636, 46.792583, 1773.7], [-121.737665, 46.792563, 1771.7], [-121.737686, 46.792536, 1782.9], [-121.73775, 46.792469, 1772.8], [-121.737797, 46.79245, 1813.3], [-121.737814, 46.792422, 1796.8], [-121.737803, 46.792371, 1771.9], [-121.737826, 46.792321, 1762.2], [-121.737813, 46.792219, 1757.9], [-121.737802, 46.792186, 1753.7], [-121.737804, 46.792057, 1750.7], [-121.737808, 46.791967, 1749.8], [-121.73778, 46.791929, 1751.3], [-121.737779, 46.791869, 1752.1], [-121.737765, 46.791812, 1749.3], [-121.737771, 46.79176, 1746.2], [-121.737821, 46.791679, 1744.2], [-121.737802, 46.791658, 1745.5], [-121.737808, 46.791638, 1745.0], [-121.737876, 46.791566, 1807.8], [-121.737909, 46.791511, 1763.3], [-121.737935, 46.791416, 1747.2], [-121.737971, 46.791347, 1744.4], [-121.737986, 46.791277, 1740.4], [-121.737937, 46.791151, 1735.8], [-121.737934, 46.791134, 1734.6], [-121.737906, 46.791077, 1735.2], [-121.737915, 46.790987, 1732.4], [-121.737908, 46.790941, 1749.3], [-121.737874, 46.790899, 1741.4], [-121.737825, 46.790808, 1740.1], [-121.737842, 46.790784, 1743.4], [-121.737837, 46.790763, 1999.5], [-121.737792, 46.790738, 1874.7], [-121.737736, 46.790689, 1786.7], [-121.737677, 46.790616, 1746.5], [-121.737647, 46.790535, 1737.0], [-121.737622, 46.790455, 1737.3], [-121.737536, 46.790383, 1728.5], [-121.737513, 46.790373, 1727.8], [-121.737411, 46.790296, 1726.3], [-121.73736, 46.790222, 1722.0], [-121.737309, 46.79014, 1720.5], [-121.737279, 46.790062, 1718.3], [-121.737277, 46.789986, 1714.5], [-121.737303, 46.789878, 1711.8], [-121.737307, 46.789824, 1712.3], [-121.737323, 46.789804, 1712.5], [-121.737397, 46.789736, 1708.2], [-121.737462, 46.789701, 1709.1], [-121.73754, 46.789647, 1708.3], [-121.737599, 46.789562, 1705.4], [-121.737598, 46.789449, 1705.7], [-121.737623, 46.789412, 1705.5], [-121.737634, 46.789373, 1704.2], [-121.737626, 46.789352, 1704.2], [-121.737618, 46.789285, 1702.6], [-121.737589, 46.789212, 1701.4], [-121.737546, 46.789162, 1701.4], [-121.737425, 46.788994, 1699.1], [-121.737378, 46.788971, 1694.4], [-121.737278, 46.788972, 1694.8], [-121.737216, 46.788951, 1696.4], [-121.737193, 46.788937, 1696.1], [-121.737074, 46.788906, 1694.4], [-121.736904, 46.78877, 1692.7], [-121.736881, 46.788714, 1688.6], [-121.736859, 46.788696, 1687.9], [-121.736806, 46.788677, 1724.6], [-121.736759, 46.788636, 1694.7], [-121.736593, 46.788574, 1689.3], [-121.736375, 46.788477, 1678.6], [-121.736293, 46.788431, 1673.7], [-121.736183, 46.788345, 1672.0], [-121.736077, 46.788253, 1669.2], [-121.736047, 46.788239, 1669.1], [-121.736105, 46.788067, 1667.2], [-121.736132, 46.788038, 1666.4], [-121.736131, 46.787995, 1665.3], [-121.736147, 46.787932, 1663.5], [-121.736127, 46.787842, 1661.6], [-121.736173, 46.787688, 1662.9], [-121.736213, 46.787491, 1655.8], [-121.736214, 46.787425, 1655.2], [-121.736248, 46.787314, 1652.5], [-121.736258, 46.78723, 1651.3], [-121.736222, 46.787176, 1651.9], [-121.736227, 46.787149, 1652.0], [-121.73626, 46.787117, 1650.5], [-121.736286, 46.78705, 1647.1], [-121.736278, 46.786983, 1649.6], [-121.736306, 46.786939, 1650.1], [-121.736325, 46.786888, 1649.5], [-121.736394, 46.786801, 1646.8], [-121.736427, 46.786765, 1645.9], [-121.736466, 46.786649, 1644.3], [-121.736466, 46.786633, 1644.6], [-121.736518, 46.786532, 1641.3], [-121.736523, 46.786512, 1640.6], [-121.736498, 46.786475, 1639.8], [-121.73649, 46.786444, 1639.3], [-121.736444, 46.786409, 1639.5], [-121.736402, 46.78635, 1639.3], [-121.736409, 46.786325, 1637.3], [-121.73649, 46.786301, 1635.4], [-121.736514, 46.786244, 1635.5], [-121.73655, 46.786207, 1633.8], [-121.736634, 46.786145, 1633.6], [-121.736696, 46.786079, 1633.8], [-121.736773, 46.786056, 1631.3], [-121.736887, 46.786046, 1630.8], [-121.736919, 46.786039, 1631.6], [-121.736934, 46.786018, 1630.4], [-121.737007, 46.786011, 1630.9], [-121.737053, 46.785973, 1631.2], [-121.737188, 46.785918, 1635.1], [-121.737202, 46.785908, 1635.0], [-121.737262, 46.78581, 1636.4], [-121.737275, 46.785751, 1636.9], [-121.737293, 46.785718, 1636.6], [-121.737327, 46.785697, 1637.8], [-121.737446, 46.785688, 1635.0], [-121.73756, 46.785711, 1635.0], [-121.737683, 46.785714, 1636.4], [-121.737745, 46.785693, 1636.1], [-121.737822, 46.785693, 1638.2], [-121.737926, 46.785667, 1636.0], [-121.738003, 46.785658, 1634.4], [-121.73804, 46.785636, 1633.0], [-121.738154, 46.785597, 1631.4], [-121.738313, 46.785514, 1632.7], [-121.738329, 46.78551, 1632.6], [-121.738447, 46.785443, 1631.0], [-121.738526, 46.785425, 1630.0], [-121.738655, 46.785372, 1631.2], [-121.738724, 46.78533, 1630.3], [-121.738884, 46.785252, 1632.0], [-121.738962, 46.785239, 1630.9], [-121.739033, 46.785197, 1633.7], [-121.739059, 46.78515, 1634.9], [-121.739032, 46.785094, 1633.8], [-121.739043, 46.785068, 1633.4], [-121.739142, 46.78505, 1632.1], [-121.739266, 46.785011, 1632.2], [-121.739366, 46.784962, 1631.7], [-121.739448, 46.784908, 1630.3], [-121.739554, 46.784852, 1632.6], [-121.73965, 46.784771, 1629.1], [-121.739683, 46.784748, 1628.0], [-121.739777, 46.784625, 1627.0], [-121.7398, 46.784588, 1622.2], [-121.739889, 46.784581, 1624.0], [-121.739904, 46.784536, 1622.1], [-121.739951, 46.784503, 1621.3], [-121.740122, 46.78443, 1623.9]]}}