{"type": "Feature", "properties": {}, "geometry": {"type": "LineString", "coordinates": [[-111.166911, 32.247096, 886.7], [-111.16714, 32.247225, 888.3], [-111.16716, 32.247469, 888.3], [-111.167299, 32.247617, 887.3], [-111.167268, 32.24774, 886.6], [-111.167375, 32.248089, 885.6], [-111.167315, 32.248179, 887.5], [-111.167473, 32.248288, 885.8], [-111.167536, 32.248101, 885.1], [-111.167597, 32.247667, 884.1], [-111.167777, 32.24741, 887.1], [-111.167891, 32.247378, 888.2], [-111.168362, 32.247775, 889.6], [-111.168513, 32.247988, 888.0], [-111.168661, 32.248348, 889.2], [-111.168974, 32.248743, 891.1], [-111.169458, 32.248988, 889.4], [-111.170261, 32.249331, 884.4], [-111.170433, 32.249489, 882.9], [-111.170504, 32.249666, 881.6], [-111.170422, 32.249933, 879.9], [-111.170003, 32.250146, 878.2], [-111.169945, 32.250328, 879.0], [-111.17011, 32.250486, 879.6], [-111.170521, 32.250669, 880.5], [-111.170557, 32.250834, 880.6], [-111.170418, 32.251185, 880.7], [-111.169879, 32.252083, 888.5], [-111.169697, 32.252271, 889.7], [-111.1696, 32.25269, 891.3], [-111.169615, 32.253416, 892.2], [-111.169436, 32.253928, 897.8], [-111.169378, 32.254493, 904.0], [-111.169131, 32.25483, 907.5], [-111.169066, 32.255074, 909.2], [-111.168702, 32.255442, 913.9], [-111.168488, 32.255488, 915.6], [-111.168412, 32.255582, 916.7], [-111.168085, 32.255679, 918.5], [-111.16777, 32.256156, 920.5], [-111.167419, 32.256418, 925.0], [-111.166756, 32.256698, 932.7], [-111.166382, 32.257113, 938.8], [-111.166012, 32.257257, 941.5], [-111.165459, 32.257614, 949.5], [-111.165316, 32.25774, 951.8], [-111.165022, 32.258363, 960.8], [-111.165031, 32.258503, 962.7], [-111.165369, 32.258499, 965.6], [-111.165543, 32.258355, 968.1], [-111.16574, 32.258304, 969.8], [-111.166061, 32.258131, 972.3], [-111.166367, 32.258099, 972.8], [-111.16683, 32.258215, 975.2], [-111.167025, 32.258575, 981.1], [-111.167333, 32.258541, 983.3], [-111.167642, 32.258658, 985.9], [-111.167749, 32.258879, 987.2], [-111.168117, 32.259014, 989.7], [-111.168402, 32.259393, 994.7], [-111.168486, 32.259811, 998.9], [-111.168422, 32.259958, 1000.9], [-111.168695, 32.260061, 1004.0], [-111.1687, 32.260356, 1008.1], [-111.168567, 32.260652, 1010.5], [-111.168666, 32.261081, 1008.0], [-111.169233, 32.260955, 1010.4], [-111.169515, 32.261034, 1011.7], [-111.169787, 32.261034, 1013.7], [-111.169916, 32.261201, 1016.3], [-111.169959, 32.261409, 1019.2], [-111.170345, 32.26144, 1023.0], [-111.170637, 32.261643, 1026.1], [-111.170927, 32.26176, 1027.8], [-111.170888, 32.261867, 1028.2], [-111.170556, 32.262233, 1031.3], [-111.170506, 32.262352, 1032.3], [-111.170724, 32.262603, 1035.7], [-111.170781, 32.262956, 1039.7], [-111.170783, 32.263528, 1041.5], [-111.170862, 32.263613, 1042.6], [-111.171164, 32.263527, 1046.3], [-111.171286, 32.263579, 1048.2], [-111.17131, 32.263815, 1053.2], [-111.171192, 32.264171, 1058.9], [-111.17087, 32.264572, 1065.7], [-111.171022, 32.264792, 1068.6], [-111.171289, 32.265039, 1072.0], [-111.171378, 32.265244, 1074.4], [-111.171651, 32.265364, 1077.6], [-111.171836, 32.265221, 1080.1], [-111.172101, 32.265116, 1083.0], [-111.172161, 32.265173, 1084.1], [-111.171963, 32.265271, 1086.7], [-111.171849, 32.265557, 1091.4], [-111.171474, 32.265665, 1096.9], [-111.171285, 32.265799, 1099.6], [-111.171022, 32.265855, 1102.2], [-111.17065, 32.265734, 1106.4], [-111.170427, 32.265724, 1108.7], [-111.169888, 32.265788, 1114.7], [-111.169121, 32.265758, 1123.6], [-111.168599, 32.26589, 1130.6], [-111.16827, 32.265851, 1135.3], [-111.168575, 32.265698, 1139.9], [-111.168728, 32.265551, 1143.5], [-111.168257, 32.265657, 1148.9], [-111.167976, 32.265759, 1152.2], [-111.167436, 32.265841, 1158.1], [-111.167135, 32.265956, 1161.8], [-111.166907, 32.265986, 1164.5], [-111.166315, 32.266238, 1171.9], [-111.165842, 32.266262, 1176.6], [-111.1655, 32.266384, 1180.2], [-111.16528, 32.266553, 1183.5], [-111.164976, 32.266482, 1186.9], [-111.164702, 32.266595, 1190.0], [-111.164664, 32.266796, 1192.2], [-111.164449, 32.266979, 1195.8], [-111.164454, 32.267182, 1198.8], [-111.164239, 32.26745, 1203.5], [-111.164137, 32.267784, 1209.6], [-111.163487, 32.267913, 1216.6], [-111.163247, 32.267894, 1219.2], [-111.162964, 32.267783, 1222.7], [-111.163284, 32.267684, 1227.3], [-111.162739, 32.267487, 1232.5], [-111.162384, 32.267643, 1235.8], [-111.161993, 32.26761, 1238.8], [-111.161793, 32.267755, 1240.8], [-111.161299, 32.267727, 1246.1], [-111.161007, 32.267988, 1249.9], [-111.160765, 32.268036, 1250.7], [-111.1605, 32.267969, 1251.6], [-111.159832, 32.267987, 1254.1], [-111.159604, 32.268123, 1255.2], [-111.159538, 32.268388, 1256.0], [-111.159346, 32.268699, 1257.2], [-111.159374, 32.269052, 1258.3], [-111.15923, 32.269379, 1259.7], [-111.158681, 32.26971, 1263.5], [-111.158265, 32.26993, 1267.1], [-111.158181, 32.270108, 1269.3], [-111.157987, 32.270109, 1271.1], [-111.157778, 32.270282, 1271.2], [-111.157585, 32.270353, 1270.8], [-111.157381, 32.270754, 1269.4], [-111.157169, 32.270874, 1270.4], [-111.156709, 32.271289, 1274.9], [-111.156326, 32.271413, 1277.4], [-111.155943, 32.271474, 1280.1], [-111.155568, 32.271383, 1282.7], [-111.155163, 32.271101, 1286.0], [-111.15487, 32.270988, 1288.2], [-111.154642, 32.270995, 1289.5], [-111.154171, 32.271166, 1291.8], [-111.153797, 32.271515, 1293.3], [-111.153457, 32.27168, 1296.2], [-111.15285, 32.271779, 1303.9], [-111.152695, 32.271946, 1306.6], [-111.152381, 32.272021, 1310.0], [-111.152065, 32.27177, 1313.0], [-111.151833, 32.271641, 1315.5], [-111.151601, 32.271416, 1318.7], [-111.151305, 32.271291, 1322.0], [-111.151479, 32.271534, 1326.6], [-111.151489, 32.271671, 1328.9], [-111.151633, 32.271953, 1333.9], [-111.151383, 32.271815, 1338.8], [-111.151336, 32.27172, 1340.9], [-111.15106, 32.271557, 1346.2], [-111.151118, 32.271806, 1350.7], [-111.150924, 32.271552, 1355.3], [-111.15062, 32.271276, 1360.4], [-111.15069, 32.271659, 1367.5], [-111.150651, 32.271751, 1372.1], [-111.150477, 32.27146, 1377.7], [-111.150288, 32.271234, 1383.0], [-111.150189, 32.271361, 1389.1], [-111.150022, 32.271319, 1389.7], [-111.149788, 32.27141, 1386.6], [-111.149649, 32.271733, 1387.3], [-111.149456, 32.271893, 1387.7], [-111.149333, 32.272154, 1386.3], [-111.149192, 32.272182, 1384.9], [-111.149095, 32.272413, 1386.1], [-111.148421, 32.27256, 1391.1], [-111.147879, 32.272913, 1394.3], [-111.147606, 32.272883, 1397.3], [-111.147378, 32.272996, 1400.1], [-111.147151, 32.272974, 1403.4], [-111.14685, 32.273067, 1408.0], [-111.146604, 32.27329, 1411.1], [-111.146575, 32.273469, 1412.5], [-111.146837, 32.273387, 1413.5], [-111.146735, 32.273342, 1412.7], [-111.146554, 32.273453, 1411.0], [-111.146684, 32.273197, 1406.5], [-111.147121, 32.272947, 1399.6], [-111.147465, 32.272987, 1396.4], [-111.147612, 32.272889, 1394.2], [-111.147966, 32.272881, 1390.4], [-111.148308, 32.272628, 1391.1], [-111.149107, 32.272389, 1384.9], [-111.149204, 32.27219, 1385.2], [-111.149347, 32.272145, 1386.7], [-111.149423, 32.271931, 1387.7], [-111.149685, 32.27171, 1387.3], [-111.149685, 32.271561, 1386.7], [-111.149856, 32.271365, 1386.6], [-111.149715, 32.271156, 1377.9], [-111.14972, 32.271038, 1376.3], [-111.149444, 32.270512, 1373.6], [-111.148995, 32.27033, 1368.9], [-111.148828, 32.270154, 1369.0], [-111.148728, 32.269811, 1371.6], [-111.148629, 32.269741, 1372.1], [-111.148545, 32.269443, 1369.3], [-111.148392, 32.269254, 1366.5], [-111.148346, 32.26908, 1362.4], [-111.148273, 32.269297, 1358.7], [-111.148125, 32.268975, 1352.9], [-111.148125, 32.269303, 1348.2], [-111.148036, 32.269244, 1345.8], [-111.147925, 32.268896, 1339.4], [-111.148016, 32.268792, 1337.0], [-111.147671, 32.268826, 1330.7], [-111.14769, 32.269114, 1325.4], [-111.147446, 32.268925, 1319.0], [-111.147214, 32.268958, 1314.7], [-111.147003, 32.268785, 1310.4], [-111.147004, 32.26886, 1308.6], [-111.146708, 32.26872, 1303.3], [-111.14664, 32.26861, 1300.9], [-111.146696, 32.268469, 1297.7], [-111.146509, 32.268545, 1294.0], [-111.145953, 32.268333, 1286.0], [-111.145821, 32.268328, 1284.7], [-111.145854, 32.268187, 1282.6], [-111.145585, 32.268296, 1278.6], [-111.145597, 32.268118, 1274.9], [-111.145709, 32.26798, 1271.3], [-111.145642, 32.267822, 1267.8], [-111.145693, 32.267587, 1262.8], [-111.145914, 32.267515, 1258.2], [-111.145416, 32.26737, 1248.3], [-111.145751, 32.267278, 1242.2], [-111.145323, 32.267144, 1234.2], [-111.145056, 32.267098, 1229.7], [-111.144715, 32.266857, 1220.4], [-111.144625, 32.266982, 1217.5], [-111.144479, 32.266651, 1211.4], [-111.144292, 32.266441, 1206.7], [-111.144446, 32.266338, 1202.5], [-111.144059, 32.266287, 1196.2], [-111.14366, 32.265878, 1189.4], [-111.143758, 32.265771, 1187.3], [-111.143692, 32.265659, 1185.0], [-111.14327, 32.26567, 1179.0], [-111.143067, 32.265598, 1175.5], [-111.143042, 32.265476, 1172.2], [-111.143621, 32.265275, 1164.0], [-111.14436, 32.265187, 1155.4], [-111.144513, 32.265093, 1153.2], [-111.144536, 32.264955, 1152.1], [-111.144404, 32.264708, 1150.9], [-111.144464, 32.264442, 1149.1], [-111.144842, 32.264213, 1148.3], [-111.14518, 32.263759, 1150.9], [-111.145266, 32.26334, 1149.2], [-111.145667, 32.262891, 1140.5], [-111.145836, 32.262605, 1135.9], [-111.14593, 32.262336, 1131.2], [-111.146063, 32.262133, 1126.1], [-111.146312, 32.261913, 1119.4], [-111.146376, 32.261772, 1116.2], [-111.146259, 32.26144, 1109.1], [-111.146297, 32.261141, 1103.8], [-111.146527, 32.260889, 1098.9], [-111.146734, 32.260751, 1094.9], [-111.147663, 32.260345, 1079.7], [-111.148525, 32.260426, 1071.0], [-111.149122, 32.260306, 1062.7], [-111.149318, 32.259907, 1057.1], [-111.149382, 32.259674, 1055.2], [-111.149609, 32.259555, 1052.7], [-111.149995, 32.259529, 1047.7], [-111.149932, 32.259725, 1044.8], [-111.150055, 32.259782, 1044.5], [-111.150423, 32.259659, 1045.7], [-111.150743, 32.259762, 1046.1], [-111.151174, 32.259314, 1043.1], [-111.151255, 32.259099, 1040.3], [-111.151055, 32.258689, 1037.7], [-111.151096, 32.258394, 1033.9], [-111.151215, 32.258134, 1030.6], [-111.151471, 32.25794, 1027.5], [-111.152133, 32.257729, 1022.7], [-111.153682, 32.257914, 1011.4], [-111.153835, 32.257983, 1010.5], [-111.154205, 32.258461, 1005.1], [-111.154508, 32.258344, 1003.3], [-111.155109, 32.258369, 998.5], [-111.155329, 32.258202, 995.7], [-111.1559, 32.258024, 990.8], [-111.156306, 32.257859, 987.7], [-111.156439, 32.257721, 986.2], [-111.156797, 32.257497, 982.3], [-111.157156, 32.257133, 977.4], [-111.157454, 32.257059, 973.1], [-111.157741, 32.256717, 970.7], [-111.158157, 32.256345, 967.1], [-111.158458, 32.256119, 965.5], [-111.158697, 32.255838, 970.2], [-111.158817, 32.255606, 972.7], [-111.158815, 32.255458, 974.0], [-111.158919, 32.255247, 976.0], [-111.159093, 32.25506, 978.9], [-111.159131, 32.254806, 980.4], [-111.159085, 32.254612, 980.3], [-111.159212, 32.25432, 978.8], [-111.159531, 32.254173, 977.2], [-111.159891, 32.253894, 975.1], [-111.160152, 32.25379, 974.5], [-111.160505, 32.253716, 974.1], [-111.160899, 32.253556, 972.9], [-111.161017, 32.253236, 969.2], [-111.161599, 32.252862, 963.4], [-111.161904, 32.252762, 960.6], [-111.16209, 32.252619, 958.4], [-111.162288, 32.252336, 954.8], [-111.16239, 32.252274, 953.6], [-111.162687, 32.252271, 951.0], [-111.162951, 32.252132, 947.9], [-111.163185, 32.251829, 943.5], [-111.163224, 32.251451, 939.1], [-111.163334, 32.251323, 937.3], [-111.163582, 32.251183, 935.1], [-111.163951, 32.25077, 930.9], [-111.164084, 32.250554, 928.6], [-111.164563, 32.250302, 924.6], [-111.164737, 32.250128, 922.6], [-111.164944, 32.250011, 920.7], [-111.165982, 32.249069, 907.5], [-111.166228, 32.248916, 905.2], [-111.166978, 32.248234, 895.5], [-111.167171, 32.247775, 891.7], [-111.167201, 32.24742, 889.0], [-111.167049, 32.247145, 888.0]]}}