{"type": "Feature", "properties": {}, "geometry": {"type": "LineString", "coordinates": [[-122.09924, 37.231864, 878.6], [-122.099249, 37.231913, 875.7], [-122.099225, 37.231895, 877.1], [-122.09923, 37.23187, 876.6], [-122.099253, 37.231851, 877.7], [-122.099278, 37.231867, 877.0], [-122.0993, 37.231867, 876.8], [-122.099397, 37.231783, 872.3], [-122.099409, 37.23169, 869.2], [-122.099613, 37.231423, 868.0], [-122.099654, 37.231493, 867.3], [-122.099652, 37.231538, 866.1], [-122.099538, 37.231594, 865.8], [-122.099435, 37.231617, 864.5], [-122.099321, 37.231658, 861.6], [-122.099289, 37.231674, 863.3], [-122.099039, 37.231852, 862.1], [-122.09901, 37.231865, 862.1], [-122.098944, 37.231907, 863.0], [-122.098885, 37.231981, 863.8], [-122.098954, 37.23196, 865.1], [-122.098981, 37.231942, 864.6], [-122.099287, 37.231756, 864.6], [-122.09941, 37.231679, 861.5], [-122.099529, 37.231629, 861.3], [-122.099603, 37.231561, 861.2], [-122.099802, 37.231383, 858.7], [-122.099833, 37.23135, 858.2], [-122.099853, 37.231321, 857.4], [-122.09986, 37.231287, 857.0], [-122.099845, 37.231022, 859.2], [-122.099836, 37.230998, 861.6], [-122.099824, 37.230884, 863.3], [-122.099789, 37.230744, 871.1], [-122.099787, 37.230704, 871.2], [-122.099825, 37.230617, 870.2], [-122.09989, 37.230539, 873.0], [-122.099905, 37.230499, 874.0], [-122.099902, 37.230415, 874.1], [-122.099916, 37.230403, 872.1], [-122.099944, 37.230402, 869.8], [-122.099973, 37.230418, 868.5], [-122.100075, 37.230526, 868.2], [-122.100097, 37.230542, 868.6], [-122.100175, 37.230588, 866.4], [-122.100201, 37.230618, 864.4], [-122.100226, 37.230631, 864.7], [-122.10026, 37.230583, 864.0], [-122.100281, 37.230569, 864.0], [-122.100345, 37.23051, 862.3], [-122.100459, 37.230463, 864.5], [-122.100486, 37.23042, 863.1], [-122.10048, 37.230404, 862.5], [-122.100425, 37.230339, 857.9], [-122.100303, 37.230268, 853.8], [-122.100295, 37.230241, 851.4], [-122.100301, 37.230216, 850.0], [-122.100314, 37.2302, 848.2], [-122.100406, 37.230127, 845.1], [-122.100503, 37.230082, 849.9], [-122.100547, 37.230071, 850.6], [-122.100686, 37.229998, 849.2], [-122.100711, 37.229987, 850.6], [-122.100767, 37.229943, 849.2], [-122.100812, 37.229885, 848.3], [-122.10087, 37.229841, 847.6], [-122.100982, 37.229731, 853.0], [-122.101017, 37.229712, 849.8], [-122.10112, 37.2297, 850.4], [-122.10121, 37.229651, 852.0], [-122.101228, 37.229638, 852.3], [-122.10125, 37.229596, 856.0], [-122.101258, 37.229503, 858.0], [-122.101236, 37.229398, 857.6], [-122.101235, 37.229384, 857.6], [-122.101272, 37.229325, 854.6], [-122.101384, 37.229237, 853.1], [-122.101449, 37.229127, 846.1], [-122.101464, 37.229072, 846.7], [-122.101492, 37.229045, 848.4], [-122.101532, 37.228968, 852.6], [-122.101556, 37.228887, 854.2], [-122.101546, 37.228867, 854.0], [-122.101486, 37.228812, 854.5], [-122.101534, 37.228761, 848.4], [-122.101586, 37.228726, 844.1], [-122.10169, 37.22872, 842.6], [-122.101763, 37.228672, 846.2], [-122.101838, 37.228606, 843.9], [-122.101855, 37.228588, 844.3], [-122.101977, 37.228477, 841.7], [-122.10209, 37.228466, 843.0], [-122.102153, 37.228425, 847.6], [-122.102165, 37.228412, 848.8], [-122.102188, 37.228357, 849.3], [-122.102267, 37.228328, 842.6], [-122.102304, 37.228305, 840.4], [-122.102407, 37.228201, 839.0], [-122.102436, 37.228189, 839.3], [-122.102474, 37.228144, 843.1], [-122.10252, 37.228107, 847.0], [-122.102576, 37.2281, 843.8], [-122.102683, 37.228061, 845.6], [-122.102719, 37.227988, 842.7], [-122.102744, 37.22797, 840.7], [-122.102782, 37.227972, 839.6], [-122.102864, 37.227924, 837.6], [-122.102888, 37.227887, 833.1], [-122.102906, 37.2278, 827.6], [-122.102953, 37.227726, 825.8], [-122.103019, 37.227675, 826.2], [-122.103045, 37.227629, 825.9], [-122.103069, 37.227599, 825.5], [-122.103095, 37.227605, 828.4], [-122.103137, 37.227636, 829.2], [-122.103163, 37.227619, 829.2], [-122.103162, 37.227561, 829.3], [-122.103154, 37.227546, 829.4], [-122.103126, 37.227517, 826.9], [-122.103084, 37.227493, 827.3], [-122.10308, 37.227472, 825.1], [-122.103121, 37.227441, 824.2], [-122.103136, 37.227402, 825.0], [-122.103133, 37.227371, 820.6], [-122.103096, 37.22732, 818.6], [-122.103069, 37.227248, 817.8], [-122.103091, 37.227215, 818.6], [-122.103114, 37.227093, 811.5], [-122.103134, 37.227061, 812.5], [-122.103258, 37.226985, 814.3], [-122.103372, 37.226937, 818.5], [-122.103393, 37.226889, 819.7], [-122.103367, 37.226755, 821.9], [-122.10339, 37.22672, 821.5], [-122.103389, 37.226698, 822.2], [-122.103411, 37.22667, 823.2], [-122.103455, 37.226639, 826.5], [-122.103582, 37.226596, 823.4], [-122.103604, 37.226584, 821.5], [-122.103675, 37.226557, 820.5], [-122.103786, 37.226543, 821.0], [-122.103821, 37.226506, 822.3], [-122.103827, 37.226481, 822.8], [-122.103765, 37.226389, 821.5], [-122.103772, 37.226358, 821.5], [-122.10379, 37.226346, 820.2], [-122.103878, 37.226317, 817.3], [-122.103917, 37.226317, 819.0], [-122.103929, 37.226325, 818.1], [-122.104028, 37.226347, 818.6], [-122.10412, 37.226344, 819.9], [-122.104154, 37.226332, 817.7], [-122.104169, 37.226289, 815.2], [-122.104243, 37.226269, 813.1], [-122.104272, 37.226249, 811.9], [-122.104289, 37.22623, 809.4], [-122.104335, 37.226224, 809.9], [-122.104368, 37.226185, 808.9], [-122.104399, 37.226176, 811.0], [-122.104406, 37.226222, 805.8], [-122.104431, 37.226249, 808.1], [-122.104459, 37.226256, 805.8], [-122.104489, 37.226245, 804.4], [-122.104579, 37.226271, 804.2], [-122.104603, 37.226293, 805.1], [-122.104706, 37.226322, 801.4], [-122.104728, 37.226339, 798.1], [-122.104766, 37.226414, 791.3], [-122.104699, 37.226374, 792.7], [-122.104682, 37.226352, 794.0], [-122.104653, 37.226355, 794.1], [-122.104636, 37.226332, 794.9], [-122.104602, 37.226328, 795.9], [-122.104479, 37.226281, 806.7], [-122.104464, 37.226232, 807.9], [-122.104458, 37.226227, 808.1], [-122.104458, 37.226198, 808.5], [-122.104429, 37.226189, 809.6], [-122.104419, 37.226167, 809.7], [-122.104438, 37.226153, 811.1], [-122.10449, 37.226148, 810.2], [-122.104512, 37.226125, 808.8], [-122.104547, 37.226108, 807.3], [-122.104557, 37.22608, 807.3], [-122.104535, 37.226006, 810.1], [-122.104543, 37.225991, 810.8], [-122.104588, 37.225947, 811.5], [-122.104611, 37.225863, 817.4], [-122.104638, 37.225844, 812.5], [-122.104643, 37.225803, 813.6], [-122.104662, 37.225784, 814.3], [-122.104754, 37.225737, 815.4], [-122.104764, 37.22574, 813.7], [-122.104792, 37.225773, 813.7], [-122.10478, 37.225797, 813.0], [-122.104879, 37.225836, 809.5], [-122.104883, 37.225873, 803.8], [-122.104898, 37.225904, 805.4], [-122.104892, 37.225929, 805.1], [-122.104922, 37.225927, 802.0], [-122.104942, 37.225947, 803.3], [-122.10497, 37.225955, 801.4], [-122.105042, 37.225938, 800.8], [-122.105027, 37.225962, 798.0], [-122.10506, 37.226024, 801.1], [-122.10504, 37.226071, 796.4], [-122.10504, 37.226117, 792.6], [-122.105066, 37.226127, 791.0], [-122.105066, 37.226175, 782.5], [-122.105089, 37.226224, 794.4], [-122.105071, 37.226242, 784.5], [-122.105032, 37.226239, 783.4], [-122.105018, 37.226264, 787.1], [-122.105067, 37.226296, 792.2], [-122.105092, 37.226283, 790.7], [-122.105119, 37.226299, 795.5], [-122.105184, 37.226286, 800.8], [-122.105153, 37.226277, 794.2], [-122.105126, 37.226293, 795.4], [-122.105097, 37.226283, 795.4], [-122.105064, 37.226285, 796.7], [-122.105046, 37.226313, 794.7], [-122.105079, 37.226353, 797.0], [-122.104971, 37.226353, 790.8], [-122.104955, 37.226338, 791.4], [-122.104971, 37.226314, 785.9], [-122.105059, 37.226302, 785.2], [-122.105055, 37.22628, 785.2], [-122.105067, 37.226257, 780.6], [-122.105133, 37.226243, 785.8], [-122.105148, 37.226255, 790.4], [-122.105142, 37.226174, 786.2], [-122.105126, 37.22619, 787.9], [-122.105124, 37.226214, 791.9], [-122.105108, 37.226205, 782.4], [-122.105025, 37.226179, 776.4], [-122.105074, 37.226166, 782.2], [-122.105121, 37.226231, 782.2], [-122.105092, 37.226244, 782.1], [-122.105106, 37.226223, 783.6], [-122.105138, 37.226229, 785.2], [-122.105028, 37.226229, 776.9], [-122.105047, 37.226252, 780.9], [-122.105017, 37.226244, 780.1], [-122.105039, 37.226264, 782.2], [-122.105013, 37.226248, 778.1], [-122.105049, 37.226255, 780.9], [-122.105059, 37.226281, 782.6], [-122.10509, 37.226271, 784.2], [-122.105119, 37.226283, 785.8], [-122.105122, 37.226261, 786.9], [-122.105098, 37.226253, 784.6], [-122.105053, 37.226261, 782.6], [-122.105081, 37.226311, 804.4], [-122.105052, 37.226303, 803.2], [-122.105049, 37.226356, 797.6], [-122.105007, 37.226363, 792.7], [-122.104993, 37.226386, 794.9], [-122.105019, 37.226402, 795.8], [-122.10505, 37.226396, 792.5], [-122.105056, 37.226374, 793.6], [-122.105085, 37.226388, 794.4], [-122.105086, 37.226364, 790.9], [-122.105059, 37.226328, 787.6], [-122.105058, 37.226302, 785.0], [-122.105081, 37.226258, 784.0], [-122.105064, 37.226251, 783.9], [-122.105069, 37.226166, 785.3], [-122.105009, 37.226101, 785.8], [-122.105015, 37.226075, 791.1], [-122.105029, 37.22605, 795.3], [-122.105058, 37.226047, 802.8], [-122.105084, 37.226059, 799.8], [-122.105104, 37.226053, 802.8], [-122.105078, 37.226031, 801.5], [-122.105035, 37.226025, 800.0], [-122.105007, 37.226043, 793.0], [-122.104975, 37.226036, 789.9], [-122.104982, 37.226057, 790.1], [-122.104962, 37.226035, 791.6], [-122.104994, 37.226043, 797.7], [-122.104984, 37.226018, 798.8], [-122.105015, 37.226026, 789.9], [-122.104962, 37.22603, 784.8], [-122.104905, 37.226017, 780.8], [-122.104924, 37.225995, 785.9], [-122.105001, 37.226041, 796.8], [-122.10494, 37.226054, 794.3], [-122.104914, 37.22607, 799.7], [-122.104913, 37.22608, 791.2], [-122.104962, 37.226049, 789.7], [-122.104962, 37.226034, 791.3], [-122.104982, 37.226044, 805.5], [-122.105034, 37.226015, 805.6], [-122.105052, 37.226037, 802.4], [-122.105042, 37.226062, 801.0], [-122.105012, 37.226052, 799.6], [-122.104977, 37.226056, 792.4], [-122.104986, 37.226029, 793.8], [-122.105011, 37.226015, 794.4], [-122.105044, 37.226011, 797.4], [-122.105031, 37.226034, 792.1], [-122.105045, 37.226047, 790.3], [-122.105053, 37.226078, 786.6], [-122.105046, 37.226079, 785.9], [-122.10509, 37.226108, 785.9], [-122.105086, 37.226134, 788.1], [-122.105109, 37.226152, 787.2], [-122.10515, 37.226222, 786.3], [-122.10508, 37.226249, 787.3], [-122.105104, 37.226262, 793.2], [-122.105097, 37.226289, 797.2], [-122.10507, 37.22628, 796.3], [-122.105131, 37.226284, 799.7], [-122.105121, 37.226261, 804.0], [-122.105062, 37.226249, 798.5], [-122.105006, 37.226263, 793.5], [-122.104984, 37.226295, 792.6], [-122.104919, 37.226321, 787.9], [-122.104905, 37.226318, 786.9], [-122.104781, 37.226312, 791.6], [-122.104759, 37.22632, 791.5], [-122.104823, 37.226309, 791.3], [-122.104805, 37.226271, 795.3], [-122.1048, 37.226285, 788.0], [-122.104775, 37.226271, 790.3], [-122.104801, 37.2263, 786.7], [-122.104788, 37.226297, 787.4], [-122.104778, 37.22627, 785.4], [-122.104746, 37.226262, 791.7], [-122.104611, 37.226325, 792.4], [-122.104603, 37.22633, 791.0], [-122.104574, 37.226323, 790.5], [-122.104541, 37.226282, 791.1], [-122.104494, 37.226295, 789.5], [-122.104479, 37.226316, 791.0], [-122.104417, 37.22623, 791.4], [-122.104449, 37.226167, 793.0], [-122.104498, 37.226128, 792.8], [-122.104527, 37.226094, 794.8], [-122.104558, 37.226103, 798.0], [-122.104563, 37.226077, 798.8], [-122.104584, 37.226065, 799.6], [-122.104609, 37.226018, 804.7], [-122.104638, 37.226009, 803.1], [-122.1047, 37.226042, 805.2], [-122.104689, 37.226063, 803.0], [-122.104704, 37.226093, 801.7], [-122.104735, 37.2261, 804.6], [-122.104792, 37.226088, 808.0], [-122.104862, 37.226089, 805.8], [-122.104866, 37.226092, 805.7], [-122.104806, 37.226105, 800.9], [-122.104793, 37.226128, 790.0], [-122.104804, 37.226153, 794.8], [-122.104819, 37.226105, 793.9], [-122.10486, 37.226088, 792.2], [-122.104971, 37.226062, 789.4], [-122.104971, 37.226082, 789.1], [-122.105008, 37.226122, 789.9], [-122.10496, 37.226108, 787.6], [-122.104948, 37.22613, 784.8], [-122.10498, 37.226159, 783.7], [-122.105007, 37.226112, 789.3], [-122.105002, 37.226071, 791.3], [-122.104957, 37.226034, 793.5], [-122.104955, 37.226008, 795.8], [-122.104986, 37.226021, 799.3], [-122.104961, 37.226032, 795.9], [-122.104934, 37.22602, 789.9], [-122.104961, 37.225962, 790.9], [-122.104953, 37.225963, 800.7], [-122.099651, 37.229246, 843.2], [-122.099604, 37.229253, 840.1], [-122.099556, 37.229243, 841.7], [-122.099508, 37.229271, 842.0], [-122.099477, 37.229301, 841.0], [-122.099428, 37.229321, 839.6], [-122.09929, 37.229348, 842.3], [-122.099206, 37.229338, 843.1], [-122.09908, 37.229328, 846.9], [-122.098977, 37.229353, 851.8], [-122.098948, 37.229387, 854.4], [-122.098776, 37.229392, 861.7], [-122.098738, 37.229382, 861.5], [-122.098668, 37.229338, 864.9], [-122.098599, 37.229326, 866.0], [-122.098524, 37.229332, 867.2], [-122.09847, 37.229365, 863.5], [-122.098432, 37.229412, 860.8], [-122.098346, 37.229453, 860.4], [-122.098286, 37.229503, 860.6], [-122.098233, 37.229505, 857.8], [-122.098191, 37.229536, 859.2], [-122.098156, 37.229557, 861.2], [-122.098097, 37.229566, 859.3], [-122.098067, 37.229566, 862.1], [-122.097964, 37.229527, 865.0], [-122.097899, 37.229539, 865.8], [-122.09789, 37.229533, 865.7], [-122.097866, 37.229541, 868.8], [-122.097859, 37.22958, 863.4], [-122.097815, 37.229587, 859.6], [-122.097767, 37.229638, 857.4], [-122.097736, 37.229652, 858.8], [-122.097646, 37.229767, 858.4], [-122.097553, 37.229825, 857.3], [-122.097515, 37.229827, 854.5], [-122.097485, 37.229964, 854.4], [-122.097459, 37.230002, 853.2], [-122.097346, 37.229948, 853.5], [-122.097342, 37.229953, 853.2], [-122.097345, 37.230002, 856.1], [-122.097329, 37.230019, 857.9], [-122.097177, 37.230091, 858.8], [-122.097138, 37.230131, 859.6], [-122.097022, 37.230206, 860.0], [-122.096987, 37.230219, 857.4], [-122.096972, 37.230219, 857.8], [-122.096872, 37.230264, 856.3], [-122.096709, 37.230268, 862.7], [-122.096624, 37.23024, 866.6], [-122.096606, 37.230237, 867.5], [-122.096538, 37.23031, 867.0], [-122.096513, 37.230325, 867.1], [-122.09638, 37.230337, 841.0], [-122.096357, 37.230332, 844.3], [-122.096331, 37.230339, 849.2], [-122.096285, 37.23043, 857.6], [-122.09624, 37.230489, 860.4], [-122.096177, 37.230559, 860.2], [-122.096129, 37.230573, 857.6], [-122.096014, 37.230572, 861.4], [-122.095978, 37.230587, 860.7], [-122.095967, 37.230636, 862.4], [-122.095984, 37.230676, 868.5], [-122.095972, 37.230727, 872.7], [-122.095973, 37.230744, 874.5], [-122.09596, 37.230791, 871.8], [-122.09598, 37.230807, 870.8], [-122.096114, 37.230849, 876.8], [-122.096223, 37.230869, 873.9], [-122.096252, 37.230906, 868.6], [-122.096306, 37.230912, 867.3], [-122.096349, 37.230896, 867.6], [-122.096369, 37.230899, 868.9], [-122.096422, 37.230941, 870.2], [-122.096439, 37.230961, 870.8], [-122.096436, 37.231024, 870.2], [-122.096426, 37.231044, 868.2], [-122.09645, 37.231082, 868.4], [-122.096473, 37.231099, 868.6], [-122.096539, 37.231104, 870.0], [-122.09656, 37.231094, 868.4], [-122.096625, 37.231091, 870.2], [-122.096674, 37.231137, 870.3], [-122.09671, 37.231157, 870.6], [-122.09673, 37.231162, 871.4], [-122.096796, 37.231228, 869.3], [-122.096867, 37.231272, 867.6], [-122.096993, 37.231314, 867.9], [-122.097023, 37.231335, 867.8], [-122.097042, 37.231372, 865.1], [-122.097053, 37.231383, 864.6], [-122.097134, 37.231488, 841.2], [-122.097173, 37.231511, 851.6], [-122.097195, 37.231517, 856.9], [-122.097277, 37.231528, 859.7], [-122.097328, 37.231569, 859.9], [-122.09741, 37.231588, 863.1], [-122.097429, 37.231595, 865.2], [-122.097523, 37.231673, 868.2], [-122.097508, 37.231742, 866.7], [-122.097515, 37.231845, 864.8], [-122.097551, 37.2319, 864.9], [-122.097566, 37.23191, 864.5], [-122.097666, 37.231953, 863.8], [-122.09779, 37.231944, 865.4], [-122.097981, 37.231934, 865.4], [-122.098004, 37.231935, 864.7], [-122.098077, 37.23193, 865.3], [-122.098136, 37.231899, 864.5], [-122.098196, 37.231888, 864.8], [-122.098398, 37.2319, 860.6], [-122.098579, 37.231937, 862.4], [-122.09869, 37.231935, 864.2], [-122.098797, 37.231957, 865.9], [-122.098858, 37.231966, 866.7], [-122.098867, 37.231991, 864.9], [-122.09884, 37.232007, 867.2], [-122.098822, 37.231986, 866.8], [-122.098769, 37.231998, 865.0], [-122.09882, 37.231962, 866.9], [-122.098831, 37.231986, 866.8]]}}