{"type": "Feature", "properties": {}, "geometry": {"type": "LineString", "coordinates": [[-119.800682, 38.725296, 1845.3], [-119.799506, 38.724052, 1844.6], [-119.794619, 38.71754, 1800.0], [-119.793722, 38.716722, 1797.2], [-119.793076, 38.71586, 1795.3], [-119.792307, 38.714046, 1789.4], [-119.790755, 38.711595, 1776.2], [-119.790404, 38.710544, 1772.3], [-119.790363, 38.70994, 1770.1], [-119.790615, 38.707019, 1759.6], [-119.790556, 38.706442, 1757.5], [-119.789929, 38.703511, 1745.8], [-119.789549, 38.702711, 1741.4], [-119.789028, 38.7022, 1737.3], [-119.788134, 38.701745, 1730.8], [-119.78594, 38.701175, 1719.3], [-119.785094, 38.70064, 1716.6], [-119.783112, 38.698581, 1706.5], [-119.782725, 38.698117, 1702.9], [-119.781533, 38.69624, 1692.9], [-119.780897, 38.695495, 1692.9], [-119.779419, 38.693938, 1683.8], [-119.778928, 38.693678, 1683.0], [-119.778346, 38.693591, 1683.1], [-119.775843, 38.693545, 1686.7], [-119.774921, 38.693812, 1685.9], [-119.774108, 38.694627, 1687.0], [-119.773183, 38.695301, 1690.2], [-119.773063, 38.695781, 1691.7], [-119.773217, 38.696498, 1693.3], [-119.77314, 38.697097, 1693.8], [-119.772654, 38.698283, 1697.2], [-119.7723, 38.698649, 1698.8], [-119.771581, 38.698901, 1700.9], [-119.77095, 38.698846, 1702.3], [-119.770118, 38.698199, 1704.3], [-119.769311, 38.695867, 1710.2], [-119.767905, 38.693282, 1706.4], [-119.767674, 38.691954, 1696.3], [-119.767324, 38.691205, 1690.6], [-119.76663, 38.690268, 1682.7], [-119.765723, 38.689752, 1678.8], [-119.764361, 38.689625, 1680.4], [-119.762857, 38.68986, 1683.4], [-119.761999, 38.68984, 1684.3], [-119.760783, 38.689569, 1685.5], [-119.75977, 38.689502, 1685.5], [-119.758232, 38.689644, 1685.8], [-119.757467, 38.689551, 1685.7], [-119.756765, 38.689156, 1686.3], [-119.756003, 38.688424, 1687.4], [-119.754793, 38.687654, 1688.4], [-119.754536, 38.687266, 1689.1], [-119.753209, 38.684336, 1692.8], [-119.752739, 38.682852, 1694.7], [-119.752204, 38.68219, 1697.2], [-119.749622, 38.680062, 1701.7], [-119.749052, 38.679707, 1703.2], [-119.747909, 38.679363, 1705.3], [-119.747268, 38.679303, 1706.0], [-119.744541, 38.679529, 1706.8], [-119.743321, 38.679346, 1707.9], [-119.741953, 38.678654, 1713.2], [-119.739942, 38.678008, 1717.0], [-119.738974, 38.677319, 1716.8], [-119.738353, 38.677007, 1716.0], [-119.735606, 38.675908, 1725.7], [-119.73492, 38.675357, 1730.4], [-119.734069, 38.673884, 1740.8], [-119.733425, 38.67298, 1746.2], [-119.732374, 38.671832, 1748.4], [-119.731039, 38.670504, 1742.0], [-119.73051, 38.670165, 1738.7], [-119.729165, 38.669778, 1731.2], [-119.728827, 38.669539, 1729.8], [-119.728294, 38.668731, 1729.5], [-119.728117, 38.668214, 1731.6], [-119.728241, 38.667875, 1734.2], [-119.728858, 38.667085, 1741.8], [-119.728939, 38.666554, 1745.8], [-119.728726, 38.666067, 1748.8], [-119.727165, 38.664878, 1748.4], [-119.726767, 38.66439, 1748.1], [-119.726287, 38.663015, 1749.2], [-119.726272, 38.662628, 1749.6], [-119.72669, 38.661785, 1750.6], [-119.726789, 38.661249, 1750.5], [-119.726395, 38.660536, 1749.6], [-119.725518, 38.660402, 1747.4], [-119.724239, 38.66047, 1747.1], [-119.723723, 38.660134, 1749.9], [-119.723362, 38.659519, 1753.9], [-119.722928, 38.659163, 1756.2], [-119.722083, 38.659194, 1759.3], [-119.721256, 38.659644, 1762.5], [-119.720319, 38.659857, 1766.6], [-119.719073, 38.660283, 1772.6], [-119.717897, 38.660975, 1778.7], [-119.716018, 38.661718, 1788.3], [-119.714859, 38.662315, 1794.1], [-119.714329, 38.66241, 1796.2], [-119.712093, 38.662498, 1803.9], [-119.711544, 38.662666, 1805.9], [-119.710543, 38.663386, 1810.8], [-119.709497, 38.663725, 1815.8], [-119.709025, 38.664057, 1819.2], [-119.708577, 38.664811, 1824.7], [-119.707813, 38.665153, 1829.8], [-119.706256, 38.665047, 1839.9], [-119.705124, 38.665692, 1848.3], [-119.704414, 38.665791, 1851.6], [-119.703222, 38.665621, 1853.3], [-119.701772, 38.666, 1856.4], [-119.700547, 38.665958, 1860.9], [-119.699793, 38.665794, 1863.9], [-119.698331, 38.66592, 1869.5], [-119.697961, 38.665876, 1871.4], [-119.696392, 38.665396, 1883.2], [-119.695492, 38.665436, 1890.0], [-119.69422, 38.665818, 1900.6], [-119.692994, 38.66584, 1911.3], [-119.691705, 38.665601, 1922.4], [-119.690681, 38.665161, 1932.8], [-119.688961, 38.663808, 1953.3], [-119.688113, 38.662841, 1964.9], [-119.687323, 38.662378, 1972.4], [-119.685788, 38.66216, 1983.7], [-119.685377, 38.66177, 1989.2], [-119.685034, 38.6611, 1997.2], [-119.684672, 38.660827, 2001.3], [-119.680682, 38.659175, 2037.0], [-119.680252, 38.65889, 2041.1], [-119.679112, 38.657508, 2058.1], [-119.678821, 38.657268, 2061.3], [-119.676379, 38.655943, 2085.7], [-119.674772, 38.655409, 2100.9], [-119.673605, 38.655536, 2111.8], [-119.671955, 38.656855, 2131.5], [-119.671627, 38.65737, 2136.1], [-119.670688, 38.657922, 2142.0], [-119.669688, 38.658061, 2147.2], [-119.668908, 38.657953, 2151.2], [-119.668135, 38.657644, 2155.6], [-119.666485, 38.656776, 2167.0], [-119.665338, 38.656659, 2174.5], [-119.664567, 38.657081, 2180.3], [-119.664318, 38.657748, 2184.1], [-119.664689, 38.659362, 2190.9], [-119.665093, 38.660715, 2197.9], [-119.66644, 38.663455, 2212.1], [-119.667462, 38.664668, 2205.2], [-119.667532, 38.665165, 2201.7], [-119.667386, 38.667513, 2212.5], [-119.66717, 38.668506, 2220.1], [-119.666228, 38.669894, 2232.0], [-119.666132, 38.670646, 2238.4], [-119.665904, 38.670977, 2241.8], [-119.664404, 38.672056, 2256.3], [-119.663938, 38.672167, 2260.1], [-119.663167, 38.671681, 2267.8], [-119.662164, 38.671654, 2274.6], [-119.66162, 38.671488, 2278.6], [-119.661115, 38.671132, 2283.8], [-119.660669, 38.671049, 2287.0], [-119.660065, 38.671248, 2290.8], [-119.657396, 38.673354, 2313.1], [-119.656489, 38.673509, 2319.1], [-119.655206, 38.672772, 2327.1], [-119.654291, 38.671635, 2336.6], [-119.653837, 38.671208, 2341.3], [-119.652836, 38.670681, 2349.1], [-119.652402, 38.66993, 2355.4], [-119.652064, 38.669637, 2358.0], [-119.651417, 38.669454, 2361.1], [-119.64994, 38.669218, 2368.8], [-119.649356, 38.668866, 2372.5], [-119.648992, 38.668066, 2377.0], [-119.64866, 38.667789, 2378.8], [-119.646918, 38.666879, 2387.4], [-119.645857, 38.666779, 2391.5], [-119.645376, 38.666625, 2394.3], [-119.644137, 38.665716, 2409.6], [-119.642721, 38.665467, 2421.5], [-119.64234, 38.66532, 2424.6], [-119.641185, 38.66445, 2436.3], [-119.640284, 38.664203, 2443.8], [-119.639608, 38.664484, 2449.6], [-119.638893, 38.665923, 2464.7], [-119.638246, 38.666246, 2470.6], [-119.636949, 38.666231, 2478.4], [-119.63655, 38.666352, 2480.6], [-119.635735, 38.666969, 2486.2], [-119.635074, 38.667013, 2489.7], [-119.63407, 38.666903, 2495.0], [-119.633252, 38.666988, 2499.3], [-119.632778, 38.667177, 2502.2], [-119.631074, 38.66821, 2514.6], [-119.630358, 38.668711, 2521.0], [-119.62762, 38.670779, 2511.0], [-119.622749, 38.674404, 2522.2], [-119.621243, 38.675604, 2544.5], [-119.620108, 38.676306, 2537.8], [-119.618966, 38.676367, 2530.9], [-119.617783, 38.675806, 2524.5], [-119.615364, 38.67456, 2511.0], [-119.614008, 38.67422, 2504.3], [-119.609876, 38.673756, 2486.3], [-119.606121, 38.673914, 2473.8], [-119.605383, 38.674018, 2472.1], [-119.604185, 38.674381, 2469.1], [-119.603576, 38.67469, 2466.6], [-119.602652, 38.675376, 2461.8], [-119.601659, 38.676456, 2454.4], [-119.598815, 38.679712, 2432.6], [-119.597983, 38.680566, 2426.3], [-119.597196, 38.681016, 2424.6], [-119.595789, 38.68133, 2426.4], [-119.595134, 38.681332, 2426.7], [-119.593712, 38.681036, 2427.4], [-119.592818, 38.680603, 2419.2], [-119.59228, 38.680002, 2411.3], [-119.592119, 38.679552, 2407.2], [-119.592023, 38.678395, 2396.5], [-119.591761, 38.677734, 2390.3], [-119.591066, 38.676845, 2381.4], [-119.590146, 38.675872, 2371.5], [-119.588018, 38.672788, 2341.1], [-119.587453, 38.672178, 2334.6], [-119.586858, 38.671785, 2329.3], [-119.585069, 38.670916, 2315.5], [-119.584759, 38.670059, 2307.8], [-119.585401, 38.668601, 2293.7], [-119.585414, 38.667903, 2287.6], [-119.585651, 38.667427, 2283.3], [-119.586874, 38.666633, 2272.0], [-119.588211, 38.66657, 2262.1], [-119.58878, 38.666348, 2257.4], [-119.589346, 38.665753, 2250.8], [-119.590043, 38.665428, 2244.9], [-119.590318, 38.66512, 2241.6], [-119.590512, 38.664355, 2235.8], [-119.591147, 38.663971, 2231.6], [-119.591483, 38.663943, 2229.8], [-119.593473, 38.664318, 2220.1], [-119.594119, 38.664252, 2216.9], [-119.594599, 38.663891, 2213.8], [-119.59573, 38.662475, 2200.3], [-119.596019, 38.661387, 2189.8], [-119.595869, 38.660915, 2185.2], [-119.595557, 38.66067, 2182.0], [-119.594636, 38.66046, 2175.1], [-119.593029, 38.660481, 2164.5], [-119.591961, 38.660088, 2156.2], [-119.591474, 38.660079, 2152.9], [-119.589844, 38.660379, 2141.9], [-119.588877, 38.660706, 2135.3], [-119.587864, 38.660719, 2127.8], [-119.587246, 38.660881, 2122.8], [-119.586648, 38.661214, 2118.3], [-119.586166, 38.661213, 2115.3], [-119.585849, 38.660897, 2111.9], [-119.585879, 38.660587, 2109.0], [-119.58634, 38.660319, 2104.6], [-119.587759, 38.660033, 2092.9], [-119.5888, 38.659349, 2082.9], [-119.589432, 38.658536, 2074.6], [-119.590099, 38.658141, 2068.8], [-119.59141, 38.658145, 2060.9], [-119.591955, 38.657901, 2056.9], [-119.593624, 38.656303, 2041.3], [-119.594534, 38.65598, 2036.2], [-119.595007, 38.655976, 2034.0], [-119.596528, 38.656357, 2025.9], [-119.597249, 38.656031, 2020.1], [-119.597255, 38.655539, 2016.0], [-119.596785, 38.655281, 2012.1], [-119.595665, 38.655251, 2004.2], [-119.594428, 38.654956, 1995.3], [-119.593702, 38.654964, 1990.7], [-119.593013, 38.655122, 1986.4], [-119.591517, 38.655027, 1976.5], [-119.590759, 38.655188, 1971.1], [-119.589889, 38.655574, 1964.8], [-119.588964, 38.655768, 1958.7], [-119.588169, 38.655701, 1953.0], [-119.586072, 38.655222, 1938.0], [-119.583378, 38.654945, 1919.4], [-119.582366, 38.654995, 1912.4], [-119.581065, 38.655207, 1903.4], [-119.579757, 38.654974, 1894.1], [-119.578141, 38.654381, 1882.0], [-119.577548, 38.653973, 1876.3], [-119.576639, 38.652951, 1864.8], [-119.575758, 38.652364, 1856.8], [-119.574715, 38.65203, 1848.8], [-119.573164, 38.651891, 1838.0], [-119.57257, 38.651724, 1833.6], [-119.57055, 38.650746, 1816.8], [-119.568598, 38.64939, 1798.1], [-119.567494, 38.648441, 1787.0], [-119.566091, 38.64782, 1775.8], [-119.563353, 38.647208, 1755.6], [-119.562116, 38.647116, 1746.8], [-119.56132, 38.646957, 1741.5], [-119.560472, 38.646317, 1735.3], [-119.559871, 38.645379, 1729.0], [-119.559316, 38.644811, 1723.6], [-119.558102, 38.643836, 1712.0], [-119.557384, 38.643155, 1704.5], [-119.556794, 38.642917, 1699.9], [-119.555493, 38.642993, 1691.6], [-119.554522, 38.642928, 1685.3], [-119.551701, 38.642344, 1672.7], [-119.550852, 38.642068, 1670.9], [-119.548774, 38.641138, 1662.9], [-119.547656, 38.641284, 1658.7], [-119.545208, 38.642298, 1651.8], [-119.544441, 38.642916, 1648.4], [-119.544001, 38.643031, 1646.8], [-119.543449, 38.642782, 1644.2], [-119.543057, 38.642105, 1640.1], [-119.542064, 38.641525, 1636.1], [-119.541469, 38.641399, 1634.0], [-119.540595, 38.64171, 1628.8], [-119.539836, 38.642165, 1625.6], [-119.538917, 38.642147, 1620.7], [-119.538343, 38.642364, 1615.6], [-119.537658, 38.643245, 1606.5], [-119.537201, 38.643258, 1603.2], [-119.536533, 38.642981, 1596.6], [-119.53569, 38.64233, 1587.0], [-119.533944, 38.642149, 1573.3], [-119.533187, 38.641966, 1566.7], [-119.53201, 38.641967, 1556.8], [-119.529832, 38.642308, 1552.2], [-119.529898, 38.642365, 1552.2], [-119.53232, 38.641982, 1559.3], [-119.535617, 38.642361, 1586.2], [-119.536186, 38.642666, 1591.3], [-119.536995, 38.64332, 1601.4], [-119.537727, 38.643287, 1606.9], [-119.538385, 38.642413, 1615.9], [-119.539266, 38.642195, 1622.8], [-119.539696, 38.642265, 1624.9], [-119.540257, 38.642094, 1627.0], [-119.540766, 38.641674, 1629.8], [-119.541336, 38.64147, 1633.5], [-119.541987, 38.641563, 1635.9], [-119.542952, 38.642098, 1639.6], [-119.543437, 38.642841, 1644.2], [-119.543838, 38.643059, 1646.2], [-119.544472, 38.642982, 1648.5], [-119.545247, 38.64234, 1652.0], [-119.54715, 38.641541, 1656.8], [-119.548504, 38.641191, 1662.1], [-119.549088, 38.641304, 1664.1], [-119.551313, 38.642334, 1671.9], [-119.554273, 38.642978, 1683.9], [-119.555012, 38.643088, 1688.8], [-119.55691, 38.64301, 1701.0], [-119.557526, 38.643334, 1706.1], [-119.558066, 38.643891, 1712.1], [-119.559197, 38.644768, 1722.7], [-119.559791, 38.645367, 1728.6], [-119.560483, 38.646456, 1736.0], [-119.561257, 38.646998, 1741.5], [-119.561972, 38.647177, 1746.3], [-119.563458, 38.647305, 1756.9], [-119.56598, 38.647849, 1775.4], [-119.567112, 38.648254, 1784.0], [-119.568983, 38.649771, 1802.5], [-119.570099, 38.650539, 1813.1], [-119.571353, 38.651276, 1824.2], [-119.573214, 38.651984, 1838.8], [-119.574983, 38.652151, 1851.1], [-119.576021, 38.652553, 1859.2], [-119.576759, 38.65315, 1866.6], [-119.57756, 38.654074, 1876.9], [-119.578026, 38.654393, 1881.3], [-119.580226, 38.65515, 1897.8], [-119.58119, 38.655221, 1904.4], [-119.582912, 38.654994, 1916.2], [-119.585898, 38.655247, 1936.7], [-119.588302, 38.655774, 1953.9], [-119.589083, 38.655811, 1959.4], [-119.589671, 38.655698, 1963.4], [-119.590897, 38.655183, 1972.2], [-119.591585, 38.655056, 1977.1], [-119.592567, 38.655176, 1983.8], [-119.593883, 38.654951, 1992.2], [-119.594402, 38.654978, 1995.5], [-119.595593, 38.655287, 2004.2], [-119.596724, 38.655332, 2013.7], [-119.597183, 38.655639, 2017.8], [-119.597061, 38.656135, 2022.0], [-119.596474, 38.6563, 2026.3], [-119.595013, 38.655943, 2034.0], [-119.594392, 38.65596, 2036.9], [-119.593418, 38.656383, 2042.8], [-119.592177, 38.657614, 2054.6], [-119.591395, 38.658113, 2060.9], [-119.589948, 38.658153, 2069.7], [-119.589398, 38.658471, 2074.4], [-119.588793, 38.659277, 2082.4], [-119.587684, 38.660039, 2093.2], [-119.586057, 38.660364, 2106.5], [-119.585763, 38.660692, 2110.2], [-119.585882, 38.661109, 2113.8], [-119.586682, 38.661279, 2119.1], [-119.587385, 38.66088, 2124.7], [-119.588763, 38.660777, 2135.2], [-119.589907, 38.660403, 2143.0], [-119.59163, 38.660105, 2154.4], [-119.593454, 38.660582, 2167.8], [-119.594277, 38.660479, 2173.1], [-119.595542, 38.660725, 2182.4], [-119.595913, 38.661119, 2186.9], [-119.595842, 38.662077, 2196.3], [-119.595537, 38.662626, 2202.0], [-119.594318, 38.664087, 2215.5], [-119.59342, 38.664297, 2220.1], [-119.591579, 38.663927, 2229.0], [-119.59072, 38.664105, 2233.8], [-119.590357, 38.664503, 2237.0], [-119.590028, 38.665384, 2244.4], [-119.589207, 38.665775, 2251.2], [-119.588655, 38.666379, 2257.8], [-119.588078, 38.666539, 2262.3], [-119.587313, 38.666496, 2268.0], [-119.586826, 38.66661, 2271.5], [-119.58566, 38.667338, 2282.0], [-119.585396, 38.667681, 2285.5], [-119.585321, 38.668773, 2295.0], [-119.584878, 38.669518, 2302.4], [-119.584653, 38.670141, 2308.1], [-119.584855, 38.670794, 2313.9], [-119.585341, 38.67116, 2318.2], [-119.586999, 38.671918, 2330.9], [-119.587728, 38.672497, 2337.9], [-119.589951, 38.675745, 2369.9], [-119.591134, 38.676993, 2382.8], [-119.5916, 38.67758, 2388.6], [-119.591978, 38.67841, 2396.4], [-119.592042, 38.679562, 2407.0], [-119.592263, 38.680144, 2412.2], [-119.593204, 38.680937, 2423.8], [-119.594799, 38.681363, 2426.9], [-119.595924, 38.681392, 2426.4], [-119.597024, 38.681141, 2424.8], [-119.598167, 38.680478, 2427.3], [-119.599691, 38.678805, 2439.1], [-119.602551, 38.675552, 2460.9], [-119.602991, 38.675155, 2463.7], [-119.603912, 38.674581, 2467.9], [-119.605621, 38.674025, 2472.6], [-119.607635, 38.673882, 2477.6], [-119.610263, 38.673831, 2488.0], [-119.614667, 38.674393, 2507.6], [-119.615351, 38.674626, 2511.2], [-119.61854, 38.676276, 2528.8], [-119.619805, 38.676468, 2535.4], [-119.62045, 38.676191, 2540.4], [-119.621311, 38.675511, 2543.8], [-119.627734, 38.670779, 2511.2], [-119.631094, 38.668252, 2521.9], [-119.63282, 38.667206, 2506.2], [-119.633584, 38.666951, 2500.8], [-119.635155, 38.667057, 2491.2], [-119.636011, 38.666862, 2485.7], [-119.636445, 38.666419, 2481.7], [-119.63711, 38.66622, 2477.6], [-119.638542, 38.666235, 2468.6], [-119.639021, 38.665836, 2463.1], [-119.639487, 38.664662, 2451.3], [-119.640229, 38.664197, 2443.9], [-119.640992, 38.664351, 2437.7], [-119.642313, 38.665357, 2424.4], [-119.642985, 38.665575, 2419.0], [-119.643945, 38.665695, 2411.1], [-119.644626, 38.666007, 2403.6], [-119.645255, 38.666611, 2394.9], [-119.645801, 38.66681, 2391.7], [-119.64676, 38.666853, 2388.0], [-119.648674, 38.667871, 2378.6], [-119.649088, 38.668295, 2376.1], [-119.649331, 38.668949, 2372.3], [-119.650245, 38.669338, 2367.0], [-119.651514, 38.669507, 2360.5], [-119.652161, 38.669725, 2357.3], [-119.652814, 38.670743, 2348.9], [-119.654153, 38.671517, 2338.0], [-119.654876, 38.672546, 2329.3], [-119.656072, 38.6734, 2321.4], [-119.65664, 38.673587, 2317.9], [-119.657298, 38.673444, 2313.6], [-119.65799, 38.672981, 2307.8], [-119.660115, 38.671269, 2290.4], [-119.660834, 38.671102, 2285.7], [-119.661953, 38.671702, 2275.8], [-119.662978, 38.671634, 2269.2], [-119.663681, 38.672164, 2261.9], [-119.664567, 38.67207, 2254.9], [-119.666108, 38.670787, 2239.3], [-119.666377, 38.669637, 2229.4], [-119.667085, 38.6687, 2221.4], [-119.667379, 38.668082, 2216.1], [-119.667581, 38.665014, 2201.6], [-119.667288, 38.664221, 2208.3], [-119.666526, 38.663417, 2212.1], [-119.665186, 38.660797, 2198.4], [-119.66494, 38.66009, 2194.7], [-119.66441, 38.657847, 2184.6], [-119.664492, 38.657309, 2181.9], [-119.665052, 38.656775, 2176.9], [-119.665676, 38.656634, 2172.7], [-119.666651, 38.656875, 2166.2], [-119.668374, 38.657799, 2154.5], [-119.66899, 38.658027, 2151.1], [-119.669978, 38.658106, 2146.1], [-119.670659, 38.657977, 2142.5], [-119.671647, 38.657429, 2136.4], [-119.672101, 38.656711, 2129.7], [-119.673481, 38.655645, 2113.3], [-119.673978, 38.655426, 2108.5], [-119.674587, 38.655388, 2102.9], [-119.676614, 38.656037, 2083.5], [-119.678265, 38.656959, 2066.8], [-119.679243, 38.657639, 2056.5], [-119.680092, 38.658748, 2043.1], [-119.680468, 38.65908, 2038.8], [-119.681319, 38.65949, 2031.3], [-119.684754, 38.660921, 2000.5], [-119.685214, 38.661358, 1994.4], [-119.68543, 38.661935, 1987.8], [-119.686297, 38.662335, 1979.5], [-119.687401, 38.662399, 1971.9], [-119.688047, 38.662797, 1965.7], [-119.68919, 38.664044, 1950.1], [-119.690487, 38.665094, 1934.6], [-119.690975, 38.66539, 1929.0], [-119.692292, 38.665798, 1916.9], [-119.693544, 38.665905, 1906.1], [-119.694363, 38.665831, 1899.2], [-119.69549, 38.665501, 1889.9], [-119.696406, 38.665432, 1883.0], [-119.697671, 38.665835, 1873.2], [-119.698517, 38.665943, 1868.7], [-119.699536, 38.665806, 1864.8], [-119.700878, 38.666008, 1859.7], [-119.702037, 38.666005, 1855.5], [-119.702901, 38.665673, 1853.5], [-119.703647, 38.665657, 1853.1], [-119.704411, 38.66581, 1851.6], [-119.70506, 38.665723, 1848.6], [-119.706332, 38.665064, 1839.5], [-119.707528, 38.665167, 1831.7], [-119.70805, 38.665099, 1828.5], [-119.708763, 38.664668, 1823.4], [-119.709178, 38.663888, 1817.9], [-119.710988, 38.663159, 1808.8], [-119.711509, 38.662701, 1806.1], [-119.712055, 38.66248, 1804.0], [-119.714232, 38.66244, 1796.5], [-119.715139, 38.662231, 1792.9], [-119.716097, 38.661723, 1787.9], [-119.718103, 38.660914, 1777.8], [-119.719651, 38.660055, 1769.6], [-119.721515, 38.65962, 1761.6], [-119.722414, 38.659132, 1758.1], [-119.723027, 38.659267, 1755.8], [-119.723778, 38.660303, 1749.2], [-119.724026, 38.660477, 1747.8], [-119.724869, 38.660556, 1746.4], [-119.726455, 38.660441, 1750.0], [-119.726076, 38.659268, 1750.9], [-119.725515, 38.658586, 1752.1], [-119.724584, 38.658034, 1752.3], [-119.724324, 38.657252, 1751.1], [-119.724722, 38.656059, 1753.4], [-119.723936, 38.655172, 1751.1], [-119.724102, 38.654104, 1749.2], [-119.724511, 38.653579, 1750.4], [-119.724862, 38.652618, 1752.1], [-119.724373, 38.651115, 1754.3], [-119.724458, 38.65064, 1754.9], [-119.724969, 38.650187, 1756.0], [-119.72686, 38.649505, 1758.6], [-119.727766, 38.648838, 1759.9], [-119.728016, 38.648533, 1760.4], [-119.728087, 38.647999, 1761.5], [-119.727802, 38.647648, 1762.2], [-119.725374, 38.646035, 1770.9], [-119.723524, 38.645417, 1772.3], [-119.722216, 38.644076, 1772.9], [-119.722011, 38.643702, 1773.6], [-119.721893, 38.642838, 1775.7], [-119.722038, 38.642451, 1775.8], [-119.72248, 38.642149, 1774.5], [-119.723279, 38.641884, 1773.7], [-119.723781, 38.641572, 1774.4], [-119.724034, 38.640977, 1774.6], [-119.723965, 38.639558, 1776.0], [-119.723545, 38.638757, 1778.3], [-119.723414, 38.638075, 1778.8], [-119.723855, 38.636877, 1784.6], [-119.723717, 38.635735, 1790.2], [-119.723398, 38.634877, 1796.8], [-119.723371, 38.634119, 1802.0], [-119.723643, 38.633028, 1806.0], [-119.723602, 38.631649, 1812.1], [-119.723402, 38.631188, 1815.6], [-119.723083, 38.631458, 1814.8], [-119.723404, 38.631598, 1815.9], [-119.723579, 38.630393, 1816.8], [-119.723746, 38.630074, 1817.3], [-119.724447, 38.629763, 1819.9], [-119.72539, 38.628799, 1822.8], [-119.726006, 38.628455, 1824.4], [-119.727583, 38.627844, 1829.8], [-119.728019, 38.6274, 1830.0], [-119.728741, 38.626984, 1827.8], [-119.729295, 38.6265, 1829.6], [-119.730002, 38.62567, 1831.9], [-119.731493, 38.62482, 1838.0], [-119.732972, 38.624132, 1838.7], [-119.733838, 38.623876, 1842.5], [-119.73458, 38.623227, 1842.3], [-119.735371, 38.622885, 1845.4], [-119.736835, 38.622578, 1849.6], [-119.73819, 38.621618, 1853.5], [-119.739364, 38.621182, 1856.3], [-119.740109, 38.621137, 1859.1], [-119.741122, 38.62091, 1861.4], [-119.741781, 38.620059, 1861.2], [-119.742377, 38.619817, 1862.6], [-119.743156, 38.619711, 1865.3], [-119.74442, 38.619359, 1872.3], [-119.746086, 38.619062, 1879.6], [-119.747754, 38.618413, 1881.2], [-119.749319, 38.618576, 1889.8], [-119.749648, 38.618461, 1892.0], [-119.750748, 38.617419, 1894.8], [-119.751529, 38.617241, 1897.9], [-119.752179, 38.617558, 1902.1], [-119.752651, 38.617457, 1902.3], [-119.753047, 38.617072, 1900.3], [-119.753784, 38.616743, 1900.2], [-119.755583, 38.615669, 1912.6], [-119.756217, 38.614995, 1915.1], [-119.757682, 38.613715, 1923.9], [-119.758592, 38.612751, 1931.7], [-119.758948, 38.612646, 1931.4], [-119.760156, 38.613305, 1933.7], [-119.761099, 38.613588, 1937.7], [-119.761598, 38.613577, 1939.2], [-119.762548, 38.613031, 1941.2], [-119.763145, 38.612499, 1942.0], [-119.764374, 38.610926, 1943.8], [-119.765102, 38.609039, 1949.0], [-119.765576, 38.608219, 1951.7], [-119.76662, 38.607378, 1954.4], [-119.768549, 38.606238, 1959.2], [-119.770422, 38.60469, 1962.5], [-119.770928, 38.604213, 1963.6], [-119.771797, 38.603628, 1963.9], [-119.774215, 38.601722, 1978.5], [-119.77561, 38.600861, 1980.6], [-119.777353, 38.599295, 1984.4], [-119.778617, 38.598392, 1986.7], [-119.780934, 38.597436, 1994.6], [-119.783346, 38.59548, 1998.5], [-119.784653, 38.59405, 2005.8], [-119.784307, 38.59298, 2021.8], [-119.784383, 38.592402, 2028.3], [-119.784839, 38.592013, 2033.2], [-119.785238, 38.591386, 2040.1], [-119.786126, 38.59061, 2049.0], [-119.786276, 38.590226, 2052.1], [-119.785819, 38.589542, 2057.2], [-119.784775, 38.589438, 2063.0], [-119.784694, 38.589065, 2068.2], [-119.786331, 38.588874, 2073.1], [-119.78725, 38.58891, 2075.0], [-119.787706, 38.588269, 2080.6], [-119.787734, 38.586869, 2090.4], [-119.787175, 38.585993, 2097.2], [-119.78706, 38.585356, 2103.1], [-119.787361, 38.585347, 2106.4], [-119.787618, 38.586109, 2111.1], [-119.788449, 38.586726, 2116.4], [-119.788818, 38.587386, 2122.4], [-119.788799, 38.588578, 2129.6], [-119.789309, 38.588812, 2133.0], [-119.790363, 38.58894, 2137.4], [-119.790611, 38.589785, 2143.7], [-119.790405, 38.590422, 2148.2], [-119.790981, 38.590726, 2152.6], [-119.79142, 38.590548, 2155.6], [-119.792187, 38.589589, 2163.1], [-119.792069, 38.58934, 2163.6], [-119.791082, 38.588856, 2164.8], [-119.790324, 38.588172, 2172.2], [-119.789777, 38.587181, 2181.1], [-119.789763, 38.586342, 2188.5], [-119.789527, 38.585422, 2196.2], [-119.789825, 38.584771, 2200.7], [-119.789757, 38.584048, 2204.6], [-119.78921, 38.58341, 2209.5], [-119.789472, 38.583307, 2214.1], [-119.790414, 38.58419, 2222.2], [-119.790707, 38.585288, 2228.6], [-119.791034, 38.58589, 2233.9], [-119.791167, 38.586642, 2241.3], [-119.7927, 38.586558, 2250.8], [-119.793825, 38.58641, 2258.0], [-119.794673, 38.585733, 2267.7], [-119.795656, 38.585789, 2273.7], [-119.796357, 38.585591, 2278.3], [-119.796997, 38.585096, 2283.2], [-119.797299, 38.583892, 2292.4], [-119.79751, 38.582135, 2306.0], [-119.797964, 38.581948, 2309.1], [-119.800587, 38.582191, 2323.9], [-119.801612, 38.581719, 2331.6], [-119.802323, 38.58112, 2338.4], [-119.802763, 38.580906, 2341.1], [-119.803822, 38.58067, 2348.9], [-119.804657, 38.580709, 2354.7], [-119.805364, 38.580592, 2362.6], [-119.806337, 38.579956, 2375.6], [-119.806715, 38.579828, 2379.1], [-119.807429, 38.579255, 2386.8], [-119.807481, 38.57898, 2389.3], [-119.807081, 38.578108, 2388.0], [-119.806315, 38.577129, 2382.5], [-119.80621, 38.57592, 2391.0], [-119.806489, 38.574792, 2401.6], [-119.806236, 38.573322, 2407.3], [-119.805577, 38.572963, 2412.5], [-119.805451, 38.572542, 2415.4], [-119.805997, 38.5717, 2418.9], [-119.806521, 38.570521, 2426.0], [-119.807265, 38.569627, 2435.4], [-119.807292, 38.569147, 2439.5], [-119.806951, 38.568793, 2440.4], [-119.80604, 38.568347, 2441.6], [-119.804524, 38.56803, 2453.5], [-119.804143, 38.568065, 2459.6], [-119.803353, 38.567559, 2466.4], [-119.803112, 38.567249, 2468.9], [-119.803184, 38.566635, 2472.6], [-119.803689, 38.565551, 2479.1], [-119.804438, 38.564713, 2484.9], [-119.805409, 38.563075, 2498.7], [-119.806933, 38.561972, 2507.2], [-119.808131, 38.559483, 2526.3], [-119.808231, 38.558985, 2530.2], [-119.808018, 38.557713, 2541.5], [-119.807521, 38.55709, 2545.8], [-119.807388, 38.556659, 2548.4], [-119.807787, 38.555129, 2559.7], [-119.808239, 38.554493, 2565.6], [-119.808022, 38.553955, 2568.1], [-119.807347, 38.553175, 2576.6], [-119.807327, 38.551993, 2587.8], [-119.807471, 38.550565, 2601.4], [-119.807657, 38.549867, 2608.4], [-119.807338, 38.548981, 2616.6], [-119.807529, 38.548299, 2621.0], [-119.808325, 38.547455, 2620.7], [-119.809023, 38.546885, 2627.5], [-119.811164, 38.545868, 2643.7], [-119.811256, 38.545113, 2651.4], [-119.81196, 38.544467, 2664.7], [-119.812496, 38.543801, 2662.0], [-119.812975, 38.543546, 2659.3], [-119.813949, 38.543519, 2656.1], [-119.815438, 38.54379, 2643.8], [-119.816589, 38.543609, 2635.5], [-119.818058, 38.543502, 2623.4], [-119.818872, 38.543641, 2617.1], [-119.820291, 38.544079, 2615.4], [-119.822109, 38.544516, 2603.5], [-119.823558, 38.54472, 2594.8], [-119.824338, 38.545137, 2587.1], [-119.82663, 38.546027, 2562.8], [-119.828268, 38.546507, 2548.0], [-119.829966, 38.546525, 2535.5], [-119.833308, 38.547004, 2509.5], [-119.8358, 38.547761, 2489.2], [-119.836728, 38.547782, 2480.8], [-119.839311, 38.548346, 2461.7], [-119.84106, 38.548613, 2449.6], [-119.84268, 38.548718, 2438.0], [-119.843409, 38.548682, 2434.1], [-119.844361, 38.548934, 2426.7], [-119.847157, 38.549169, 2405.1], [-119.848002, 38.54954, 2400.2], [-119.848818, 38.550422, 2406.9], [-119.848802, 38.550862, 2409.8], [-119.847943, 38.551926, 2405.9], [-119.848016, 38.552371, 2404.2], [-119.848479, 38.552659, 2403.7], [-119.849137, 38.552583, 2404.0], [-119.849984, 38.55187, 2400.4], [-119.851796, 38.551063, 2392.3], [-119.852209, 38.550541, 2390.7], [-119.853262, 38.549683, 2382.3], [-119.854068, 38.549134, 2375.5], [-119.854604, 38.549, 2373.2], [-119.856081, 38.549018, 2366.2], [-119.857977, 38.548851, 2352.6], [-119.860415, 38.548478, 2334.2], [-119.86181, 38.54853, 2327.4], [-119.863066, 38.548223, 2319.8], [-119.863787, 38.548306, 2314.3], [-119.86561, 38.547802, 2300.8], [-119.867127, 38.54713, 2288.8], [-119.868506, 38.546428, 2278.2], [-119.870622, 38.546, 2271.0], [-119.872384, 38.545388, 2264.5], [-119.873834, 38.544819, 2258.5], [-119.874634, 38.544181, 2251.0], [-119.875092, 38.543409, 2241.7], [-119.875332, 38.542478, 2234.1], [-119.875543, 38.542267, 2231.3], [-119.876306, 38.542055, 2224.7], [-119.877128, 38.542529, 2216.8], [-119.877645, 38.543097, 2209.9], [-119.878549, 38.543624, 2205.9], [-119.879468, 38.543767, 2200.5], [-119.881981, 38.543216, 2179.4], [-119.884289, 38.543175, 2173.3], [-119.886144, 38.542363, 2164.5], [-119.889142, 38.541135, 2168.9], [-119.889863, 38.540589, 2167.7], [-119.890721, 38.539717, 2161.0], [-119.891282, 38.539301, 2159.5], [-119.892556, 38.538689, 2161.5], [-119.893651, 38.538495, 2161.1], [-119.897377, 38.538364, 2160.1], [-119.898531, 38.538253, 2159.6], [-119.899345, 38.537986, 2159.3], [-119.900833, 38.537107, 2155.8], [-119.901678, 38.536895, 2158.1], [-119.902057, 38.536566, 2164.1], [-119.902897, 38.536157, 2171.2], [-119.903022, 38.535754, 2173.9], [-119.90275, 38.534834, 2182.6], [-119.904248, 38.534376, 2183.4], [-119.904738, 38.533888, 2188.3], [-119.904669, 38.533603, 2190.2], [-119.903374, 38.532305, 2206.5], [-119.902704, 38.532155, 2210.7], [-119.900828, 38.5313, 2228.3], [-119.899793, 38.530649, 2241.0], [-119.899094, 38.529251, 2254.8], [-119.899082, 38.527878, 2268.8], [-119.899541, 38.527362, 2272.9], [-119.899699, 38.526908, 2279.1], [-119.899568, 38.526123, 2286.1], [-119.900113, 38.525525, 2288.9], [-119.900852, 38.524419, 2292.5], [-119.902537, 38.52277, 2303.4], [-119.903005, 38.522488, 2309.2], [-119.903442, 38.522679, 2317.1], [-119.903377, 38.52303, 2321.3], [-119.903558, 38.523724, 2329.8], [-119.904292, 38.523138, 2340.6], [-119.904877, 38.523403, 2348.0], [-119.905994, 38.523636, 2359.8], [-119.905896, 38.522935, 2366.0], [-119.905969, 38.522213, 2371.2], [-119.907005, 38.521567, 2384.5], [-119.907643, 38.520903, 2394.3], [-119.908548, 38.52013, 2406.7], [-119.909216, 38.519331, 2415.3], [-119.909329, 38.518987, 2420.2], [-119.909418, 38.517565, 2437.4], [-119.908993, 38.516837, 2443.4], [-119.909243, 38.516173, 2446.4], [-119.909993, 38.515909, 2450.1], [-119.910924, 38.516465, 2448.6], [-119.911376, 38.516556, 2449.4], [-119.913266, 38.5159, 2453.2], [-119.913835, 38.515809, 2453.8], [-119.915447, 38.515187, 2455.1], [-119.916549, 38.514867, 2451.3], [-119.917942, 38.514561, 2439.7], [-119.919548, 38.514109, 2428.6], [-119.920451, 38.51411, 2424.2], [-119.921964, 38.513596, 2418.2], [-119.923214, 38.513504, 2412.5], [-119.925507, 38.514345, 2398.4], [-119.926202, 38.514816, 2397.8], [-119.926997, 38.515074, 2392.6], [-119.928695, 38.515259, 2400.6], [-119.929652, 38.51521, 2408.4], [-119.931435, 38.514852, 2417.2], [-119.932834, 38.513977, 2423.6], [-119.934154, 38.51344, 2427.6], [-119.935663, 38.51267, 2431.9], [-119.937461, 38.511489, 2426.3], [-119.938627, 38.51086, 2425.1], [-119.939731, 38.510387, 2421.8], [-119.941233, 38.509276, 2417.5], [-119.942012, 38.508458, 2411.3], [-119.942696, 38.507941, 2408.2], [-119.943247, 38.507173, 2406.0], [-119.943936, 38.50656, 2405.2], [-119.944497, 38.506287, 2401.7], [-119.945454, 38.506058, 2401.0], [-119.94627, 38.505979, 2400.9], [-119.94828, 38.505156, 2400.6], [-119.949203, 38.504459, 2410.3], [-119.951001, 38.503868, 2419.4], [-119.952877, 38.503441, 2425.2], [-119.95505, 38.502721, 2423.7], [-119.956254, 38.501947, 2428.2], [-119.957263, 38.500839, 2435.8], [-119.958093, 38.500314, 2436.5], [-119.959084, 38.499932, 2434.3], [-119.959791, 38.499502, 2432.9], [-119.960508, 38.49888, 2431.4], [-119.960895, 38.498371, 2430.6], [-119.961533, 38.496588, 2425.5], [-119.962084, 38.495677, 2427.9], [-119.962585, 38.495098, 2429.3], [-119.962895, 38.49435, 2425.3], [-119.963732, 38.493566, 2419.4], [-119.964084, 38.492994, 2419.4], [-119.964751, 38.492698, 2421.5], [-119.965285, 38.491961, 2425.4], [-119.96542, 38.491409, 2425.5], [-119.965693, 38.491096, 2426.4], [-119.966474, 38.490616, 2429.4], [-119.967047, 38.490491, 2428.2], [-119.9678, 38.490744, 2423.8], [-119.969028, 38.490891, 2415.7], [-119.970047, 38.49176, 2406.5], [-119.970924, 38.491873, 2407.8], [-119.973538, 38.491487, 2405.7], [-119.975894, 38.49151, 2396.8], [-119.977354, 38.491232, 2385.0], [-119.979004, 38.49158, 2372.5], [-119.977398, 38.491176, 2384.9], [-119.975648, 38.491487, 2398.7], [-119.975103, 38.491427, 2403.1], [-119.973374, 38.491495, 2406.1], [-119.971119, 38.491795, 2407.5], [-119.969997, 38.491703, 2406.4], [-119.969089, 38.490921, 2414.9], [-119.968734, 38.490776, 2417.8], [-119.967724, 38.490701, 2424.2], [-119.967187, 38.490478, 2427.6], [-119.966588, 38.49052, 2429.5], [-119.965788, 38.491006, 2426.8], [-119.965384, 38.491409, 2425.5], [-119.965229, 38.491947, 2425.4], [-119.964659, 38.492742, 2420.8], [-119.963779, 38.493227, 2419.3], [-119.963354, 38.493928, 2421.4], [-119.962818, 38.494389, 2425.7], [-119.962455, 38.495237, 2429.4], [-119.961655, 38.49634, 2425.4], [-119.960812, 38.498466, 2430.8], [-119.959789, 38.499478, 2432.8], [-119.958938, 38.499967, 2434.6], [-119.958045, 38.500279, 2436.6], [-119.957132, 38.500931, 2435.1], [-119.956284, 38.501847, 2428.7], [-119.955456, 38.502466, 2424.0], [-119.952361, 38.503544, 2424.1], [-119.951243, 38.503788, 2420.2], [-119.949622, 38.504284, 2412.5], [-119.948655, 38.504753, 2405.4], [-119.94813, 38.505195, 2400.5], [-119.947485, 38.505389, 2400.9], [-119.946366, 38.505943, 2401.2], [-119.944988, 38.506152, 2400.8], [-119.944122, 38.50644, 2404.0], [-119.943149, 38.507231, 2406.2], [-119.942757, 38.507809, 2408.0], [-119.940945, 38.509481, 2417.9], [-119.939747, 38.510359, 2421.8], [-119.938677, 38.510803, 2424.9], [-119.936061, 38.512425, 2432.4], [-119.934558, 38.513233, 2428.5], [-119.932711, 38.513992, 2423.1], [-119.931527, 38.514738, 2417.7], [-119.931089, 38.514892, 2415.9], [-119.92947, 38.515192, 2407.2], [-119.928363, 38.515195, 2396.6], [-119.926726, 38.514978, 2394.2], [-119.926176, 38.514767, 2397.9], [-119.925096, 38.514091, 2403.0], [-119.923066, 38.513444, 2412.2], [-119.921703, 38.513621, 2419.4], [-119.920259, 38.514124, 2424.9], [-119.919453, 38.514099, 2429.1], [-119.915772, 38.515052, 2454.8], [-119.913871, 38.515756, 2453.8], [-119.91312, 38.515881, 2453.3], [-119.911437, 38.5165, 2449.6], [-119.910833, 38.516399, 2448.4], [-119.910355, 38.516051, 2448.6], [-119.909773, 38.515853, 2449.9], [-119.909264, 38.516096, 2446.6], [-119.908935, 38.516588, 2444.4], [-119.909448, 38.517639, 2435.8], [-119.909285, 38.518962, 2419.6], [-119.909081, 38.519495, 2413.2], [-119.908514, 38.520136, 2406.1], [-119.90709, 38.52149, 2385.2], [-119.90634, 38.521919, 2376.3], [-119.905856, 38.522346, 2370.3], [-119.905991, 38.523522, 2361.0], [-119.904863, 38.523376, 2349.0], [-119.904307, 38.523143, 2342.3], [-119.903764, 38.523694, 2333.5], [-119.903572, 38.523638, 2330.6], [-119.903433, 38.522588, 2317.7], [-119.903139, 38.522466, 2312.1], [-119.902495, 38.522782, 2303.7], [-119.900733, 38.524519, 2292.0], [-119.900125, 38.525471, 2288.9], [-119.899569, 38.52604, 2286.4], [-119.899671, 38.526621, 2281.9], [-119.899503, 38.527542, 2270.8], [-119.899018, 38.528102, 2266.8], [-119.899108, 38.529222, 2254.4], [-119.899939, 38.530814, 2238.7], [-119.902817, 38.532211, 2209.6], [-119.903622, 38.532455, 2203.1], [-119.904724, 38.53386, 2188.3], [-119.904194, 38.53438, 2183.2], [-119.90306, 38.534493, 2184.0], [-119.902645, 38.535025, 2181.4], [-119.902993, 38.535879, 2172.7], [-119.902566, 38.536356, 2168.8], [-119.901555, 38.536952, 2156.4], [-119.900736, 38.537144, 2156.0], [-119.89889, 38.538136, 2159.6], [-119.898048, 38.538278, 2159.8], [-119.893743, 38.538468, 2161.0], [-119.892414, 38.538709, 2161.6], [-119.891012, 38.539416, 2159.5], [-119.88946, 38.540857, 2168.4], [-119.888627, 38.54134, 2168.9], [-119.885082, 38.542824, 2168.2], [-119.884472, 38.543141, 2172.8], [-119.882771, 38.543173, 2175.5], [-119.881887, 38.543264, 2179.8], [-119.879734, 38.543755, 2198.3], [-119.879192, 38.54376, 2202.1], [-119.878249, 38.543537, 2207.0], [-119.877543, 38.543048, 2210.6], [-119.877127, 38.542512, 2217.0], [-119.876507, 38.542094, 2223.4], [-119.876045, 38.542069, 2226.6], [-119.875379, 38.542339, 2233.0], [-119.875062, 38.543345, 2241.5], [-119.874615, 38.544083, 2250.5], [-119.873923, 38.544713, 2257.6], [-119.873044, 38.545116, 2262.5], [-119.870243, 38.546134, 2270.9], [-119.868456, 38.546487, 2278.8], [-119.866966, 38.547226, 2290.0], [-119.865476, 38.547838, 2301.7], [-119.863928, 38.548299, 2313.4], [-119.863024, 38.548237, 2320.2], [-119.861566, 38.548569, 2328.7], [-119.860189, 38.54855, 2335.3], [-119.85629, 38.549056, 2364.6], [-119.855422, 38.548966, 2370.6], [-119.854364, 38.549, 2373.9], [-119.853909, 38.54916, 2376.2], [-119.852158, 38.550485, 2390.6], [-119.851433, 38.551242, 2393.5], [-119.850474, 38.551604, 2397.9], [-119.849566, 38.552152, 2402.8], [-119.848897, 38.552675, 2403.9], [-119.848446, 38.552663, 2403.7], [-119.84791, 38.552156, 2405.1], [-119.848098, 38.551686, 2407.8], [-119.848786, 38.550863, 2409.6], [-119.84883, 38.550492, 2407.1], [-119.848104, 38.549756, 2400.1], [-119.846938, 38.549237, 2406.4], [-119.844321, 38.54904, 2425.7], [-119.843481, 38.548755, 2434.8], [-119.842593, 38.548784, 2440.0], [-119.840501, 38.548599, 2455.1], [-119.838429, 38.548258, 2466.6], [-119.836791, 38.547826, 2480.4], [-119.835901, 38.547822, 2488.1], [-119.833986, 38.547272, 2508.0], [-119.832734, 38.546973, 2517.9], [-119.832082, 38.546926, 2522.8], [-119.830351, 38.546595, 2534.9], [-119.828922, 38.546619, 2544.9], [-119.82807, 38.546519, 2550.6], [-119.826127, 38.545879, 2568.1], [-119.825772, 38.545675, 2572.0], [-119.824076, 38.54503, 2590.4], [-119.823519, 38.544703, 2595.3], [-119.822943, 38.54465, 2599.0], [-119.821068, 38.544285, 2612.1], [-119.818948, 38.543655, 2616.9], [-119.817992, 38.543525, 2624.1], [-119.816505, 38.543565, 2636.1], [-119.815564, 38.543752, 2642.8], [-119.814694, 38.543701, 2651.1], [-119.813881, 38.543522, 2656.4], [-119.812724, 38.543577, 2660.7], [-119.812362, 38.54385, 2662.9], [-119.811283, 38.545055, 2655.2], [-119.811189, 38.545709, 2645.0], [-119.80912, 38.546865, 2627.8], [-119.807917, 38.54781, 2621.4], [-119.807387, 38.548497, 2620.1], [-119.807342, 38.549099, 2615.6], [-119.807596, 38.550153, 2605.5], [-119.807361, 38.551184, 2595.3], [-119.807284, 38.552915, 2579.3], [-119.807409, 38.553346, 2574.9], [-119.808008, 38.553981, 2568.0], [-119.808209, 38.554576, 2565.1], [-119.807685, 38.555312, 2558.4], [-119.807387, 38.556655, 2548.4], [-119.807519, 38.557171, 2545.4], [-119.808002, 38.557833, 2540.6], [-119.80819, 38.559091, 2529.5], [-119.808102, 38.559454, 2526.6], [-119.806951, 38.561853, 2507.9], [-119.806652, 38.562159, 2505.9], [-119.805281, 38.563156, 2497.8], [-119.804384, 38.564709, 2484.7], [-119.803688, 38.565458, 2479.3], [-119.803083, 38.566893, 2470.4], [-119.803129, 38.567392, 2467.0], [-119.803994, 38.567962, 2459.2], [-119.805987, 38.568383, 2441.7], [-119.807143, 38.569021, 2439.9], [-119.807249, 38.569557, 2436.4], [-119.806374, 38.570671, 2425.5], [-119.805917, 38.571721, 2418.7], [-119.805439, 38.572525, 2415.5], [-119.805544, 38.572994, 2412.4], [-119.806252, 38.573449, 2406.4], [-119.806409, 38.574397, 2400.0], [-119.806156, 38.576117, 2388.0], [-119.806188, 38.576915, 2384.0], [-119.806986, 38.578047, 2386.8], [-119.807431, 38.578834, 2390.3], [-119.807216, 38.579496, 2384.5], [-119.806063, 38.58022, 2371.9], [-119.805203, 38.580592, 2362.7], [-119.803715, 38.580652, 2349.5], [-119.802828, 38.580852, 2342.4], [-119.80205, 38.581256, 2337.3], [-119.801133, 38.581932, 2328.6], [-119.800471, 38.582165, 2323.8], [-119.798569, 38.582061, 2313.8], [-119.797983, 38.581944, 2309.6], [-119.797547, 38.582065, 2306.5], [-119.79732, 38.583652, 2294.0], [-119.796954, 38.585071, 2283.0], [-119.796308, 38.585547, 2278.0], [-119.795751, 38.585737, 2274.2], [-119.794588, 38.585789, 2266.9], [-119.793768, 38.586422, 2257.7], [-119.791412, 38.586673, 2242.8], [-119.791085, 38.586528, 2240.1], [-119.790997, 38.58601, 2235.0], [-119.790591, 38.585139, 2227.3], [-119.790411, 38.584325, 2223.0], [-119.790116, 38.58389, 2219.5], [-119.789454, 38.583297, 2213.7], [-119.78916, 38.583372, 2209.5], [-119.789673, 38.584053, 2204.5], [-119.78971, 38.584826, 2200.3], [-119.789439, 38.58552, 2195.2], [-119.789706, 38.587122, 2181.5], [-119.790169, 38.587991, 2173.6], [-119.791089, 38.58884, 2164.7], [-119.792171, 38.589432, 2163.5], [-119.79156, 38.590376, 2156.8], [-119.79117, 38.590649, 2153.9], [-119.790543, 38.590629, 2150.0], [-119.790599, 38.589709, 2143.4], [-119.790442, 38.589052, 2138.4], [-119.790191, 38.588855, 2136.8], [-119.78895, 38.588673, 2131.0], [-119.788746, 38.588315, 2128.1], [-119.788801, 38.587469, 2123.4], [-119.788375, 38.586664, 2116.1], [-119.787481, 38.585828, 2109.6], [-119.787147, 38.585222, 2105.0], [-119.786924, 38.585434, 2101.6], [-119.787204, 38.586274, 2094.1], [-119.787712, 38.587154, 2087.7], [-119.787519, 38.588399, 2078.8], [-119.787134, 38.588893, 2074.6], [-119.786197, 38.588844, 2072.8], [-119.784828, 38.588958, 2068.8], [-119.784624, 38.589408, 2063.2], [-119.785731, 38.589522, 2057.1], [-119.786166, 38.590058, 2053.0], [-119.785991, 38.590621, 2048.3], [-119.785052, 38.591457, 2037.2], [-119.784737, 38.592075, 2030.1], [-119.784258, 38.592566, 2022.3], [-119.78455, 38.593895, 2005.7], [-119.784499, 38.594205, 2005.8], [-119.783775, 38.595019, 2002.0], [-119.782129, 38.596336, 2000.8], [-119.781237, 38.597124, 1995.9], [-119.780695, 38.597465, 1993.7], [-119.778683, 38.598313, 1987.0], [-119.778106, 38.598656, 1985.3], [-119.775149, 38.601138, 1980.2], [-119.774283, 38.601638, 1979.1], [-119.772992, 38.602539, 1969.9], [-119.769561, 38.605333, 1958.8], [-119.768045, 38.606488, 1958.8], [-119.766314, 38.607473, 1953.8], [-119.765355, 38.608416, 1950.9], [-119.764968, 38.609178, 1948.4], [-119.76424, 38.611041, 1943.3], [-119.76279, 38.612767, 1941.6], [-119.762191, 38.613229, 1940.8], [-119.761416, 38.613546, 1938.6], [-119.760224, 38.613301, 1933.5], [-119.758745, 38.612588, 1931.6], [-119.758551, 38.612685, 1930.6], [-119.757402, 38.613863, 1918.9], [-119.755072, 38.615907, 1909.7], [-119.753792, 38.616686, 1900.4], [-119.753221, 38.616933, 1899.8], [-119.752454, 38.61755, 1902.7], [-119.751527, 38.617244, 1897.9], [-119.750513, 38.617531, 1894.2], [-119.749601, 38.618421, 1891.8], [-119.749358, 38.618524, 1890.2], [-119.747453, 38.618472, 1879.9], [-119.745636, 38.619139, 1878.6], [-119.744645, 38.61929, 1873.8], [-119.743242, 38.619665, 1865.7], [-119.741912, 38.619934, 1861.7], [-119.741304, 38.620682, 1861.1], [-119.740928, 38.620891, 1861.4], [-119.739245, 38.621152, 1856.2], [-119.737753, 38.621777, 1852.0], [-119.736725, 38.622543, 1849.5], [-119.734971, 38.622956, 1843.5], [-119.733913, 38.623778, 1842.7], [-119.732675, 38.624174, 1837.2], [-119.729917, 38.625656, 1831.8], [-119.72858, 38.626999, 1827.9], [-119.727847, 38.62743, 1830.2], [-119.727429, 38.627863, 1829.8], [-119.726504, 38.628149, 1828.2], [-119.725337, 38.628756, 1822.8], [-119.724874, 38.629111, 1822.2], [-119.724563, 38.6296, 1820.8], [-119.723636, 38.630085, 1817.1], [-119.723492, 38.630544, 1816.9], [-119.723562, 38.633031, 1805.1], [-119.723269, 38.634624, 1798.8], [-119.723565, 38.635626, 1791.2], [-119.723765, 38.636909, 1784.5], [-119.723396, 38.637905, 1779.3], [-119.723369, 38.638317, 1778.8], [-119.723864, 38.639485, 1776.3], [-119.724004, 38.640128, 1774.9], [-119.723903, 38.641209, 1774.6], [-119.723413, 38.641765, 1774.0], [-119.722118, 38.642294, 1775.2], [-119.721827, 38.642873, 1775.7], [-119.722016, 38.643877, 1773.4], [-119.72233, 38.644336, 1772.6], [-119.723562, 38.645515, 1772.3], [-119.724661, 38.645846, 1772.1], [-119.725702, 38.646322, 1769.4], [-119.727664, 38.647621, 1762.2], [-119.728017, 38.648257, 1761.0], [-119.727845, 38.648655, 1760.1], [-119.727121, 38.649249, 1759.0], [-119.72649, 38.649598, 1758.2], [-119.725314, 38.649986, 1756.4], [-119.724677, 38.650293, 1755.5], [-119.724376, 38.650611, 1754.9], [-119.724299, 38.651192, 1754.2], [-119.724752, 38.652488, 1752.3], [-119.72458, 38.653329, 1750.9], [-119.723956, 38.654284, 1749.2], [-119.723806, 38.655056, 1750.7], [-119.723939, 38.655381, 1751.8], [-119.724612, 38.656053, 1753.5], [-119.724624, 38.656384, 1752.8], [-119.724259, 38.657111, 1751.2], [-119.724252, 38.657537, 1751.4], [-119.724614, 38.658123, 1752.4], [-119.725376, 38.658561, 1752.2], [-119.725891, 38.659048, 1751.2], [-119.726398, 38.660485, 1750.0], [-119.726677, 38.661018, 1750.2], [-119.726657, 38.661745, 1750.6], [-119.726211, 38.662564, 1749.6], [-119.726235, 38.663062, 1749.2], [-119.726731, 38.664458, 1748.1], [-119.727219, 38.664988, 1748.5], [-119.72865, 38.666106, 1748.7], [-119.728851, 38.666554, 1745.8], [-119.728694, 38.667239, 1740.6], [-119.728152, 38.667931, 1733.8], [-119.728158, 38.66852, 1730.2], [-119.728755, 38.669507, 1729.6], [-119.729114, 38.669808, 1731.3], [-119.730424, 38.670208, 1738.6], [-119.731338, 38.670879, 1744.3], [-119.733191, 38.672822, 1746.7], [-119.733809, 38.673597, 1743.1], [-119.734759, 38.675224, 1731.6], [-119.73562, 38.675967, 1725.4], [-119.737662, 38.676786, 1715.5], [-119.738915, 38.677354, 1716.8], [-119.739947, 38.678069, 1717.0], [-119.741981, 38.678731, 1713.1], [-119.74299, 38.679274, 1708.9], [-119.743608, 38.679482, 1707.3], [-119.744522, 38.679588, 1706.9], [-119.746868, 38.679365, 1706.2], [-119.747792, 38.679389, 1705.5], [-119.749193, 38.679843, 1702.8], [-119.750565, 38.680858, 1699.4], [-119.752057, 38.68212, 1697.6], [-119.752595, 38.682721, 1695.0], [-119.752861, 38.683259, 1693.8], [-119.753178, 38.684446, 1692.7], [-119.754582, 38.687505, 1688.7], [-119.754834, 38.687787, 1688.3], [-119.756105, 38.688536, 1687.4], [-119.757047, 38.68942, 1686.0], [-119.758074, 38.689695, 1685.8], [-119.760064, 38.689542, 1685.4], [-119.761101, 38.689664, 1685.3], [-119.761864, 38.689867, 1684.4], [-119.762703, 38.689934, 1683.6], [-119.764287, 38.689693, 1680.6], [-119.765222, 38.689689, 1679.6], [-119.766075, 38.689937, 1679.2], [-119.766755, 38.690469, 1684.3], [-119.767574, 38.691777, 1694.7], [-119.767756, 38.693091, 1704.9], [-119.769146, 38.695627, 1710.3], [-119.770179, 38.69841, 1703.8], [-119.770985, 38.698893, 1702.2], [-119.771727, 38.698925, 1700.5], [-119.772241, 38.698744, 1699.0], [-119.772759, 38.698155, 1696.6], [-119.773257, 38.696882, 1693.6], [-119.773137, 38.695689, 1691.3], [-119.773419, 38.695098, 1689.5], [-119.774354, 38.69452, 1686.5], [-119.774895, 38.693904, 1685.9], [-119.775357, 38.693631, 1686.4], [-119.776677, 38.693545, 1685.8], [-119.778498, 38.693644, 1683.0], [-119.779349, 38.693961, 1683.5], [-119.780843, 38.695548, 1692.9], [-119.781692, 38.696561, 1694.0], [-119.782933, 38.698507, 1705.6], [-119.784914, 38.700603, 1716.2], [-119.785527, 38.701072, 1718.0], [-119.786126, 38.701335, 1720.1], [-119.788271, 38.701877, 1732.1], [-119.788897, 38.7022, 1736.8], [-119.789566, 38.702851, 1742.2], [-119.789809, 38.703415, 1745.2], [-119.790522, 38.706858, 1758.9], [-119.790251, 38.709981, 1770.1], [-119.790452, 38.711226, 1774.6], [-119.791024, 38.712239, 1778.9], [-119.792214, 38.714103, 1789.4], [-119.792938, 38.715849, 1795.1], [-119.793265, 38.71641, 1796.6], [-119.79456, 38.717619, 1800.2], [-119.799071, 38.723597, 1843.5], [-119.79974, 38.724425, 1845.1], [-119.800157, 38.724643, 1845.6], [-119.801014, 38.724228, 1848.2], [-119.801272, 38.723929, 1849.7], [-119.801134, 38.72349, 1851.1], [-119.80071, 38.723509, 1851.6]]}}