{"type": "Feature", "properties": {}, "geometry": {"type": "LineString", "coordinates": [[-122.05194409936666, 37.81920159235597, 349.1], [-122.0520337857306, 37.819253308698535, 348.62], [-122.05212070606649, 37.81931960955262, 349.1], [-122.05230887979269, 37.81944282352924, 348.13], [-122.05244617536664, 37.81952379271388, 347.65], [-122.05251934938133, 37.819559164345264, 348.13], [-122.05269277095795, 37.819676427170634, 345.73], [-122.0527610834688, 37.819789834320545, 345.25], [-122.05280098132789, 37.81990231946111, 345.25], [-122.05286300741136, 37.8200027346611, 345.73], [-122.05291606485844, 37.82012812793255, 346.21], [-122.05304170958698, 37.820303812623024, 346.69], [-122.05315511673689, 37.82033306546509, 346.69], [-122.05333650112152, 37.82034136354923, 347.17], [-122.05346440896392, 37.82043155282736, 348.13], [-122.0536728668958, 37.820628359913826, 351.5], [-122.05374428071082, 37.820703629404306, 351.98], [-122.05384989269078, 37.820797422900796, 351.98], [-122.05396723933518, 37.82088057138026, 352.46], [-122.05399255268276, 37.820910746231675, 352.46], [-122.0541369728744, 37.82100873067975, 352.46], [-122.0543061196804, 37.82109162770212, 352.46], [-122.05450359731913, 37.821111576631665, 352.46], [-122.05471322871745, 37.82117888331413, 352.94], [-122.05478506162763, 37.82121383585036, 352.94], [-122.05513819120824, 37.82130712643266, 353.42], [-122.0555149577558, 37.82133738510311, 358.23], [-122.05572064965963, 37.821333361789584, 366.4], [-122.05585610121489, 37.821404272690415, 368.8], [-122.05588317476213, 37.8214290831238, 368.8], [-122.056091632694, 37.82181532122195, 368.8], [-122.05617427825928, 37.821827894076705, 368.32], [-122.05638256855309, 37.8217589110136, 368.8], [-122.05650134012103, 37.821699399501085, 369.76], [-122.0566445030272, 37.82169722020626, 371.69], [-122.05668037757277, 37.821706775575876, 372.17], [-122.05683519132435, 37.821801071986556, 374.09], [-122.05687567591667, 37.82184784300625, 374.09], [-122.0569830480963, 37.821926046162844, 374.57], [-122.05712579190731, 37.82200986519456, 376.01], [-122.05724439583719, 37.82209871336818, 377.45], [-122.05748612992465, 37.822324354201555, 379.86], [-122.0576080866158, 37.82246927730739, 382.26], [-122.0577323064208, 37.82254052348435, 385.15], [-122.05785778351128, 37.822634149342775, 385.63], [-122.05789877101779, 37.82271369360387, 388.51], [-122.05802609212697, 37.82282483763993, 390.43], [-122.05810303799808, 37.82291293144226, 391.87], [-122.05817093141377, 37.823005970567465, 392.36], [-122.05823739990592, 37.82306078821421, 393.32], [-122.0583819039166, 37.823072858154774, 394.28], [-122.05851316452026, 37.823032792657614, 394.76], [-122.05863185226917, 37.822918547317386, 398.12], [-122.05867267213762, 37.82279365696013, 399.57], [-122.05867803655565, 37.82267882488668, 401.97], [-122.05871248617768, 37.82253650017083, 403.41], [-122.05877987667918, 37.82248394563794, 405.33], [-122.0588859077543, 37.82247556373477, 408.7], [-122.05910308286548, 37.82256055623293, 412.06], [-122.05923534929752, 37.82258410938084, 413.5], [-122.05937147140503, 37.822589809075, 414.95], [-122.05954204313457, 37.822637083008885, 416.87], [-122.05967430956662, 37.82276289537549, 419.27], [-122.06001930870116, 37.82288929447532, 425.04], [-122.06016917712986, 37.822947381064296, 426.96], [-122.06021544523537, 37.82300630584359, 427.44], [-122.06025425344706, 37.82320210710168, 426.48], [-122.06014134921134, 37.82351408153772, 419.27], [-122.06008745357394, 37.823625979945064, 422.64], [-122.06000564619899, 37.82385790720582, 427.44], [-122.05998251214623, 37.82397416420281, 428.89], [-122.05997387878597, 37.82407633960247, 430.81], [-122.05993096344173, 37.82425126992166, 432.25], [-122.05984848551452, 37.82435688190162, 433.21], [-122.05970180220902, 37.824430307373405, 436.58], [-122.05955629236996, 37.824459644034505, 438.02], [-122.05934900790453, 37.82451756298542, 440.42], [-122.0589707326144, 37.82460733316839, 442.82], [-122.05881298519671, 37.82466223463416, 444.27], [-122.05859824083745, 37.82483272254467, 449.55], [-122.05846731550992, 37.82489734701812, 452.44], [-122.05834234133363, 37.82497580163181, 455.8], [-122.05822004936635, 37.825070433318615, 462.05], [-122.05815743654966, 37.8251023683697, 463.49], [-122.05800983123481, 37.82513849437237, 466.86], [-122.0578813366592, 37.82514008693397, 472.14], [-122.05778771080077, 37.82514972612262, 474.55], [-122.05769089981914, 37.8251713514328, 476.47], [-122.0577100943774, 37.82514285296202, 473.59], [-122.05794202163815, 37.82513061538339, 469.26], [-122.05808501690626, 37.82509616576135, 465.9], [-122.05817587673664, 37.82504327595234, 462.53], [-122.05831258557737, 37.82493305392563, 459.17], [-122.05834745429456, 37.82489533536136, 457.24], [-122.05853772349656, 37.82480724155903, 453.88], [-122.05860301852226, 37.82476399093866, 448.11], [-122.05869739875197, 37.82474529929459, 449.07], [-122.05876780673862, 37.8246480692178, 448.11], [-122.05890099518001, 37.82459752634168, 447.63], [-122.05920400097966, 37.82453223131597, 447.15], [-122.05952938646078, 37.82444338314235, 444.27], [-122.05968520604074, 37.82440507784486, 442.82], [-122.0598219987005, 37.82436224631965, 442.82], [-122.05987765453756, 37.82433249056339, 441.86], [-122.05995820462704, 37.824199302122, 439.94], [-122.06001905724406, 37.823921190574765, 436.1], [-122.06003800034523, 37.823802502825856, 434.17], [-122.0600672531873, 37.823716420680285, 431.29], [-122.06017722375691, 37.82348524779081, 428.4], [-122.06022919155657, 37.823349460959435, 425.04], [-122.06025752238929, 37.823106637224555, 422.16], [-122.06020412966609, 37.822965402156115, 418.79], [-122.0602361485362, 37.822958026081324, 418.31], [-122.06036715768278, 37.82299172133207, 416.39], [-122.06056186929345, 37.82298577018082, 415.91], [-122.06064384430647, 37.82293941825628, 415.43], [-122.06065314821899, 37.82285023480654, 414.47], [-122.06065172329545, 37.82268142327666, 415.91], [-122.06070369109511, 37.82249819487333, 417.35], [-122.06080343574286, 37.82242468558252, 416.87], [-122.06078784540296, 37.82234421931207, 415.91], [-122.0607578381896, 37.82225864008069, 417.83], [-122.06066144630313, 37.822174401953816, 417.83], [-122.0605508890003, 37.82206518575549, 416.87], [-122.06042557954788, 37.822007685899734, 413.5], [-122.06037101335824, 37.82197047024965, 413.98], [-122.06031611189246, 37.82186343334615, 412.54], [-122.06028937362134, 37.82187508419156, 412.06], [-122.06022466532886, 37.821848848834634, 409.18], [-122.06009038724005, 37.82177181914449, 406.77], [-122.06000246107578, 37.821813728660345, 403.41], [-122.0600741263479, 37.821727730333805, 397.64], [-122.06020220182836, 37.82178774476051, 396.68], [-122.0603555906564, 37.822016486898065, 402.45], [-122.06041485071182, 37.82208865508437, 403.41], [-122.06044435501099, 37.82228127121925, 402.93], [-122.06031678244472, 37.8224032279104, 401.01], [-122.06028937362134, 37.82244882546365, 400.05], [-122.06015543080866, 37.82254773192108, 400.53], [-122.06010748632252, 37.822537338361144, 403.41], [-122.06000975333154, 37.82248335890472, 400.53], [-122.05988980829716, 37.82239166088402, 396.68], [-122.05971906892955, 37.82229686155915, 398.12], [-122.05956165678799, 37.82225419767201, 396.68], [-122.0594158116728, 37.822196362540126, 394.28], [-122.05922453664243, 37.82213123515248, 390.43], [-122.05907106399536, 37.8220371901989, 385.15], [-122.05881214700639, 37.82200802117586, 383.22], [-122.0587653759867, 37.822019001469016, 382.74], [-122.05856001935899, 37.82196016050875, 382.74], [-122.0584614481777, 37.821938367560506, 381.78], [-122.05830470658839, 37.82193216495216, 380.34], [-122.05830655060709, 37.821949012577534, 379.86], [-122.05819096416235, 37.82195571810007, 378.9], [-122.05810396000743, 37.82197097316384, 378.9], [-122.05793338827789, 37.82204372808337, 376.01], [-122.05776440910995, 37.82201279886067, 375.53], [-122.0576960965991, 37.82190341502428, 375.53], [-122.05759542994201, 37.82182554714382, 375.53], [-122.05741823650897, 37.82176737673581, 377.94], [-122.05741840414703, 37.821691101416945, 376.49], [-122.0573749858886, 37.821562103927135, 374.57], [-122.05722796730697, 37.821396477520466, 372.17], [-122.05716141499579, 37.8213376365602, 371.69], [-122.05698799341917, 37.82129991799593, 371.21], [-122.0568812917918, 37.82124032266438, 372.17], [-122.05672874115407, 37.82119304873049, 370.24], [-122.05657836981118, 37.82115826383233, 367.36], [-122.05639799125493, 37.8210857603699, 364.96], [-122.0562544092536, 37.821043599396944, 363.52], [-122.05613605678082, 37.820960115641356, 359.19], [-122.05596188083291, 37.82090806402266, 357.75], [-122.05567614175379, 37.82075132243335, 359.67], [-122.0555379241705, 37.82072030939162, 358.23], [-122.055399203673, 37.82067219726741, 357.27], [-122.05517699941993, 37.82062944956124, 357.75], [-122.05509753897786, 37.82065283507109, 356.31], [-122.05493710935116, 37.82066909596324, 356.31], [-122.0547672919929, 37.82056633383036, 357.27], [-122.05465950071812, 37.8204879630357, 356.79], [-122.05449177883565, 37.82042006962001, 353.9], [-122.05438541248441, 37.820292077958584, 353.9], [-122.0543269906193, 37.8201774135232, 352.46], [-122.05431542359293, 37.82007339410484, 352.46], [-122.05426437780261, 37.81999737024307, 351.98], [-122.05415549688041, 37.81993073411286, 349.1], [-122.05413437448442, 37.819882705807686, 346.21], [-122.05405114218593, 37.819773238152266, 340.44], [-122.05398408696055, 37.81971791759133, 340.44], [-122.05395659431815, 37.81965974718332, 340.44], [-122.0539797283709, 37.819579783827066, 341.89], [-122.05397453159094, 37.819484397768974, 342.85], [-122.05386808142066, 37.81943402253091, 343.81], [-122.05376146361232, 37.819318352267146, 349.1], [-122.05373958684504, 37.81925020739436, 353.9], [-122.05366666428745, 37.81917770393193, 358.23], [-122.05360757187009, 37.81910209916532, 358.71], [-122.05348025076091, 37.8189133387059, 351.98], [-122.05340255051851, 37.818812504410744, 353.9], [-122.05331437289715, 37.81871510669589, 357.27], [-122.05320918001235, 37.818654254078865, 359.19], [-122.05307113006711, 37.81860019080341, 357.27], [-122.05299803987145, 37.818549145013094, 356.31], [-122.05284649506211, 37.818493489176035, 356.79], [-122.05274289473891, 37.81839148141444, 354.86], [-122.05265136435628, 37.81826709397137, 351.98], [-122.05256201326847, 37.818251168355346, 348.62], [-122.05254315398633, 37.81830171123147, 343.33], [-122.05246486701071, 37.81831629574299, 339.0], [-122.05237811431289, 37.81825929880142, 339.48], [-122.05226479098201, 37.81823297962546, 333.23], [-122.05220326781273, 37.81815527938306, 331.79], [-122.05212808214128, 37.81804027967155, 333.23], [-122.05202917568386, 37.81795285642147, 333.71], [-122.05194778740406, 37.817830396816134, 333.71], [-122.05180194228888, 37.81769134104252, 330.83], [-122.05163790844381, 37.81749461777508, 328.91], [-122.05157370306551, 37.817362770438194, 327.47], [-122.0514555182308, 37.81725900247693, 326.99], [-122.05144847743213, 37.81721365638077, 327.95], [-122.05147312022746, 37.817166382446885, 327.95], [-122.05136843025684, 37.81709153205156, 325.06], [-122.05137128010392, 37.81704333610833, 324.58], [-122.0513157080859, 37.816947447136045, 323.62], [-122.05119961872697, 37.816882906481624, 324.58], [-122.0510855410248, 37.8168860077858, 324.1], [-122.05101588740945, 37.8169031906873, 326.5], [-122.05088881775737, 37.816885421052575, 326.5], [-122.05083793960512, 37.81681098975241, 326.99], [-122.05076174810529, 37.81679489649832, 328.91], [-122.05061498098075, 37.81671904027462, 331.31], [-122.05053694546223, 37.81660127453506, 332.75], [-122.05047994852066, 37.81653723679483, 334.2], [-122.05041917972267, 37.816438749432564, 331.79], [-122.05030954442918, 37.81634118407965, 327.47], [-122.0502744242549, 37.81625149771571, 325.06], [-122.05022321082652, 37.81620464287698, 322.66], [-122.05004400573671, 37.81622660346329, 320.74], [-122.04984862357378, 37.81609391793609, 316.41], [-122.04980411566794, 37.81607732176781, 314.97], [-122.04983253031969, 37.81605494208634, 318.33]]}}