{"type": "Feature", "properties": {}, "geometry": {"type": "LineString", "coordinates": [[-121.77373247221112, 48.082798440009356, 389.95], [-121.77380095236003, 48.08275569230318, 391.39], [-121.77367622964084, 48.08314017020166, 390.43], [-121.77358637563884, 48.08330244384706, 384.18], [-121.77375510334969, 48.08312298730016, 389.47], [-121.77382408641279, 48.08302776888013, 398.12], [-121.77379692904651, 48.08297521434724, 401.49], [-121.77393070422113, 48.082965994253755, 405.33], [-121.77397227846086, 48.08303841389716, 427.92], [-121.7738357372582, 48.08301226235926, 425.04], [-121.77373046055436, 48.08304042555392, 422.64], [-121.77371981553733, 48.082985607907176, 417.83], [-121.77379986271262, 48.082953337579966, 411.58], [-121.77388653159142, 48.08297077193856, 412.06], [-121.77417973056436, 48.08278871700168, 420.71], [-121.77411057986319, 48.08282811194658, 425.52], [-121.77404168061912, 48.08275753632188, 421.19], [-121.7741103284061, 48.082633651793, 415.43], [-121.77418417297304, 48.082559471949935, 413.98], [-121.77421795204282, 48.08257472701371, 415.43], [-121.77426396869123, 48.0825527664274, 414.95], [-121.7743688262999, 48.082589227706194, 413.02], [-121.7745139170438, 48.08240348473191, 415.91], [-121.77474274300039, 48.08230273425579, 417.83], [-121.77494483068585, 48.08229736983776, 418.31], [-121.77491758950055, 48.082214472815394, 417.83], [-121.77489227615297, 48.08206586167216, 415.91], [-121.77504600025713, 48.08195136487484, 416.39], [-121.77520307712257, 48.08205689303577, 414.95], [-121.77544950507581, 48.08209838345647, 414.95], [-121.77564220502973, 48.08210341259837, 414.95], [-121.77584278397262, 48.08214892633259, 415.91], [-121.7760702688247, 48.08223173953593, 415.43], [-121.7763171158731, 48.08229862712324, 414.47], [-121.77652833983302, 48.08227926492691, 416.39], [-121.77671123296022, 48.08231262490153, 416.87], [-121.77687468007207, 48.08226551860571, 421.68], [-121.77674140781164, 48.08225562795997, 422.16], [-121.77665482275188, 48.08213559910655, 421.19], [-121.77650931291282, 48.082040045410395, 419.75], [-121.77639372646809, 48.08194734156132, 426.48], [-121.77648793905973, 48.08181499131024, 434.17], [-121.77656337618828, 48.08173988945782, 433.69], [-121.77656354382634, 48.08167937211692, 436.1], [-121.77635894156992, 48.08170082978904, 438.02], [-121.77615450695157, 48.081716168671846, 439.46], [-121.77592962048948, 48.08167082257569, 439.94], [-121.77578469738364, 48.0816047731787, 440.9], [-121.77559996023774, 48.08149463497102, 441.38], [-121.77547657862306, 48.08140469714999, 441.38], [-121.77570691332221, 48.08129749260843, 445.23], [-121.77587782032788, 48.08123638853431, 449.55], [-121.77609524689615, 48.081356920301914, 452.44], [-121.77636824548244, 48.0812522303313, 461.57], [-121.77667510695755, 48.08129615150392, 465.9], [-121.77691902033985, 48.08130796998739, 467.34], [-121.7771422304213, 48.08133956976235, 473.11], [-121.7774329148233, 48.081412659958005, 475.99], [-121.77770398557186, 48.0815424118191, 474.07], [-121.77793943323195, 48.08153620921075, 479.35], [-121.77816901355982, 48.08160921558738, 481.76], [-121.77840404212475, 48.081747433170676, 482.72], [-121.77853547036648, 48.08183376677334, 482.72], [-121.77887074649334, 48.08184541761875, 483.2], [-121.77940903231502, 48.08208044618368, 488.49], [-121.77962805144489, 48.08215672150254, 493.29], [-121.7799552809447, 48.08218848891556, 496.18], [-121.78024588152766, 48.082329304888844, 498.1], [-121.78049976937473, 48.08244002982974, 500.02], [-121.7805768828839, 48.08245025575161, 504.35], [-121.78089774213731, 48.082509180530906, 506.27], [-121.78111659362912, 48.08250012807548, 507.71], [-121.78112765774131, 48.08260817080736, 513.96], [-121.78127911873162, 48.08261361904442, 517.33], [-121.7812227923423, 48.082695258781314, 522.13], [-121.78116395138204, 48.082703556865454, 517.81], [-121.78108977153897, 48.08267639949918, 526.46], [-121.78095985203981, 48.08259383775294, 523.58], [-121.78087988868356, 48.08245159685612, 530.79], [-121.78094669245183, 48.08235704898834, 533.67], [-121.78097586147487, 48.08234363794327, 532.71], [-121.7809280846268, 48.082246324047446, 538.96], [-121.78099069744349, 48.08221966959536, 538.96], [-121.78098223172128, 48.0821811966598, 537.99], [-121.7809500452131, 48.08218580670655, 537.99], [-121.78099882788956, 48.082088492810726, 537.99], [-121.78096127696335, 48.08208321221173, 541.84], [-121.7808480374515, 48.08201749809086, 545.2], [-121.78074929863214, 48.08187743648887, 547.13], [-121.78067151457071, 48.0819499399513, 550.49], [-121.78067788481712, 48.081787917762995, 554.82], [-121.78066707216203, 48.08179420419037, 554.82], [-121.78061208687723, 48.08171650394797, 557.22], [-121.78059875965118, 48.08162002824247, 557.7], [-121.78053455427289, 48.08151248842478, 560.59], [-121.78053690120578, 48.08144618757069, 560.11], [-121.78056238219142, 48.08140997774899, 563.47], [-121.7804946564138, 48.08127067051828, 571.16], [-121.78050337359309, 48.08118215762079, 579.33], [-121.78059666417539, 48.0812160205096, 578.85], [-121.7805964127183, 48.08124829083681, 572.6], [-121.78070177324116, 48.0811660643667, 563.95], [-121.78062725812197, 48.0811520665884, 569.72], [-121.78056481294334, 48.081079395487905, 572.6], [-121.78059674799442, 48.08102734386921, 577.89], [-121.78057495504618, 48.08098283596337, 581.73], [-121.78070956841111, 48.080969424918294, 587.5], [-121.7807721812278, 48.08087890036404, 586.54], [-121.78073580376804, 48.08098627254367, 593.75], [-121.78068509325385, 48.080811677500606, 592.31], [-121.78072314709425, 48.08069122955203, 596.15], [-121.78072264418006, 48.08072593063116, 598.08], [-121.78081098943949, 48.08072676882148, 603.36], [-121.78086723200977, 48.08059978298843, 615.38], [-121.78082532249391, 48.08064873330295, 616.82], [-121.78076128475368, 48.080680165439844, 619.23], [-121.78080135025084, 48.08053373359144, 623.07], [-121.7808432597667, 48.0804614815861, 620.67], [-121.7808099836111, 48.08043038472533, 623.07], [-121.78065843880177, 48.080441281199455, 623.55], [-121.78061560727656, 48.0803510081023, 624.99], [-121.78058920428157, 48.08040775358677, 631.72], [-121.78058643825352, 48.08023517020047, 633.65], [-121.78056322038174, 48.08020759373903, 639.41], [-121.78066296502948, 48.080124109983444, 634.61], [-121.7806339636445, 48.080075830221176, 634.61], [-121.78070864640176, 48.08003157377243, 638.45], [-121.78068903274834, 48.07992889545858, 640.38], [-121.78065625950694, 48.07991271838546, 639.89], [-121.7806638032198, 48.07980232872069, 644.22], [-121.78062315098941, 48.07975941337645, 649.03], [-121.7806120030582, 48.07970275171101, 652.39], [-121.78067168220878, 48.07963293045759, 654.8], [-121.78070353344083, 48.079712726175785, 650.47], [-121.78065994754434, 48.07967299595475, 657.68], [-121.78057839162648, 48.07964256964624, 662.49], [-121.78060739301145, 48.07955950498581, 660.56], [-121.78072616457939, 48.079486917704344, 659.6], [-121.78066145628691, 48.07948297820985, 661.52], [-121.78069464862347, 48.07938499376178, 663.93], [-121.78090897388756, 48.07947115972638, 664.89], [-121.78098248317838, 48.079441068693995, 663.93], [-121.78088332526386, 48.07937049306929, 670.66], [-121.78087988868356, 48.079313579946756, 673.54], [-121.78081450983882, 48.07931760326028, 677.87], [-121.78072021342814, 48.07921710424125, 685.08], [-121.78074460476637, 48.079174188897014, 689.88], [-121.78083345293999, 48.07906597852707, 690.36], [-121.78084258921444, 48.07902256026864, 688.92], [-121.78091794252396, 48.07896388694644, 691.33], [-121.78091391921043, 48.07893882505596, 699.98], [-121.78082381375134, 48.07885995134711, 702.86], [-121.7807705886662, 48.07876464910805, 706.71], [-121.78073236718774, 48.078797003254294, 706.23], [-121.78066078573465, 48.078755931928754, 708.63], [-121.78057202138007, 48.0787378270179, 713.44], [-121.78055861033499, 48.07864101603627, 715.36], [-121.7805670760572, 48.07860757224262, 713.92], [-121.78050882183015, 48.07859541848302, 719.68], [-121.78047470748425, 48.07852249592543, 722.57], [-121.78040463477373, 48.07846105657518, 724.49], [-121.7803080752492, 48.078426690772176, 724.01], [-121.78031377494335, 48.07837673462927, 724.01], [-121.78019843995571, 48.07820909656584, 753.33], [-121.78010992705822, 48.07814287953079, 754.77], [-121.7800382617861, 48.07804372161627, 755.25], [-121.78006500005722, 48.07798018679023, 755.73], [-121.78004463203251, 48.07789628393948, 754.77], [-121.78010003641248, 48.07790298946202, 759.1], [-121.78002577275038, 48.077833503484726, 759.58], [-121.7800469789654, 48.07779134251177, 772.56], [-121.77999752573669, 48.07781447656453, 774.0], [-121.77997858263552, 48.07778790593147, 776.4], [-121.78000154905021, 48.07764063589275, 775.92], [-121.78004479967058, 48.07760492898524, 774.48], [-121.78005703724921, 48.07766452431679, 775.44], [-121.78008218295872, 48.077515913173556, 775.44], [-121.78006005473435, 48.07752379216254, 781.69], [-121.78005645051599, 48.07735917158425, 787.46], [-121.78005116991699, 48.07740527205169, 789.86], [-121.77999794483185, 48.077393202111125, 793.71], [-121.78000196814537, 48.07731047272682, 794.67], [-121.78005435504019, 48.07723713107407, 791.3], [-121.77994027733803, 48.077211482450366, 792.26], [-121.77997346967459, 48.07727325707674, 796.59], [-121.7799724638462, 48.07732128538191, 798.03], [-121.77994069643319, 48.07732505723834, 802.36], [-121.77985964342952, 48.07717099785805, 809.09], [-121.77992477081716, 48.07717711664736, 808.13], [-121.77987263537943, 48.07711802423, 807.64], [-121.77987875416875, 48.07705583050847, 807.16], [-121.7798432148993, 48.07705792598426, 824.95], [-121.77985277026892, 48.07701718993485, 824.47], [-121.77978462539613, 48.076994977891445, 823.99], [-121.77987732924521, 48.076929934322834, 824.95], [-121.77987732924521, 48.0769784655422, 828.31], [-121.77981555461884, 48.07692909613252, 820.62], [-121.77975788712502, 48.076916355639696, 818.7], [-121.77968370728195, 48.076881151646376, 831.2], [-121.77965747192502, 48.07689883746207, 834.08], [-121.77964649163187, 48.0768658965826, 834.08], [-121.77962260320783, 48.07689833454788, 834.56], [-121.779580777511, 48.07689934037626, 834.56], [-121.77960994653404, 48.07683303952217, 835.52], [-121.7796463239938, 48.07680009864271, 836.96], [-121.77958832122386, 48.07677528820932, 838.41], [-121.77953358739614, 48.07672072201967, 838.41], [-121.77950198762119, 48.076665569096804, 838.89], [-121.77954356186092, 48.076656851917505, 840.33], [-121.77961916662753, 48.07659440673888, 839.37], [-121.77968211472034, 48.07662240229547, 840.33], [-121.77977439947426, 48.07663866318762, 844.66], [-121.77980499342084, 48.07661418803036, 845.62], [-121.77984103560448, 48.076652409508824, 853.31], [-121.77994941361248, 48.07662877254188, 852.35], [-121.77999434061348, 48.076565908268094, 851.38], [-121.78005418740213, 48.076524417847395, 848.98], [-121.77999299950898, 48.076492147520185, 851.87], [-121.78000112995505, 48.07642995379865, 857.15], [-121.77992183715105, 48.07638603262603, 863.4], [-121.77994882687926, 48.07632534764707, 864.36], [-121.77993943914771, 48.07625896297395, 864.84], [-121.7799795884639, 48.07621085084975, 867.73], [-121.77988856099546, 48.076176065951586, 870.13], [-121.77983541972935, 48.076118314638734, 873.01], [-121.77979476749897, 48.07600909844041, 881.19], [-121.77979107946157, 48.07593332603574, 885.51], [-121.77984698675573, 48.075905330479145, 887.43], [-121.77980138920248, 48.07585663162172, 889.36], [-121.7797721363604, 48.07572000660002, 890.8], [-121.7797137144953, 48.075698213651776, 889.84], [-121.77977875806391, 48.075629733502865, 890.8], [-121.77972226403654, 48.075603665784, 891.28], [-121.77966912277043, 48.075597546994686, 892.24], [-121.77963525988162, 48.07552671991289, 893.68], [-121.77964121103287, 48.075463604182005, 893.68], [-121.77956694737077, 48.07543242350221, 897.05], [-121.77949511446059, 48.07535547763109, 897.05], [-121.77940852940083, 48.0753361992538, 896.57], [-121.77933066152036, 48.07527677156031, 898.49], [-121.7792752571404, 48.07526486925781, 901.85], [-121.77923150360584, 48.07523360475898, 910.99], [-121.7791544739157, 48.07524936273694, 918.2], [-121.77917945198715, 48.07519865222275, 921.08], [-121.77910409867764, 48.075155820697546, 919.64], [-121.7790905199945, 48.075081976130605, 914.83], [-121.77914449945092, 48.07509689591825, 920.12], [-121.77914617583156, 48.07505331002176, 925.41], [-121.77910912781954, 48.074986254796386, 929.25], [-121.77907635457814, 48.07497041299939, 932.14], [-121.77904064767063, 48.07491132058203, 932.14], [-121.77899111062288, 48.07489262893796, 934.54], [-121.77889765240252, 48.07488567195833, 937.42], [-121.77889555692673, 48.07491417042911, 938.38], [-121.77882481366396, 48.074960773810744, 942.23], [-121.77879514172673, 48.074897238984704, 940.79], [-121.77870302461088, 48.07486421428621, 943.19], [-121.77867142483592, 48.07476857677102, 940.79], [-121.77858517505229, 48.07472842745483, 948.96], [-121.77851803600788, 48.07466791011393, 949.44], [-121.77846489474177, 48.074684254825115, 953.28], [-121.7784427665174, 48.0746400821954, 956.65], [-121.7783460393548, 48.074537236243486, 957.13], [-121.77833774127066, 48.074517203494906, 960.01], [-121.77822014316916, 48.0745243281126, 958.57], [-121.77805652841926, 48.07449448853731, 967.7], [-121.77812241017818, 48.07451494038105, 969.15], [-121.77811989560723, 48.07444310747087, 969.15], [-121.77804890088737, 48.07438334450126, 967.7], [-121.77796508185565, 48.07439474388957, 969.63], [-121.77790330722928, 48.07437169365585, 971.07], [-121.77787506021559, 48.0742687638849, 971.55], [-121.77781253121793, 48.074205815792084, 970.59], [-121.77784035913646, 48.074166756123304, 969.15], [-121.77780649624765, 48.0741255171597, 972.03], [-121.77766568027437, 48.07407665066421, 974.43], [-121.77755638025701, 48.07406483218074, 973.95], [-121.77749192342162, 48.07404354214668, 975.39], [-121.77750206552446, 48.07407480664551, 978.76], [-121.7775238584727, 48.073982018977404, 977.8], [-121.77749041467905, 48.07391504757106, 978.76], [-121.77749091759324, 48.07387665845454, 980.2], [-121.77755923010409, 48.073846232146025, 976.84], [-121.77748572081327, 48.0737629160285, 977.8], [-121.77748211659491, 48.073728969320655, 980.2], [-121.77756627090275, 48.07371195405722, 980.68], [-121.77752050571144, 48.07370181195438, 990.3], [-121.77746459841728, 48.073740452528, 992.22], [-121.77747750654817, 48.07364707812667, 996.06], [-121.77742143161595, 48.07363819330931, 1002.79], [-121.77735060453415, 48.073556469753385, 1003.27], [-121.77730374969542, 48.07354750111699, 999.43], [-121.77726292982697, 48.073516488075256, 996.06], [-121.77729880437255, 48.07348622940481, 991.74], [-121.7773102875799, 48.073294116184115, 1001.83], [-121.77727818489075, 48.07329076342285, 1004.72], [-121.7772442381829, 48.07323468849063, 1005.68], [-121.77725245244801, 48.07320292107761, 1008.56], [-121.77719905972481, 48.073171405121684, 1008.08], [-121.77726561203599, 48.07310954667628, 1008.08], [-121.77741229534149, 48.07301810011268, 1010.0], [-121.77744070999324, 48.07295674458146, 1010.48], [-121.7774789314717, 48.072914499789476, 1008.08], [-121.77742511965334, 48.07291600853205, 1005.68], [-121.77736510522664, 48.07285658083856, 997.51], [-121.77739008329809, 48.07281115092337, 1012.41], [-121.77732160314918, 48.07285222224891, 1010.48], [-121.77731405943632, 48.07282372377813, 1011.44], [-121.77723099477589, 48.0728529766202, 1016.73], [-121.77725446410477, 48.07293679565191, 1020.1], [-121.77722026593983, 48.07295867241919, 1017.69], [-121.7771718185395, 48.072909051552415, 1018.17], [-121.77723912522197, 48.072888096794486, 1008.56], [-121.7772273067385, 48.07292900048196, 1011.44], [-121.77720132283866, 48.07290234602988, 1007.12], [-121.77725010551512, 48.072886085137725, 1009.52], [-121.77740659564734, 48.07292531244457, 1005.2], [-121.77747566252947, 48.072905698791146, 1007.12], [-121.77750977687538, 48.07292187586427, 1003.75], [-121.77742000669241, 48.07297920808196, 1008.56], [-121.77730031311512, 48.07309806346893, 1003.27], [-121.77711892873049, 48.07316176593304, 998.95], [-121.77714147605002, 48.07321432046592, 995.58], [-121.77720936946571, 48.07331305928528, 991.26], [-121.77721766754985, 48.073351280763745, 988.37], [-121.77721263840795, 48.0735020712018, 986.45], [-121.77727793343365, 48.073577927425504, 982.6], [-121.77740567363799, 48.07363425381482, 981.16], [-121.77750256843865, 48.07369837537408, 976.84], [-121.77748479880393, 48.07380105368793, 975.88], [-121.77744942717254, 48.07388990186155, 972.03], [-121.77744599059224, 48.07399350218475, 969.15], [-121.77750038914382, 48.07402426376939, 968.18], [-121.77761639468372, 48.07406592182815, 965.3], [-121.77772209048271, 48.07413037866354, 962.42], [-121.77769275382161, 48.0742169637233, 960.49], [-121.77788293920457, 48.074378399178386, 960.98], [-121.77803490310907, 48.074435982853174, 962.42], [-121.77807840518653, 48.07451234199107, 956.65], [-121.77821142598987, 48.07453111745417, 955.21], [-121.77826984785497, 48.07456665672362, 950.88], [-121.77838023751974, 48.07460663840175, 948.48], [-121.77840613760054, 48.074646620079875, 947.04], [-121.77851971238852, 48.07471325621009, 941.75], [-121.77854234352708, 48.07474502362311, 936.46], [-121.77863974124193, 48.07479791343212, 930.69], [-121.77874912507832, 48.07486907579005, 917.72], [-121.77882975898683, 48.07485021650791, 912.43], [-121.77900921553373, 48.07491299696267, 908.1], [-121.7790371272713, 48.074955493211746, 906.66], [-121.77904995158315, 48.07507686316967, 907.14], [-121.77912111394107, 48.07523519732058, 901.37], [-121.7792905960232, 48.07526604272425, 891.76], [-121.77935781888664, 48.07531926780939, 887.43], [-121.77954599261284, 48.0754361115396, 884.55], [-121.7795789334923, 48.07547793723643, 878.78], [-121.779694436118, 48.07554650120437, 877.82], [-121.77969200536609, 48.07559930719435, 876.86], [-121.77966669201851, 48.07565479539335, 876.38], [-121.77974254824221, 48.07572243735194, 873.01], [-121.77978705614805, 48.075840370729566, 872.05], [-121.77983080968261, 48.07592754252255, 865.32], [-121.7798194102943, 48.07605444453657, 864.84], [-121.77978697232902, 48.076098868623376, 864.36], [-121.77982267923653, 48.076197104528546, 864.36], [-121.77990825846791, 48.0762580409646, 862.92], [-121.77986416965723, 48.07630808092654, 859.56], [-121.77988051436841, 48.076369520276785, 856.19], [-121.77987288683653, 48.07640690356493, 853.79], [-121.77997338585556, 48.07641863822937, 852.35], [-121.7799346614629, 48.076445208862424, 850.42], [-121.77996148355305, 48.07651310227811, 848.02], [-121.78002644330263, 48.07656875811517, 846.1], [-121.77995687350631, 48.0766137689352, 845.62], [-121.77981270477176, 48.07658485136926, 842.25], [-121.77971631288528, 48.0766037106514, 838.89], [-121.77957767620683, 48.076605051755905, 834.08], [-121.77951749414206, 48.07666045613587, 830.24], [-121.77948757074773, 48.07671376504004, 822.55], [-121.7795361019671, 48.0767416767776, 821.1], [-121.77961556240916, 48.076904620975256, 825.91], [-121.77967859432101, 48.07695801369846, 823.03], [-121.77973106503487, 48.076982824131846, 820.62], [-121.77974590100348, 48.07702548801899, 819.18], [-121.77980558015406, 48.07699531316757, 820.62], [-121.77985553629696, 48.07710025459528, 823.99], [-121.77983986213803, 48.07715733535588, 822.06], [-121.77993549965322, 48.0771269928664, 805.72], [-121.78001361899078, 48.077123053371906, 798.03], [-121.77995301783085, 48.07714266702533, 795.63], [-121.77997724153101, 48.07717979885638, 790.34], [-121.78006642498076, 48.07722279801965, 780.25], [-121.78006349131465, 48.077341904863715, 777.36], [-121.78013398312032, 48.07736914604902, 777.36], [-121.78009961731732, 48.07747693732381, 778.32], [-121.78011286072433, 48.077517254278064, 776.88], [-121.78007857874036, 48.07758833281696, 775.44], [-121.7801111843437, 48.0776241235435, 772.56], [-121.780059132725, 48.07767475023866, 768.23], [-121.78005033172667, 48.077726466581225, 763.9], [-121.78007757291198, 48.07777122594416, 757.66], [-121.78010573610663, 48.07791346684098, 747.56], [-121.78007304668427, 48.07800332084298, 744.2], [-121.78012861870229, 48.0780612397939, 741.79], [-121.7802628967911, 48.07816660031676, 742.28], [-121.78022123873234, 48.07821429334581, 737.95], [-121.78029575385153, 48.078247820958495, 732.18], [-121.78035652264953, 48.0782457254827, 728.34], [-121.78037303499877, 48.07830565609038, 727.37], [-121.78022978827357, 48.07835745625198, 727.37], [-121.78038401529193, 48.07840548455715, 724.97], [-121.78046657703817, 48.07847103103995, 721.13], [-121.78055508993566, 48.07852802798152, 718.24], [-121.78064259700477, 48.07861251756549, 714.88], [-121.78066707216203, 48.078685188665986, 711.99], [-121.78062122315168, 48.07873950339854, 707.19], [-121.78070596419275, 48.07875785976648, 702.38], [-121.78080596029758, 48.07875324971974, 695.17], [-121.78090570494533, 48.07880119420588, 687.96], [-121.78089547902346, 48.07886506430805, 682.19], [-121.7809328623116, 48.078819550573826, 678.35], [-121.7809156794101, 48.078920217230916, 679.31], [-121.78088651038706, 48.078982159495354, 679.79], [-121.78085633553565, 48.07901074178517, 676.91], [-121.78088525310159, 48.07906497269869, 677.87], [-121.78093554452062, 48.07907436043024, 677.39], [-121.78084862418473, 48.079145941883326, 674.5], [-121.78078173659742, 48.07923378422856, 672.1], [-121.78088307380676, 48.07929581031203, 669.7], [-121.78097921423614, 48.0794064514339, 666.33], [-121.78099044598639, 48.07950912974775, 662.97], [-121.78079757839441, 48.07948876172304, 659.6], [-121.78064309991896, 48.079433776438236, 656.72], [-121.7806825786829, 48.079430256038904, 652.39], [-121.78064695559442, 48.07940125465393, 651.43], [-121.78052969276905, 48.079442996531725, 653.35], [-121.780463475734, 48.07954827323556, 654.31], [-121.78039943799376, 48.079609628766775, 648.07], [-121.78040605969727, 48.07966369204223, 644.22], [-121.78051200695336, 48.07973896153271, 642.78], [-121.78056590259075, 48.07989268563688, 641.34], [-121.78055182099342, 48.07999494485557, 638.45], [-121.78052466362715, 48.07998086325824, 631.72], [-121.78053614683449, 48.07993241585791, 631.72], [-121.78049935027957, 48.07990190573037, 633.65], [-121.78046054206789, 48.07998371310532, 636.53], [-121.78038560785353, 48.08010885491967, 638.45], [-121.78043430671096, 48.08022737503052, 638.93], [-121.78051359951496, 48.080331394448876, 634.61], [-121.78059850819409, 48.08037883602083, 632.2], [-121.78060387261212, 48.080419320613146, 627.4], [-121.7807708401233, 48.080386966466904, 623.07], [-121.78077327087522, 48.08041647076607, 619.71], [-121.78087997250259, 48.08063783682883, 609.61], [-121.78073664195836, 48.080772114917636, 604.81], [-121.78067101165652, 48.08078586123884, 600.48], [-121.78072834387422, 48.080971436575055, 594.23], [-121.78063882514834, 48.08116229251027, 591.83], [-121.78053991869092, 48.081203531473875, 585.58], [-121.78057847544551, 48.081331606954336, 579.33], [-121.780672268942, 48.08171113952994, 564.43], [-121.78073471412063, 48.08183452114463, 561.55], [-121.78069724701345, 48.08190107345581, 557.7], [-121.78087930195034, 48.08202026411891, 554.34], [-121.78100544959307, 48.08204432018101, 550.49], [-121.78106412291527, 48.082129899412394, 540.4], [-121.78094744682312, 48.08221656829119, 539.92], [-121.7809212114662, 48.08225906454027, 540.4], [-121.78096270188689, 48.08235512115061, 537.99], [-121.78093118593097, 48.0824129562825, 532.23], [-121.78098550066352, 48.08249266818166, 528.86], [-121.7810676433146, 48.0826370883733, 521.17], [-121.78104945458472, 48.0826199054718, 512.04], [-121.7810351215303, 48.08271671645343, 508.19], [-121.78107376210392, 48.08266952633858, 508.19], [-121.78107853978872, 48.08271462097764, 511.08], [-121.78110670298338, 48.082716381177306, 514.44], [-121.7811281606555, 48.08265745639801, 514.92], [-121.78106797859073, 48.082603979855776, 515.4], [-121.78102741017938, 48.0826164688915, 512.52], [-121.78096823394299, 48.08258906006813, 515.4], [-121.78064418956637, 48.082627365365624, 513.0], [-121.78050546906888, 48.08248286135495, 508.67], [-121.78015158511698, 48.08240683749318, 508.19], [-121.7799280397594, 48.08227909728885, 504.35], [-121.77949561737478, 48.08211707510054, 507.71], [-121.77916545420885, 48.08194013312459, 509.16], [-121.77877871319652, 48.08191171847284, 509.64], [-121.77831242792308, 48.08174869045615, 506.27], [-121.778055857867, 48.08158792555332, 503.87], [-121.77772410213947, 48.081527994945645, 500.5], [-121.77739452570677, 48.0814803019166, 499.06], [-121.77707601338625, 48.08142280206084, 498.58], [-121.77662917412817, 48.0813957285136, 495.22], [-121.7762545030564, 48.081236807629466, 490.89], [-121.77592266350985, 48.08124368079007, 485.6], [-121.7755641695112, 48.081056429073215, 484.16], [-121.77553256973624, 48.08105760253966, 483.68], [-121.77560289390385, 48.081174194812775, 479.35], [-121.77582987584174, 48.08147778734565, 477.43], [-121.77605367265642, 48.081672666594386, 476.95], [-121.77624637261033, 48.08173293247819, 478.39], [-121.77642012946308, 48.08191423304379, 473.11], [-121.77667745389044, 48.081992184743285, 470.7], [-121.77668835036457, 48.08205345645547, 469.74], [-121.77670444361866, 48.08224749751389, 464.45], [-121.77693234756589, 48.08238739147782, 457.72], [-121.77677895873785, 48.08240323327482, 451.0], [-121.77651392295957, 48.08237691409886, 445.71], [-121.77642499096692, 48.08229552581906, 444.75], [-121.77607756108046, 48.08224406093359, 439.46], [-121.77585703320801, 48.0821225233376, 437.54], [-121.77551656030118, 48.08204230852425, 437.54], [-121.77515856921673, 48.08209947310388, 434.65], [-121.77492915652692, 48.081990173086524, 432.73], [-121.77488448098302, 48.08212528936565, 431.29], [-121.77502194419503, 48.08243399485946, 432.25], [-121.77471281960607, 48.08234992437065, 424.56], [-121.77443630062044, 48.08244287967682, 426.0], [-121.77410915493965, 48.08257129043341, 428.4], [-121.77385342307389, 48.082740688696504, 432.25], [-121.77369374781847, 48.082807660102844, 427.92], [-121.77366960793734, 48.082843869924545, 411.58], [-121.77375610917807, 48.08287773281336, 410.62], [-121.77379466593266, 48.08291159570217, 407.74], [-121.7737905588001, 48.08293799869716, 414.47], [-121.77383900620043, 48.08291528373957, 414.47], [-121.77374973893166, 48.08297999203205, 412.06], [-121.77374730817974, 48.08291888795793, 415.43], [-121.77372367121279, 48.08288016356528, 422.16]]}}