{"type": "Feature", "properties": {}, "geometry": {"type": "LineString", "coordinates": [[-120.1797661465, 48.4727425128, 537.99], [-120.1797556691, 48.4727745317, 530.79], [-120.1797674038, 48.4727546666, 532.23], [-120.1797478739, 48.4727494698, 532.23], [-120.1799129136, 48.4725559317, 534.63], [-120.1799323596, 48.4725495614, 535.59], [-120.1801135764, 48.4727039561, 537.99], [-120.1803901792, 48.4728633799, 540.4], [-120.1804988086, 48.4729941376, 540.4], [-120.1805073582, 48.4730329458, 539.44], [-120.1805620082, 48.473144006, 538.48], [-120.1806797739, 48.4732248075, 536.55], [-120.1807906665, 48.4732300881, 534.15], [-120.1808063406, 48.4732467681, 527.42], [-120.1807057578, 48.4732390568, 527.42], [-120.1805988885, 48.4731418267, 534.63], [-120.1805568952, 48.473023558, 537.99], [-120.1806159038, 48.4729774576, 536.07], [-120.1806498505, 48.4729660582, 536.07], [-120.1806580648, 48.472955497, 535.59], [-120.1806791034, 48.4729570057, 536.07], [-120.1808315702, 48.4729752783, 536.55], [-120.1807490923, 48.4729642142, 535.59], [-120.1807267126, 48.4729667287, 534.63], [-120.180729311, 48.4729756974, 533.67], [-120.1808268763, 48.4729785472, 533.19], [-120.1810054947, 48.4729896951, 534.15], [-120.1812115218, 48.4730181936, 534.15], [-120.1812993642, 48.4730272461, 534.15], [-120.1813671738, 48.4730311856, 534.63], [-120.1814765576, 48.473032359, 535.11], [-120.181611171, 48.4730261564, 535.11], [-120.1816841774, 48.4730088897, 536.07], [-120.1817043778, 48.4729996696, 535.11], [-120.1816857699, 48.4729953948, 534.63], [-120.1817957405, 48.4730002563, 535.11], [-120.1818041224, 48.4730036091, 535.11], [-120.1820290089, 48.4730000049, 534.63], [-120.1820935495, 48.4730087221, 534.63], [-120.1821889356, 48.473024983, 534.63], [-120.1824347768, 48.4730813093, 534.15], [-120.1824647002, 48.4730874281, 533.67], [-120.1826578192, 48.473121291, 533.19], [-120.1827628445, 48.4731279127, 528.38], [-120.182826966, 48.4731305111, 531.27], [-120.1830692869, 48.4731990751, 530.79], [-120.1837777253, 48.4733747598, 528.38], [-120.1838183776, 48.4735283162, 529.34], [-120.1837544236, 48.4735846426, 529.82], [-120.1837291103, 48.4736292344, 530.3], [-120.1837193873, 48.4736361075, 530.3], [-120.1836784836, 48.4738038294, 531.75], [-120.1835861988, 48.4740363434, 531.75], [-120.183490226, 48.4741915762, 530.79], [-120.183499027, 48.4741954319, 530.79], [-120.1834354922, 48.4742453881, 530.3], [-120.183240613, 48.474311186, 530.3], [-120.1829703804, 48.4743212443, 529.82], [-120.1829321589, 48.4743183106, 529.82], [-120.1828593202, 48.4743223339, 529.82], [-120.1827480923, 48.4743214957, 529.82], [-120.1824469306, 48.4743111022, 529.34], [-120.1821849961, 48.4743207414, 528.86], [-120.1819455251, 48.4743271954, 528.86], [-120.1818725187, 48.474315796, 528.38], [-120.1817937288, 48.4742919076, 528.38], [-120.1817870233, 48.4742937516, 528.38], [-120.1816610433, 48.4741761535, 527.9], [-120.1816415135, 48.4740803484, 528.38], [-120.1816469617, 48.4740701225, 528.86], [-120.1816305332, 48.4740083478, 529.82], [-120.181632461, 48.4739935957, 529.82], [-120.1816503983, 48.4739757422, 527.42], [-120.181628773, 48.4739697073, 528.38], [-120.1816918887, 48.4738240298, 528.38], [-120.1817280147, 48.4737479221, 528.86], [-120.181808481, 48.4736172482, 529.34], [-120.1819037832, 48.4735605028, 529.34], [-120.1820295956, 48.4734922741, 529.34], [-120.1820487902, 48.4734698944, 529.82], [-120.1821224671, 48.4734480176, 530.79], [-120.1822806336, 48.4734330978, 530.3], [-120.1825243793, 48.4734571539, 530.79], [-120.1827311609, 48.4734761808, 530.79], [-120.1830425486, 48.4735010751, 529.82], [-120.1831012219, 48.4735071938, 530.3], [-120.1831832808, 48.4735074453, 530.3], [-120.1832775772, 48.4735180903, 529.82], [-120.1834946685, 48.4735465888, 529.82], [-120.1837835088, 48.4735642746, 529.34], [-120.1837874483, 48.4735669568, 529.34], [-120.1838673279, 48.4735777695, 529.82], [-120.1840418391, 48.4736452438, 530.3], [-120.184207214, 48.4737341758, 530.79], [-120.1842284203, 48.4737498499, 530.79], [-120.1844211202, 48.4739194158, 529.82], [-120.1845041849, 48.4740121197, 529.82], [-120.1845033467, 48.4740710445, 529.82], [-120.1845082082, 48.4740954358, 529.82], [-120.1845496148, 48.4742252715, 530.3], [-120.1845956314, 48.4744141158, 530.79], [-120.1846335176, 48.4744693525, 531.27], [-120.184858907, 48.4747680835, 531.27], [-120.1849820372, 48.4750042018, 530.3], [-120.1851237752, 48.4750826564, 529.34], [-120.1852629986, 48.4751108196, 529.82], [-120.1853180677, 48.4751230571, 529.82], [-120.1855224185, 48.4751749411, 530.3], [-120.1855579577, 48.4751901124, 530.3], [-120.1856219117, 48.4752124082, 530.79], [-120.1858118456, 48.4752671421, 531.75], [-120.1860368997, 48.4753133263, 530.79], [-120.1861875225, 48.4753414895, 532.23], [-120.1862728503, 48.4753597621, 534.63], [-120.1863496285, 48.4753638692, 535.11], [-120.1864035241, 48.4753808845, 536.07], [-120.1865347847, 48.4754013363, 536.55], [-120.1867044345, 48.4754062817, 537.03], [-120.1869351882, 48.4754190221, 537.51], [-120.1871910039, 48.4754233807, 537.03], [-120.1873211749, 48.4754107241, 537.03], [-120.1875208318, 48.4753845725, 537.99], [-120.1877116878, 48.4753484465, 538.96], [-120.1880311221, 48.4752991609, 539.92], [-120.1880847663, 48.4753081296, 538.96], [-120.1881079003, 48.4753047768, 537.99], [-120.1883091498, 48.4752471931, 538.96], [-120.1885943022, 48.4751927946, 540.4], [-120.1889093779, 48.4751417488, 539.44], [-120.188967213, 48.4751292598, 539.92], [-120.1891777664, 48.4750751127, 540.4], [-120.1895413734, 48.4749666508, 539.44], [-120.1898350753, 48.4748524055, 537.99], [-120.1900240872, 48.4747852664, 537.03], [-120.1900158729, 48.4747813269, 537.03], [-120.1896648388, 48.4749176167, 537.03], [-120.1895623282, 48.4749469534, 537.03], [-120.1892794389, 48.4750446863, 538.48], [-120.1892434806, 48.4750488773, 538.48], [-120.1892029122, 48.4750625398, 538.96], [-120.1890989766, 48.475088859, 539.92], [-120.1888350304, 48.4751430061, 540.4], [-120.1885690726, 48.4751870111, 539.92], [-120.1882973313, 48.4752475284, 539.44], [-120.1881597843, 48.4752671421, 540.88], [-120.188154839, 48.4752709977, 540.4], [-120.1883140951, 48.4752455167, 539.44], [-120.1883233152, 48.4752383921, 538.96], [-120.188593464, 48.475198159, 539.44], [-120.1890035905, 48.4751229733, 538.48], [-120.1892532036, 48.4750471171, 537.51], [-120.189460991, 48.4749897011, 537.99], [-120.1899459679, 48.4748137649, 537.51], [-120.190032972, 48.4747714363, 537.51], [-120.1904811524, 48.4745672531, 535.59], [-120.190611491, 48.4744968452, 535.11], [-120.1906048693, 48.4744820092, 535.59], [-120.190622136, 48.4744845238, 536.07], [-120.19046464, 48.4745644033, 537.03], [-120.19046003, 48.4745778982, 537.51], [-120.1904496364, 48.4745549317, 535.59], [-120.190430861, 48.4745626431, 534.15], [-120.1904426794, 48.4745706059, 531.75], [-120.1905347127, 48.4745301213, 531.75], [-120.190609647, 48.4744929895, 531.75], [-120.1907915343, 48.4744086675, 533.19], [-120.1910586655, 48.4743223339, 534.63], [-120.1912884135, 48.4742592182, 535.11], [-120.1915527787, 48.4742057417, 535.11], [-120.1916110329, 48.474200964, 535.11], [-120.1917131245, 48.4741795901, 535.11], [-120.1919900626, 48.474147236, 534.63], [-120.1923074853, 48.4741070028, 535.11], [-120.192560032, 48.4740987886, 536.55], [-120.1928705815, 48.4740894008, 536.55], [-120.1930082124, 48.4740834497, 536.55], [-120.1931752637, 48.4740826115, 537.99], [-120.1936224382, 48.4741014708, 540.88], [-120.1936698798, 48.4740973637, 540.4], [-120.1938250288, 48.4740961902, 540.4], [-120.1938517671, 48.4740892332, 540.4], [-120.193875907, 48.4740912449, 540.4], [-120.1939409506, 48.4740857966, 540.4], [-120.1939689461, 48.4740714636, 538.96], [-120.1939846203, 48.4740690328, 538.96], [-120.1940265298, 48.474087473, 537.99], [-120.1940532681, 48.4740844555, 538.96], [-120.1943157054, 48.474091664, 539.44], [-120.1945351437, 48.4740945138, 539.92], [-120.194794815, 48.474108763, 540.4], [-120.195096815, 48.4741443861, 539.92], [-120.1952934545, 48.4741987009, 540.4], [-120.1954605896, 48.4742627386, 540.4], [-120.195575254, 48.4743090905, 539.92], [-120.1958694588, 48.4744173847, 539.44], [-120.195902735, 48.474431131, 539.44], [-120.1960925013, 48.4744835179, 539.92], [-120.1964871213, 48.4746000264, 539.92], [-120.1965174638, 48.474610839, 539.92], [-120.1966334693, 48.4746285249, 539.92], [-120.1966522448, 48.4746228252, 539.92], [-120.1968767121, 48.4746652376, 538.96], [-120.1971169375, 48.4747194685, 539.44], [-120.1973160077, 48.4747750405, 539.44], [-120.1973258145, 48.4747728612, 539.44], [-120.197561346, 48.4748400841, 539.44], [-120.1978481747, 48.4749270882, 539.92], [-120.1980219316, 48.4749766253, 539.92], [-120.1982318982, 48.4749951493, 538.96], [-120.1983578783, 48.4749678243, 539.44], [-120.1984808408, 48.4749142639, 539.44], [-120.1984906476, 48.4749084804, 537.51], [-120.1985931583, 48.4747708496, 538.96], [-120.1987832598, 48.4745990206, 538.48], [-120.1988255046, 48.4745508246, 537.99], [-120.1989474613, 48.4743132815, 537.99], [-120.1989838388, 48.4741962701, 539.44], [-120.1990306098, 48.4740320686, 539.44], [-120.1990716811, 48.4739521891, 539.92], [-120.1992348768, 48.4738198388, 539.44], [-120.1994397305, 48.47379243, 539.44], [-120.1997030899, 48.4737868141, 539.44], [-120.1998923533, 48.4737801924, 539.92], [-120.1998843066, 48.473785473, 540.88], [-120.1999410521, 48.4737760853, 540.88], [-120.2000872325, 48.473703498, 541.84], [-120.2002049144, 48.4736207686, 540.88], [-120.200242633, 48.4735841397, 540.4], [-120.2003776655, 48.473477019, 539.92], [-120.2006427012, 48.4733382985, 538.96], [-120.2007936593, 48.47328851, 538.48], [-120.2010289393, 48.4732020088, 539.44], [-120.2011044603, 48.4731678106, 539.44], [-120.2011877764, 48.4731321875, 539.44], [-120.2013990842, 48.473005034, 539.44], [-120.201566387, 48.4729238972, 539.92], [-120.2015651297, 48.4729384817, 540.4], [-120.201646015, 48.4729212988, 540.4], [-120.2017857414, 48.4728973266, 540.88], [-120.202050861, 48.4729083907, 541.36], [-120.2021154854, 48.4729171079, 541.36], [-120.2022708859, 48.4729565028, 541.36], [-120.2025275398, 48.4729829896, 541.36], [-120.2026049886, 48.4729901981, 541.36], [-120.2028560266, 48.4730005916, 541.36], [-120.2028894704, 48.4730172716, 538.96], [-120.2029017918, 48.472980056, 539.92], [-120.2028751373, 48.472842006, 540.88], [-120.2029021271, 48.4727900382, 540.88], [-120.2029641531, 48.4726059716, 539.92], [-120.203012852, 48.4724146128, 538.96], [-120.2030470502, 48.4723467194, 539.44], [-120.2031526621, 48.4722089209, 539.44], [-120.2031576075, 48.4720103536, 539.92], [-120.2030231617, 48.4718402848, 539.92], [-120.2028112672, 48.4717888199, 540.4], [-120.2024499234, 48.4717241954, 541.36], [-120.2023492567, 48.4716825373, 541.36], [-120.2022837102, 48.4716148954, 541.84], [-120.2022561338, 48.4715739917, 542.8], [-120.2021394577, 48.4714858979, 542.8], [-120.2020990569, 48.4714651946, 542.8], [-120.2018879168, 48.4714266378, 543.28], [-120.201808624, 48.4714232851, 543.28], [-120.2016552351, 48.4714138135, 543.28], [-120.2013937198, 48.4713652823, 543.28], [-120.2013637125, 48.4713588282, 543.28], [-120.2011614572, 48.4713207744, 542.32], [-120.2010718547, 48.4713019989, 541.84], [-120.2007832658, 48.4713065252, 542.8], [-120.2006225847, 48.4713180922, 542.32], [-120.200388059, 48.4713291563, 542.32], [-120.2001762483, 48.4713338502, 541.84], [-120.1998857316, 48.4713050164, 541.84], [-120.199574763, 48.4712612629, 541.84], [-120.1990659814, 48.471218599, 540.88], [-120.1986609679, 48.4712397214, 540.88], [-120.1984738838, 48.4712481033, 540.4], [-120.1981547009, 48.4712507017, 540.88], [-120.1980195008, 48.4712411463, 540.88], [-120.1977877412, 48.4712015837, 541.84], [-120.1977648586, 48.4711938724, 541.84], [-120.197673915, 48.4711785335, 542.8], [-120.1975463424, 48.4711237997, 542.32], [-120.1975082885, 48.4711175133, 541.84], [-120.197291784, 48.4710677247, 541.36], [-120.1972229686, 48.4710651264, 542.32], [-120.1971156802, 48.4710853267, 545.69], [-120.1970901154, 48.4710864164, 545.69], [-120.1970612817, 48.4710955527, 545.69], [-120.1969614532, 48.4711061977, 544.72], [-120.1967789792, 48.471091697, 545.2], [-120.1966230758, 48.4709993284, 545.2], [-120.196598433, 48.4709636215, 544.72], [-120.1965654083, 48.4708918724, 544.72], [-120.1965213194, 48.4707570076, 545.69], [-120.1964796614, 48.4706009366, 546.65], [-120.19643398, 48.4704426862, 546.65], [-120.1964164618, 48.4703664109, 546.65], [-120.196401123, 48.470250573, 547.13], [-120.1964406855, 48.4701443743, 547.13], [-120.1964476425, 48.4701457992, 546.65], [-120.1964882948, 48.4700678475, 547.13], [-120.1965214871, 48.4700383432, 547.13], [-120.1967096608, 48.4699269477, 548.57], [-120.1968727726, 48.4698475711, 550.49], [-120.1970196236, 48.4697646741, 550.49], [-120.1971756946, 48.4696293902, 550.97], [-120.1972419117, 48.4695200063, 550.97], [-120.1973819733, 48.4692626819, 550.49], [-120.1974068675, 48.4692006558, 550.49], [-120.1974483579, 48.469115328, 550.49], [-120.1975159161, 48.4689543117, 550.01], [-120.1975408103, 48.468907373, 550.49], [-120.1975900121, 48.4687825665, 550.01], [-120.1976640243, 48.4686129168, 549.53], [-120.1977032516, 48.4684870206, 550.49], [-120.1977387909, 48.4683844261, 550.49], [-120.1977325045, 48.4683199693, 550.49], [-120.1975963823, 48.4681920614, 549.53], [-120.1974750962, 48.4681379981, 548.57], [-120.1974730846, 48.4681394231, 549.53], [-120.1972902752, 48.4681512415, 549.53], [-120.1971782092, 48.4681503195, 549.05], [-120.197020378, 48.4681328852, 549.53], [-120.196921723, 48.4681191389, 550.01], [-120.1967390813, 48.4680479765, 550.49], [-120.1965536736, 48.4679498244, 550.49], [-120.1963903941, 48.4678470623, 550.01], [-120.1962315571, 48.4677578788, 549.53], [-120.1960555371, 48.467643382, 550.01], [-120.1958313212, 48.4675074276, 550.01], [-120.1957126334, 48.4674184117, 550.97], [-120.1957091969, 48.4674008936, 550.97], [-120.1955898385, 48.467313638, 550.97], [-120.195543319, 48.4672902524, 552.41], [-120.1954563148, 48.467213558, 553.38], [-120.195377022, 48.4671556391, 554.82], [-120.195182981, 48.4670665395, 555.3], [-120.19509078, 48.4670020826, 555.3], [-120.1949808095, 48.4669419006, 555.78], [-120.1948792208, 48.4668584168, 556.74], [-120.1947682444, 48.4667227138, 557.22], [-120.1946511492, 48.4665619489, 557.22], [-120.1943071559, 48.4664413333, 557.22], [-120.1938594785, 48.4664181992, 555.3], [-120.1938197482, 48.4664238989, 554.82], [-120.1934778504, 48.466457678, 554.34], [-120.1933726575, 48.4664626233, 553.86], [-120.1933615934, 48.4664741904, 553.38], [-120.1933442429, 48.4665858373, 554.82], [-120.1933875773, 48.4667446744, 554.82], [-120.1934190094, 48.466911139, 554.82], [-120.1934569795, 48.4670802858, 555.3], [-120.1935052592, 48.4672526177, 555.3], [-120.1936093625, 48.4674166515, 554.34], [-120.1936889905, 48.4674747381, 555.3], [-120.193908764, 48.4675741475, 556.26], [-120.1939386874, 48.4675867204, 556.26], [-120.194224678, 48.467737427, 556.26], [-120.1943005342, 48.4678737167, 556.26], [-120.194306653, 48.4679710306, 556.26], [-120.1942905597, 48.468166329, 556.26], [-120.1942874584, 48.468192732, 553.86], [-120.19428025, 48.4681967553, 553.86], [-120.19427564, 48.4683631361, 555.3], [-120.1942869555, 48.4684263356, 555.3], [-120.1943503227, 48.4685876872, 556.74], [-120.1943799108, 48.468647534, 557.7], [-120.1943903044, 48.4686499648, 557.7], [-120.1944592874, 48.4687359631, 558.18], [-120.1944708545, 48.4688758571, 558.18], [-120.1942879613, 48.4690314252, 558.18], [-120.1942049805, 48.4691362828, 559.14], [-120.1941866241, 48.4691863228, 560.59], [-120.1941737998, 48.4693040047, 559.62], [-120.1941695251, 48.4693226125, 559.62], [-120.1941541862, 48.469464099, 560.59], [-120.1941393502, 48.4695904143, 560.59], [-120.1941204909, 48.4696525242, 560.59], [-120.1941046491, 48.4697147179, 560.59], [-120.19408294, 48.4697598964, 560.59], [-120.1940423716, 48.469901802, 560.59], [-120.1940284576, 48.4699165542, 562.03], [-120.1940106042, 48.4699704498, 562.99], [-120.1940093469, 48.4700139519, 563.47], [-120.1940126158, 48.4700454678, 564.43], [-120.1940080896, 48.4700867906, 564.91], [-120.1940169744, 48.4701131098, 565.87], [-120.1940220036, 48.4701566957, 566.83], [-120.1940429583, 48.4702037182, 567.8], [-120.1941049844, 48.4702469688, 567.8], [-120.1941471454, 48.4702713601, 568.76], [-120.1942447107, 48.4702940751, 569.72], [-120.1946462039, 48.4702403471, 569.24], [-120.1947497204, 48.4702972602, 568.28], [-120.1947526541, 48.4703037981, 567.8], [-120.1947408356, 48.4704775549, 564.43], [-120.1945286896, 48.4707394056, 561.55], [-120.1942867041, 48.4708493762, 561.07], [-120.1941883843, 48.4708822332, 561.55], [-120.1940434612, 48.4709419124, 561.55], [-120.1937676966, 48.4710434172, 560.59], [-120.19345304, 48.4711398929, 560.11], [-120.1932669617, 48.4712101333, 561.55], [-120.1931262296, 48.47132002, 562.51], [-120.1931231283, 48.4713607561, 562.51], [-120.1931097172, 48.4713715687, 562.99], [-120.1930833142, 48.4715019912, 562.99], [-120.1930707414, 48.471596539, 563.47], [-120.1930694003, 48.4716422204, 563.47], [-120.1930480264, 48.4718483314, 563.95], [-120.1931100525, 48.4721560311, 561.55], [-120.1931496989, 48.4721854515, 561.55], [-120.1937285531, 48.472383013, 558.66], [-120.1938857138, 48.4723674227, 559.14], [-120.1939665992, 48.4722981881, 559.14], [-120.1940372586, 48.4721500799, 560.11], [-120.1940467302, 48.4720830247, 560.59], [-120.1940562017, 48.4720862936, 560.59], [-120.1940927468, 48.4720446356, 561.55], [-120.1940924115, 48.4720403608, 561.55], [-120.1941379253, 48.4719428793, 562.03], [-120.1941682678, 48.471859144, 562.99], [-120.1942313835, 48.4717790969, 562.03], [-120.1945107523, 48.4717004746, 561.55], [-120.1947561745, 48.4717918374, 561.55], [-120.195290437, 48.4720083419, 559.14], [-120.1955076121, 48.4720413666, 559.14], [-120.1956141461, 48.4720093478, 559.62], [-120.1957973745, 48.4718766622, 557.7], [-120.1958329976, 48.4716520272, 557.22], [-120.1958279684, 48.4715696331, 557.22], [-120.1958407089, 48.4714899212, 558.18], [-120.1958185807, 48.4714672901, 558.18], [-120.1958251186, 48.4714314155, 559.62], [-120.1958169881, 48.4714067727, 559.62], [-120.1958178263, 48.4713387955, 560.59], [-120.1966643147, 48.4710142482, 547.13], [-120.1969321165, 48.4710875899, 547.61], [-120.1973881759, 48.4710657969, 544.72], [-120.1974797063, 48.4710844886, 542.32], [-120.1976749208, 48.4711502865, 542.8], [-120.1978331711, 48.4711864125, 542.32], [-120.1981438883, 48.4712332673, 542.32], [-120.1982191578, 48.4712373745, 542.32], [-120.1984812599, 48.4712305851, 542.32], [-120.1986594591, 48.4712218679, 542.32], [-120.1989389118, 48.4712071158, 542.32], [-120.1991150994, 48.4712046012, 542.8], [-120.1992104854, 48.4712091275, 542.32], [-120.1995383855, 48.4712429903, 542.32], [-120.199932754, 48.4712946229, 543.28], [-120.2001510188, 48.4713150747, 543.28], [-120.2003771625, 48.471314488, 543.28], [-120.2005519252, 48.4713041782, 543.28], [-120.2007411886, 48.4712968022, 543.28], [-120.2009160351, 48.4712924436, 542.8], [-120.2011075616, 48.4712986462, 542.8], [-120.2014066279, 48.4713551402, 542.32], [-120.2015652973, 48.4713806212, 541.84], [-120.2017901, 48.4714139812, 541.84], [-120.2021117974, 48.4714480955, 542.32], [-120.2021884918, 48.4714970458, 541.84], [-120.202353783, 48.4716668632, 540.88], [-120.2026876342, 48.4717465751, 541.36], [-120.2029580344, 48.4718034882, 541.36], [-120.2030415181, 48.4718459845, 541.36], [-120.20309994, 48.4718868881, 541.36], [-120.2031819988, 48.4720290452, 542.32], [-120.2031864412, 48.4721135348, 542.32], [-120.2031117585, 48.4722633194, 543.28], [-120.203003129, 48.472445542, 541.84], [-120.2029832639, 48.4725025389, 541.84], [-120.2029319666, 48.4726609569, 541.84], [-120.2029335592, 48.4727307782, 541.84], [-120.2029144485, 48.4727726877, 541.84], [-120.2029062342, 48.4728033654, 542.32], [-120.2028995287, 48.4728488792, 542.32], [-120.2028810047, 48.4729492944, 541.84], [-120.2028943319, 48.472978631, 541.84], [-120.2029350679, 48.4729850851, 541.84], [-120.2031483036, 48.4729957301, 542.32], [-120.203450555, 48.4729948919, 541.84], [-120.2036773693, 48.4730074648, 541.84], [-120.2038450073, 48.4730255697, 541.84], [-120.2039360348, 48.473033784, 541.36], [-120.2042283118, 48.4730640426, 540.88], [-120.2043169085, 48.4730700776, 540.88], [-120.2045143023, 48.4730917029, 540.88], [-120.2047043201, 48.4731204528, 540.88], [-120.2049584594, 48.4731523041, 540.88], [-120.2050261013, 48.473150041, 541.84], [-120.2052223217, 48.4731595125, 541.84], [-120.2053271793, 48.4731549863, 541.84], [-120.2057740185, 48.4732045233, 541.36], [-120.2058981545, 48.4732478578, 541.36], [-120.2060073707, 48.4733021725, 541.36], [-120.2062245458, 48.4735002369, 540.4], [-120.2063926868, 48.4736392926, 540.4], [-120.206522271, 48.4736942779, 541.36], [-120.2066205069, 48.4737176634, 541.36], [-120.2067811042, 48.4737719782, 542.8], [-120.2068809327, 48.4737824555, 543.76], [-120.2069810126, 48.4737622552, 545.2], [-120.2069911547, 48.4737624228, 545.69], [-120.2070858702, 48.4737478383, 546.17], [-120.2071765624, 48.4737422224, 547.61], [-120.2072372474, 48.4737643506, 547.13], [-120.207262896, 48.4737764206, 547.61], [-120.2073530853, 48.4737746604, 547.61], [-120.2074144408, 48.4737831261, 547.13], [-120.2075392473, 48.4738114569, 546.65], [-120.2078393195, 48.4738783445, 546.65], [-120.2079760283, 48.4739016462, 545.69], [-120.2081164252, 48.4739148058, 546.17], [-120.2082805429, 48.4739277139, 545.69], [-120.2085635997, 48.4739162307, 545.2], [-120.2087971196, 48.4738976229, 545.2], [-120.2088723052, 48.4738686215, 545.69], [-120.2089870535, 48.4737264644, 544.24], [-120.209122505, 48.4736531228, 545.69], [-120.2093478106, 48.4736314137, 546.65], [-120.209574122, 48.4736337606, 546.17], [-120.2098639682, 48.4736331739, 546.65], [-120.2098557539, 48.4736280609, 546.65], [-120.2098730206, 48.4736142308, 545.2], [-120.2098716795, 48.4736264683, 546.17], [-120.2101404034, 48.4736231994, 545.69], [-120.2101745177, 48.4736191761, 545.69], [-120.2104367875, 48.4735387936, 546.65], [-120.2107276395, 48.4734609257, 546.65], [-120.2109783422, 48.473445503, 546.65], [-120.2110824455, 48.473433014, 546.65], [-120.211284114, 48.4733539727, 546.65], [-120.2113039792, 48.4733387176, 547.13], [-120.2115891315, 48.4731958061, 546.65], [-120.2116262633, 48.4731874242, 546.65], [-120.2119078115, 48.4731502086, 545.2], [-120.2120820712, 48.4731378034, 545.2], [-120.2121938858, 48.473128248, 545.69], [-120.2122088894, 48.4731336962, 546.17], [-120.2124511264, 48.473194968, 546.17], [-120.2124859951, 48.4731981531, 547.61], [-120.2123212907, 48.4731689841, 550.01], [-120.2122808062, 48.4731600154, 550.01], [-120.212103948, 48.4731261525, 549.53], [-120.2119026147, 48.4731281642, 549.05], [-120.2118053008, 48.4731393959, 548.57], [-120.2115449589, 48.4731820598, 548.09], [-120.2112479042, 48.4733550623, 549.05], [-120.210897373, 48.4734383784, 548.09], [-120.2107634302, 48.4734366182, 547.61], [-120.2105301619, 48.4734854847, 547.61], [-120.2103408147, 48.4735724051, 547.61], [-120.2102413215, 48.4736031666, 547.61], [-120.2100600209, 48.4736218583, 547.61], [-120.2099676523, 48.4736336768, 546.65], [-120.2099534031, 48.4736325033, 546.65], [-120.2097852621, 48.4736331739, 547.13], [-120.2096263412, 48.4736279771, 547.61], [-120.2095943224, 48.4736310784, 548.57], [-120.2094293665, 48.4736289829, 548.57], [-120.2091261931, 48.4736338444, 547.61], [-120.2089969441, 48.4736997262, 547.13], [-120.2089415397, 48.4737985488, 547.13], [-120.2089091856, 48.473837357, 547.61], [-120.2088673599, 48.4738620836, 548.09], [-120.2087031584, 48.4738961142, 548.57], [-120.2085888293, 48.4739139676, 548.57], [-120.20837266, 48.4739258699, 547.13], [-120.2080800477, 48.4739171527, 547.61], [-120.2079578396, 48.4738987125, 547.61], [-120.2076759562, 48.4738493431, 547.13], [-120.2076039556, 48.4738322441, 546.65], [-120.207359707, 48.4737806953, 546.65], [-120.2072069887, 48.4737821203, 544.72], [-120.2070974372, 48.4737501014, 546.17], [-120.2071138658, 48.473751191, 547.61], [-120.2071041428, 48.4737380315, 546.17], [-120.207041027, 48.4737492632, 546.17], [-120.206619082, 48.4737208486, 545.2], [-120.2063640207, 48.4735996462, 543.28], [-120.2062539663, 48.4735110495, 542.8], [-120.2058920357, 48.4732356202, 540.88], [-120.2056989167, 48.4731830657, 541.84], [-120.2056154329, 48.4731702413, 541.36], [-120.2054269239, 48.4731506277, 541.36], [-120.2050058171, 48.4731497057, 540.88], [-120.204723347, 48.4731178544, 540.88], [-120.2045413759, 48.4730988275, 540.4], [-120.2042454109, 48.4730751067, 540.88], [-120.20396512, 48.4730455186, 540.88], [-120.2038505394, 48.4730317723, 540.88], [-120.2034779638, 48.4729977418, 540.88], [-120.2033928037, 48.4729945567, 541.36], [-120.2030409314, 48.4730162658, 541.36], [-120.2029126044, 48.4730220493, 541.36], [-120.2028876264, 48.4730261564, 541.36], [-120.202840101, 48.4730218817, 541.84], [-120.2025560383, 48.4730016813, 541.36], [-120.2022892423, 48.472970333, 541.84], [-120.2021803614, 48.4729544073, 541.84], [-120.2018373739, 48.4729137551, 541.84], [-120.2016744297, 48.4729277529, 541.84], [-120.2015486173, 48.4729528148, 541.36], [-120.2013963182, 48.4730209596, 540.88], [-120.2009983454, 48.4732228797, 539.44], [-120.2006131131, 48.4733577445, 537.51], [-120.2003628295, 48.4734757617, 537.99], [-120.2003351692, 48.4735035896, 538.96], [-120.2001475822, 48.4736465849, 538.96], [-120.1998077799, 48.4737825394, 539.44], [-120.1993266586, 48.4738086071, 539.44], [-120.1991666481, 48.4738529474, 539.44], [-120.1990467869, 48.4739757422, 539.44], [-120.1989960764, 48.4741354175, 539.44], [-120.1989202201, 48.4743555263, 538.48], [-120.1988488063, 48.4745063167, 537.99], [-120.1987975929, 48.4745737072, 537.99], [-120.198714193, 48.4746773075, 538.96], [-120.1985944156, 48.4747963306, 539.44], [-120.1984704472, 48.4749211371, 539.44], [-120.1983753126, 48.4749778826, 538.96], [-120.1980737317, 48.4749938082, 537.99], [-120.1978102885, 48.4749242384, 537.51], [-120.1975838095, 48.4748477116, 537.51], [-120.1973161753, 48.4747695085, 537.03], [-120.1970358845, 48.4746944904, 537.03], [-120.1967944019, 48.4746624716, 537.99], [-120.1966156997, 48.4746303689, 537.99], [-120.1965909731, 48.4746141918, 537.99], [-120.1965683419, 48.4746170416, 538.48], [-120.1963152084, 48.4745530877, 538.96], [-120.1962791663, 48.4745485615, 538.96], [-120.1961748116, 48.4745265171, 538.96], [-120.1957867295, 48.4744227491, 539.92], [-120.1957278047, 48.4743968491, 539.92], [-120.1954380423, 48.4742846154, 540.4], [-120.1950874273, 48.4741616528, 539.92], [-120.1949578431, 48.474138435, 539.92], [-120.1946166996, 48.4741162229, 539.92], [-120.1944808289, 48.4741228446, 539.92], [-120.1940204948, 48.4741010517, 538.96], [-120.1933633536, 48.4741053265, 537.99], [-120.1932591666, 48.4740989562, 537.99], [-120.1930606831, 48.4741043206, 538.48], [-120.1925778016, 48.4741105232, 538.96], [-120.1921220776, 48.4741398599, 538.96], [-120.1920059044, 48.4741535224, 538.96], [-120.191726787, 48.4741954319, 538.48], [-120.1914048381, 48.4742519259, 539.44], [-120.191208953, 48.4742934164, 539.44], [-120.1910817157, 48.4743261058, 538.96], [-120.1908558235, 48.4743981902, 538.96], [-120.1907399017, 48.4744363278, 538.96], [-120.1907274965, 48.4744448774, 538.96], [-120.1905135904, 48.4745416045, 538.96], [-120.190468831, 48.4745733719, 537.99], [-120.1900267694, 48.474764647, 537.99], [-120.1898781583, 48.4748344682, 537.03], [-120.1898172218, 48.4748605359, 537.03], [-120.1895367634, 48.4749510605, 537.03], [-120.1893731486, 48.4749990888, 538.48], [-120.1893644314, 48.4750110749, 538.96], [-120.1893252879, 48.4750324488, 538.48], [-120.1892640162, 48.4750492964, 538.48], [-120.1890364476, 48.4751171898, 540.4], [-120.1889747567, 48.4751334507, 539.92], [-120.1887921989, 48.475164799, 539.44], [-120.1884852536, 48.4752228856, 540.88], [-120.1881581079, 48.4752766974, 541.36], [-120.188076552, 48.4752891026, 541.36], [-120.1878823433, 48.4753240552, 541.36], [-120.1874773297, 48.4753854945, 540.4], [-120.1873701252, 48.4754091315, 540.4], [-120.186997382, 48.4754252248, 538.96], [-120.1867373753, 48.4754181001, 538.96], [-120.1864333637, 48.4754035994, 540.88], [-120.1858574431, 48.4753059503, 537.99], [-120.1857815869, 48.475286169, 537.51], [-120.1855680998, 48.4752083011, 535.11], [-120.1853922475, 48.475162033, 534.63], [-120.1850616653, 48.4750896133, 534.15], [-120.1849428099, 48.4749757033, 533.19], [-120.184907103, 48.4748954885, 533.19], [-120.1848948654, 48.4748534951, 533.19], [-120.1848643553, 48.4747825842, 532.71], [-120.1848522015, 48.4747478832, 531.75], [-120.184748685, 48.4746302851, 532.23], [-120.1847176719, 48.4745769762, 531.27], [-120.1846848987, 48.4745340608, 532.23], [-120.1846407261, 48.4745064005, 532.23], [-120.1846279856, 48.4744659998, 535.11], [-120.1845552307, 48.4743469767, 534.63], [-120.1845501177, 48.4741872177, 534.15], [-120.1844911091, 48.4740269557, 532.71], [-120.1844094694, 48.4739355929, 532.23], [-120.1843164302, 48.4738528635, 530.79], [-120.1842443459, 48.4737779293, 530.79], [-120.184054831, 48.4736678749, 529.82], [-120.1838203054, 48.4735780209, 529.82], [-120.1838026196, 48.4735812061, 531.75], [-120.1838259213, 48.4735282324, 531.75], [-120.183823742, 48.473429326, 532.23], [-120.1838212274, 48.4734253027, 532.71], [-120.1836024597, 48.4733469319, 531.75], [-120.1833220851, 48.4732782003, 531.27], [-120.1831431314, 48.4732447565, 531.75], [-120.1830469072, 48.4732218739, 533.19], [-120.1830504276, 48.4732155036, 533.67], [-120.183012709, 48.4732098039, 534.15], [-120.1829311531, 48.4732027631, 535.11], [-120.1829014812, 48.4731899388, 534.63], [-120.1828387845, 48.4731845744, 535.11], [-120.1827622578, 48.4731642064, 535.59], [-120.1826439891, 48.4731406532, 535.11], [-120.1825732458, 48.4731340315, 535.11], [-120.1824263111, 48.4730979055, 535.11], [-120.1821252331, 48.4730194509, 535.59], [-120.181833962, 48.4730106499, 535.59], [-120.181716783, 48.4730227198, 535.59], [-120.1815317106, 48.4730341192, 535.59], [-120.1814162917, 48.4730399866, 536.07], [-120.181141533, 48.4730223008, 536.07], [-120.1810346637, 48.4730228875, 536.07], [-120.1807991322, 48.4730099794, 537.03], [-120.1806485094, 48.4729965683, 536.07], [-120.1806347631, 48.4729931317, 535.11], [-120.1805901714, 48.4730040282, 531.75], [-120.1806185022, 48.4730072971, 534.15], [-120.1806364395, 48.4730213787, 533.67], [-120.1806256268, 48.4730026871, 535.11], [-120.1804887503, 48.4729233943, 536.07], [-120.1804600004, 48.472922137, 536.55], [-120.1803545561, 48.4729234781, 537.03], [-120.1802450046, 48.4729034454, 537.51], [-120.1801750995, 48.4727918822, 540.4], [-120.1801042724, 48.4727356397, 540.88], [-120.1798952278, 48.4726141021, 537.99], [-120.1798336208, 48.4726301953, 537.99], [-120.1797210518, 48.4727680776, 534.63], [-120.1797135919, 48.4727810696, 534.63], [-120.179744605, 48.4727950674, 533.67], [-120.1797110774, 48.4727959894, 532.71], [-120.1796716824, 48.4727759566, 532.23]]}}