{"type": "Feature", "properties": {}, "geometry": {"type": "LineString", "coordinates": [[-121.4134881645441, 47.42792470380664, 943.67], [-121.4134590793401, 47.427947921678424, 943.19], [-121.4134574867785, 47.427913304418325, 941.75], [-121.41348757781088, 47.42789343930781, 942.71], [-121.41343301162124, 47.42786418646574, 940.79], [-121.41353024169803, 47.427871730178595, 937.9], [-121.41355178318918, 47.427844824269414, 939.83], [-121.41353527083993, 47.42781029082835, 939.83], [-121.41345840878785, 47.42776838131249, 941.75], [-121.41342203132808, 47.42776695638895, 942.23], [-121.41329219564795, 47.42767358198762, 943.67], [-121.41326679848135, 47.427531676366925, 944.15], [-121.41316613182425, 47.42749873548746, 945.59], [-121.41302833333611, 47.42732238024473, 947.04], [-121.41291601583362, 47.42726907134056, 946.56], [-121.41286899335682, 47.42723906412721, 946.56], [-121.41270814463496, 47.42717041634023, 948.0], [-121.41241678968072, 47.42706765420735, 946.56], [-121.41207405366004, 47.42708684876561, 947.52], [-121.41182385385036, 47.42715507745743, 952.32], [-121.41176166012883, 47.427145605906844, 954.73], [-121.41171908006072, 47.427157843485475, 956.17], [-121.41156208701432, 47.42710176855326, 957.13], [-121.41135371290147, 47.42700361646712, 955.69], [-121.41134382225573, 47.42699548602104, 955.69], [-121.41112002544105, 47.426934549584985, 954.73], [-121.41097719781101, 47.426922814920545, 956.17], [-121.41082791611552, 47.42692750878632, 960.01], [-121.41077008098364, 47.4269562587142, 960.98], [-121.4106840826571, 47.426923820748925, 963.38], [-121.41051703132689, 47.42686883546412, 961.46], [-121.41027479432523, 47.426756182685494, 961.94], [-121.41012123785913, 47.426728857681155, 961.46], [-121.41002132557333, 47.426726426929235, 961.46], [-121.40986181795597, 47.426732713356614, 960.49], [-121.40964187681675, 47.42677688598633, 962.9], [-121.40957306139171, 47.4267799872905, 963.38], [-121.40950416214764, 47.42673598229885, 964.34], [-121.40943040139973, 47.426699018105865, 961.46], [-121.40940114855766, 47.42666305974126, 960.01], [-121.40920098870993, 47.42663523182273, 961.46], [-121.40910962596536, 47.426608158275485, 963.86], [-121.40895774587989, 47.42654579691589, 967.7], [-121.40888566151261, 47.426512939855456, 971.55], [-121.4088428299874, 47.4264675937593, 972.03], [-121.4087534788996, 47.42635318078101, 972.03], [-121.40859690494835, 47.426328705623746, 974.43], [-121.4083855971694, 47.42622837424278, 974.43], [-121.4083443582058, 47.425895780324936, 970.59], [-121.40826347284019, 47.42585579864681, 970.11], [-121.40820463187993, 47.42580693215132, 970.11], [-121.4081488084048, 47.425694363191724, 970.11], [-121.40801846981049, 47.42565329186618, 969.63], [-121.40799810178578, 47.42563954554498, 971.07], [-121.40793423168361, 47.42555019445717, 972.03], [-121.40785921365023, 47.42548347450793, 972.51], [-121.40757749788463, 47.42547316476703, 976.84], [-121.40721950680017, 47.42539504542947, 982.12], [-121.40722478739917, 47.42538817226887, 982.12], [-121.40717784874141, 47.42531642317772, 983.57], [-121.40703929588199, 47.42523922584951, 984.53], [-121.40689789317548, 47.42513093166053, 984.53], [-121.40675640664995, 47.4250531475991, 986.93], [-121.40663092955947, 47.42499313317239, 991.74], [-121.40658382326365, 47.424907721579075, 1000.87], [-121.40654509887099, 47.424848126247525, 1005.2], [-121.40649707056582, 47.42474335245788, 1009.52], [-121.4064153470099, 47.42460806854069, 1014.33], [-121.40632607974112, 47.42457923479378, 1015.77], [-121.40617704950273, 47.42450044490397, 1022.02], [-121.40612265095115, 47.42443640716374, 1024.9], [-121.40599365346134, 47.424302799627185, 1025.38], [-121.40577371232212, 47.424106746912, 1020.1], [-121.40560037456453, 47.42400264367461, 1027.79], [-121.40549786388874, 47.42393659427762, 1027.31], [-121.40545553527772, 47.42387196980417, 1027.31], [-121.40537708066404, 47.42380164563656, 1026.34], [-121.40524682588875, 47.42369309999049, 1020.58], [-121.4052096940577, 47.4237063433975, 1017.21], [-121.40518697910011, 47.42379007861018, 1018.17], [-121.40511841513216, 47.42390281520784, 1023.46], [-121.40510307624936, 47.423976911231875, 1024.9], [-121.40513073652983, 47.424174724146724, 1026.34], [-121.40516828745604, 47.42428000085056, 1027.31], [-121.40528362244368, 47.42442911490798, 1027.79], [-121.40530650503933, 47.42448535747826, 1027.31], [-121.40530072152615, 47.424581833183765, 1027.31], [-121.4052651822567, 47.42464955896139, 1027.31], [-121.40524079091847, 47.42471317760646, 1028.27], [-121.40525034628808, 47.42480873130262, 1030.19], [-121.40524523332715, 47.424926329404116, 1030.19], [-121.40526660718024, 47.42506907321513, 1031.15], [-121.40525562688708, 47.425224389880896, 1032.11], [-121.40530893579125, 47.425303012132645, 1033.07], [-121.40529921278358, 47.4253898486495, 1034.04], [-121.40528228133917, 47.42546679452062, 1035.0], [-121.40528345480561, 47.425570730119944, 1035.48], [-121.40527322888374, 47.42571573704481, 1036.44], [-121.40531254000962, 47.42588169872761, 1040.76], [-121.40530206263065, 47.42592595517635, 1041.73], [-121.40534187667072, 47.42598873563111, 1042.69], [-121.40541245229542, 47.426056461408734, 1043.17], [-121.40556206926703, 47.42618529126048, 1044.61], [-121.40567522495985, 47.42637287825346, 1046.05], [-121.40575761906803, 47.42647849023342, 1046.05], [-121.40587856993079, 47.42666892707348, 1047.49], [-121.40595065429807, 47.42676724679768, 1047.97], [-121.40597806312144, 47.426893981173635, 1049.42], [-121.4059866964817, 47.42696623317897, 1050.38], [-121.40601159073412, 47.42708659730852, 1050.86], [-121.40607805922627, 47.42725666612387, 1052.78], [-121.4060770533979, 47.42733637802303, 1053.26], [-121.40611812472343, 47.42739446461201, 1054.7], [-121.40623798593879, 47.42751658894122, 1056.15], [-121.40622256323695, 47.42765304632485, 1057.59], [-121.40623488463461, 47.42774876765907, 1058.55], [-121.4062615390867, 47.42783577181399, 1059.99], [-121.40628911554813, 47.42790919728577, 1060.95], [-121.40629288740456, 47.42795856669545, 1061.43], [-121.40636958181858, 47.42808991111815, 1061.91], [-121.40643722377717, 47.42826635017991, 1062.39], [-121.40658088959754, 47.42844237014651, 1062.87], [-121.40671810135245, 47.42857455275953, 1062.39], [-121.40676177106798, 47.42875434458256, 1072.01], [-121.40692220069468, 47.4290094897151, 1073.45], [-121.40691976994276, 47.42909976281226, 1073.93], [-121.40700727701187, 47.429228676483035, 1075.37], [-121.40706796199083, 47.429364463314414, 1075.37], [-121.40712713822722, 47.42950695566833, 1075.85], [-121.407221686095, 47.429657243192196, 1077.29], [-121.40728957951069, 47.42985958233476, 1084.99], [-121.40736032277346, 47.42997458204627, 1085.47], [-121.40738647431135, 47.43011724203825, 1085.95], [-121.40743022784591, 47.43024640716612, 1083.06], [-121.4074307307601, 47.430357383564115, 1077.29], [-121.40739343129098, 47.43045620620251, 1075.85], [-121.40739879570901, 47.43052535690367, 1074.89], [-121.40739032998681, 47.43062040768564, 1077.29], [-121.40734079293907, 47.43091905489564, 1081.14], [-121.40734179876745, 47.431004801765084, 1082.1], [-121.40723853372037, 47.4311126768589, 1082.58], [-121.40723694115877, 47.43113606236875, 1083.54], [-121.40725429169834, 47.43125718086958, 1084.5], [-121.40724037773907, 47.43132716976106, 1084.99], [-121.40719436109066, 47.43144242092967, 1085.95], [-121.40717248432338, 47.431559432297945, 1087.39], [-121.40710710547864, 47.431666888296604, 1087.87], [-121.4070607535541, 47.43171994574368, 1088.35], [-121.40704650431871, 47.431762190535665, 1088.83], [-121.40706226229668, 47.43187534622848, 1091.23], [-121.40680963173509, 47.431880459189415, 1182.56], [-121.4067467674613, 47.43171315640211, 1180.64], [-121.40666873194277, 47.43158935569227, 1184.96], [-121.40667191706598, 47.431445606052876, 1192.65], [-121.40663721598685, 47.431434374302626, 1195.06], [-121.40669077634811, 47.431389447301626, 1194.58], [-121.40668407082558, 47.43128224276006, 1188.81], [-121.40669915825129, 47.431209571659565, 1188.81], [-121.40679001808167, 47.43112583644688, 1192.65], [-121.40680552460253, 47.431045873090625, 1202.27], [-121.40678574331105, 47.43102449923754, 1201.79], [-121.40676319599152, 47.43089382536709, 1200.82], [-121.40667133033276, 47.430812856182456, 1199.86], [-121.40661927871406, 47.430710261687636, 1198.9], [-121.40648307278752, 47.4305859580636, 1197.94], [-121.40641811303794, 47.43049115873873, 1196.5], [-121.40633161179721, 47.430424774065614, 1196.02], [-121.40630478970706, 47.43033181875944, 1196.02], [-121.40623438172042, 47.43020080961287, 1195.54], [-121.4061201363802, 47.43005664087832, 1194.09], [-121.40601427294314, 47.430020263418555, 1194.09], [-121.40591603703797, 47.42981524206698, 1192.65], [-121.40580606646836, 47.429758831858635, 1189.77], [-121.40572836622596, 47.42973075248301, 1187.85], [-121.40564387664199, 47.42979512549937, 1185.44], [-121.40563457272947, 47.42980937473476, 1184.96], [-121.40559299848974, 47.42993099614978, 1180.64], [-121.405596351251, 47.43001624010503, 1179.67], [-121.40566893853247, 47.430156050249934, 1180.16], [-121.40564278699458, 47.43025395087898, 1180.64], [-121.40571872703731, 47.430373476818204, 1180.64], [-121.4057520031929, 47.430453691631556, 1180.16], [-121.40576038509607, 47.43052929639816, 1179.67], [-121.40575049445033, 47.43065670132637, 1180.16], [-121.40572937205434, 47.43076482787728, 1180.64], [-121.40572375617921, 47.43087991140783, 1181.6], [-121.40573951415718, 47.43100002408028, 1179.19], [-121.40570539981127, 47.43105433881283, 1178.71], [-121.40568687580526, 47.4311335477978, 1178.23], [-121.4056275319308, 47.4312300235033, 1177.27], [-121.40559207648039, 47.43133865296841, 1177.75], [-121.4054998755455, 47.43146379478276, 1177.27], [-121.405432485044, 47.43159539066255, 1174.87], [-121.4053862169385, 47.43169371038675, 1172.47], [-121.40520332381129, 47.43190376088023, 1172.47], [-121.40516057610512, 47.43198934011161, 1171.98], [-121.40505714341998, 47.43213091045618, 1171.5], [-121.40499000437558, 47.43231941945851, 1168.62], [-121.40486570075154, 47.432405669242144, 1169.1], [-121.40477056615055, 47.432464342564344, 1170.54], [-121.40444979071617, 47.43263809941709, 1170.54], [-121.40429204329848, 47.432774137705564, 1170.06], [-121.40423814766109, 47.43279157206416, 1170.06], [-121.4040254149586, 47.432980332523584, 1170.06], [-121.4039302803576, 47.43302618153393, 1171.02], [-121.40380321070552, 47.433119639754295, 1170.54], [-121.40360154211521, 47.43316347710788, 1171.02], [-121.4034067466855, 47.43322935886681, 1171.02], [-121.40308513306081, 47.433429351076484, 1172.47], [-121.4029928483069, 47.43351124227047, 1173.91], [-121.40283627435565, 47.433589277789, 1176.31], [-121.40278757549822, 47.43360361084342, 1176.31], [-121.40265103429556, 47.43363345041871, 1176.79], [-121.40260635875165, 47.43365650065243, 1177.27], [-121.4025848172605, 47.43368483148515, 1180.16], [-121.40244115144014, 47.43373512290418, 1180.16], [-121.40229874290526, 47.433810476213694, 1180.16], [-121.40217217616737, 47.43381282314658, 1179.67], [-121.40204519033432, 47.43388256058097, 1180.16], [-121.40194083563983, 47.43398230522871, 1181.6], [-121.40188727527857, 47.4340451695025, 1181.6], [-121.401756266132, 47.43416259996593, 1182.56], [-121.40163766220212, 47.434243988245726, 1181.6], [-121.40151218511164, 47.43437013588846, 1179.19], [-121.4013989455998, 47.434491673484445, 1180.64], [-121.40129970386624, 47.434617234393954, 1182.56], [-121.40108495950699, 47.434837091714144, 1186.4], [-121.40102972276509, 47.43488294072449, 1186.4], [-121.40095738694072, 47.434933902695775, 1185.92], [-121.40086518600583, 47.435006154701114, 1185.92], [-121.40079913660884, 47.4350708629936, 1180.64], [-121.40077373944223, 47.435069689527154, 1171.02], [-121.40071900561452, 47.43509986437857, 1167.18], [-121.4006972964853, 47.43512174114585, 1167.18], [-121.40064247883856, 47.435138085857034, 1167.66], [-121.40058070421219, 47.43517312221229, 1170.54], [-121.40042563900352, 47.435240764170885, 1175.35], [-121.40032899565995, 47.43525166064501, 1178.23], [-121.40014878474176, 47.435317542403936, 1175.83], [-121.39998550526798, 47.435388285666704, 1174.87], [-121.39987260103226, 47.435476211830974, 1171.5], [-121.39983605593443, 47.43556547909975, 1170.54], [-121.39981065876782, 47.4356007669121, 1169.58], [-121.39976045116782, 47.43563873693347, 1167.66], [-121.39961536042392, 47.435826575383544, 1165.74], [-121.39957420527935, 47.43586630560458, 1164.77], [-121.39948535710573, 47.43596772663295, 1161.89], [-121.39942567795515, 47.436013827100396, 1159.01], [-121.399388294667, 47.4360619392246, 1156.6], [-121.39918277040124, 47.43629856035113, 1153.24], [-121.39919199049473, 47.43631306104362, 1153.72], [-121.39919794164598, 47.436514561995864, 1154.2], [-121.39903843402863, 47.43668840266764, 1153.72], [-121.39899241738021, 47.436734922230244, 1153.72], [-121.39888127334416, 47.43686333298683, 1154.68], [-121.39884917065501, 47.436968022957444, 1154.68], [-121.39885663054883, 47.43710523471236, 1153.72], [-121.39880709350109, 47.437278823927045, 1154.68], [-121.39870785176754, 47.437471775338054, 1153.72], [-121.39855085872114, 47.43771987967193, 1149.87], [-121.39845740050077, 47.437978126108646, 1145.55], [-121.39838146045804, 47.4381341971457, 1146.03], [-121.3983211107552, 47.43816596455872, 1145.55], [-121.39830183237791, 47.438202342018485, 1142.66], [-121.39826101250947, 47.4382134899497, 1140.74], [-121.39823201112449, 47.43818700313568, 1141.7], [-121.39835036359727, 47.43818390183151, 1150.35], [-121.39828716404736, 47.43825942277908, 1151.8], [-121.3982399739325, 47.43827895261347, 1151.32], [-121.39818783849478, 47.43827409110963, 1150.35], [-121.39818565919995, 47.43828892707825, 1149.87], [-121.39809999614954, 47.43843611329794, 1153.72], [-121.39802967198193, 47.43849772028625, 1154.2], [-121.3979262392968, 47.43859780021012, 1157.56], [-121.39787804335356, 47.43874632753432, 1159.01], [-121.39784091152251, 47.43885043077171, 1158.53], [-121.39780880883336, 47.43887348100543, 1158.53], [-121.39772482216358, 47.43897129781544, 1158.05], [-121.39761929400265, 47.43911580182612, 1157.56], [-121.39748878777027, 47.4392153788358, 1157.56], [-121.39732693322003, 47.43937128223479, 1159.49], [-121.39726138673723, 47.439421406015754, 1159.01], [-121.3972835149616, 47.439510421827435, 1164.77], [-121.39726993627846, 47.43953422643244, 1168.62], [-121.39727815054357, 47.43956356309354, 1168.62], [-121.39726641587913, 47.43963271379471, 1167.18], [-121.39732768759131, 47.43979850783944, 1164.77], [-121.3973247539252, 47.43992121890187, 1165.26], [-121.39727421104908, 47.439994141459465, 1161.89], [-121.3972851075232, 47.44012448005378, 1163.33], [-121.3973633106798, 47.440284909680486, 1165.26], [-121.39736255630851, 47.44037996046245, 1166.7], [-121.39734813943505, 47.44041080586612, 1167.18], [-121.39714068733156, 47.440657233819366, 1172.47], [-121.39709366485476, 47.440774412825704, 1171.5], [-121.39713071286678, 47.440777346491814, 1175.35], [-121.39721369370818, 47.44084850884974, 1178.23], [-121.39722132124007, 47.44089259766042, 1180.64], [-121.39732676558197, 47.440987480804324, 1178.23], [-121.39735861681402, 47.44111496955156, 1177.75], [-121.39734755270183, 47.4411681946367, 1180.16], [-121.39736766926944, 47.441205410286784, 1184.0], [-121.39727370813489, 47.44131403975189, 1182.08], [-121.39728259295225, 47.44143733754754, 1180.16], [-121.39731075614691, 47.44147681631148, 1179.19], [-121.39730815775692, 47.4415482301265, 1178.23], [-121.3973477203399, 47.44159625843167, 1177.75], [-121.39732508920133, 47.441718969494104, 1177.75], [-121.39739365316927, 47.44189507327974, 1177.75], [-121.39744796790183, 47.442001942545176, 1177.75], [-121.39744025655091, 47.44214183650911, 1176.79], [-121.39742257073522, 47.442176286131144, 1177.75], [-121.39745492488146, 47.442244766280055, 1177.75], [-121.39743438921869, 47.442301427945495, 1177.27], [-121.39749088324606, 47.44241793639958, 1176.31], [-121.39745869673789, 47.442494966089725, 1178.71], [-121.39745878055692, 47.44254609569907, 1181.6], [-121.39756279997528, 47.44261826388538, 1181.12], [-121.39757797122002, 47.442756397649646, 1181.6], [-121.39761937782168, 47.442813981324434, 1181.6], [-121.39756958931684, 47.44293116033077, 1181.12], [-121.39753363095224, 47.44305085390806, 1184.0], [-121.39756171032786, 47.443123273551464, 1184.96], [-121.39759029261768, 47.443240117281675, 1181.12], [-121.39752524904907, 47.44341965764761, 1183.04], [-121.39748392626643, 47.443470200523734, 1181.12], [-121.39738837257028, 47.4435721244663, 1180.16], [-121.39737747609615, 47.44368611834943, 1182.08], [-121.3973921444267, 47.443797681480646, 1182.08], [-121.39723774977028, 47.44391821324825, 1179.19], [-121.39710154384375, 47.44397143833339, 1180.16], [-121.39704069122672, 47.44400907307863, 1179.67], [-121.39704965986311, 47.4439812451601, 1182.56], [-121.39700322411954, 47.44400597177446, 1181.6], [-121.39689970761538, 47.44404260069132, 1180.64], [-121.39680138789117, 47.44409314356744, 1178.23], [-121.3967018108815, 47.4441627971828, 1178.23], [-121.39654766768217, 47.44424091652036, 1178.71], [-121.39649008400738, 47.44425667449832, 1178.71], [-121.39633627608418, 47.44422197341919, 1177.75], [-121.39623661525548, 47.44417914189398, 1178.71], [-121.39619688503444, 47.444171262905, 1178.71], [-121.39616059139371, 47.444178303703666, 1175.35], [-121.39607920311391, 47.44414687156677, 1182.08], [-121.39602195471525, 47.44411451742053, 1183.52], [-121.3958328589797, 47.44396582245827, 1183.52], [-121.39579472132027, 47.44398593902588, 1184.48], [-121.39579899609089, 47.44399901479483, 1184.48], [-121.39571676962078, 47.44404226541519, 1185.92], [-121.39564066193998, 47.44410873390734, 1188.33], [-121.39554309658706, 47.44411745108664, 1192.65], [-121.39555080793798, 47.444129437208176, 1190.73], [-121.39548643492162, 47.44413983076811, 1189.77], [-121.39545902609825, 47.44415349327028, 1189.77], [-121.39535869471729, 47.44413027539849, 1186.88], [-121.39530102722347, 47.44410378858447, 1189.77], [-121.3952215667814, 47.444221219047904, 1188.81], [-121.39509676024318, 47.444293051958084, 1190.25], [-121.39508192427456, 47.444311156868935, 1188.33], [-121.39502744190395, 47.44431878440082, 1189.29], [-121.39496399089694, 47.44434476830065, 1190.73], [-121.39497136697173, 47.444374272599816, 1193.61], [-121.39504428952932, 47.444347282871604, 1189.77], [-121.39488955959678, 47.44449120014906, 1189.29], [-121.39486894011497, 47.4445441737771, 1189.29], [-121.39487505890429, 47.44458658620715, 1195.06], [-121.39484345912933, 47.444601925089955, 1198.42], [-121.39479752629995, 47.44458943605423, 1198.42], [-121.39467548578978, 47.44458423927426, 1201.3], [-121.3944707158953, 47.44472983293235, 1206.59], [-121.39447675086558, 47.4447516258806, 1205.15], [-121.39453114941716, 47.444771993905306, 1204.67], [-121.3946657627821, 47.44478188455105, 1205.15], [-121.39477162621915, 47.444735784083605, 1203.23], [-121.39476969838142, 47.44471642188728, 1196.98], [-121.3948209118098, 47.444700580090284, 1194.58], [-121.39487723819911, 47.44469286873937, 1191.21], [-121.3949089217931, 47.44469689205289, 1190.73], [-121.39492937363684, 47.444750871509314, 1188.81], [-121.39492090791464, 47.44469999335706, 1188.33], [-121.394958877936, 47.4446792062372, 1185.44], [-121.39499768614769, 47.44467752985656, 1184.48], [-121.39506784267724, 47.44470762088895, 1184.96], [-121.39510648325086, 47.444697143509984, 1183.04], [-121.39518443495035, 47.44477903470397, 1182.56], [-121.39520798809826, 47.444827146828175, 1181.6], [-121.3951626420021, 47.44491641409695, 1180.16], [-121.395209915936, 47.444948265329, 1178.71], [-121.395164988935, 47.44493351317942, 1176.31], [-121.39517814852297, 47.44492068886757, 1175.83], [-121.39522433280945, 47.44491138495505, 1174.87], [-121.39528543688357, 47.44493879377842, 1174.39], [-121.39531938359141, 47.44498363696039, 1174.87], [-121.39538216404617, 47.44508380070329, 1178.71], [-121.39539272524416, 47.445164266973734, 1179.67], [-121.39540932141244, 47.44520424865186, 1180.16], [-121.39558224007487, 47.44527532719076, 1178.71], [-121.3955725170672, 47.445334838703275, 1177.75], [-121.39589010737836, 47.44550851173699, 1179.19], [-121.39593151398003, 47.44560029357672, 1175.35], [-121.39602027833462, 47.44567170739174, 1174.39], [-121.39617098495364, 47.445718394592404, 1173.91], [-121.39608071185648, 47.44579282589257, 1168.62], [-121.39593536965549, 47.445839093998075, 1171.98], [-121.39590058475733, 47.445877231657505, 1169.58], [-121.39608649536967, 47.44591788388789, 1166.7], [-121.39612538740039, 47.44597655721009, 1170.06], [-121.3961354456842, 47.44588770903647, 1175.35], [-121.39602505601943, 47.44592199102044, 1175.83], [-121.39595079235733, 47.44606263935566, 1176.79], [-121.3959179352969, 47.44618887081742, 1183.52], [-121.3959277421236, 47.44626900181174, 1181.12], [-121.3959158398211, 47.446408811956644, 1178.71], [-121.39595909044147, 47.446514926850796, 1181.6], [-121.3959034346044, 47.44654627516866, 1178.23], [-121.39591575600207, 47.446592040359974, 1177.75], [-121.39595188200474, 47.446567146107554, 1179.19], [-121.3958642911166, 47.44657611474395, 1180.16], [-121.39579916372895, 47.44667133316398, 1178.71], [-121.39575473964214, 47.4466769490391, 1180.16], [-121.39568005688488, 47.44671927765012, 1178.71], [-121.39563001692295, 47.44676227681339, 1184.48], [-121.39566446654499, 47.44685623794794, 1187.85], [-121.39576454646885, 47.44684584438801, 1188.33], [-121.39585088007152, 47.446856405586004, 1188.33], [-121.39590083621442, 47.446836456656456, 1186.88], [-121.39597694389522, 47.446830505505204, 1187.37], [-121.39603955671191, 47.44687534868717, 1184.0], [-121.3961211964488, 47.44687861762941, 1183.04], [-121.39613385312259, 47.44695439003408, 1183.04], [-121.39611742459238, 47.44698288850486, 1184.48], [-121.3961090426892, 47.447032341733575, 1184.96], [-121.39612312428653, 47.44707886129618, 1187.37], [-121.39603544957936, 47.447122279554605, 1187.85], [-121.39598473906517, 47.44716511107981, 1190.25], [-121.39599974267185, 47.44726309552789, 1191.69], [-121.39600829221308, 47.44736887514591, 1191.69], [-121.39606193639338, 47.447426710277796, 1192.65], [-121.3959623593837, 47.44751639664173, 1192.17], [-121.39591843821108, 47.44765075854957, 1192.17], [-121.39595682732761, 47.44771563448012, 1190.73], [-121.3959277421236, 47.447788724675775, 1191.69], [-121.39587895944715, 47.447801381349564, 1191.69], [-121.39587108045816, 47.4478339869529, 1194.58], [-121.39588457532227, 47.44788779877126, 1195.06], [-121.39579011127353, 47.44796600192785, 1197.94], [-121.39566354453564, 47.44803347624838, 1199.86], [-121.39551711268723, 47.44809131138027, 1199.38], [-121.39538878574967, 47.44818074628711, 1199.86], [-121.39532826840878, 47.44820932857692, 1200.34], [-121.39524604193866, 47.44820429943502, 1201.3], [-121.39517420902848, 47.448247550055385, 1203.23], [-121.39513280242682, 47.44829339906573, 1206.59], [-121.39519784599543, 47.44834897108376, 1207.07], [-121.39514805749059, 47.448337906971574, 1207.07], [-121.39523413963616, 47.44848710484803, 1208.51], [-121.39532952569425, 47.448572516441345, 1213.32], [-121.39533815905452, 47.44862565770745, 1218.13], [-121.39542675577104, 47.44870469905436, 1219.57], [-121.39547570608556, 47.44884459301829, 1222.45], [-121.39546137303114, 47.448875522240996, 1219.57], [-121.3954721018672, 47.44892405346036, 1220.53], [-121.39552675187588, 47.44888725690544, 1228.7], [-121.39565030112863, 47.44894752278924, 1228.22], [-121.39571978710592, 47.448932686820626, 1227.26], [-121.39578281901777, 47.44894316419959, 1227.74], [-121.39596018008888, 47.44892120361328, 1229.66], [-121.39589915983379, 47.44893972761929, 1230.62], [-121.39579832553864, 47.449054811149836, 1238.8], [-121.3957620318979, 47.44913326576352, 1240.72], [-121.39577661640942, 47.449251702055335, 1241.68], [-121.39570453204215, 47.449309788644314, 1247.45], [-121.39565717428923, 47.44940743781626, 1246.97], [-121.39552750624716, 47.44946929626167, 1246.49], [-121.3954757899046, 47.449530148878694, 1246.01], [-121.39542298391461, 47.44957574643195, 1246.97], [-121.39536405913532, 47.44965847581625, 1248.41], [-121.3953322917223, 47.44971756823361, 1249.37], [-121.3952405937016, 47.44977783411741, 1250.33], [-121.39525517821312, 47.449783366173506, 1251.77], [-121.39525744132698, 47.44984237477183, 1252.74], [-121.39522332698107, 47.44993935339153, 1258.02], [-121.39517923817039, 47.45002878829837, 1262.83], [-121.39524503611028, 47.45004706084728, 1264.75], [-121.395357940346, 47.45011151768267, 1267.16], [-121.39525903388858, 47.450145883485675, 1269.08], [-121.39516046270728, 47.4501982703805, 1271.96], [-121.39520295895636, 47.45027563534677, 1272.92], [-121.39526900835335, 47.45027060620487, 1274.36], [-121.39535768888891, 47.45029332116246, 1273.88], [-121.39541292563081, 47.45034503750503, 1276.77], [-121.39532893896103, 47.45040672831237, 1279.17], [-121.39534436166286, 47.45031234808266, 1280.13], [-121.39535400085151, 47.45037127286196, 1289.75], [-121.39534142799675, 47.45042692869902, 1290.71], [-121.39519650489092, 47.45049566030502, 1295.99], [-121.39515467919409, 47.45059062726796, 1296.48], [-121.39509441331029, 47.450633123517036, 1299.36], [-121.39507521875203, 47.450703950598836, 1304.17], [-121.39499072916806, 47.450774777680635, 1306.09], [-121.39492744579911, 47.450810903683305, 1309.93], [-121.39505761675537, 47.45090888813138, 1311.38], [-121.39506340026855, 47.45097921229899, 1313.78], [-121.39501570723951, 47.45106965303421, 1314.26], [-121.39496860094368, 47.45118046179414, 1317.14], [-121.39495627954602, 47.451301915571094, 1319.07], [-121.39501696452498, 47.4513172544539, 1320.51], [-121.39501218684018, 47.45136477984488, 1321.47], [-121.39501797035336, 47.45145723223686, 1322.43], [-121.3949950877577, 47.45152814313769, 1325.8], [-121.39498519711196, 47.45161020196974, 1332.04], [-121.39496021904051, 47.45166292414069, 1333.49], [-121.39493943192065, 47.45175311341882, 1335.89], [-121.39486776664853, 47.45181187056005, 1339.25], [-121.39485821127892, 47.451871717348695, 1341.18], [-121.39495351351798, 47.45189091190696, 1342.62], [-121.39488285407424, 47.45191781781614, 1342.14], [-121.39490531757474, 47.451894683763385, 1343.1], [-121.39488888904452, 47.45193952694535, 1346.94], [-121.39485645107925, 47.451929384842515, 1345.98], [-121.39483247883618, 47.45197053998709, 1346.94], [-121.39483725652099, 47.45200079865754, 1350.31], [-121.39489048160613, 47.45202586054802, 1347.91], [-121.39488385990262, 47.45198294520378, 1348.87], [-121.3948328141123, 47.45200767181814, 1348.39], [-121.39484731480479, 47.4520355835557, 1349.35], [-121.39483398757875, 47.45205000042915, 1345.02], [-121.39486684463918, 47.452084282413125, 1348.39], [-121.39488553628325, 47.452039020136, 1351.27], [-121.39487966895103, 47.452029548585415, 1351.27], [-121.39480574056506, 47.45208838954568, 1352.23], [-121.39475335367024, 47.45213834568858, 1352.23], [-121.3948312215507, 47.4521703645587, 1357.04], [-121.39472988434136, 47.452212776988745, 1362.81], [-121.39467498287559, 47.45225544087589, 1365.21], [-121.39468831010163, 47.452310007065535, 1366.65], [-121.39476978220046, 47.45231403037906, 1368.09], [-121.39472980052233, 47.45239592157304, 1369.05], [-121.3946742285043, 47.45245576836169, 1368.09], [-121.39460792765021, 47.45250589214265, 1370.02], [-121.39455076307058, 47.4525776412338, 1371.94], [-121.39458747580647, 47.45260261930525, 1376.75], [-121.39452720992267, 47.45264193043113, 1381.55], [-121.39443299733102, 47.4526849295944, 1382.99], [-121.39436644501984, 47.45270546525717, 1385.4], [-121.39427684247494, 47.452709237113595, 1388.28], [-121.39417801983654, 47.45272424072027, 1389.72], [-121.39404055662453, 47.45277805253863, 1388.28], [-121.39414893463254, 47.4528384860605, 1391.17], [-121.39419654384255, 47.45289850048721, 1391.65], [-121.3941371999681, 47.45287897065282, 1392.13], [-121.39408791437745, 47.452880814671516, 1391.65], [-121.39403108507395, 47.45290051214397, 1392.61], [-121.39408959075809, 47.452935045585036, 1394.53], [-121.3940489385277, 47.452956084162, 1395.97], [-121.39402211643755, 47.452996987849474, 1397.41], [-121.39404860325158, 47.4530303478241, 1398.86], [-121.39399562962353, 47.453052811324596, 1403.66], [-121.3940008264035, 47.45308952406049, 1408.47], [-121.3940528780222, 47.453125230968, 1411.83], [-121.39397048391402, 47.45309396646917, 1413.28], [-121.39394600875676, 47.45312296785414, 1415.68], [-121.39398230239749, 47.45315448381007, 1418.08], [-121.39402756467462, 47.45322690345347, 1419.04], [-121.39399445615709, 47.45326076634228, 1416.64], [-121.39387878589332, 47.45325934141874, 1416.64], [-121.39382589608431, 47.45325196534395, 1417.6], [-121.39385481365025, 47.453299993649125, 1418.08], [-121.39389043673873, 47.453392362222075, 1419.52], [-121.39381575398147, 47.45335849933326, 1420.49], [-121.39375473372638, 47.45336486957967, 1421.45], [-121.39371835626662, 47.4533807951957, 1421.93], [-121.3937138300389, 47.45343033224344, 1422.89], [-121.3936762791127, 47.45340820401907, 1424.33], [-121.39362984336913, 47.45340418070555, 1425.29], [-121.39365649782121, 47.453445084393024, 1425.29], [-121.39370050281286, 47.453484227880836, 1425.77], [-121.39370972290635, 47.453525299206376, 1426.73], [-121.39368063770235, 47.45351959951222, 1427.7], [-121.39366454444826, 47.45355103164911, 1428.66], [-121.39369044452906, 47.453627390787005, 1430.58], [-121.39365289360285, 47.453611213713884, 1431.06], [-121.39362892135978, 47.453579027205706, 1432.02], [-121.39349858276546, 47.45357936248183, 1433.94], [-121.39351291581988, 47.453652787953615, 1437.31], [-121.39351392164826, 47.45372185483575, 1438.75], [-121.39354577288032, 47.4537848867476, 1440.19], [-121.39356203377247, 47.453839452937245, 1442.11], [-121.39360302127898, 47.45388412848115, 1446.44], [-121.3936020154506, 47.453898545354605, 1446.92], [-121.39369941316545, 47.45395001024008, 1450.77], [-121.3937764428556, 47.45396040380001, 1453.65], [-121.39386478811502, 47.45399703271687, 1453.65], [-121.39397442340851, 47.454034835100174, 1456.53], [-121.39412580057979, 47.45406065136194, 1459.42], [-121.39413812197745, 47.45405972935259, 1459.9], [-121.39423174783587, 47.45412611402571, 1460.86], [-121.39432109892368, 47.45415762998164, 1460.86], [-121.39443936757743, 47.454189816489816, 1462.78], [-121.3945325743407, 47.454167269170284, 1464.23], [-121.39449628069997, 47.45422535575926, 1468.07], [-121.39451321214437, 47.45426382869482, 1470.47], [-121.39448437839746, 47.45433599688113, 1471.92], [-121.39444758184254, 47.454384779557586, 1472.88], [-121.39441430568695, 47.454471280798316, 1473.36], [-121.39438848942518, 47.454508412629366, 1473.36], [-121.394372144714, 47.45455459691584, 1472.88], [-121.39438865706325, 47.45462500490248, 1472.88], [-121.39432386495173, 47.45469516143203, 1470.95], [-121.39428346417844, 47.454720390960574, 1470.95], [-121.39426703564823, 47.45477302931249, 1470.95], [-121.3942870683968, 47.45482625439763, 1471.44], [-121.39428882859647, 47.45487889274955, 1471.44], [-121.39423191547394, 47.4549210537225, 1472.4], [-121.39408732764423, 47.45501182973385, 1469.03], [-121.39393217861652, 47.45507729239762, 1469.51], [-121.39388222247362, 47.45511543005705, 1469.99], [-121.39381860382855, 47.45515423826873, 1469.51], [-121.39375607483089, 47.45517469011247, 1481.05], [-121.3937122374773, 47.45517611503601, 1484.89], [-121.39366270042956, 47.45518885552883, 1489.22], [-121.39357259497046, 47.45520134456456, 1496.91], [-121.39353931881487, 47.45521567761898, 1500.27], [-121.39348894357681, 47.4552165158093, 1508.93], [-121.39348131604493, 47.45523319579661, 1509.89], [-121.39340319670737, 47.4552112352103, 1511.81], [-121.39339883811772, 47.4552490375936, 1514.21], [-121.39335449784994, 47.45524073950946, 1515.18], [-121.39332817867398, 47.455208553001285, 1519.02], [-121.39326975680888, 47.45519279502332, 1521.42], [-121.3932169508189, 47.455211486667395, 1525.27], [-121.39314260333776, 47.45528005063534, 1529.11], [-121.39317395165563, 47.45530444197357, 1530.56], [-121.39315685257316, 47.45536093600094, 1529.11], [-121.39312483370304, 47.45535255409777, 1532.96], [-121.39314964413643, 47.455345345661044, 1533.92], [-121.39312122948468, 47.45537141337991, 1537.77], [-121.39309767633677, 47.45536621659994, 1537.77], [-121.39313958585262, 47.45529723353684, 1539.69], [-121.3931162841618, 47.45530737563968, 1544.01], [-121.39309097081423, 47.45529128238559, 1541.13], [-121.39306247234344, 47.45524920523167, 1540.65], [-121.39301360584795, 47.45523311197758, 1539.69], [-121.39297270216048, 47.455204194411635, 1543.05], [-121.3929061498493, 47.45520059019327, 1546.42], [-121.39283012598753, 47.45518944226205, 1547.86], [-121.39280464500189, 47.45514820329845, 1553.15], [-121.39275535941124, 47.45514879003167, 1553.63], [-121.39272686094046, 47.45512431487441, 1555.55], [-121.39266449958086, 47.45512783527374, 1558.43], [-121.3926434610039, 47.45515985414386, 1558.43], [-121.3926262781024, 47.455218276008964, 1559.4], [-121.39255980961025, 47.4551956448704, 1563.72], [-121.39253525063396, 47.45527133345604, 1567.57], [-121.39255142770708, 47.45531491935253, 1567.57], [-121.39254656620324, 47.45535573922098, 1567.09], [-121.39255285263062, 47.45539748109877, 1567.09], [-121.39253902249038, 47.455403516069055, 1569.01], [-121.39251731336117, 47.45536772534251, 1569.97], [-121.39252829365432, 47.455352218821645, 1570.45], [-121.39250381849706, 47.45532791130245, 1570.93], [-121.3925173971802, 47.45531869120896, 1572.85], [-121.3924635015428, 47.45531156659126, 1573.33], [-121.39241136610508, 47.45532606728375, 1574.3], [-121.39234447851777, 47.45530351996422, 1574.78], [-121.39237582683563, 47.45527778752148, 1578.62], [-121.39229368418455, 47.455300502479076, 1584.87], [-121.39223651960492, 47.455248702317476, 1588.72], [-121.39225806109607, 47.455230597406626, 1590.64], [-121.39218379743397, 47.45521559379995, 1590.16], [-121.39212059788406, 47.455277536064386, 1595.45], [-121.39208514243364, 47.45535749942064, 1593.52], [-121.39204348437488, 47.45537267066538, 1595.45], [-121.3920392934233, 47.45540921576321, 1596.89], [-121.39205236919224, 47.455446096137166, 1597.37], [-121.39201984740794, 47.455456238240004, 1599.77], [-121.39193954877555, 47.455428494140506, 1603.14], [-121.39188230037689, 47.45543276891112, 1603.14], [-121.39186235144734, 47.45544676668942, 1606.5], [-121.39185556210577, 47.455386416986585, 1609.38], [-121.39182991348207, 47.455332688987255, 1613.71], [-121.39182714745402, 47.45537300594151, 1617.56], [-121.39184885658324, 47.455405527725816, 1619.48], [-121.39176202006638, 47.45540913194418, 1619.0], [-121.39165431261063, 47.45536143891513, 1627.65], [-121.39162137173116, 47.45544685050845, 1635.34], [-121.39153730124235, 47.4554200284183, 1639.19], [-121.3914919551462, 47.455429499968886, 1638.22], [-121.39147887937725, 47.45545355603099, 1638.22], [-121.391512574628, 47.455431427806616, 1636.78], [-121.39146471396089, 47.455440731719136, 1636.78], [-121.39149053022265, 47.45544743724167, 1635.82], [-121.3915057014674, 47.45540678501129, 1636.78], [-121.3913846667856, 47.45534987188876, 1643.99], [-121.39135449193418, 47.45532623492181, 1647.36], [-121.39132926240563, 47.45535548776388, 1653.6], [-121.3913088105619, 47.455317601561546, 1662.74], [-121.39128089882433, 47.45532028377056, 1662.26], [-121.39124175533652, 47.4552715010941, 1665.14], [-121.39119791798294, 47.45530997402966, 1669.95], [-121.39119640924037, 47.45532665401697, 1673.31], [-121.39113706536591, 47.45536772534251, 1668.99], [-121.39112130738795, 47.45536018162966, 1666.58], [-121.3910857681185, 47.45539857074618, 1664.18], [-121.39105307869613, 47.45546353049576, 1666.1], [-121.39101217500865, 47.45551415719092, 1667.06], [-121.39097973704338, 47.45549856685102, 1668.51], [-121.39092860743403, 47.45552170090377, 1669.95], [-121.3909147772938, 47.455490939319134, 1672.35], [-121.39085870236158, 47.455498315393925, 1676.68], [-121.39077463187277, 47.455525724217296, 1679.56], [-121.39069802127779, 47.45551080442965, 1683.41], [-121.39061897993088, 47.45553829707205, 1686.29], [-121.39058318920434, 47.45550443418324, 1689.65], [-121.39059609733522, 47.45546881109476, 1693.02], [-121.39057522639632, 47.4554789531976, 1694.46], [-121.39056340791285, 47.4554424919188, 1695.9], [-121.39055494219065, 47.45546570979059, 1698.31], [-121.39053734019399, 47.45546285994351, 1696.38], [-121.39051026664674, 47.45550678111613, 1698.79], [-121.39047992415726, 47.455503679811954, 1700.71], [-121.39044740237296, 47.45552413165569, 1702.63], [-121.39043156057596, 47.455506194382906, 1703.59], [-121.39039057306945, 47.45550342835486, 1705.04], [-121.39038193970919, 47.45553804561496, 1708.4], [-121.39032527804375, 47.45555858127773, 1710.32], [-121.39029837213457, 47.45558984577656, 1716.57], [-121.39017918147147, 47.455638628453016, 1718.97], [-121.39019544236362, 47.455658661201596, 1719.94], [-121.39019946567714, 47.45572806335986, 1722.34], [-121.39017038047314, 47.45573460124433, 1722.34], [-121.39012050814927, 47.455726973712444, 1727.15], [-121.39006225392222, 47.455759746953845, 1730.99], [-121.39005764387548, 47.45579553768039, 1729.55], [-121.39002453535795, 47.45584004558623, 1730.03], [-121.39003937132657, 47.455870639532804, 1734.84], [-121.39001070521772, 47.455901401117444, 1734.36], [-121.3898943644017, 47.455942975357175, 1740.12], [-121.38986863195896, 47.455960577353835, 1742.05], [-121.38986226171255, 47.455992847681046, 1743.97], [-121.38984122313559, 47.456007516011596, 1744.93], [-121.38984524644911, 47.45602595619857, 1745.41], [-121.38977249152958, 47.45597063563764, 1747.33], [-121.38974776491523, 47.45590819045901, 1750.22], [-121.38973435387015, 47.45590651407838, 1751.18], [-121.38970392756164, 47.455838453024626, 1751.18], [-121.38969345018268, 47.455841302871704, 1751.66], [-121.38968112878501, 47.45579042471945, 1754.06], [-121.38964148238301, 47.455838369205594, 1753.1], [-121.38962681405246, 47.45592461898923, 1755.99], [-121.3896025903523, 47.45594817213714, 1758.39], [-121.38956881128252, 47.45595990680158, 1760.31], [-121.38954827561975, 47.45600625872612, 1759.83], [-121.38946219347417, 47.45603794232011, 1769.92], [-121.38943738304079, 47.45603299699724, 1769.92], [-121.3894051965326, 47.45607172138989, 1772.33], [-121.38937233947217, 47.456074906513095, 1773.29], [-121.389353396371, 47.45609091594815, 1773.77], [-121.38930587098002, 47.45610801503062, 1777.13], [-121.38926991261542, 47.45609242469072, 1778.1], [-121.38914468698204, 47.45610441081226, 1781.94], [-121.38909188099205, 47.456115894019604, 1785.31], [-121.38905533589423, 47.456156546249986, 1793.96], [-121.38904938474298, 47.45611321181059, 1792.52], [-121.38908559456468, 47.456127125769854, 1792.03], [-121.38911224901676, 47.45616543106735, 1793.0], [-121.38914560899138, 47.45619334280491, 1791.07], [-121.38913999311626, 47.45621111243963, 1789.63], [-121.38918969780207, 47.45629149489105, 1790.59], [-121.38925625011325, 47.45626224204898, 1788.19], [-121.38933084905148, 47.45625888928771, 1780.98], [-121.38939128257334, 47.456266433000565, 1775.69], [-121.38942698948085, 47.45625578798354, 1775.69], [-121.38944635167718, 47.45622108690441, 1773.77], [-121.389504019171, 47.45619099587202, 1768.96], [-121.38958758674562, 47.456210693344474, 1765.6], [-121.3896213658154, 47.456157971173525, 1762.71], [-121.38966084457934, 47.456153109669685, 1760.79], [-121.3897664565593, 47.456114552915096, 1755.5], [-121.3897960446775, 47.45603618212044, 1751.66], [-121.38987760059536, 47.45606082491577, 1744.93], [-121.3898962084204, 47.45602687820792, 1742.53], [-121.38993099331856, 47.456007432192564, 1741.57], [-121.38990710489452, 47.45599485933781, 1738.68], [-121.38993610627949, 47.455990836024284, 1742.05], [-121.3899578154087, 47.45595982298255, 1743.01], [-121.39002839103341, 47.455930234864354, 1739.64], [-121.39004775322974, 47.45591112412512, 1736.76], [-121.39003677293658, 47.4558951985091, 1733.88], [-121.39006434939802, 47.45587625540793, 1727.15], [-121.39010407961905, 47.455885307863355, 1727.63], [-121.39016794972122, 47.45586737059057, 1726.67], [-121.39019259251654, 47.455875584855676, 1724.26], [-121.39018530026078, 47.455900479108095, 1723.3], [-121.39021899551153, 47.4559554643929, 1719.46], [-121.39027364552021, 47.45593836531043, 1718.49], [-121.39030952006578, 47.455954207107425, 1717.53], [-121.39035310596228, 47.455892600119114, 1714.17], [-121.3903743121773, 47.45588002726436, 1713.69], [-121.39044295996428, 47.4558727350086, 1709.36], [-121.39046860858798, 47.45590416714549, 1707.92], [-121.39049995690584, 47.45588497258723, 1705.04], [-121.39052476733923, 47.45591632090509, 1703.59], [-121.3905833568424, 47.45592520572245, 1704.55], [-121.39059576205909, 47.455871645361185, 1698.31], [-121.39063096605241, 47.45583375915885, 1695.9], [-121.39061554335058, 47.45581439696252, 1695.42], [-121.39064932242036, 47.455760166049004, 1693.98], [-121.39065560884774, 47.45572295039892, 1693.5], [-121.39065502211452, 47.455642987042665, 1693.98], [-121.39068041928113, 47.45555883273482, 1693.02], [-121.39072853140533, 47.45555086992681, 1690.14], [-121.39077303931117, 47.455501751974225, 1685.81], [-121.3907855283469, 47.455517929047346, 1683.89], [-121.39082978479564, 47.45551046915352, 1682.44], [-121.39086607843637, 47.45552153326571, 1682.93], [-121.39090748503804, 47.45547057129443, 1680.52], [-121.39096666127443, 47.45552647858858, 1676.68], [-121.39097906649113, 47.45552505366504, 1675.72], [-121.39100169762969, 47.45557190850377, 1674.75], [-121.39102650806308, 47.45550200343132, 1672.35], [-121.3910582754761, 47.455492950975895, 1671.87], [-121.39111602678895, 47.45539454743266, 1666.58], [-121.39115625992417, 47.45543955825269, 1663.7], [-121.39123219996691, 47.45546470396221, 1662.26], [-121.39125483110547, 47.455437798053026, 1660.33], [-121.39128810726106, 47.45541935786605, 1659.37], [-121.39129288494587, 47.455391362309456, 1656.01], [-121.39135155826807, 47.45537409558892, 1653.6], [-121.39137997291982, 47.45539496652782, 1651.2], [-121.39146010391414, 47.45541466400027, 1648.32], [-121.39148374088109, 47.45544978417456, 1647.84], [-121.39151341281831, 47.45543226599693, 1644.95], [-121.39154844917357, 47.45538113638759, 1641.59], [-121.39158809557557, 47.45538515970111, 1641.11], [-121.39160963706672, 47.45541248470545, 1640.15], [-121.39164123684168, 47.45542472228408, 1639.67], [-121.3916629459709, 47.45539689436555, 1635.82], [-121.39165154658258, 47.45532908476889, 1629.57], [-121.39167208224535, 47.4552767816931, 1628.13], [-121.3917089626193, 47.45525716803968, 1625.73], [-121.39175028540194, 47.45521701872349, 1626.69], [-121.39174089767039, 47.45516236871481, 1624.77], [-121.39172245748341, 47.45515700429678, 1619.0], [-121.39174659736454, 47.45510193519294, 1615.15], [-121.3918022532016, 47.455113753676414, 1611.79], [-121.39187894761562, 47.455117693170905, 1607.94], [-121.39190920628607, 47.45509196072817, 1606.02], [-121.39197299256921, 47.45510872453451, 1603.14], [-121.39200509525836, 47.45505943894386, 1600.73], [-121.39204381965101, 47.45508827269077, 1599.29], [-121.39205982908607, 47.45503873564303, 1596.89], [-121.39203174971044, 47.45499766431749, 1593.52], [-121.39206108637154, 47.4550093151629, 1593.52], [-121.39208623208106, 47.45498752221465, 1592.08], [-121.39207759872079, 47.454943684861064, 1589.2], [-121.39209335669875, 47.45488501153886, 1586.31], [-121.39211665838957, 47.45484787970781, 1582.95], [-121.3921614177525, 47.454861123114824, 1579.58], [-121.39217549934983, 47.45484477840364, 1581.51], [-121.39231438748538, 47.454946199432015, 1579.58], [-121.39234355650842, 47.454941337928176, 1575.26], [-121.39235260896385, 47.454887609928846, 1573.33], [-121.39234565198421, 47.45486489497125, 1571.89], [-121.39238010160625, 47.454856261610985, 1569.49], [-121.3924724701792, 47.45486631989479, 1563.24], [-121.39248294755816, 47.45483295992017, 1562.28], [-121.39252049848437, 47.45481410063803, 1563.24], [-121.3925039023161, 47.454779064282775, 1559.88], [-121.39255276881158, 47.454757522791624, 1555.55], [-121.3925557024777, 47.454777555540204, 1551.22], [-121.39261010102928, 47.45478702709079, 1548.34], [-121.3927214127034, 47.45476129464805, 1545.94], [-121.39287044294178, 47.45467831380665, 1540.17], [-121.39293448068202, 47.45466490276158, 1531.04], [-121.39290891587734, 47.454619724303484, 1531.52], [-121.39300396665931, 47.45460279285908, 1525.27], [-121.39308569021523, 47.45460547506809, 1520.94], [-121.39315517619252, 47.454555267468095, 1517.1], [-121.39321309514344, 47.4545032158494, 1511.81], [-121.3932602852583, 47.45450455695391, 1512.77], [-121.3932941481471, 47.45445770211518, 1508.93], [-121.39335852116346, 47.45447723194957, 1504.6], [-121.39337243512273, 47.45443289168179, 1499.79], [-121.39355029910803, 47.45446792803705, 1498.83], [-121.39362322166562, 47.45447480119765, 1496.91], [-121.39365406706929, 47.45450145564973, 1496.91], [-121.39369622804224, 47.45455585420132, 1496.91], [-121.39374978840351, 47.45456339791417, 1492.58], [-121.39372313395143, 47.454574378207326, 1489.7], [-121.39374936930835, 47.454583095386624, 1487.3], [-121.3940608408302, 47.45444219559431, 1484.41], [-121.39430550858378, 47.45435778982937, 1476.24], [-121.39419008977711, 47.45432484894991, 1468.55], [-121.39424306340516, 47.45436483062804, 1468.55], [-121.3942238688469, 47.45440078899264, 1460.38], [-121.39435328543186, 47.454367596656084, 1463.26], [-121.39448345638812, 47.45432820171118, 1463.26], [-121.39455411583185, 47.45421135798097, 1467.11], [-121.39461454935372, 47.454194677993655, 1467.11], [-121.39459476806223, 47.45412460528314, 1471.92], [-121.39450759626925, 47.454121587798, 1471.44], [-121.39440005645156, 47.4540991242975, 1471.92], [-121.39428698457778, 47.4540526047349, 1472.88], [-121.39406335540116, 47.45400725863874, 1469.99], [-121.39393812976778, 47.45398429222405, 1465.19], [-121.39393092133105, 47.45397356338799, 1463.74], [-121.39383595436811, 47.45397666469216, 1460.38], [-121.39370704069734, 47.4539109505713, 1455.57], [-121.39369195327163, 47.45383517816663, 1449.81], [-121.39363772235811, 47.45373325422406, 1444.52], [-121.39356672763824, 47.45362613350153, 1442.11], [-121.39354887418449, 47.45357290841639, 1441.15], [-121.39364124275744, 47.45356670580804, 1441.63], [-121.39360184781253, 47.453555557876825, 1438.75], [-121.39366957359016, 47.45360601693392, 1441.63], [-121.39380779117346, 47.4536223616451, 1444.52], [-121.39381114393473, 47.45357483625412, 1440.19], [-121.39375817030668, 47.45354499667883, 1438.27], [-121.39378222636878, 47.45348196476698, 1436.35], [-121.39371860772371, 47.45342287234962, 1434.42], [-121.39378700405359, 47.45340979658067, 1429.62], [-121.39377996325493, 47.45334651321173, 1426.25], [-121.39385590329766, 47.45336897671223, 1426.73], [-121.39395045116544, 47.45338708162308, 1426.25], [-121.39398221857846, 47.453347435221076, 1425.77], [-121.39391927048564, 47.4532875046134, 1424.81], [-121.3939146604389, 47.45326554402709, 1421.93], [-121.39403804205358, 47.453291611745954, 1422.41], [-121.39406377449632, 47.45325121097267, 1421.93], [-121.39401683583856, 47.45317845605314, 1420.49], [-121.39395916834474, 47.45312808081508, 1416.64], [-121.39407332986593, 47.45315465144813, 1413.76], [-121.39401490800083, 47.453068820759654, 1411.83], [-121.3940835557878, 47.45304157957435, 1408.47], [-121.39412454329431, 47.45303839445114, 1407.51], [-121.39409344643354, 47.453010650351644, 1407.99], [-121.3940645288676, 47.45296689681709, 1406.07], [-121.39415161684155, 47.45295910164714, 1401.74], [-121.39408296905458, 47.45292775332928, 1399.34], [-121.39419687911868, 47.45288006030023, 1393.09], [-121.39411901123822, 47.45284636504948, 1393.09], [-121.39400728046894, 47.45282465592027, 1388.76], [-121.39404432848096, 47.45281451381743, 1386.84], [-121.3942336756736, 47.452779058367014, 1385.88], [-121.39445772394538, 47.452701944857836, 1384.92], [-121.3945344183594, 47.45266070589423, 1382.51], [-121.39455118216574, 47.4525948241353, 1380.59], [-121.39458009973168, 47.45251460932195, 1379.15], [-121.39472183771431, 47.45241126045585, 1375.3], [-121.39479911886156, 47.4523342307657, 1369.54], [-121.39485720545053, 47.45234018191695, 1364.73], [-121.39474044553936, 47.45229793712497, 1364.25], [-121.39476366341114, 47.45231939479709, 1361.84], [-121.39461723156273, 47.452358957380056, 1360.4], [-121.39483138918877, 47.45220028795302, 1360.88], [-121.39484932646155, 47.45217237621546, 1361.36], [-121.39474857598543, 47.45214966125786, 1358.96], [-121.39486131258309, 47.452065674588084, 1358.0], [-121.39485544525087, 47.45202787220478, 1355.6], [-121.39492501504719, 47.45197892189026, 1352.71], [-121.3949329778552, 47.45193835347891, 1348.39], [-121.39490380883217, 47.451943550258875, 1346.94], [-121.39490422792733, 47.4518609046936, 1344.54], [-121.39491755515337, 47.451842464506626, 1344.54], [-121.39501268975437, 47.451671389862895, 1342.62], [-121.39501688070595, 47.451590755954385, 1340.7], [-121.39503054320812, 47.45148791000247, 1337.81], [-121.39499634504318, 47.45134432800114, 1332.52], [-121.39496130868793, 47.451322954148054, 1328.2], [-121.39497932977974, 47.451196890324354, 1322.43], [-121.39504336751997, 47.451094798743725, 1319.07], [-121.39507907442749, 47.45096806436777, 1315.22], [-121.39507681131363, 47.450930178165436, 1312.82], [-121.3949419464916, 47.45095322839916, 1308.49], [-121.39497539028525, 47.450876366347075, 1303.69], [-121.39504085294902, 47.450763043016195, 1300.32], [-121.39511855319142, 47.45067469775677, 1298.4], [-121.39523388817906, 47.45052591897547, 1290.23], [-121.39535701833665, 47.45039876550436, 1285.42], [-121.39529515989125, 47.450335985049605, 1279.65], [-121.39525023289025, 47.45034503750503, 1278.21], [-121.39514319598675, 47.45028477162123, 1281.09], [-121.395159708336, 47.45024487376213, 1282.54], [-121.39528376050293, 47.450181003659964, 1281.09], [-121.39537604525685, 47.45016658678651, 1278.69], [-121.39537470415235, 47.450107242912054, 1274.85], [-121.39525861479342, 47.45008796453476, 1276.77], [-121.39529784210026, 47.45000003837049, 1275.81], [-121.3952955789864, 47.44993122294545, 1275.33], [-121.3953169528395, 47.4498959351331, 1274.36], [-121.39533396810293, 47.44990758597851, 1272.92], [-121.39541560783982, 47.44975964538753, 1269.56], [-121.39548442326486, 47.449680184945464, 1268.6], [-121.39554142020643, 47.449621595442295, 1267.16], [-121.39565281569958, 47.449491173028946, 1263.31], [-121.39566153287888, 47.44944549165666, 1261.87], [-121.39580637216568, 47.449370892718434, 1259.94], [-121.39586546458304, 47.449291348457336, 1258.5], [-121.3958814740181, 47.44924256578088, 1257.54], [-121.3958725053817, 47.449192609637976, 1257.06], [-121.39591986313462, 47.44913854636252, 1256.58], [-121.39597275294363, 47.44906227104366, 1254.18], [-121.39601550064981, 47.44896269403398, 1254.18], [-121.3959829788655, 47.44891826994717, 1254.18], [-121.39599638991058, 47.44885481894016, 1252.25], [-121.39611692167819, 47.448669746518135, 1243.12], [-121.3961732480675, 47.44856061413884, 1241.68], [-121.39622806571424, 47.44841585867107, 1238.32], [-121.39621255919337, 47.44837084785104, 1233.03], [-121.39629897661507, 47.44808896444738, 1224.38], [-121.3964718952775, 47.447829796001315, 1210.92], [-121.39646996743977, 47.44773088954389, 1209.0], [-121.39650014229119, 47.44759174995124, 1208.03], [-121.39648857526481, 47.447518575936556, 1207.55], [-121.39642931520939, 47.44752268306911, 1205.15], [-121.39639285393059, 47.44747415184975, 1202.75], [-121.39638463966548, 47.44738798588514, 1202.75], [-121.3963392097503, 47.44732369668782, 1202.75], [-121.39635907486081, 47.44718799367547, 1200.82], [-121.39636703766882, 47.447103252634406, 1200.34], [-121.39635890722275, 47.447001077234745, 1197.46], [-121.39632420614362, 47.44690988212824, 1197.94], [-121.39637474901974, 47.446875516325235, 1197.46], [-121.39640433713794, 47.446810053661466, 1196.5], [-121.3963889144361, 47.4466753564775, 1196.02], [-121.39624818228185, 47.446575025096536, 1193.13], [-121.39624684117734, 47.4465424194932, 1187.85], [-121.3960572425276, 47.44641903787851, 1187.85], [-121.39626595191658, 47.44650478474796, 1183.52], [-121.39622068963945, 47.44644334539771, 1182.56], [-121.39646938070655, 47.44640814140439, 1182.56], [-121.39662696048617, 47.446312587708235, 1181.6], [-121.39677615836263, 47.44618887081742, 1179.67], [-121.39684069901705, 47.446151822805405, 1179.67], [-121.39686802402139, 47.44610865600407, 1178.71], [-121.39692351222038, 47.44600404985249, 1178.23], [-121.39703063294291, 47.44589131325483, 1177.75], [-121.39713448472321, 47.44583699852228, 1178.71], [-121.3972644880414, 47.44574178010225, 1178.23], [-121.39730866067111, 47.44567606598139, 1178.23], [-121.39728108420968, 47.44560046121478, 1176.79], [-121.39728770591319, 47.445577746257186, 1177.27], [-121.39722241088748, 47.445518570020795, 1177.75], [-121.39716365374625, 47.4454163108021, 1177.27], [-121.3970675971359, 47.44538429193199, 1175.83], [-121.39694572426379, 47.44536384008825, 1178.71], [-121.39691596850753, 47.445282535627484, 1178.23], [-121.39683097600937, 47.44523894973099, 1179.19], [-121.39675830490887, 47.44517222978175, 1179.19], [-121.39673005789518, 47.445152616128325, 1181.12], [-121.3965855538845, 47.445125710219145, 1177.27], [-121.39653526246548, 47.445018254220486, 1176.31], [-121.39647390693426, 47.44501858949661, 1175.35], [-121.39640391804278, 47.445038286969066, 1175.35], [-121.39627441763878, 47.4450225289911, 1178.23], [-121.39623988419771, 47.44499151594937, 1181.6], [-121.3962562289089, 47.44507223367691, 1184.96], [-121.39619990251958, 47.44513727724552, 1184.0], [-121.39609680511057, 47.44511774741113, 1184.48], [-121.39603653922677, 47.445118837058544, 1184.0], [-121.39594316482544, 47.44514750316739, 1180.64], [-121.39588172547519, 47.44521061889827, 1178.71], [-121.3957831542939, 47.445215648040175, 1179.67], [-121.39560981653631, 47.44526761583984, 1181.6], [-121.39549096114933, 47.4452558811754, 1179.19], [-121.39544838108122, 47.44514406658709, 1177.75], [-121.39546430669725, 47.44508891366422, 1175.35], [-121.39543279074132, 47.44502328336239, 1173.91], [-121.39537998475134, 47.444981038570404, 1173.91], [-121.3950783200562, 47.444847682490945, 1170.06], [-121.39509265311062, 47.44476143270731, 1169.1], [-121.39510656706989, 47.44471985846758, 1171.5], [-121.39502735808492, 47.44468851014972, 1171.5], [-121.39494680799544, 47.44464551098645, 1171.5], [-121.39498737640679, 47.44457049295306, 1171.5], [-121.39497078023851, 47.444531600922346, 1169.58], [-121.39494546689093, 47.44454266503453, 1165.74], [-121.39491219073534, 47.4445787910372, 1164.29], [-121.39486181549728, 47.44452363811433, 1167.66], [-121.39483616687357, 47.44453118182719, 1171.98], [-121.39478453435004, 47.44446094147861, 1173.91], [-121.39486206695437, 47.44440142996609, 1171.98], [-121.39489249326289, 47.44432808831334, 1171.5], [-121.3949538487941, 47.44430118240416, 1175.35], [-121.3950918149203, 47.444227086380124, 1173.91], [-121.39518979936838, 47.44420487433672, 1173.91], [-121.39528292231262, 47.444141171872616, 1171.02], [-121.39527227729559, 47.44408467784524, 1173.43], [-121.39535073190928, 47.44402474723756, 1178.23], [-121.39537587761879, 47.443997003138065, 1176.31], [-121.39537436887622, 47.443972527980804, 1173.91], [-121.39548601582646, 47.44395467452705, 1170.06], [-121.39562364667654, 47.443906981498, 1166.7], [-121.39570000581443, 47.44380966760218, 1169.58], [-121.39581240713596, 47.44370296597481, 1171.98], [-121.39587636105716, 47.44358520023525, 1171.98], [-121.3959713280201, 47.44353742338717, 1174.87], [-121.39601893723011, 47.443487886339426, 1175.83], [-121.39608490280807, 47.44343097321689, 1178.71], [-121.39608741737902, 47.443334916606545, 1181.6], [-121.39610200189054, 47.44330180808902, 1182.08], [-121.39615598134696, 47.44321606121957, 1183.04], [-121.39615472406149, 47.44320700876415, 1183.04], [-121.39620669186115, 47.443127715960145, 1182.56], [-121.39626209624112, 47.44307616725564, 1181.6], [-121.39627106487751, 47.442976674064994, 1184.96], [-121.39637189917266, 47.44277534075081, 1178.71], [-121.39640140347183, 47.44272295385599, 1177.27], [-121.39640031382442, 47.44268883951008, 1176.79], [-121.39647918753326, 47.44259177707136, 1175.35], [-121.39658505097032, 47.44258850812912, 1174.39], [-121.39663768932223, 47.44250737130642, 1174.87], [-121.39672636985779, 47.44238826446235, 1175.35], [-121.39674154110253, 47.44234845042229, 1175.35], [-121.39682846143842, 47.44223579764366, 1177.75], [-121.39688478782773, 47.442184668034315, 1181.6], [-121.39695653691888, 47.44205231778324, 1181.12], [-121.39699216000736, 47.442024825140834, 1181.12], [-121.39705049805343, 47.44193899445236, 1178.23], [-121.39719123020768, 47.44187034666538, 1175.83], [-121.39730765484273, 47.44177680462599, 1174.87], [-121.39731637202203, 47.441735062748194, 1175.35], [-121.39730170369148, 47.44155342690647, 1172.47], [-121.3972557708621, 47.441471284255385, 1169.58], [-121.39723590575159, 47.4414496589452, 1170.54], [-121.39736238867044, 47.441296270117164, 1178.23], [-121.39741259627044, 47.441223012283444, 1180.64], [-121.39741762541234, 47.441112622618675, 1179.19], [-121.39734487049282, 47.44097163900733, 1179.67], [-121.39726825989783, 47.4408349301666, 1181.6], [-121.39718737453222, 47.44079570285976, 1181.6], [-121.39719382859766, 47.44071766734123, 1181.12], [-121.39724185690284, 47.44068883359432, 1180.64], [-121.39731176197529, 47.44062806479633, 1179.19], [-121.39739113859832, 47.44050711393356, 1179.67], [-121.39744721353054, 47.440357245504856, 1179.67], [-121.39746992848814, 47.440307373180985, 1179.19], [-121.39748551882803, 47.44035825133324, 1178.23], [-121.39752751216292, 47.440252639353275, 1175.83], [-121.39726800844073, 47.44018625468016, 1174.39], [-121.39735316857696, 47.44012766517699, 1173.91], [-121.39740731567144, 47.44005583226681, 1171.98], [-121.39737948775291, 47.439957931637764, 1171.98], [-121.39738468453288, 47.43980035185814, 1172.47], [-121.39735233038664, 47.439706390723586, 1171.98], [-121.39736758545041, 47.43953053839505, 1170.06], [-121.3973522465676, 47.439424423500896, 1171.02], [-121.39738108031452, 47.43941579014063, 1171.5], [-121.39745727181435, 47.4392703641206, 1171.5], [-121.39765013940632, 47.4391738884151, 1169.58], [-121.39776337891817, 47.439042795449495, 1170.06], [-121.39782205224037, 47.43897104635835, 1170.06], [-121.39789916574955, 47.43879628367722, 1170.54], [-121.39801776967943, 47.438583048060536, 1169.58], [-121.39811499975622, 47.43846612051129, 1168.14], [-121.39826176688075, 47.43830225430429, 1167.66], [-121.39833016321063, 47.43826721794903, 1167.18], [-121.3983940333128, 47.43826956488192, 1166.7], [-121.39851775020361, 47.43818012997508, 1164.29], [-121.39853342436254, 47.43806445971131, 1163.33], [-121.39852386899292, 47.43803453631699, 1163.81], [-121.3985407166183, 47.43797049857676, 1163.81], [-121.39854490756989, 47.43789145722985, 1163.33], [-121.39856938272715, 47.43786932900548, 1163.33], [-121.39859846793115, 47.43776178918779, 1163.81], [-121.39862252399325, 47.437714766711, 1163.81], [-121.39865940436721, 47.43767092935741, 1163.81], [-121.39869142323732, 47.437554923817515, 1163.33], [-121.39876434579492, 47.43744713254273, 1162.85], [-121.39880592003465, 47.437340430915356, 1162.85], [-121.39883341267705, 47.43724621832371, 1162.85], [-121.39887431636453, 47.43716868571937, 1162.85], [-121.39891312457621, 47.437018901109695, 1162.37], [-121.39890315011144, 47.43695352226496, 1162.37], [-121.39896802604198, 47.43685059249401, 1162.37], [-121.39899015426636, 47.43670801632106, 1159.97], [-121.39913046732545, 47.43661019951105, 1152.76], [-121.39916810207069, 47.43644339963794, 1148.43], [-121.39918067492545, 47.43633074685931, 1148.43], [-121.39928410761058, 47.4361776933074, 1146.99], [-121.39933180063963, 47.436072835698724, 1148.91], [-121.39938888140023, 47.43601005524397, 1149.39], [-121.39946859329939, 47.4359377194196, 1149.39], [-121.39953874982893, 47.43583856150508, 1148.91], [-121.39961896464229, 47.43570193648338, 1146.51], [-121.39967042952776, 47.43562641553581, 1146.51], [-121.39981979504228, 47.43550286628306, 1148.91], [-121.39985784888268, 47.435474786907434, 1153.24], [-121.39985374175012, 47.43549222126603, 1153.24], [-121.39999715611339, 47.4354643933475, 1155.16], [-121.40007309615612, 47.43547738529742, 1155.16], [-121.40019865706563, 47.4354350566864, 1155.64], [-121.40031281858683, 47.43542122654617, 1156.12], [-121.40051348134875, 47.43533254601061, 1163.81], [-121.40057324431837, 47.435344867408276, 1166.22], [-121.40064373612404, 47.435282757505774, 1169.1], [-121.40072126872838, 47.435254929587245, 1168.62], [-121.40081372112036, 47.43522835895419, 1169.1], [-121.40097633004189, 47.43510078638792, 1169.58], [-121.40107188373804, 47.43505963124335, 1170.06], [-121.40113701112568, 47.43500581942499, 1169.58], [-121.40121781267226, 47.43495033122599, 1171.5], [-121.40123818069696, 47.434918647632, 1172.47], [-121.40132987871766, 47.43484044447541, 1173.91], [-121.40137547627091, 47.43481898680329, 1174.39], [-121.40139584429562, 47.43470507673919, 1174.87], [-121.40146256424487, 47.43455210700631, 1175.35], [-121.40151796862483, 47.43448471650481, 1176.31], [-121.40156197361648, 47.43447910062969, 1176.79], [-121.40164344571531, 47.43443853221834, 1177.27], [-121.40175207518041, 47.43437223136425, 1177.27], [-121.40182483009994, 47.43426326662302, 1176.79], [-121.40189071185887, 47.43424080312252, 1177.75], [-121.40193505212665, 47.434138460084796, 1178.23], [-121.40197025611997, 47.434095460921526, 1179.19], [-121.40197679400444, 47.43406092748046, 1180.16], [-121.40199389308691, 47.43406134657562, 1180.64], [-121.40207142569125, 47.43399244733155, 1183.04], [-121.4021223038435, 47.43398213759065, 1183.52], [-121.40214434824884, 47.43395783007145, 1183.52], [-121.40227418392897, 47.433918016031384, 1183.52], [-121.40240930020809, 47.433894043788314, 1183.04], [-121.40249378979206, 47.43386453948915, 1183.52], [-121.40259319916368, 47.43383604101837, 1183.52], [-121.40276687219739, 47.43380720727146, 1183.52], [-121.40294322744012, 47.433723052963614, 1184.0], [-121.40301975421607, 47.433702014386654, 1184.0], [-121.40314129181206, 47.433595061302185, 1184.0], [-121.40318957157433, 47.433565305545926, 1184.0], [-121.4032449759543, 47.43351233191788, 1183.52], [-121.40328210778534, 47.433495903387666, 1183.04], [-121.4034101832658, 47.43348584510386, 1182.56], [-121.40344412997365, 47.43347704410553, 1182.08], [-121.40348855406046, 47.43343664333224, 1181.12], [-121.4036744646728, 47.433384507894516, 1178.71], [-121.40378602780402, 47.43333195336163, 1178.23], [-121.40391603112221, 47.433306304737926, 1178.23], [-121.40411384403706, 47.43318920955062, 1179.67], [-121.40416086651385, 47.43316515348852, 1179.67], [-121.40424166806042, 47.43314906023443, 1179.67], [-121.4042981620878, 47.43308192119002, 1179.67], [-121.40436924062669, 47.43298888206482, 1179.67], [-121.40454006381333, 47.432873295620084, 1178.71], [-121.40464668162167, 47.432819148525596, 1179.67], [-121.40472739934921, 47.43279400281608, 1179.19], [-121.40494449064136, 47.432732563465834, 1178.71], [-121.4050910063088, 47.432655869051814, 1179.19], [-121.40511782839894, 47.432446824386716, 1177.75], [-121.40518438071012, 47.43227642029524, 1176.31], [-121.4052910823375, 47.431843830272555, 1173.91], [-121.40537255443633, 47.43174534291029, 1172.47], [-121.40548914670944, 47.431567311286926, 1168.14], [-121.40559593215585, 47.431458346545696, 1167.18], [-121.4056919887662, 47.431371761485934, 1166.22], [-121.40571386553347, 47.43127805180848, 1166.22], [-121.40576709061861, 47.43112768046558, 1165.74], [-121.4058748818934, 47.43095861747861, 1164.77], [-121.40590036287904, 47.43076759390533, 1162.85], [-121.40589977614582, 47.43064731359482, 1162.37], [-121.4059298671782, 47.430448746308684, 1161.89], [-121.40596842393279, 47.43035553954542, 1162.37], [-121.40578016638756, 47.430390156805515, 1162.37], [-121.40581319108605, 47.43026442825794, 1161.41], [-121.40578703954816, 47.43024732917547, 1159.49], [-121.4057485666126, 47.43006041273475, 1156.12], [-121.40571453608572, 47.430031998082995, 1155.16], [-121.40563054941595, 47.42993074469268, 1148.43], [-121.40562979504466, 47.42982714436948, 1146.51], [-121.40555636957288, 47.42970141582191, 1143.14], [-121.4055450540036, 47.429722789675, 1139.78], [-121.40558118000627, 47.42974827066064, 1137.38], [-121.40564044006169, 47.42983535863459, 1133.05], [-121.40569374896586, 47.42987886071205, 1132.09], [-121.40575309284031, 47.4299490172416, 1130.65], [-121.40579399652779, 47.430086731910706, 1128.73], [-121.40586482360959, 47.430210784077644, 1128.24], [-121.40590287744999, 47.43028521537781, 1127.28], [-121.40607135370374, 47.430416978895664, 1124.88], [-121.40619649551809, 47.43052091449499, 1124.88], [-121.4062681607902, 47.43058637715876, 1127.76], [-121.40631501562893, 47.430704813450575, 1126.32], [-121.40642213635147, 47.43083297275007, 1126.8], [-121.40637368895113, 47.43099516257644, 1125.36], [-121.40629934147, 47.4311491381377, 1127.76], [-121.4062509778887, 47.43125583976507, 1127.76], [-121.40631342306733, 47.43135508149862, 1127.28], [-121.4063429273665, 47.43138215504587, 1126.8], [-121.40646630898118, 47.431539902463555, 1122.0], [-121.40646144747734, 47.43163897655904, 1119.11], [-121.40638450160623, 47.43180795572698, 1116.71], [-121.40638818964362, 47.43192848749459, 1118.15], [-121.40636220574379, 47.43202043697238, 1119.59], [-121.40640168450773, 47.43215681053698, 1118.15], [-121.40645859763026, 47.43228580802679, 1117.19], [-121.40648466534913, 47.43233408778906, 1116.23], [-121.40643462538719, 47.43242637254298, 1116.23], [-121.40641761012375, 47.43259761482477, 1115.75], [-121.40644049271941, 47.43263667449355, 1115.75], [-121.40651467256248, 47.432733653113246, 1113.82], [-121.40663914382458, 47.43290766142309, 1111.9], [-121.40664911828935, 47.43306507356465, 1106.61], [-121.40670293010771, 47.43293959647417, 1104.21], [-121.40684785321355, 47.43280523456633, 1102.77], [-121.40690711326897, 47.43268361315131, 1102.29], [-121.40700006857514, 47.432561572641134, 1099.89], [-121.40702630393207, 47.43241958320141, 1097.96], [-121.40707139857113, 47.43228379637003, 1095.08], [-121.40719771385193, 47.432137029245496, 1097.0], [-121.40720601193607, 47.43209587410092, 1096.52], [-121.40717399306595, 47.432056311517954, 1096.52], [-121.40711741521955, 47.4318777769804, 1095.08], [-121.40715504996479, 47.431760681793094, 1094.12], [-121.40720039606094, 47.43166605010629, 1094.12], [-121.40725169330835, 47.43159983307123, 1093.16], [-121.40731615014374, 47.431534538045526, 1096.52], [-121.40736090950668, 47.43141216225922, 1096.04], [-121.40736551955342, 47.43128215894103, 1095.08], [-121.40737834386528, 47.431171434000134, 1091.23], [-121.40739133581519, 47.43114930577576, 1090.75], [-121.40742662362754, 47.430795673280954, 1078.74], [-121.40744179487228, 47.43076893500984, 1078.26], [-121.4074529428035, 47.43057296611369, 1074.89], [-121.40743810683489, 47.43045595474541, 1072.97], [-121.40748747624457, 47.43031622841954, 1074.41], [-121.407475406304, 47.43019938468933, 1075.85], [-121.40741866081953, 47.42993745021522, 1071.05], [-121.40737314708531, 47.429890763014555, 1068.16], [-121.40725186094642, 47.42981038056314, 1063.84], [-121.4072713907808, 47.42971943691373, 1061.91], [-121.40716996975243, 47.42962128482759, 1058.55], [-121.4071339275688, 47.429363541305065, 1057.11], [-121.40713166445494, 47.42931148968637, 1056.63], [-121.40710098668933, 47.42908199317753, 1055.18], [-121.40704876743257, 47.42903832346201, 1054.22], [-121.40700878575444, 47.42890094406903, 1052.3], [-121.40693888068199, 47.42886423133314, 1052.3], [-121.40692479908466, 47.428767420351505, 1052.78], [-121.40685891732574, 47.4286537617445, 1049.9], [-121.40682547353208, 47.42862995713949, 1049.9], [-121.40669563785195, 47.428522584959865, 1048.94], [-121.40658072195947, 47.428495762869716, 1048.45], [-121.40649916604161, 47.42831898853183, 1046.05], [-121.40651131980121, 47.42828696966171, 1045.57], [-121.40649824403226, 47.42810131050646, 1040.76], [-121.4064772054553, 47.4280543718487, 1039.8], [-121.40639799647033, 47.42790651507676, 1037.4], [-121.40640520490706, 47.42785890586674, 1036.92], [-121.40634275972843, 47.42770283482969, 1034.52], [-121.40631476417184, 47.427557576447725, 1035.48], [-121.40627905726433, 47.427433440461755, 1032.11], [-121.40621761791408, 47.427351800724864, 1030.19], [-121.40621786937118, 47.42730972357094, 1029.23], [-121.40613983385265, 47.427269238978624, 1029.23], [-121.40608618967235, 47.42713320069015, 1029.23], [-121.4060976728797, 47.427030773833394, 1030.19], [-121.40609540976584, 47.42692499421537, 1027.79], [-121.40606691129506, 47.42682642303407, 1025.86], [-121.40608660876751, 47.42665300145745, 1023.46], [-121.40603229403496, 47.42656289599836, 1023.94], [-121.40594369731843, 47.4265349842608, 1024.42], [-121.40583858825266, 47.42639911361039, 1022.98], [-121.4057385083288, 47.426289059221745, 1020.58], [-121.40557891689241, 47.426187889650464, 1018.17], [-121.4055363368243, 47.426120080053806, 1018.17], [-121.40542477369308, 47.42597565986216, 1017.69], [-121.40540331602097, 47.42588848806918, 1017.21], [-121.40538713894784, 47.4257870670408, 1013.37], [-121.40539619140327, 47.42565513588488, 1015.77], [-121.40534740872681, 47.42555254139006, 1019.13], [-121.40535612590611, 47.42549722082913, 1022.5], [-121.40540398657322, 47.42540527135134, 1022.02], [-121.40535830520093, 47.425335701555014, 1022.02], [-121.4053048286587, 47.42514350451529, 1020.1], [-121.4053236041218, 47.4250169377774, 1017.69], [-121.40532854944468, 47.424956168979406, 1017.21], [-121.40529158525169, 47.424814347177744, 1016.73], [-121.40527809038758, 47.42478107102215, 1015.77], [-121.40535319224, 47.42461527697742, 1011.93], [-121.40533156692982, 47.424579318612814, 1010.0], [-121.40528127551079, 47.42438561283052, 1007.6], [-121.40520449727774, 47.42431134916842, 1006.64], [-121.40518547035754, 47.42423515766859, 1005.2], [-121.40515118837357, 47.424203641712666, 1005.2], [-121.4051237795502, 47.42409149184823, 1001.83], [-121.40509888529778, 47.42402686737478, 1001.83], [-121.40511774457991, 47.42381924763322, 999.91], [-121.40514716506004, 47.42364943027496, 997.51], [-121.40505605377257, 47.42359536699951, 997.02], [-121.40509268268943, 47.423602072522044, 997.02], [-121.40512386336923, 47.42365253157914, 996.54], [-121.4052733965218, 47.42370257154107, 994.14], [-121.40538948588073, 47.42381547577679, 994.14], [-121.40549032017589, 47.423956375569105, 990.78], [-121.4055516757071, 47.42399225011468, 988.85], [-121.40564597211778, 47.42403566837311, 987.89], [-121.40590857714415, 47.42416248656809, 980.2], [-121.40593129210174, 47.424241276457906, 979.72], [-121.40601024962962, 47.42430154234171, 979.72], [-121.40607898123562, 47.424408411607146, 985.49], [-121.40615366399288, 47.42451310157776, 988.37], [-121.40625852160156, 47.42461477406323, 987.89], [-121.4062803145498, 47.424739580601454, 986.93], [-121.40633798204362, 47.424842761829495, 987.41], [-121.40646941028535, 47.42494820617139, 985.49], [-121.40651936642826, 47.42495792917907, 984.53], [-121.40677551738918, 47.42512824945152, 980.68], [-121.40680292621255, 47.42516881786287, 980.68], [-121.40684651210904, 47.42531793192029, 978.76], [-121.4069711510092, 47.425441816449165, 979.24], [-121.40709101222456, 47.42558573372662, 975.39], [-121.40722864307463, 47.42572445422411, 974.43], [-121.40738840214908, 47.42575094103813, 970.59], [-121.40758504159749, 47.42584699764848, 963.38], [-121.40777556225657, 47.42596962489188, 962.42], [-121.40795141458511, 47.42611094377935, 960.49], [-121.40801436267793, 47.426178585737944, 960.49], [-121.40817822888494, 47.42623566649854, 959.53], [-121.40826858580112, 47.42629903368652, 958.09], [-121.40845181420445, 47.42641244083643, 956.65], [-121.40848693437874, 47.42644228041172, 956.17], [-121.40850713476539, 47.426474718376994, 954.73], [-121.40857854858041, 47.42655451409519, 953.77], [-121.40859472565353, 47.4266317114234, 954.25], [-121.40868994407356, 47.426720056682825, 953.77], [-121.40870184637606, 47.42680882103741, 954.25], [-121.40888465568423, 47.426844611763954, 951.84], [-121.40897543169558, 47.42688216269016, 950.4], [-121.40914843417704, 47.42688685655594, 950.88], [-121.40926745720208, 47.42691049352288, 951.36], [-121.40947625041008, 47.426872020587325, 950.88], [-121.40952578745782, 47.42684385739267, 950.88], [-121.40970314852893, 47.4267715215683, 952.8], [-121.409851340577, 47.42675635032356, 954.25], [-121.41002384014428, 47.42676288820803, 952.8], [-121.41014789231122, 47.426779232919216, 950.88], [-121.41033053398132, 47.42682281881571, 950.4], [-121.41042013652623, 47.426981404423714, 949.92], [-121.41046389006078, 47.4270096514374, 950.4], [-121.41060839407146, 47.42698861286044, 951.84], [-121.41079732216895, 47.4269993416965, 953.28], [-121.41099102795124, 47.426985343918204, 951.36], [-121.41112027689815, 47.426981907337904, 949.92], [-121.41142252832651, 47.42704393342137, 948.48], [-121.41148631460965, 47.42708860896528, 947.52], [-121.41157734207809, 47.42723830975592, 943.67], [-121.41162637621164, 47.42725733667612, 943.67], [-121.41167096793652, 47.42724359035492, 943.67], [-121.41174724325538, 47.427161866799, 942.71], [-121.41204899176955, 47.42707955650985, 941.75], [-121.41219902783632, 47.42711744271219, 940.31], [-121.41230774112046, 47.427125573158264, 938.38], [-121.41250010579824, 47.42713529616594, 937.9], [-121.41267822124064, 47.427175026386976, 938.38], [-121.4128583483398, 47.42731207050383, 939.35], [-121.41304979100823, 47.427437882870436, 937.42], [-121.41308256424963, 47.42760619148612, 935.98], [-121.4131688978523, 47.427781792357564, 929.73], [-121.4132672175765, 47.42786712013185, 924.45], [-121.41339470632374, 47.42781934328377, 923.0]]}}