{"type": "Feature", "properties": {}, "geometry": {"type": "LineString", "coordinates": [[-121.934919, 37.724099, 114.3], [-121.934992, 37.724221, 113.8], [-121.934307, 37.724414, 112.7], [-121.933986, 37.724528, 112.1], [-121.933636, 37.724578, 111.5], [-121.933475, 37.724535, 111.2], [-121.933222, 37.724152, 111.0], [-121.933107, 37.724093, 110.5], [-121.932802, 37.724094, 110.0], [-121.932492, 37.724193, 109.8], [-121.932391, 37.724174, 109.5], [-121.932036, 37.72388, 109.1], [-121.931184, 37.723381, 108.5], [-121.931087, 37.723286, 108.3], [-121.930824, 37.723179, 107.9], [-121.930695, 37.723043, 107.7], [-121.930314, 37.722511, 107.4], [-121.930135, 37.722209, 107.3], [-121.930041, 37.721902, 107.1], [-121.929982, 37.721438, 106.6], [-121.929851, 37.721382, 106.5], [-121.929383, 37.721368, 106.0], [-121.929189, 37.7214, 106.0], [-121.92856, 37.721592, 105.8], [-121.927999, 37.721681, 105.6], [-121.927558, 37.721725, 105.5], [-121.926707, 37.721875, 105.4], [-121.926409, 37.721677, 105.1], [-121.926242, 37.721487, 105.3], [-121.925935, 37.721473, 105.4], [-121.925796, 37.721347, 105.5], [-121.925689, 37.720921, 105.1], [-121.925291, 37.720885, 104.5], [-121.924692, 37.721013, 104.8], [-121.924412, 37.720989, 104.6], [-121.923822, 37.721306, 103.8], [-121.923534, 37.721249, 103.3], [-121.923269, 37.721138, 103.3], [-121.923013, 37.721142, 103.5], [-121.922243, 37.721536, 104.3], [-121.922205, 37.721637, 104.5], [-121.922857, 37.722328, 104.7], [-121.922601, 37.722455, 104.7], [-121.922404, 37.72237, 104.6], [-121.922176, 37.722092, 104.5], [-121.921936, 37.721863, 104.4], [-121.9211, 37.72097, 104.1], [-121.920451, 37.720238, 104.0], [-121.920139, 37.719862, 103.8], [-121.919439, 37.719126, 103.5], [-121.918707, 37.718327, 103.7], [-121.918187, 37.717713, 103.6], [-121.917766, 37.717249, 103.5], [-121.91753, 37.717023, 103.5], [-121.917185, 37.716609, 103.7], [-121.916744, 37.716239, 105.5], [-121.916577, 37.716225, 106.2], [-121.916308, 37.716458, 106.8], [-121.916037, 37.716629, 107.5], [-121.915733, 37.716887, 108.6], [-121.91579, 37.717083, 108.8], [-121.915745, 37.717202, 110.0], [-121.915412, 37.717418, 113.3], [-121.915034, 37.7176, 116.0], [-121.915023, 37.717855, 121.6], [-121.91495, 37.718337, 134.1], [-121.914975, 37.71846, 136.7], [-121.914937, 37.718961, 146.3], [-121.914844, 37.719221, 149.9], [-121.914875, 37.71954, 148.8], [-121.914825, 37.719854, 144.6], [-121.914863, 37.720102, 143.4], [-121.915081, 37.720713, 151.9], [-121.915295, 37.721135, 155.3], [-121.915293, 37.721264, 155.1], [-121.915156, 37.721461, 154.0], [-121.914845, 37.721767, 154.8], [-121.914769, 37.721977, 155.0], [-121.914824, 37.722344, 154.6], [-121.914953, 37.722527, 157.1], [-121.915245, 37.722744, 160.9], [-121.915341, 37.722951, 161.8], [-121.915395, 37.723363, 161.2], [-121.915491, 37.723644, 160.6], [-121.91569, 37.724039, 158.8], [-121.915888, 37.724269, 157.7], [-121.916011, 37.724488, 156.6], [-121.916077, 37.724925, 154.7], [-121.915998, 37.725055, 150.0], [-121.915867, 37.725003, 149.0], [-121.915467, 37.724522, 142.0], [-121.914774, 37.724054, 133.8], [-121.914418, 37.723671, 128.2], [-121.914371, 37.723729, 127.3], [-121.914536, 37.724229, 122.4], [-121.91441, 37.724368, 121.1], [-121.913879, 37.724477, 119.8], [-121.912781, 37.724774, 118.0], [-121.912559, 37.724871, 117.8], [-121.91206, 37.725315, 117.3], [-121.911824, 37.72538, 117.1], [-121.911503, 37.725334, 117.0], [-121.911188, 37.725331, 117.1], [-121.911138, 37.725378, 117.1], [-121.91157, 37.725874, 117.2], [-121.911964, 37.726418, 117.4], [-121.912236, 37.726628, 117.4], [-121.912615, 37.726789, 117.5], [-121.912854, 37.727004, 117.7], [-121.912923, 37.72729, 117.9], [-121.912841, 37.727988, 119.0], [-121.912926, 37.728115, 119.5], [-121.913227, 37.728308, 120.5], [-121.913373, 37.728515, 121.2], [-121.913372, 37.728735, 121.6], [-121.913479, 37.7291, 122.6], [-121.913638, 37.729321, 123.3], [-121.913888, 37.729557, 124.7], [-121.914078, 37.729638, 125.8], [-121.914546, 37.72962, 131.1], [-121.914949, 37.729937, 133.8], [-121.915696, 37.730316, 141.2], [-121.915871, 37.730507, 143.3], [-121.91616, 37.731208, 145.5], [-121.916506, 37.731754, 146.8], [-121.916727, 37.732216, 148.1], [-121.917001, 37.732468, 148.9], [-121.917292, 37.732831, 150.0], [-121.917572, 37.733068, 150.6], [-121.91788, 37.733428, 151.4], [-121.918125, 37.733777, 152.3], [-121.918408, 37.734258, 154.6], [-121.918512, 37.734867, 157.0], [-121.918589, 37.735108, 157.3], [-121.918788, 37.73535, 156.7], [-121.918936, 37.735608, 156.0], [-121.919039, 37.7357, 154.6], [-121.919261, 37.735737, 155.6], [-121.919563, 37.735877, 156.9], [-121.920059, 37.735933, 158.2], [-121.920351, 37.735998, 158.6], [-121.920667, 37.736154, 158.9], [-121.920877, 37.736305, 158.9], [-121.92133, 37.736754, 157.7], [-121.921567, 37.737133, 155.8], [-121.921828, 37.737464, 153.5], [-121.922059, 37.73768, 151.7], [-121.922064, 37.737758, 151.3], [-121.921626, 37.73818, 153.6], [-121.921534, 37.738376, 154.0], [-121.921561, 37.738803, 155.2], [-121.921549, 37.739115, 160.1], [-121.921464, 37.739314, 163.3], [-121.921511, 37.739785, 169.1], [-121.921592, 37.740242, 174.5], [-121.921672, 37.740473, 175.1], [-121.921957, 37.741007, 174.4], [-121.922168, 37.741289, 175.8], [-121.922375, 37.741466, 178.5], [-121.922775, 37.741702, 183.2], [-121.922935, 37.74183, 185.6], [-121.923023, 37.741997, 188.5], [-121.922963, 37.742614, 198.8], [-121.923265, 37.7434, 199.6], [-121.923269, 37.743598, 199.8], [-121.923191, 37.744113, 199.3], [-121.923313, 37.74445, 199.6], [-121.92381, 37.745121, 199.4], [-121.924151, 37.745498, 192.8], [-121.92445, 37.745921, 192.9], [-121.924617, 37.746295, 195.3], [-121.925096, 37.747047, 202.6], [-121.925448, 37.747798, 218.0], [-121.925505, 37.748027, 218.0], [-121.925309, 37.748283, 217.3], [-121.925213, 37.74854, 219.1], [-121.925156, 37.748832, 224.4], [-121.92516, 37.749589, 229.3], [-121.925228, 37.749872, 229.2], [-121.925272, 37.750518, 230.3], [-121.925156, 37.751127, 232.3], [-121.925108, 37.751497, 235.0], [-121.925173, 37.7519, 236.6], [-121.925354, 37.752143, 236.2], [-121.925818, 37.752386, 232.1], [-121.926693, 37.752664, 235.5], [-121.927132, 37.753042, 231.7], [-121.927425, 37.753247, 229.8], [-121.927542, 37.753422, 229.5], [-121.927951, 37.753809, 233.4], [-121.928216, 37.754263, 231.7], [-121.928252, 37.754434, 231.1], [-121.92784, 37.755197, 236.4], [-121.927586, 37.755786, 235.9], [-121.927436, 37.756307, 240.3], [-121.927424, 37.756728, 250.1], [-121.927622, 37.757104, 257.5], [-121.927732, 37.757383, 259.3], [-121.928151, 37.7576, 256.0], [-121.928377, 37.757759, 252.7], [-121.928466, 37.757923, 249.9], [-121.92853, 37.758405, 240.6], [-121.928511, 37.758878, 233.4], [-121.928526, 37.759399, 227.6], [-121.92869, 37.759799, 230.8], [-121.929283, 37.760285, 244.3], [-121.92928, 37.760497, 246.0], [-121.929132, 37.760747, 246.0], [-121.929175, 37.76136, 248.2], [-121.929262, 37.7618, 251.6], [-121.929387, 37.762236, 250.1], [-121.92963, 37.762731, 242.3], [-121.929816, 37.763245, 234.8], [-121.929861, 37.763521, 231.7], [-121.929839, 37.76373, 229.8], [-121.929736, 37.764051, 229.8], [-121.929693, 37.764337, 232.1], [-121.929585, 37.764754, 233.2], [-121.92955, 37.765204, 229.0], [-121.929371, 37.765869, 217.2], [-121.92923, 37.766493, 221.2], [-121.929189, 37.76684, 223.8], [-121.929275, 37.767057, 221.4], [-121.929496, 37.76745, 216.7], [-121.92954, 37.767729, 214.8], [-121.929504, 37.767864, 213.4], [-121.929162, 37.768413, 203.8], [-121.928811, 37.768918, 189.1], [-121.928534, 37.769258, 181.4], [-121.92821, 37.769772, 176.6], [-121.927973, 37.769902, 176.4], [-121.927509, 37.769894, 174.5], [-121.927232, 37.770059, 172.3], [-121.926933, 37.770139, 171.0], [-121.926794, 37.770122, 169.8], [-121.926695, 37.770378, 169.1], [-121.926637, 37.770719, 168.1], [-121.926336, 37.771352, 165.9], [-121.925976, 37.77183, 164.1], [-121.925481, 37.772663, 163.7], [-121.925287, 37.773128, 164.5], [-121.925232, 37.773393, 165.2], [-121.925362, 37.773483, 166.0], [-121.925702, 37.773495, 166.3], [-121.926397, 37.773416, 166.7], [-121.926862, 37.773391, 167.3], [-121.927961, 37.773193, 169.1], [-121.928317, 37.773065, 170.0], [-121.9289, 37.772903, 171.3], [-121.929747, 37.772588, 172.7], [-121.930007, 37.772516, 172.8], [-121.931359, 37.772059, 171.8], [-121.931505, 37.771962, 171.7], [-121.931645, 37.771974, 171.5], [-121.93213, 37.771906, 170.8], [-121.932936, 37.771836, 169.5], [-121.933324, 37.771852, 169.0], [-121.933968, 37.771818, 168.3], [-121.934637, 37.771817, 168.6], [-121.935216, 37.771779, 169.6], [-121.935923, 37.77178, 171.5], [-121.936676, 37.771751, 173.5], [-121.937617, 37.771768, 175.1], [-121.938228, 37.771723, 175.9], [-121.93987, 37.771707, 179.0], [-121.940908, 37.771672, 183.0], [-121.941212, 37.771698, 184.4], [-121.941532, 37.771678, 185.8], [-121.942334, 37.771672, 188.2], [-121.943004, 37.771571, 188.6], [-121.943411, 37.771639, 190.2], [-121.943732, 37.77154, 191.3], [-121.943943, 37.771566, 191.7], [-121.944247, 37.771541, 192.1], [-121.944715, 37.771457, 192.1], [-121.945061, 37.771423, 191.9], [-121.945526, 37.771296, 191.3], [-121.945946, 37.771115, 190.7], [-121.946593, 37.770894, 189.4], [-121.947242, 37.770586, 186.0], [-121.947901, 37.770245, 180.8], [-121.948029, 37.770108, 179.3], [-121.948337, 37.770021, 176.7], [-121.948681, 37.769733, 172.9], [-121.949407, 37.768966, 164.2], [-121.949687, 37.768513, 160.1], [-121.949882, 37.768111, 156.8], [-121.950191, 37.767264, 149.7], [-121.950478, 37.766781, 146.9], [-121.950541, 37.766579, 145.8], [-121.950948, 37.766281, 140.2], [-121.951158, 37.766052, 137.9], [-121.951119, 37.765851, 137.5], [-121.951178, 37.76547, 133.5], [-121.951139, 37.765347, 134.6], [-121.950948, 37.765148, 134.4], [-121.950616, 37.764912, 134.1], [-121.950465, 37.764728, 133.9], [-121.950141, 37.764544, 133.6], [-121.949855, 37.764261, 133.5], [-121.949626, 37.764141, 133.8], [-121.949439, 37.763967, 134.2], [-121.949237, 37.763861, 134.5], [-121.948928, 37.763632, 134.4], [-121.948707, 37.763557, 134.3], [-121.947382, 37.762793, 131.3], [-121.946882, 37.76244, 131.9], [-121.946495, 37.762244, 132.3], [-121.946187, 37.762031, 132.5], [-121.946001, 37.761857, 132.5], [-121.945594, 37.761602, 132.4], [-121.945314, 37.761355, 132.0], [-121.945065, 37.760952, 131.5], [-121.94422, 37.760054, 130.4], [-121.943897, 37.759843, 130.2], [-121.943802, 37.759734, 130.1], [-121.942835, 37.759316, 130.8], [-121.942105, 37.759095, 131.5], [-121.941829, 37.758975, 131.7], [-121.941494, 37.758904, 132.0], [-121.941228, 37.758611, 131.9], [-121.940955, 37.758416, 132.0], [-121.940671, 37.757863, 131.6], [-121.940543, 37.757456, 131.5], [-121.940393, 37.756601, 130.3], [-121.940305, 37.756283, 130.0], [-121.939938, 37.755469, 129.6], [-121.939691, 37.755146, 129.3], [-121.939626, 37.754961, 128.9], [-121.939463, 37.754729, 128.5], [-121.938969, 37.754219, 127.6], [-121.938684, 37.754036, 127.3], [-121.938496, 37.753799, 127.3], [-121.937817, 37.753158, 128.1], [-121.937651, 37.752977, 128.6], [-121.93727, 37.752673, 129.9], [-121.937176, 37.752551, 130.3], [-121.936625, 37.752083, 131.5], [-121.936264, 37.751723, 130.9], [-121.936184, 37.751555, 130.6], [-121.93597, 37.751419, 130.5], [-121.935742, 37.751181, 130.4], [-121.935367, 37.750896, 130.2], [-121.934922, 37.750455, 130.1], [-121.934533, 37.749962, 130.4], [-121.934325, 37.749582, 131.0], [-121.933995, 37.749134, 132.0], [-121.933797, 37.748764, 132.4], [-121.9336, 37.748559, 132.5], [-121.93323, 37.748345, 132.7], [-121.932898, 37.748098, 132.8], [-121.932594, 37.747726, 133.1], [-121.932447, 37.747423, 133.2], [-121.931925, 37.746565, 131.6], [-121.931734, 37.746206, 130.3], [-121.931391, 37.745671, 129.8], [-121.930961, 37.744867, 130.2], [-121.930651, 37.744441, 130.0], [-121.930492, 37.744091, 129.7], [-121.930204, 37.743675, 129.1], [-121.929309, 37.742779, 129.5], [-121.929039, 37.742552, 129.7], [-121.928454, 37.741979, 130.3], [-121.928149, 37.74156, 130.5], [-121.928003, 37.74119, 130.3], [-121.927637, 37.740516, 129.0], [-121.927278, 37.740068, 128.0], [-121.926715, 37.739482, 126.7], [-121.926298, 37.738986, 125.6], [-121.926077, 37.738766, 125.1], [-121.925937, 37.738536, 124.5], [-121.925678, 37.738247, 124.0], [-121.92551, 37.738142, 123.9], [-121.925363, 37.737916, 123.8], [-121.925182, 37.737743, 124.1], [-121.924867, 37.737215, 123.8], [-121.924615, 37.736538, 123.4], [-121.924524, 37.736137, 122.9], [-121.92449, 37.735652, 121.6], [-121.924389, 37.735079, 119.7], [-121.92438, 37.734816, 118.9], [-121.924215, 37.733774, 117.7], [-121.924202, 37.733452, 117.4], [-121.924323, 37.732961, 116.4], [-121.924445, 37.732747, 115.5], [-121.92491, 37.732263, 112.6], [-121.925241, 37.732035, 111.2], [-121.925619, 37.731857, 110.3], [-121.92606, 37.731721, 109.6], [-121.926836, 37.731654, 108.8], [-121.926894, 37.731595, 108.8], [-121.927285, 37.731569, 108.9], [-121.928059, 37.731421, 109.5], [-121.928676, 37.731204, 110.3], [-121.929209, 37.73088, 110.7], [-121.929545, 37.7307, 110.6], [-121.92957, 37.730484, 110.2], [-121.929328, 37.730279, 109.6], [-121.928922, 37.72983, 109.0], [-121.928339, 37.729228, 108.6], [-121.92829, 37.729075, 108.6], [-121.928897, 37.728767, 108.8], [-121.928957, 37.728594, 108.4], [-121.929142, 37.72851, 108.4], [-121.929233, 37.72839, 108.4], [-121.929186, 37.728224, 108.4], [-121.929327, 37.728007, 108.2], [-121.929858, 37.727714, 107.9], [-121.929952, 37.727601, 107.7], [-121.929968, 37.727738, 107.6], [-121.9298, 37.727541, 107.5], [-121.930074, 37.727358, 107.5], [-121.930383, 37.727199, 107.5], [-121.930407, 37.72703, 107.4], [-121.929807, 37.7264, 106.9], [-121.929616, 37.726079, 106.8], [-121.929731, 37.725927, 107.0], [-121.929875, 37.725874, 107.0], [-121.930546, 37.725755, 107.9], [-121.931044, 37.72564, 108.9], [-121.931291, 37.725552, 109.5], [-121.931661, 37.725477, 109.9], [-121.932142, 37.725329, 110.4], [-121.932664, 37.725211, 111.2], [-121.932761, 37.725124, 111.4]]}}