{"type": "Feature", "properties": {}, "geometry": {"type": "LineString", "coordinates": [[-119.381236, 37.873503, 2565.1], [-119.38125, 37.873657, 2615.0], [-119.381231, 37.873781, 2614.9], [-119.381232, 37.873726, 2614.8], [-119.381249, 37.873647, 2614.5], [-119.381249, 37.873604, 2615.2], [-119.381238, 37.873584, 2615.3], [-119.381226, 37.873496, 2616.6], [-119.381202, 37.873466, 2616.2], [-119.381118, 37.873448, 2618.4], [-119.381075, 37.873451, 2618.1], [-119.380985, 37.873485, 2617.6], [-119.380778, 37.873489, 2618.2], [-119.380761, 37.873484, 2618.2], [-119.380638, 37.873502, 2618.9], [-119.380546, 37.873473, 2618.4], [-119.380444, 37.87348, 2618.4], [-119.380331, 37.873467, 2617.4], [-119.38028, 37.873451, 2616.5], [-119.38018, 37.873501, 2616.1], [-119.380135, 37.873501, 2616.1], [-119.379849, 37.873431, 2619.1], [-119.379658, 37.873382, 2622.4], [-119.37956, 37.873388, 2620.4], [-119.379447, 37.873405, 2620.3], [-119.379406, 37.873442, 2621.7], [-119.379323, 37.873454, 2622.0], [-119.379224, 37.873478, 2622.1], [-119.379148, 37.873474, 2621.5], [-119.379096, 37.873485, 2622.0], [-119.379013, 37.873491, 2622.4], [-119.378839, 37.873525, 2623.6], [-119.378579, 37.873504, 2624.5], [-119.378419, 37.873464, 2624.2], [-119.378232, 37.873422, 2625.4], [-119.378199, 37.873404, 2624.6], [-119.378155, 37.873398, 2625.1], [-119.378073, 37.87334, 2624.7], [-119.377967, 37.873298, 2625.0], [-119.377948, 37.873294, 2625.3], [-119.377868, 37.873239, 2625.2], [-119.377808, 37.873216, 2624.0], [-119.377756, 37.873219, 2623.6], [-119.377661, 37.873244, 2623.8], [-119.377514, 37.873244, 2623.4], [-119.377366, 37.873283, 2626.2], [-119.377271, 37.873272, 2624.7], [-119.377199, 37.873242, 2627.4], [-119.377143, 37.873245, 2628.6], [-119.377044, 37.873218, 2631.6], [-119.376977, 37.873174, 2633.0], [-119.376544, 37.873019, 2632.0], [-119.376411, 37.872956, 2631.9], [-119.376365, 37.872894, 2631.9], [-119.376299, 37.87283, 2632.6], [-119.376236, 37.87279, 2631.2], [-119.37606, 37.872708, 2627.2], [-119.376018, 37.872679, 2626.8], [-119.375982, 37.872639, 2625.9], [-119.37595, 37.872628, 2626.2], [-119.375774, 37.872614, 2625.7], [-119.375643, 37.872614, 2629.6], [-119.375541, 37.872572, 2630.3], [-119.375419, 37.872569, 2630.8], [-119.375341, 37.872581, 2631.3], [-119.375143, 37.872445, 2623.3], [-119.37518, 37.872458, 2621.3], [-119.375236, 37.872532, 2620.8], [-119.375273, 37.872545, 2619.9], [-119.375337, 37.872537, 2619.5], [-119.375499, 37.872561, 2616.7], [-119.375521, 37.872562, 2616.4], [-119.375758, 37.872619, 2616.9], [-119.375916, 37.872633, 2621.3], [-119.375954, 37.872666, 2622.5], [-119.376064, 37.872715, 2624.4], [-119.376104, 37.872747, 2624.7], [-119.376264, 37.8729, 2621.4], [-119.376289, 37.872932, 2621.3], [-119.376332, 37.872943, 2621.9], [-119.376443, 37.873001, 2624.6], [-119.376465, 37.873007, 2624.2], [-119.376537, 37.873051, 2621.8], [-119.37678, 37.873127, 2622.6], [-119.376859, 37.873139, 2624.0], [-119.376905, 37.873177, 2623.8], [-119.377004, 37.873213, 2624.1], [-119.377106, 37.873208, 2623.9], [-119.377148, 37.873212, 2623.7], [-119.377237, 37.873272, 2621.3], [-119.37726, 37.873279, 2620.7], [-119.37741, 37.873235, 2620.7], [-119.377442, 37.873238, 2620.0], [-119.377453, 37.873253, 2620.2], [-119.377519, 37.873263, 2619.6], [-119.377606, 37.873249, 2619.2], [-119.377739, 37.87328, 2615.0], [-119.377839, 37.873324, 2614.8], [-119.377859, 37.873348, 2613.0], [-119.377969, 37.873399, 2611.1], [-119.378143, 37.873485, 2610.9], [-119.378166, 37.873489, 2611.2], [-119.378269, 37.873477, 2611.6], [-119.378331, 37.87348, 2611.6], [-119.378429, 37.873461, 2609.8], [-119.378447, 37.873453, 2609.8], [-119.378706, 37.873409, 2611.8], [-119.379031, 37.87343, 2613.6], [-119.379059, 37.873426, 2614.4], [-119.379199, 37.873421, 2614.3], [-119.379292, 37.873404, 2614.9], [-119.379759, 37.873404, 2612.1], [-119.379999, 37.873432, 2618.8], [-119.380082, 37.873454, 2616.3], [-119.380185, 37.873454, 2615.7], [-119.380227, 37.87347, 2615.5], [-119.380316, 37.873477, 2617.3], [-119.38037, 37.8735, 2615.9], [-119.380454, 37.87352, 2614.7], [-119.380545, 37.873532, 2614.0], [-119.380712, 37.873531, 2615.4], [-119.380813, 37.873487, 2614.0], [-119.380886, 37.873485, 2611.6], [-119.380949, 37.873499, 2609.6], [-119.381173, 37.873524, 2611.6], [-119.381195, 37.873502, 2618.2], [-119.381228, 37.873504, 2619.0], [-119.381211, 37.87353, 2615.0], [-119.381183, 37.873531, 2614.9], [-119.381154, 37.873485, 2615.0], [-119.38115, 37.87344, 2615.3], [-119.381162, 37.873374, 2614.6], [-119.38119, 37.873323, 2614.5], [-119.381213, 37.87326, 2614.9], [-119.381178, 37.873156, 2615.1], [-119.381167, 37.87314, 2615.0], [-119.381158, 37.87309, 2615.3], [-119.381163, 37.873065, 2615.7], [-119.381228, 37.872987, 2615.9], [-119.381324, 37.872864, 2617.1], [-119.381393, 37.872819, 2617.1], [-119.38145, 37.872789, 2618.2], [-119.381473, 37.872749, 2618.0], [-119.381465, 37.872676, 2616.5], [-119.381566, 37.872536, 2616.4], [-119.381601, 37.872479, 2615.0], [-119.381604, 37.872416, 2614.7], [-119.381636, 37.872379, 2615.7], [-119.381645, 37.872291, 2614.5], [-119.38168, 37.872244, 2614.9], [-119.381783, 37.872066, 2615.2], [-119.381933, 37.872044, 2616.6], [-119.38198, 37.87206, 2617.1], [-119.382014, 37.872083, 2617.2], [-119.382032, 37.872083, 2616.7], [-119.382185, 37.872046, 2616.4], [-119.382324, 37.871951, 2615.9], [-119.382367, 37.871938, 2616.1], [-119.382465, 37.87189, 2617.6], [-119.382492, 37.871873, 2618.2], [-119.382501, 37.871848, 2618.2], [-119.382536, 37.871836, 2618.6], [-119.38257, 37.871806, 2618.3], [-119.382691, 37.871758, 2620.5], [-119.38283, 37.871707, 2620.6], [-119.382947, 37.871627, 2620.6], [-119.383054, 37.871617, 2621.4], [-119.383127, 37.871622, 2620.1], [-119.383207, 37.871601, 2620.6], [-119.383252, 37.871602, 2620.8], [-119.383274, 37.871624, 2619.9], [-119.383473, 37.871775, 2619.3], [-119.383512, 37.871816, 2617.6], [-119.383573, 37.871856, 2619.6], [-119.383704, 37.871969, 2617.7], [-119.383764, 37.872051, 2617.4], [-119.38381, 37.872054, 2617.9], [-119.383879, 37.87204, 2618.5], [-119.383968, 37.872009, 2618.6], [-119.384027, 37.871968, 2619.4], [-119.384044, 37.871948, 2620.0], [-119.384049, 37.871919, 2621.5], [-119.384072, 37.871914, 2622.0], [-119.384227, 37.871782, 2625.4], [-119.384327, 37.871657, 2629.3], [-119.384334, 37.871609, 2630.1], [-119.384349, 37.871585, 2631.3], [-119.384418, 37.871561, 2631.3], [-119.384435, 37.871533, 2632.0], [-119.384469, 37.871508, 2632.9], [-119.384484, 37.871377, 2634.3], [-119.384524, 37.871349, 2635.2], [-119.384539, 37.871295, 2636.7], [-119.384571, 37.871204, 2637.4], [-119.384612, 37.871174, 2637.1], [-119.384647, 37.871116, 2638.5], [-119.38464, 37.871068, 2639.0], [-119.384667, 37.871036, 2640.2], [-119.38467, 37.871011, 2641.3], [-119.38469, 37.87099, 2642.3], [-119.384765, 37.870976, 2643.8], [-119.384842, 37.870931, 2646.5], [-119.384931, 37.870917, 2648.0], [-119.384991, 37.87093, 2649.6], [-119.385024, 37.870918, 2648.5], [-119.385072, 37.870806, 2649.8], [-119.385047, 37.870767, 2650.1], [-119.385224, 37.870637, 2657.8], [-119.385223, 37.870616, 2658.7], [-119.385265, 37.870586, 2659.6], [-119.385304, 37.870544, 2659.8], [-119.38536, 37.870533, 2658.9], [-119.385416, 37.870474, 2658.6], [-119.385427, 37.870429, 2660.4], [-119.385419, 37.870393, 2660.9], [-119.385551, 37.87027, 2663.5], [-119.385583, 37.870247, 2664.0], [-119.38563, 37.870167, 2668.0], [-119.385764, 37.870162, 2669.8], [-119.38576, 37.870114, 2670.4], [-119.385786, 37.87005, 2671.8], [-119.385793, 37.870011, 2672.6], [-119.385874, 37.869971, 2672.5], [-119.385891, 37.869929, 2673.6], [-119.385928, 37.869878, 2676.4], [-119.386011, 37.869838, 2678.1], [-119.386133, 37.869817, 2683.5], [-119.386139, 37.869803, 2684.1], [-119.386168, 37.8698, 2684.4], [-119.386228, 37.869844, 2685.2], [-119.386319, 37.869865, 2685.0], [-119.386388, 37.869909, 2686.2], [-119.386464, 37.869909, 2685.6], [-119.386488, 37.869921, 2686.4], [-119.386582, 37.869911, 2687.4], [-119.386694, 37.86991, 2688.6], [-119.386799, 37.869853, 2692.5], [-119.386779, 37.869839, 2692.4], [-119.386757, 37.869755, 2693.7], [-119.386728, 37.869714, 2696.3], [-119.386751, 37.869668, 2696.7], [-119.38673, 37.869635, 2696.0], [-119.386794, 37.86955, 2697.0], [-119.386774, 37.869468, 2698.0], [-119.386812, 37.869347, 2699.9], [-119.386788, 37.869329, 2706.7], [-119.386782, 37.869307, 2704.8], [-119.38671, 37.869276, 2698.9], [-119.386601, 37.869242, 2699.7], [-119.386439, 37.869031, 2698.6], [-119.386358, 37.868948, 2698.9], [-119.386336, 37.868867, 2696.6], [-119.38635, 37.868797, 2697.3], [-119.386336, 37.868773, 2697.3], [-119.386328, 37.868718, 2697.1], [-119.386332, 37.868671, 2697.2], [-119.386309, 37.868532, 2698.1], [-119.386303, 37.868517, 2698.7], [-119.386371, 37.868357, 2702.8], [-119.386424, 37.868343, 2703.8], [-119.386516, 37.868255, 2706.0], [-119.386517, 37.868247, 2706.1], [-119.386585, 37.868182, 2706.5], [-119.386639, 37.868183, 2706.4], [-119.386671, 37.868156, 2706.5], [-119.386716, 37.868041, 2708.3], [-119.386706, 37.867996, 2710.8], [-119.386722, 37.867963, 2712.3], [-119.386788, 37.867916, 2714.2], [-119.386797, 37.867873, 2715.0], [-119.386786, 37.86785, 2714.8], [-119.386794, 37.867813, 2714.7], [-119.386843, 37.867812, 2716.0], [-119.386866, 37.867705, 2717.4], [-119.386899, 37.867616, 2716.1], [-119.386899, 37.867524, 2715.8], [-119.386853, 37.867448, 2717.9], [-119.386845, 37.867409, 2718.0], [-119.386809, 37.867371, 2718.8], [-119.386795, 37.867369, 2719.2], [-119.386752, 37.867334, 2720.0], [-119.386739, 37.867301, 2719.7], [-119.386704, 37.867258, 2721.6], [-119.386702, 37.867212, 2720.9], [-119.386788, 37.867105, 2724.9], [-119.38682, 37.86701, 2725.4], [-119.386819, 37.866986, 2725.9], [-119.386835, 37.866961, 2725.7], [-119.386877, 37.86696, 2725.3], [-119.386953, 37.866878, 2726.8], [-119.386965, 37.866846, 2727.7], [-119.387024, 37.866795, 2727.0], [-119.38702, 37.866711, 2727.7], [-119.387043, 37.866679, 2729.2], [-119.387121, 37.866625, 2728.3], [-119.387146, 37.866571, 2728.8], [-119.387179, 37.866531, 2729.3], [-119.387285, 37.866372, 2729.7], [-119.387347, 37.866337, 2728.0], [-119.387396, 37.866293, 2727.5], [-119.387462, 37.866257, 2728.7], [-119.387471, 37.866201, 2730.0], [-119.387462, 37.866119, 2731.6], [-119.387473, 37.866073, 2731.7], [-119.387505, 37.866051, 2731.5], [-119.387512, 37.866028, 2731.9], [-119.387508, 37.865867, 2734.4], [-119.387542, 37.865829, 2736.7], [-119.387595, 37.865813, 2737.3], [-119.387659, 37.865739, 2740.0], [-119.387671, 37.865706, 2742.6], [-119.387663, 37.865567, 2744.1], [-119.387668, 37.865538, 2744.4], [-119.387711, 37.865471, 2743.6], [-119.387709, 37.865362, 2744.6], [-119.387744, 37.865322, 2744.6], [-119.38777, 37.865256, 2745.9], [-119.387755, 37.865204, 2745.2], [-119.38775, 37.865115, 2745.1], [-119.387729, 37.865049, 2745.3], [-119.387712, 37.865036, 2745.4], [-119.387683, 37.86499, 2745.6], [-119.387688, 37.86497, 2745.3], [-119.38777, 37.864884, 2745.0], [-119.387823, 37.864839, 2744.6], [-119.38786, 37.864741, 2744.4], [-119.387867, 37.864656, 2744.8], [-119.387909, 37.864589, 2744.9], [-119.387942, 37.86455, 2746.4], [-119.388012, 37.8645, 2749.3], [-119.387989, 37.864449, 2753.4], [-119.388008, 37.86441, 2753.8], [-119.38802, 37.864358, 2753.6], [-119.388014, 37.864316, 2753.7], [-119.388044, 37.864251, 2755.0], [-119.388036, 37.864197, 2755.1], [-119.388046, 37.864173, 2755.3], [-119.38805, 37.864119, 2756.0], [-119.388072, 37.864107, 2755.5], [-119.388127, 37.86411, 2754.1], [-119.388179, 37.864082, 2752.5], [-119.388178, 37.864011, 2752.1], [-119.388141, 37.863909, 2753.5], [-119.388158, 37.863828, 2753.4], [-119.388146, 37.863804, 2754.0], [-119.388108, 37.863775, 2753.6], [-119.388115, 37.863713, 2753.0], [-119.388046, 37.863651, 2752.1], [-119.388006, 37.863593, 2752.0], [-119.387932, 37.863537, 2753.5], [-119.387912, 37.86349, 2754.6], [-119.387918, 37.863403, 2753.4], [-119.387939, 37.863367, 2753.2], [-119.387983, 37.863324, 2756.1], [-119.38804, 37.863215, 2757.5], [-119.388045, 37.863178, 2757.4], [-119.388032, 37.863139, 2757.2], [-119.388017, 37.863064, 2756.3], [-119.388029, 37.862977, 2756.4], [-119.388004, 37.86293, 2756.3], [-119.387923, 37.862855, 2756.2], [-119.387902, 37.862782, 2757.6], [-119.387917, 37.862606, 2757.3], [-119.387925, 37.862563, 2757.3], [-119.387897, 37.862536, 2758.0], [-119.387865, 37.862452, 2759.7], [-119.387799, 37.862403, 2758.9], [-119.387765, 37.862271, 2757.9], [-119.387796, 37.862228, 2757.4], [-119.387821, 37.86222, 2757.6], [-119.387857, 37.862156, 2757.9], [-119.387876, 37.862112, 2757.8], [-119.387879, 37.862058, 2758.3], [-119.387812, 37.861926, 2761.3], [-119.387815, 37.861905, 2761.7], [-119.387865, 37.861878, 2761.9], [-119.387879, 37.861802, 2762.9], [-119.387897, 37.861755, 2763.6], [-119.388046, 37.861572, 2767.8], [-119.388114, 37.861389, 2768.6], [-119.388119, 37.861315, 2768.5], [-119.388145, 37.861223, 2769.5], [-119.388226, 37.86108, 2770.2], [-119.388227, 37.861037, 2771.3], [-119.388256, 37.860979, 2770.1], [-119.388258, 37.860918, 2770.2], [-119.388272, 37.860882, 2770.5], [-119.388278, 37.860765, 2770.7], [-119.388298, 37.860723, 2772.2], [-119.388362, 37.860707, 2772.6], [-119.388406, 37.860679, 2774.1], [-119.38843, 37.860675, 2775.0], [-119.388491, 37.860629, 2776.0], [-119.388529, 37.860579, 2778.1], [-119.388573, 37.860544, 2779.6], [-119.388607, 37.860538, 2780.1], [-119.388673, 37.860486, 2781.2], [-119.388727, 37.860348, 2781.8], [-119.388776, 37.860359, 2782.2], [-119.388859, 37.860345, 2783.2], [-119.388875, 37.860281, 2784.7], [-119.38889, 37.860267, 2785.4], [-119.388908, 37.860213, 2785.6], [-119.389093, 37.860135, 2786.5], [-119.389116, 37.860112, 2786.5], [-119.389101, 37.859976, 2788.4], [-119.389118, 37.859961, 2788.1], [-119.389129, 37.859915, 2789.7], [-119.389193, 37.859872, 2789.8], [-119.389278, 37.85984, 2791.1], [-119.389292, 37.85982, 2791.3], [-119.389281, 37.85973, 2792.9], [-119.389286, 37.859585, 2796.2], [-119.389265, 37.859547, 2796.8], [-119.389287, 37.859446, 2800.0], [-119.389308, 37.859405, 2800.7], [-119.389302, 37.859375, 2802.1], [-119.389282, 37.859359, 2802.1], [-119.389295, 37.85927, 2803.0], [-119.389325, 37.859234, 2805.8], [-119.389342, 37.859099, 2809.1], [-119.389367, 37.859071, 2809.4], [-119.389374, 37.859045, 2809.2], [-119.389349, 37.859001, 2809.9], [-119.389363, 37.858925, 2811.0], [-119.389335, 37.858869, 2812.7], [-119.389342, 37.858851, 2813.3], [-119.389415, 37.858776, 2812.8], [-119.38945, 37.85875, 2812.6], [-119.389426, 37.85868, 2817.2], [-119.389451, 37.858641, 2819.5], [-119.389513, 37.858649, 2819.0], [-119.389571, 37.858633, 2819.2], [-119.389612, 37.858628, 2819.6], [-119.389659, 37.858596, 2822.7], [-119.389664, 37.858569, 2823.5], [-119.389645, 37.858548, 2824.3], [-119.389656, 37.858526, 2824.6], [-119.389696, 37.858498, 2826.4], [-119.389729, 37.858456, 2826.5], [-119.389738, 37.85841, 2827.7], [-119.389817, 37.858315, 2830.4], [-119.389848, 37.858305, 2831.6], [-119.38992, 37.858195, 2832.0], [-119.389915, 37.858101, 2834.6], [-119.390009, 37.858023, 2836.2], [-119.390034, 37.858011, 2836.4], [-119.390041, 37.857989, 2840.5], [-119.390071, 37.857947, 2840.5], [-119.390079, 37.857789, 2840.9], [-119.390065, 37.857745, 2841.0], [-119.390076, 37.857647, 2839.7], [-119.390111, 37.857567, 2843.5], [-119.390218, 37.857514, 2843.8], [-119.390225, 37.857473, 2844.9], [-119.390248, 37.857452, 2845.9], [-119.390403, 37.857328, 2848.8], [-119.390502, 37.857189, 2848.5], [-119.390558, 37.857177, 2847.2], [-119.39064, 37.857188, 2847.0], [-119.390758, 37.857031, 2847.6], [-119.390783, 37.857014, 2847.3], [-119.390816, 37.857018, 2847.1], [-119.390851, 37.856974, 2846.8], [-119.39088, 37.856956, 2846.9], [-119.390911, 37.856873, 2849.6], [-119.390935, 37.856856, 2849.4], [-119.390946, 37.856788, 2850.5], [-119.390939, 37.856729, 2852.9], [-119.390951, 37.856684, 2852.9], [-119.390999, 37.856661, 2852.8], [-119.391012, 37.856636, 2853.5], [-119.391029, 37.856531, 2858.4], [-119.391069, 37.856464, 2860.2], [-119.3911, 37.856359, 2863.9], [-119.391119, 37.85632, 2865.1], [-119.391173, 37.856294, 2868.5], [-119.391295, 37.856178, 2871.9], [-119.391315, 37.856122, 2872.7], [-119.391423, 37.855997, 2876.5], [-119.391425, 37.855935, 2876.7], [-119.391456, 37.855891, 2876.0], [-119.391703, 37.855828, 2881.1], [-119.391748, 37.855706, 2881.3], [-119.391764, 37.855688, 2881.6], [-119.39176, 37.855644, 2881.9], [-119.391809, 37.855583, 2882.1], [-119.391811, 37.855572, 2882.0], [-119.391848, 37.855555, 2882.3], [-119.391886, 37.855515, 2883.3], [-119.391922, 37.855427, 2883.0], [-119.392105, 37.855311, 2883.5], [-119.392177, 37.855212, 2884.4], [-119.392191, 37.85517, 2884.6], [-119.39227, 37.855111, 2883.7], [-119.392297, 37.855069, 2883.6], [-119.39228, 37.855048, 2883.6], [-119.392274, 37.855013, 2885.5], [-119.392287, 37.854992, 2886.7], [-119.392291, 37.854941, 2886.9], [-119.392259, 37.8549, 2888.0], [-119.392367, 37.854729, 2890.1], [-119.3924, 37.854686, 2890.7], [-119.392406, 37.854642, 2890.7], [-119.392429, 37.854599, 2891.0], [-119.392487, 37.854571, 2891.1], [-119.392528, 37.854527, 2892.2], [-119.392591, 37.854521, 2892.2], [-119.392606, 37.854509, 2892.1], [-119.392635, 37.854451, 2892.8], [-119.39268, 37.854387, 2895.2], [-119.392755, 37.854324, 2895.8], [-119.392802, 37.854336, 2896.4], [-119.392822, 37.854321, 2896.8], [-119.392948, 37.854299, 2897.0], [-119.392986, 37.854273, 2897.5], [-119.393031, 37.854213, 2897.8], [-119.393047, 37.854145, 2899.4], [-119.393124, 37.854044, 2899.3], [-119.393131, 37.854003, 2900.0], [-119.393166, 37.853962, 2900.5], [-119.393238, 37.85383, 2901.1], [-119.393234, 37.853712, 2901.9], [-119.393292, 37.853638, 2902.3], [-119.393297, 37.853569, 2901.5], [-119.393336, 37.853541, 2902.5], [-119.393334, 37.85352, 2902.6], [-119.393353, 37.853481, 2901.9], [-119.393403, 37.85344, 2901.6], [-119.393467, 37.85341, 2901.2], [-119.393503, 37.853372, 2901.3], [-119.393541, 37.853282, 2900.9], [-119.393548, 37.853181, 2902.3], [-119.393568, 37.853162, 2904.9], [-119.393646, 37.853179, 2907.7], [-119.393673, 37.85317, 2908.8], [-119.39368, 37.853146, 2909.0], [-119.393641, 37.853106, 2909.3], [-119.393637, 37.853036, 2909.4], [-119.39366, 37.852975, 2909.0], [-119.393634, 37.852935, 2908.0], [-119.39363, 37.852871, 2906.6], [-119.393603, 37.85285, 2907.0], [-119.393601, 37.852769, 2906.6], [-119.393614, 37.852749, 2907.4], [-119.393661, 37.852732, 2906.7], [-119.393696, 37.852703, 2905.2], [-119.393743, 37.852623, 2904.5], [-119.393756, 37.852562, 2903.1], [-119.393751, 37.85252, 2904.3], [-119.393735, 37.852474, 2905.4], [-119.393852, 37.852258, 2903.6], [-119.393935, 37.852186, 2903.6], [-119.393954, 37.852138, 2903.7], [-119.393942, 37.852043, 2904.0], [-119.393964, 37.85201, 2904.8], [-119.394007, 37.851962, 2905.8], [-119.394068, 37.851849, 2906.9], [-119.394083, 37.851809, 2909.6], [-119.394133, 37.851751, 2908.0], [-119.394153, 37.85174, 2908.3], [-119.394164, 37.851706, 2908.5], [-119.394193, 37.851664, 2908.1], [-119.394213, 37.851599, 2907.9], [-119.394249, 37.851538, 2908.5], [-119.394308, 37.851468, 2908.7], [-119.394318, 37.851463, 2908.8], [-119.394336, 37.851381, 2914.9], [-119.394326, 37.851331, 2916.2], [-119.394365, 37.851295, 2918.7], [-119.394368, 37.851277, 2919.9], [-119.3944, 37.851248, 2914.5], [-119.394431, 37.851185, 2914.3], [-119.394415, 37.851164, 2914.7], [-119.394494, 37.851113, 2916.3], [-119.394531, 37.851105, 2916.1], [-119.394566, 37.851043, 2919.6], [-119.39461, 37.851003, 2919.3], [-119.394644, 37.851002, 2920.0], [-119.394636, 37.850963, 2919.0], [-119.394654, 37.850936, 2921.9], [-119.394721, 37.850878, 2917.0], [-119.394739, 37.850832, 2918.8], [-119.394853, 37.850769, 2920.5], [-119.394892, 37.850728, 2921.0], [-119.394894, 37.850685, 2924.6], [-119.394988, 37.850582, 2925.9], [-119.395029, 37.850556, 2926.8], [-119.39504, 37.850533, 2927.7], [-119.395036, 37.850507, 2928.8], [-119.395093, 37.85047, 2930.0], [-119.395133, 37.850433, 2930.5], [-119.39518, 37.85042, 2931.5], [-119.395205, 37.850382, 2931.8], [-119.395264, 37.85033, 2931.6], [-119.395316, 37.850331, 2933.2], [-119.395393, 37.850271, 2934.0], [-119.3954, 37.850248, 2935.7], [-119.39539, 37.850203, 2937.4], [-119.395407, 37.850098, 2939.5], [-119.395423, 37.850054, 2941.5], [-119.395414, 37.850015, 2944.4], [-119.395455, 37.849958, 2945.0], [-119.395458, 37.849945, 2946.0], [-119.395585, 37.849814, 2946.9], [-119.395672, 37.849652, 2946.8], [-119.395687, 37.84964, 2946.7], [-119.395711, 37.849592, 2948.7], [-119.395724, 37.849487, 2951.7], [-119.395735, 37.84946, 2951.6], [-119.395731, 37.849397, 2951.3], [-119.395746, 37.849347, 2953.4], [-119.395782, 37.849302, 2953.7], [-119.395861, 37.849232, 2953.5], [-119.395963, 37.849193, 2952.8], [-119.396019, 37.849145, 2953.7], [-119.396054, 37.848972, 2953.9], [-119.396018, 37.848977, 2958.0], [-119.396069, 37.848932, 2961.1], [-119.396141, 37.848914, 2960.7], [-119.396315, 37.848898, 2958.1], [-119.396367, 37.848883, 2957.8], [-119.396482, 37.848807, 2958.6], [-119.396553, 37.848806, 2957.5], [-119.396592, 37.848799, 2958.9], [-119.396617, 37.84877, 2963.3], [-119.396664, 37.848736, 2964.7], [-119.3967, 37.848725, 2965.8], [-119.396711, 37.848734, 2964.8], [-119.396767, 37.848735, 2963.5], [-119.3969, 37.84868, 2972.1], [-119.396961, 37.848652, 2974.2], [-119.397003, 37.848619, 2976.0], [-119.397078, 37.848608, 2976.7], [-119.397122, 37.848626, 2977.9], [-119.397276, 37.848618, 2982.3], [-119.397305, 37.848675, 2982.5], [-119.397355, 37.848683, 2982.4], [-119.397404, 37.848656, 2982.7], [-119.397432, 37.848662, 2982.7], [-119.397468, 37.848693, 2983.2], [-119.397476, 37.848719, 2983.1], [-119.397544, 37.848759, 2984.3], [-119.397574, 37.848814, 2985.4], [-119.397628, 37.848881, 2986.2], [-119.39769, 37.848882, 2987.5], [-119.397759, 37.848938, 2987.5], [-119.397843, 37.848974, 2988.8], [-119.397876, 37.848977, 2989.8], [-119.397887, 37.848952, 2988.8], [-119.397918, 37.848947, 2988.4], [-119.397943, 37.848923, 2988.2], [-119.398053, 37.848885, 2987.3], [-119.398146, 37.84882, 2988.7], [-119.39824, 37.848781, 2990.0], [-119.398347, 37.848708, 2990.4], [-119.398375, 37.848693, 2990.1], [-119.39842, 37.848647, 2991.7], [-119.398501, 37.848625, 2994.0], [-119.398556, 37.848592, 2994.0], [-119.398607, 37.848611, 2992.3], [-119.398728, 37.848511, 2997.5], [-119.398763, 37.848476, 2998.0], [-119.398775, 37.848423, 2997.3], [-119.398849, 37.848284, 2999.7], [-119.398877, 37.848269, 3000.5], [-119.398883, 37.848252, 3000.5], [-119.398941, 37.848211, 3002.7], [-119.399022, 37.848101, 3006.8], [-119.399034, 37.848072, 3007.8], [-119.39907, 37.848025, 3009.3], [-119.399131, 37.847976, 3010.4], [-119.399151, 37.847924, 3012.4], [-119.3992, 37.847867, 3012.5], [-119.399323, 37.847799, 3013.0], [-119.399501, 37.847684, 3014.9], [-119.399518, 37.847643, 3013.8], [-119.39956, 37.84759, 3014.2], [-119.399619, 37.847478, 3016.2], [-119.399673, 37.84743, 3018.9], [-119.399765, 37.847392, 3021.7], [-119.399812, 37.847356, 3021.1], [-119.399872, 37.847329, 3021.1], [-119.399955, 37.847323, 3022.6], [-119.399989, 37.847301, 3023.6], [-119.400004, 37.847258, 3025.1], [-119.400032, 37.84722, 3025.7], [-119.400086, 37.847177, 3025.4], [-119.400119, 37.847119, 3025.4], [-119.400169, 37.847062, 3025.9], [-119.400247, 37.847038, 3027.8], [-119.400305, 37.846993, 3027.2], [-119.400336, 37.846996, 3027.7], [-119.400465, 37.84696, 3026.8], [-119.400587, 37.846957, 3028.9], [-119.400698, 37.846913, 3029.9], [-119.400759, 37.84683, 3030.5], [-119.400826, 37.846776, 3031.6], [-119.400883, 37.84674, 3035.6], [-119.400939, 37.84668, 3036.8], [-119.400977, 37.846657, 3036.5], [-119.401021, 37.846612, 3038.7], [-119.401155, 37.846559, 3040.6], [-119.401236, 37.846499, 3042.0], [-119.401267, 37.846494, 3042.3], [-119.401316, 37.846465, 3041.8], [-119.401357, 37.846486, 3041.3], [-119.401407, 37.846543, 3041.4], [-119.401509, 37.846581, 3042.2], [-119.401603, 37.846567, 3040.3], [-119.40168, 37.846594, 3039.8], [-119.401695, 37.846619, 3039.6], [-119.40172, 37.846614, 3039.1], [-119.40174, 37.846592, 3038.6], [-119.401805, 37.846562, 3038.1], [-119.401849, 37.846529, 3038.7], [-119.401974, 37.846485, 3036.7], [-119.402058, 37.846421, 3037.8], [-119.402082, 37.846387, 3038.4], [-119.402087, 37.846348, 3039.7], [-119.402155, 37.846322, 3040.0], [-119.402266, 37.846255, 3040.2], [-119.402577, 37.846006, 3043.5], [-119.402648, 37.845967, 3045.4], [-119.402742, 37.845969, 3046.0], [-119.402894, 37.845935, 3047.1], [-119.40305, 37.845961, 3048.8], [-119.403123, 37.845991, 3048.3], [-119.403203, 37.845981, 3050.9], [-119.403225, 37.846, 3052.0], [-119.403228, 37.846036, 3054.4], [-119.403271, 37.846011, 3058.3], [-119.403332, 37.845994, 3059.2], [-119.403369, 37.846009, 3058.8], [-119.403372, 37.846119, 3059.1], [-119.40343, 37.846164, 3063.7], [-119.403491, 37.846184, 3066.2], [-119.403524, 37.84618, 3066.3], [-119.403509, 37.846253, 3068.4], [-119.403549, 37.846324, 3067.0], [-119.403506, 37.846389, 3067.1], [-119.403517, 37.846415, 3067.0], [-119.403587, 37.846452, 3066.8], [-119.403594, 37.846468, 3066.8], [-119.403593, 37.846547, 3070.8], [-119.403766, 37.846573, 3078.2], [-119.403793, 37.846558, 3078.6], [-119.40381, 37.846572, 3086.4], [-119.403768, 37.846562, 3089.7], [-119.403972, 37.846516, 3095.0], [-119.403947, 37.846499, 3100.9], [-119.403944, 37.846476, 3101.5], [-119.403993, 37.846435, 3099.8], [-119.40405, 37.846419, 3099.6], [-119.404122, 37.846434, 3098.9], [-119.404163, 37.846411, 3100.2], [-119.404275, 37.846379, 3101.5], [-119.404446, 37.846304, 3101.9], [-119.404473, 37.846256, 3101.8], [-119.404585, 37.846174, 3105.0], [-119.404651, 37.846165, 3105.2], [-119.404713, 37.846171, 3106.0], [-119.404871, 37.846096, 3107.6], [-119.405014, 37.846075, 3108.1], [-119.405109, 37.84611, 3109.4], [-119.4052, 37.846095, 3111.9], [-119.405273, 37.84606, 3111.9], [-119.405332, 37.846044, 3111.9], [-119.405461, 37.845964, 3112.3], [-119.405519, 37.845939, 3112.2], [-119.40563, 37.845948, 3111.4], [-119.40574, 37.845895, 3109.4], [-119.405797, 37.845897, 3110.8], [-119.405848, 37.845921, 3111.4], [-119.405906, 37.845914, 3112.3], [-119.405997, 37.84593, 3112.4], [-119.406028, 37.845949, 3112.6], [-119.406169, 37.845985, 3115.5], [-119.406205, 37.846011, 3114.9], [-119.406245, 37.84603, 3115.3], [-119.406249, 37.846056, 3116.6], [-119.406324, 37.846118, 3119.1], [-119.40633, 37.846159, 3119.4], [-119.406355, 37.846142, 3120.0], [-119.406405, 37.846159, 3120.6], [-119.406438, 37.846198, 3119.5], [-119.406446, 37.84622, 3120.0], [-119.406438, 37.846247, 3120.0], [-119.406399, 37.846313, 3121.5], [-119.406393, 37.846291, 3123.5], [-119.406347, 37.846274, 3122.3], [-119.406339, 37.846252, 3122.0], [-119.406373, 37.846276, 3119.5], [-119.406434, 37.84627, 3122.9], [-119.406482, 37.846242, 3123.3], [-119.406545, 37.846248, 3123.9], [-119.406576, 37.846269, 3123.4], [-119.406543, 37.84627, 3122.6], [-119.406523, 37.846255, 3122.8], [-119.406492, 37.846252, 3121.9], [-119.406484, 37.846271, 3120.3], [-119.406493, 37.846296, 3119.8], [-119.406463, 37.846324, 3118.2], [-119.406419, 37.846329, 3116.9], [-119.406328, 37.846355, 3115.3], [-119.406361, 37.846392, 3114.4], [-119.406465, 37.846462, 3119.8], [-119.406493, 37.846451, 3122.0], [-119.406521, 37.84642, 3122.2], [-119.406597, 37.846441, 3124.2], [-119.406613, 37.846456, 3124.3], [-119.406749, 37.846486, 3125.9], [-119.406805, 37.84649, 3127.3], [-119.406878, 37.846481, 3128.7], [-119.406956, 37.846519, 3130.3], [-119.407001, 37.846536, 3130.4], [-119.407029, 37.846523, 3130.3], [-119.407086, 37.846527, 3130.3], [-119.407111, 37.846545, 3131.6], [-119.407144, 37.846546, 3132.9], [-119.407186, 37.846569, 3131.1], [-119.407251, 37.846594, 3130.9], [-119.407311, 37.84664, 3132.6], [-119.407401, 37.846688, 3133.7], [-119.407368, 37.846748, 3133.6], [-119.407442, 37.846801, 3133.4], [-119.407485, 37.846851, 3137.3], [-119.407464, 37.846871, 3140.2], [-119.407512, 37.846864, 3138.3], [-119.407583, 37.846893, 3138.1], [-119.4076, 37.846918, 3138.4], [-119.407591, 37.846966, 3137.8], [-119.407618, 37.847033, 3139.4], [-119.407655, 37.847014, 3142.7], [-119.407712, 37.846996, 3141.0], [-119.407751, 37.847025, 3140.3], [-119.407765, 37.84707, 3135.7], [-119.407793, 37.847064, 3135.5], [-119.407824, 37.847079, 3134.6], [-119.40784, 37.847107, 3130.9], [-119.407908, 37.847139, 3124.6], [-119.407969, 37.847139, 3121.7], [-119.407972, 37.847131, 3121.6], [-119.408033, 37.847185, 3119.3], [-119.407999, 37.847211, 3113.1], [-119.408044, 37.847208, 3114.1], [-119.408038, 37.847181, 3117.2], [-119.408, 37.847149, 3117.1], [-119.408012, 37.847126, 3118.7], [-119.408027, 37.847149, 3115.0], [-119.408092, 37.847144, 3112.6], [-119.408097, 37.847117, 3112.1], [-119.408139, 37.847088, 3111.5], [-119.408168, 37.847089, 3111.9], [-119.408158, 37.847114, 3105.3], [-119.408188, 37.847118, 3105.4], [-119.408198, 37.847063, 3105.6], [-119.408207, 37.847106, 3103.7], [-119.408145, 37.847154, 3101.4], [-119.408163, 37.847205, 3099.1], [-119.408156, 37.847237, 3098.4], [-119.408191, 37.847276, 3098.8], [-119.408182, 37.847301, 3097.4], [-119.40813, 37.847318, 3095.4], [-119.408095, 37.847388, 3098.5], [-119.408122, 37.847395, 3098.0], [-119.408082, 37.847426, 3097.1], [-119.408143, 37.847442, 3098.2], [-119.408161, 37.847459, 3100.4], [-119.40812, 37.847494, 3104.3], [-119.408146, 37.847542, 3105.3], [-119.408162, 37.847546, 3106.6], [-119.408114, 37.847569, 3109.0], [-119.408147, 37.847568, 3109.8], [-119.408121, 37.847546, 3107.1], [-119.408072, 37.84757, 3106.9], [-119.408095, 37.847587, 3104.7], [-119.408111, 37.847562, 3107.2], [-119.408099, 37.847517, 3107.8], [-119.408131, 37.847518, 3109.5], [-119.408109, 37.847533, 3107.4], [-119.408107, 37.847473, 3107.9], [-119.408092, 37.847496, 3105.9], [-119.4081, 37.847542, 3103.1], [-119.408092, 37.847565, 3102.5], [-119.408062, 37.847599, 3102.4], [-119.407936, 37.847569, 3127.6], [-119.407976, 37.847551, 3122.9], [-119.407971, 37.847452, 3121.9], [-119.407862, 37.847439, 3095.1], [-119.407912, 37.847349, 3094.4], [-119.407916, 37.847571, 3128.6], [-119.407972, 37.847549, 3135.5], [-119.407948, 37.84753, 3134.7], [-119.407915, 37.847574, 3134.7], [-119.408038, 37.84755, 3144.5], [-119.407996, 37.847579, 3150.1], [-119.407967, 37.847619, 3141.9], [-119.407911, 37.847631, 3136.8], [-119.407943, 37.847604, 3136.9], [-119.407901, 37.847662, 3129.3], [-119.407871, 37.847666, 3126.1], [-119.407894, 37.847642, 3127.4], [-119.407906, 37.84761, 3127.7], [-119.407932, 37.847594, 3128.9], [-119.407939, 37.847574, 3131.4], [-119.408008, 37.847543, 3133.4], [-119.408052, 37.847554, 3141.5], [-119.408049, 37.847573, 3140.8], [-119.40799, 37.847581, 3142.9], [-119.408009, 37.847566, 3144.0], [-119.408099, 37.847521, 3144.8], [-119.408128, 37.847519, 3144.6], [-119.40806, 37.847536, 3146.2], [-119.408064, 37.847519, 3142.2], [-119.408018, 37.847557, 3141.2], [-119.408048, 37.847563, 3142.2], [-119.408087, 37.847538, 3143.8], [-119.408204, 37.847527, 3139.8], [-119.408132, 37.847542, 3138.2], [-119.408107, 37.84753, 3144.1], [-119.408011, 37.847541, 3142.5], [-119.407957, 37.847542, 3141.8], [-119.40789, 37.847561, 3142.1], [-119.407903, 37.847536, 3141.3], [-119.407935, 37.847525, 3140.8], [-119.407901, 37.847525, 3141.1], [-119.40797, 37.847549, 3137.3], [-119.407951, 37.847568, 3138.1], [-119.408034, 37.847553, 3142.9], [-119.408102, 37.847554, 3143.8], [-119.408086, 37.847562, 3145.0], [-119.408059, 37.847541, 3142.3], [-119.408017, 37.847558, 3139.2], [-119.40798, 37.847556, 3152.8], [-119.408021, 37.847594, 3174.2], [-119.407953, 37.847606, 3174.1], [-119.407976, 37.847587, 3173.3], [-119.408026, 37.847614, 3176.0], [-119.408017, 37.847548, 3182.8], [-119.408007, 37.847573, 3184.1], [-119.407983, 37.847591, 3183.1], [-119.407925, 37.847591, 3183.1], [-119.407914, 37.847542, 3185.6], [-119.407938, 37.84758, 3185.5], [-119.407988, 37.84761, 3185.8], [-119.407949, 37.847594, 3197.5], [-119.407929, 37.847613, 3200.9], [-119.407995, 37.847591, 3201.7], [-119.407927, 37.847511, 3202.6], [-119.407896, 37.847484, 3204.4], [-119.407896, 37.8475, 3200.0], [-119.407945, 37.847505, 3204.0], [-119.407937, 37.847491, 3205.0], [-119.407919, 37.847589, 3203.7], [-119.407838, 37.847563, 3198.3], [-119.407851, 37.847509, 3196.6], [-119.407849, 37.847567, 3198.0], [-119.407884, 37.847536, 3196.2], [-119.407888, 37.847563, 3195.2], [-119.407878, 37.847602, 3196.3], [-119.40787, 37.847576, 3195.4], [-119.40788, 37.847556, 3204.4], [-119.407905, 37.847604, 3207.3], [-119.407882, 37.847638, 3209.7], [-119.40788, 37.847615, 3205.6], [-119.407849, 37.847631, 3205.0], [-119.407822, 37.847616, 3205.0], [-119.407812, 37.847592, 3204.9], [-119.407762, 37.847566, 3205.1], [-119.407746, 37.847482, 3205.1], [-119.407792, 37.847522, 3204.3], [-119.407777, 37.84754, 3209.5], [-119.407744, 37.847539, 3208.6], [-119.407713, 37.847524, 3209.8], [-119.407666, 37.847472, 3210.2], [-119.407485, 37.84752, 3220.4], [-119.407491, 37.847581, 3220.4], [-119.407452, 37.847614, 3228.9], [-119.407533, 37.847577, 3223.4], [-119.407483, 37.847594, 3227.3], [-119.407417, 37.847585, 3216.6], [-119.407407, 37.847573, 3217.3], [-119.407321, 37.847554, 3214.6], [-119.407276, 37.847429, 3214.7], [-119.40741, 37.84738, 3224.8], [-119.407399, 37.847391, 3224.0], [-119.40742, 37.847429, 3224.6], [-119.407479, 37.847499, 3225.7], [-119.407536, 37.847481, 3234.0], [-119.40749, 37.847581, 3226.0], [-119.407528, 37.847593, 3236.9], [-119.407502, 37.847611, 3235.0], [-119.407487, 37.847645, 3237.9], [-119.407479, 37.847688, 3238.9], [-119.407391, 37.847636, 3234.4], [-119.407414, 37.847624, 3235.8], [-119.407361, 37.847677, 3259.4], [-119.407385, 37.847697, 3255.3], [-119.40731, 37.847714, 3254.3], [-119.407319, 37.847691, 3246.3], [-119.407334, 37.847695, 3244.2], [-119.407308, 37.847715, 3241.0], [-119.407291, 37.84769, 3244.2], [-119.407323, 37.847707, 3244.7], [-119.407281, 37.847651, 3244.1], [-119.407324, 37.847751, 3243.7], [-119.407301, 37.847721, 3243.0], [-119.407258, 37.847719, 3234.8], [-119.407285, 37.847696, 3241.1], [-119.4072, 37.847703, 3248.1], [-119.407229, 37.847707, 3252.7], [-119.407244, 37.847691, 3266.7], [-119.407198, 37.847708, 3270.5], [-119.407163, 37.847663, 3271.4], [-119.407148, 37.847696, 3270.4], [-119.407082, 37.8477, 3268.0], [-119.407047, 37.84769, 3264.0], [-119.407162, 37.847698, 3277.5], [-119.407075, 37.847696, 3281.9], [-119.407078, 37.847706, 3286.6], [-119.407038, 37.847704, 3280.9], [-119.407064, 37.84772, 3278.1], [-119.407082, 37.847699, 3284.2], [-119.407062, 37.847749, 3285.6], [-119.407033, 37.84773, 3286.4], [-119.407021, 37.847753, 3269.8], [-119.407003, 37.847751, 3267.6], [-119.40704, 37.847725, 3268.5], [-119.406988, 37.847727, 3272.8], [-119.407019, 37.847754, 3268.3], [-119.407014, 37.847737, 3269.6], [-119.407044, 37.847699, 3270.2], [-119.407047, 37.847674, 3267.4], [-119.406995, 37.847699, 3268.5], [-119.406952, 37.847762, 3268.7], [-119.406924, 37.847774, 3268.1], [-119.406895, 37.847805, 3268.1], [-119.406868, 37.847821, 3268.0], [-119.406835, 37.847825, 3266.6], [-119.406785, 37.847852, 3267.0], [-119.406766, 37.847825, 3266.6], [-119.406719, 37.84781, 3263.6], [-119.406709, 37.847785, 3263.0], [-119.406679, 37.847826, 3267.3], [-119.406672, 37.847854, 3266.3], [-119.406654, 37.847839, 3266.2], [-119.406654, 37.847792, 3265.1], [-119.406666, 37.84777, 3262.6], [-119.406694, 37.847783, 3261.5], [-119.406756, 37.847719, 3261.2], [-119.406725, 37.847719, 3260.3], [-119.406712, 37.847747, 3256.5], [-119.406685, 37.847713, 3254.2], [-119.406654, 37.847783, 3255.5], [-119.406589, 37.847835, 3255.7], [-119.406555, 37.847839, 3256.3], [-119.406474, 37.84788, 3256.6], [-119.406402, 37.847876, 3258.0], [-119.406348, 37.847898, 3258.5], [-119.406305, 37.847974, 3258.9], [-119.406297, 37.847979, 3258.6], [-119.406216, 37.848082, 3257.7], [-119.406163, 37.848181, 3259.0], [-119.40615, 37.848226, 3259.9], [-119.406085, 37.848188, 3260.4], [-119.406055, 37.848148, 3260.6], [-119.406016, 37.848147, 3264.9], [-119.405957, 37.84816, 3268.4], [-119.405935, 37.848176, 3268.6], [-119.405878, 37.848266, 3270.4], [-119.405822, 37.848328, 3273.9], [-119.405822, 37.848347, 3274.5], [-119.405778, 37.848383, 3274.9], [-119.405806, 37.848416, 3276.1], [-119.405778, 37.84844, 3277.2], [-119.405687, 37.84847, 3280.0], [-119.405689, 37.848493, 3279.8], [-119.405663, 37.848507, 3279.7], [-119.405612, 37.848472, 3285.4], [-119.405611, 37.848525, 3289.3], [-119.405583, 37.848525, 3287.5], [-119.405555, 37.848512, 3287.5], [-119.405512, 37.84857, 3284.3], [-119.405451, 37.848555, 3278.4], [-119.405424, 37.848572, 3277.9], [-119.405397, 37.848523, 3278.1], [-119.405405, 37.848476, 3277.1], [-119.405373, 37.848406, 3277.6], [-119.405343, 37.848411, 3273.7], [-119.405336, 37.848435, 3272.7], [-119.405306, 37.848444, 3270.6], [-119.405274, 37.84843, 3270.1], [-119.405228, 37.848393, 3267.8], [-119.40517, 37.848405, 3263.9], [-119.405143, 37.84839, 3261.5], [-119.405119, 37.848408, 3259.8], [-119.405081, 37.848392, 3258.7], [-119.40502, 37.848383, 3254.3], [-119.404915, 37.84834, 3249.4], [-119.404905, 37.848301, 3247.8], [-119.404852, 37.848268, 3245.9], [-119.404837, 37.848231, 3244.6], [-119.404819, 37.848211, 3241.3], [-119.404788, 37.848219, 3238.8], [-119.40476, 37.848203, 3237.3], [-119.404767, 37.848194, 3236.7], [-119.404735, 37.848184, 3232.6], [-119.404743, 37.848161, 3231.7], [-119.404703, 37.848141, 3230.6], [-119.404708, 37.848117, 3228.2], [-119.40473, 37.848098, 3227.0], [-119.404705, 37.848077, 3225.7], [-119.404669, 37.848073, 3224.8], [-119.404677, 37.848051, 3223.6], [-119.404722, 37.848017, 3219.2], [-119.404717, 37.847991, 3219.1], [-119.404646, 37.847983, 3217.0], [-119.404664, 37.847965, 3216.2], [-119.404666, 37.847869, 3212.2], [-119.404487, 37.847779, 3208.9], [-119.404476, 37.847798, 3208.6], [-119.404435, 37.847809, 3207.2], [-119.404402, 37.847841, 3205.0], [-119.404393, 37.847801, 3203.9], [-119.404363, 37.847789, 3205.3], [-119.404526, 37.847825, 3198.7], [-119.404492, 37.8478, 3198.5], [-119.404544, 37.847807, 3197.6], [-119.404591, 37.847791, 3192.2], [-119.404648, 37.847842, 3191.5], [-119.404707, 37.847839, 3190.6], [-119.404753, 37.84785, 3189.2], [-119.404828, 37.847859, 3189.9], [-119.405072, 37.847934, 3191.6], [-119.405098, 37.847936, 3192.1], [-119.405252, 37.847985, 3193.3], [-119.405317, 37.847992, 3193.8], [-119.405335, 37.847982, 3193.6], [-119.405385, 37.847987, 3193.7], [-119.405457, 37.848015, 3193.3], [-119.40539, 37.848011, 3194.8], [-119.405404, 37.847986, 3196.1], [-119.405432, 37.847982, 3196.3], [-119.405177, 37.847914, 3196.3], [-119.40519, 37.847886, 3172.2], [-119.405008, 37.847765, 3176.2], [-119.404975, 37.84771, 3169.5], [-119.404886, 37.847638, 3165.2], [-119.404808, 37.847597, 3161.6], [-119.404805, 37.847584, 3160.4], [-119.404753, 37.847537, 3159.1], [-119.404792, 37.847501, 3156.9], [-119.404799, 37.847483, 3156.2], [-119.404785, 37.847459, 3155.4], [-119.404784, 37.847431, 3154.8], [-119.40476, 37.847428, 3155.3], [-119.404661, 37.847371, 3155.2], [-119.404638, 37.847344, 3155.1], [-119.404542, 37.847289, 3156.5], [-119.404521, 37.847256, 3155.8], [-119.404511, 37.847168, 3152.2], [-119.404541, 37.847123, 3151.6], [-119.404587, 37.847104, 3151.9], [-119.404579, 37.847082, 3151.4], [-119.404592, 37.847032, 3148.3], [-119.404562, 37.847036, 3147.2], [-119.404565, 37.847009, 3145.5], [-119.40453, 37.84697, 3146.5], [-119.40453, 37.846916, 3142.3], [-119.404511, 37.846842, 3137.7], [-119.404484, 37.846842, 3136.9], [-119.404461, 37.846789, 3134.8], [-119.404388, 37.846802, 3132.1], [-119.404309, 37.84674, 3131.6], [-119.404264, 37.846727, 3128.8], [-119.404219, 37.846728, 3128.1], [-119.404199, 37.846705, 3125.3], [-119.404166, 37.846706, 3123.5], [-119.404149, 37.846675, 3119.0], [-119.404077, 37.846633, 3115.2], [-119.404064, 37.846611, 3114.3], [-119.404032, 37.846598, 3112.3], [-119.403992, 37.846541, 3108.1], [-119.403964, 37.84655, 3106.7], [-119.403945, 37.846569, 3106.3], [-119.403926, 37.846549, 3105.7], [-119.403829, 37.846543, 3102.7], [-119.403814, 37.846562, 3102.7], [-119.403784, 37.846574, 3101.6], [-119.403744, 37.846547, 3102.0], [-119.403716, 37.846559, 3093.0], [-119.403679, 37.84654, 3102.1], [-119.403651, 37.846552, 3102.5], [-119.403665, 37.846572, 3094.5], [-119.403621, 37.846574, 3093.7], [-119.4036, 37.846463, 3090.4], [-119.403567, 37.84641, 3087.6], [-119.403547, 37.846354, 3086.1], [-119.403525, 37.846321, 3084.3], [-119.403498, 37.846177, 3082.7], [-119.403444, 37.84616, 3079.3], [-119.403416, 37.846165, 3078.2], [-119.40337, 37.846133, 3078.0], [-119.40337, 37.846112, 3077.6], [-119.403342, 37.846073, 3077.9], [-119.403263, 37.846037, 3077.7], [-119.403232, 37.846035, 3076.5], [-119.403183, 37.84605, 3075.3], [-119.403136, 37.846043, 3074.6], [-119.403077, 37.84599, 3072.5], [-119.40297, 37.845965, 3070.3], [-119.402906, 37.845958, 3067.9], [-119.402881, 37.845973, 3066.5], [-119.40281, 37.845941, 3065.1], [-119.402715, 37.845955, 3064.0], [-119.402667, 37.845974, 3062.7], [-119.402516, 37.846062, 3061.6], [-119.402447, 37.846053, 3060.2], [-119.402359, 37.846066, 3058.5], [-119.402285, 37.846088, 3057.2], [-119.402172, 37.846141, 3055.4], [-119.402157, 37.846204, 3054.4], [-119.402076, 37.846274, 3053.5], [-119.401941, 37.846485, 3048.9], [-119.401853, 37.846559, 3050.2], [-119.401758, 37.846583, 3049.6], [-119.401646, 37.84657, 3047.6], [-119.401534, 37.846584, 3045.8], [-119.401498, 37.846595, 3045.8], [-119.401445, 37.846564, 3043.8], [-119.401421, 37.846561, 3043.0], [-119.401259, 37.846558, 3045.2], [-119.401204, 37.846588, 3044.5], [-119.401145, 37.846599, 3045.6], [-119.400909, 37.846691, 3042.2], [-119.400762, 37.846806, 3041.4], [-119.400741, 37.846863, 3040.4], [-119.400696, 37.846902, 3040.6], [-119.400565, 37.84693, 3038.9], [-119.400521, 37.84695, 3038.7], [-119.40044, 37.846962, 3037.6], [-119.400355, 37.847017, 3035.8], [-119.400078, 37.84718, 3029.9], [-119.400053, 37.847217, 3029.9], [-119.400004, 37.847263, 3029.6], [-119.399925, 37.847349, 3029.2], [-119.399874, 37.847357, 3028.4], [-119.399846, 37.84735, 3027.9], [-119.399753, 37.847387, 3028.3], [-119.399718, 37.847423, 3026.3], [-119.399672, 37.847437, 3025.0], [-119.399582, 37.847549, 3022.6], [-119.399459, 37.847719, 3020.9], [-119.399426, 37.847748, 3021.0], [-119.399338, 37.847792, 3019.6], [-119.399302, 37.847836, 3018.4], [-119.399254, 37.847854, 3017.2], [-119.399225, 37.847881, 3016.8], [-119.399171, 37.847992, 3014.9], [-119.399056, 37.848119, 3014.2], [-119.39882, 37.848317, 3011.3], [-119.398769, 37.848379, 3009.8], [-119.398764, 37.848393, 3009.9], [-119.398718, 37.848441, 3009.0], [-119.398691, 37.848538, 3008.2], [-119.398665, 37.84857, 3007.8], [-119.398634, 37.848625, 3007.4], [-119.398615, 37.848642, 3006.4], [-119.398518, 37.848653, 3004.3], [-119.398314, 37.848738, 3000.0], [-119.398231, 37.848763, 2996.7], [-119.398212, 37.848798, 2997.3], [-119.398189, 37.84881, 2997.3], [-119.39807, 37.848844, 2994.7], [-119.397952, 37.848944, 2994.1], [-119.397911, 37.849026, 2994.1], [-119.397843, 37.849074, 2993.6], [-119.397736, 37.849129, 2993.0], [-119.397552, 37.849364, 2987.3], [-119.397468, 37.849437, 2986.8], [-119.397326, 37.84951, 2985.7], [-119.397308, 37.849504, 2986.0], [-119.397234, 37.849425, 2984.0], [-119.397117, 37.849459, 2982.4], [-119.397074, 37.849506, 2980.8], [-119.397067, 37.849531, 2979.9], [-119.397019, 37.849573, 2978.6], [-119.396975, 37.84965, 2978.2], [-119.396947, 37.849683, 2977.2], [-119.396946, 37.849789, 2976.4], [-119.396931, 37.849872, 2974.5], [-119.396908, 37.849909, 2973.7], [-119.396861, 37.849948, 2973.9], [-119.396845, 37.849953, 2974.1], [-119.396696, 37.850045, 2972.7], [-119.396649, 37.850098, 2971.4], [-119.396592, 37.850198, 2970.0], [-119.396577, 37.850242, 2970.2], [-119.39635, 37.850416, 2967.2], [-119.396337, 37.850439, 2967.1], [-119.39633, 37.850502, 2965.3], [-119.396255, 37.850551, 2963.1], [-119.396215, 37.850625, 2963.3], [-119.396165, 37.85064, 2963.4], [-119.39601, 37.850707, 2963.2], [-119.395988, 37.850721, 2963.0], [-119.395976, 37.850787, 2961.6], [-119.395954, 37.850812, 2961.0], [-119.395923, 37.850823, 2960.0], [-119.395873, 37.850818, 2958.4], [-119.395835, 37.85083, 2957.4], [-119.395764, 37.850878, 2956.8], [-119.395643, 37.850915, 2956.8], [-119.395591, 37.850926, 2956.5], [-119.395541, 37.850949, 2956.2], [-119.395479, 37.851043, 2953.6], [-119.395402, 37.851109, 2954.2], [-119.395397, 37.851135, 2952.7], [-119.395331, 37.851247, 2949.3], [-119.395282, 37.851282, 2948.4], [-119.395245, 37.851333, 2947.9], [-119.395183, 37.851483, 2944.4], [-119.395168, 37.851561, 2943.5], [-119.39512, 37.851653, 2942.7], [-119.395082, 37.851694, 2942.6], [-119.395062, 37.851732, 2941.2], [-119.395025, 37.85176, 2940.4], [-119.395006, 37.851801, 2939.9], [-119.394962, 37.851915, 2940.7], [-119.394898, 37.851991, 2940.5], [-119.394662, 37.852149, 2938.9], [-119.394603, 37.852229, 2935.4], [-119.394563, 37.852238, 2934.9], [-119.394527, 37.852234, 2933.4], [-119.394445, 37.852318, 2930.4], [-119.394383, 37.852322, 2928.5], [-119.394315, 37.852352, 2927.0], [-119.394274, 37.85238, 2926.9], [-119.394249, 37.852425, 2926.6], [-119.394242, 37.852458, 2926.3], [-119.394214, 37.85247, 2926.3], [-119.394155, 37.852466, 2924.9], [-119.394128, 37.852476, 2924.2], [-119.39409, 37.852513, 2923.1], [-119.394014, 37.852565, 2921.5], [-119.394003, 37.852585, 2921.5], [-119.393886, 37.852616, 2920.5], [-119.393838, 37.852617, 2919.4], [-119.393778, 37.852644, 2918.5], [-119.393761, 37.852664, 2917.4], [-119.3937, 37.852691, 2916.1], [-119.393683, 37.852715, 2915.9], [-119.393625, 37.852746, 2915.1], [-119.39361, 37.852808, 2914.0], [-119.393575, 37.852831, 2914.0], [-119.393552, 37.852937, 2914.2], [-119.393586, 37.853003, 2913.9], [-119.393579, 37.853075, 2912.3], [-119.39359, 37.853095, 2911.9], [-119.393646, 37.853108, 2912.2], [-119.393681, 37.853148, 2911.6], [-119.393661, 37.853169, 2911.0], [-119.393497, 37.853233, 2909.1], [-119.393451, 37.853299, 2905.7], [-119.393356, 37.853325, 2904.1], [-119.393303, 37.853381, 2904.7], [-119.393245, 37.853537, 2905.9], [-119.393232, 37.853646, 2905.3], [-119.393211, 37.853667, 2904.9], [-119.393187, 37.853721, 2904.4], [-119.393192, 37.853738, 2904.4], [-119.393194, 37.853831, 2903.5], [-119.393178, 37.853873, 2903.3], [-119.393183, 37.853905, 2902.6], [-119.393174, 37.853933, 2902.9], [-119.393124, 37.854002, 2902.4], [-119.39311, 37.854037, 2902.2], [-119.393076, 37.854078, 2901.5], [-119.39306, 37.854156, 2901.6], [-119.393034, 37.854192, 2900.5], [-119.392815, 37.854333, 2897.3], [-119.39271, 37.854368, 2896.7], [-119.392652, 37.85445, 2895.7], [-119.392593, 37.854492, 2895.2], [-119.392512, 37.854529, 2895.0], [-119.392484, 37.854555, 2894.4], [-119.392478, 37.854596, 2894.2], [-119.392388, 37.854718, 2892.8], [-119.392339, 37.854773, 2892.6], [-119.392326, 37.854803, 2892.4], [-119.392273, 37.854863, 2891.3], [-119.392213, 37.854889, 2890.6], [-119.392219, 37.854969, 2888.4], [-119.392206, 37.855036, 2888.2], [-119.392226, 37.855072, 2888.3], [-119.392208, 37.855114, 2886.9], [-119.392178, 37.85512, 2887.1], [-119.392114, 37.855204, 2885.4], [-119.392057, 37.855302, 2885.1], [-119.391987, 37.855343, 2884.5], [-119.391908, 37.855423, 2884.9], [-119.391891, 37.855481, 2884.7], [-119.391896, 37.855526, 2883.8], [-119.391877, 37.855558, 2882.9], [-119.3918, 37.855608, 2884.1], [-119.391709, 37.855655, 2882.8], [-119.3917, 37.855677, 2882.8], [-119.391722, 37.855713, 2881.6], [-119.391726, 37.855769, 2881.1], [-119.39171, 37.855821, 2881.1], [-119.391676, 37.855846, 2881.6], [-119.391627, 37.85585, 2881.2], [-119.391569, 37.855882, 2880.8], [-119.391476, 37.855901, 2878.2], [-119.391444, 37.855923, 2877.5], [-119.391435, 37.855978, 2876.9], [-119.391366, 37.85609, 2876.3], [-119.391252, 37.856229, 2873.5], [-119.39122, 37.856289, 2873.7], [-119.391171, 37.856315, 2872.7], [-119.391056, 37.85635, 2869.5], [-119.391022, 37.856367, 2869.3], [-119.390958, 37.856583, 2867.5], [-119.390919, 37.85664, 2865.9], [-119.390891, 37.856662, 2864.7], [-119.390843, 37.856785, 2863.4], [-119.390804, 37.856838, 2863.1], [-119.390799, 37.856935, 2861.2], [-119.390752, 37.856994, 2860.9], [-119.390728, 37.857015, 2859.9], [-119.39073, 37.857037, 2858.9], [-119.3907, 37.857082, 2858.7], [-119.390642, 37.857137, 2858.1], [-119.390591, 37.857166, 2856.4], [-119.390422, 37.85724, 2852.7], [-119.390398, 37.857294, 2851.0], [-119.390344, 37.857376, 2850.8], [-119.390269, 37.857427, 2849.9], [-119.3902, 37.857453, 2850.1], [-119.390172, 37.8575, 2848.7], [-119.390171, 37.857522, 2848.3], [-119.390034, 37.857644, 2844.0], [-119.390012, 37.857707, 2844.0], [-119.390032, 37.857763, 2843.1], [-119.390027, 37.857793, 2842.9], [-119.390082, 37.857882, 2842.1], [-119.390067, 37.857906, 2841.8], [-119.390022, 37.857942, 2841.3], [-119.389975, 37.858035, 2837.7], [-119.389928, 37.858075, 2837.7], [-119.389898, 37.858124, 2835.9], [-119.389899, 37.858154, 2835.4], [-119.389916, 37.858173, 2835.2], [-119.389888, 37.858225, 2834.8], [-119.389836, 37.85827, 2832.5], [-119.389816, 37.858348, 2831.6], [-119.389787, 37.85838, 2830.8], [-119.389739, 37.858407, 2829.4], [-119.389701, 37.858518, 2826.5], [-119.389669, 37.858562, 2825.0], [-119.389668, 37.858575, 2825.2], [-119.389599, 37.85865, 2823.2], [-119.389543, 37.858672, 2821.0], [-119.389526, 37.858672, 2820.9], [-119.389464, 37.8587, 2818.5], [-119.389455, 37.858717, 2817.4], [-119.389532, 37.858756, 2817.7], [-119.389546, 37.858779, 2817.7], [-119.389485, 37.858821, 2816.1], [-119.389354, 37.858832, 2814.6], [-119.38933, 37.858871, 2815.1], [-119.389328, 37.858907, 2814.5], [-119.38938, 37.859017, 2814.9], [-119.389402, 37.859031, 2814.8], [-119.389403, 37.859051, 2815.0], [-119.389263, 37.859213, 2809.0], [-119.389295, 37.859254, 2808.3], [-119.389249, 37.859305, 2805.6], [-119.389247, 37.859358, 2805.8], [-119.389298, 37.859411, 2806.0], [-119.389308, 37.859439, 2805.1], [-119.389303, 37.859485, 2804.2], [-119.389258, 37.859559, 2803.9], [-119.389271, 37.859612, 2803.3], [-119.389273, 37.859731, 2803.0], [-119.389261, 37.859754, 2802.7], [-119.389162, 37.859882, 2796.5], [-119.389106, 37.85989, 2796.1], [-119.389081, 37.859943, 2793.9], [-119.389082, 37.859958, 2793.9], [-119.389059, 37.860008, 2792.4], [-119.389039, 37.860028, 2791.7], [-119.389045, 37.860055, 2790.4], [-119.389096, 37.860111, 2789.1], [-119.389027, 37.86019, 2786.7], [-119.388942, 37.86024, 2787.0], [-119.388918, 37.860266, 2786.0], [-119.388906, 37.860313, 2785.6], [-119.388872, 37.860346, 2784.5], [-119.388685, 37.860395, 2780.3], [-119.388654, 37.86042, 2779.7], [-119.388651, 37.860454, 2778.8], [-119.388588, 37.86056, 2778.6], [-119.388577, 37.860613, 2778.1], [-119.388585, 37.860648, 2777.5], [-119.38855, 37.860686, 2776.6], [-119.388483, 37.860653, 2777.9], [-119.388431, 37.860642, 2779.0], [-119.388356, 37.860657, 2777.7], [-119.38827, 37.860702, 2776.7], [-119.388194, 37.860816, 2773.4], [-119.388202, 37.860861, 2770.5], [-119.388161, 37.861103, 2769.3], [-119.388126, 37.861158, 2771.2], [-119.388109, 37.861222, 2770.2], [-119.388123, 37.861296, 2770.4], [-119.388112, 37.861385, 2770.4], [-119.388099, 37.861412, 2769.7], [-119.388104, 37.86151, 2769.5], [-119.388095, 37.861533, 2769.6], [-119.387974, 37.861637, 2768.4], [-119.387922, 37.86172, 2768.4], [-119.387887, 37.861792, 2767.5], [-119.387896, 37.861826, 2767.5], [-119.38788, 37.861872, 2767.5], [-119.387799, 37.86194, 2766.7], [-119.387794, 37.862026, 2766.8], [-119.387814, 37.862102, 2764.6], [-119.387789, 37.862164, 2763.4], [-119.387768, 37.862199, 2762.7], [-119.387726, 37.862233, 2762.0], [-119.387691, 37.862293, 2761.6], [-119.387684, 37.862333, 2760.4], [-119.387692, 37.86235, 2759.7], [-119.387777, 37.862443, 2758.1], [-119.387818, 37.862468, 2758.2], [-119.387829, 37.86249, 2757.3], [-119.38782, 37.86251, 2757.1], [-119.387824, 37.862549, 2755.1], [-119.38781, 37.862651, 2754.6], [-119.387765, 37.862757, 2754.5], [-119.387764, 37.862808, 2752.2], [-119.387837, 37.862895, 2752.8], [-119.387831, 37.862965, 2752.1], [-119.387858, 37.862978, 2751.9], [-119.387886, 37.863049, 2749.1], [-119.387948, 37.86313, 2746.5], [-119.387957, 37.863193, 2745.1], [-119.387947, 37.863283, 2745.7], [-119.387891, 37.863359, 2746.1], [-119.387883, 37.863448, 2745.9], [-119.387958, 37.863532, 2744.3], [-119.387966, 37.863574, 2743.6], [-119.388022, 37.86364, 2744.5], [-119.388077, 37.86378, 2742.9], [-119.388083, 37.864005, 2744.7], [-119.388037, 37.864049, 2746.5], [-119.388018, 37.864089, 2747.7], [-119.387994, 37.864103, 2748.4], [-119.388004, 37.864168, 2749.0], [-119.388007, 37.864239, 2749.8], [-119.388045, 37.864348, 2750.2], [-119.38803, 37.864376, 2750.6], [-119.388001, 37.864384, 2750.6], [-119.387932, 37.864424, 2749.1], [-119.387939, 37.864481, 2750.0], [-119.387958, 37.864511, 2751.3], [-119.387959, 37.864486, 2752.4], [-119.387925, 37.864486, 2752.4], [-119.387919, 37.864568, 2751.4], [-119.387925, 37.86458, 2751.6], [-119.387902, 37.864733, 2748.1], [-119.387818, 37.864863, 2745.1], [-119.387771, 37.864877, 2743.5], [-119.387734, 37.864899, 2742.1], [-119.387701, 37.864992, 2740.2], [-119.387711, 37.865031, 2740.8], [-119.387695, 37.865224, 2742.1], [-119.387705, 37.865304, 2741.0], [-119.387691, 37.865363, 2740.6], [-119.387694, 37.865395, 2741.2], [-119.387658, 37.865511, 2742.7], [-119.387659, 37.865589, 2742.0], [-119.387637, 37.865709, 2738.0], [-119.387598, 37.865739, 2735.8], [-119.387556, 37.865803, 2735.1], [-119.387515, 37.865956, 2734.5], [-119.387481, 37.865993, 2733.1], [-119.387457, 37.866036, 2732.0], [-119.387459, 37.866114, 2731.8], [-119.387433, 37.866167, 2731.2], [-119.387397, 37.866213, 2731.3], [-119.387318, 37.866376, 2730.7], [-119.38721, 37.866452, 2729.5], [-119.387151, 37.866517, 2730.2], [-119.387149, 37.86653, 2730.0], [-119.387101, 37.866536, 2729.4], [-119.387079, 37.866548, 2729.1], [-119.387015, 37.86669, 2725.6], [-119.387012, 37.866744, 2723.1], [-119.386961, 37.866823, 2724.1], [-119.386894, 37.866851, 2721.5], [-119.386881, 37.866873, 2722.3], [-119.386848, 37.866887, 2721.6], [-119.386814, 37.866922, 2719.6], [-119.386788, 37.866983, 2719.1], [-119.386779, 37.86706, 2720.3], [-119.386773, 37.867069, 2720.7], [-119.386774, 37.86715, 2720.8], [-119.386697, 37.867201, 2717.5], [-119.386679, 37.867231, 2717.4], [-119.386687, 37.867274, 2717.7], [-119.386755, 37.867368, 2718.4], [-119.386759, 37.867452, 2718.0], [-119.386789, 37.86757, 2717.9], [-119.386804, 37.867665, 2717.7], [-119.386817, 37.867686, 2716.6], [-119.386816, 37.867738, 2715.6], [-119.386779, 37.867735, 2716.8], [-119.386797, 37.867882, 2715.1], [-119.386781, 37.867918, 2713.5], [-119.386674, 37.868129, 2711.9], [-119.386577, 37.868188, 2712.6], [-119.386566, 37.868203, 2713.0], [-119.386389, 37.868335, 2706.5], [-119.386323, 37.868339, 2706.7], [-119.386292, 37.86835, 2706.2], [-119.38623, 37.868446, 2703.7], [-119.386235, 37.868652, 2700.2], [-119.386246, 37.868691, 2699.4], [-119.386278, 37.868734, 2699.2], [-119.386285, 37.8688, 2698.2], [-119.386278, 37.868872, 2698.7], [-119.386308, 37.868961, 2697.2], [-119.386306, 37.868983, 2697.0], [-119.386328, 37.869029, 2696.3], [-119.386377, 37.869062, 2696.4], [-119.386411, 37.869151, 2694.9], [-119.386572, 37.869352, 2694.0], [-119.386607, 37.869357, 2693.3], [-119.386638, 37.869379, 2693.4], [-119.386719, 37.869406, 2695.4], [-119.386756, 37.869427, 2695.2], [-119.386786, 37.869461, 2695.1], [-119.386745, 37.869512, 2694.0], [-119.386737, 37.869581, 2694.5], [-119.386679, 37.869646, 2695.0], [-119.386708, 37.869698, 2696.6], [-119.386706, 37.869807, 2694.7], [-119.386697, 37.86987, 2694.0], [-119.386681, 37.869896, 2693.2], [-119.386635, 37.869924, 2692.3], [-119.38655, 37.869929, 2688.3], [-119.386466, 37.869957, 2687.5], [-119.38644, 37.869955, 2686.8], [-119.386365, 37.869918, 2682.7], [-119.386342, 37.869859, 2680.6], [-119.386309, 37.869833, 2678.0], [-119.386245, 37.869814, 2678.7], [-119.386148, 37.869757, 2677.3], [-119.386028, 37.869785, 2677.8], [-119.38582, 37.869936, 2677.0], [-119.385742, 37.870005, 2675.7], [-119.385704, 37.870058, 2674.8], [-119.385711, 37.870113, 2673.6], [-119.385697, 37.870134, 2673.1], [-119.385601, 37.870122, 2670.4], [-119.385557, 37.870156, 2668.6], [-119.385541, 37.870228, 2665.6], [-119.38548, 37.870269, 2664.2], [-119.385453, 37.870321, 2663.3], [-119.385409, 37.870368, 2660.7], [-119.385413, 37.870394, 2660.0], [-119.385446, 37.870425, 2658.7], [-119.385423, 37.870481, 2657.9], [-119.385399, 37.870508, 2657.4], [-119.38525, 37.870625, 2655.2], [-119.385229, 37.870669, 2654.2], [-119.385195, 37.870707, 2652.4], [-119.385113, 37.870769, 2651.9], [-119.385101, 37.870792, 2651.9], [-119.385087, 37.870869, 2651.8], [-119.384908, 37.870951, 2649.8], [-119.384891, 37.870962, 2649.0], [-119.384788, 37.870976, 2646.6], [-119.384701, 37.870977, 2645.3], [-119.384654, 37.871, 2644.6], [-119.384589, 37.871073, 2643.3], [-119.38459, 37.871106, 2642.4], [-119.384558, 37.871154, 2641.6], [-119.384507, 37.871189, 2640.4], [-119.384486, 37.871232, 2639.7], [-119.384481, 37.871265, 2639.4], [-119.384438, 37.871293, 2639.1], [-119.384401, 37.871357, 2636.7], [-119.384398, 37.871377, 2636.2], [-119.384417, 37.871403, 2636.1], [-119.384413, 37.87145, 2636.2], [-119.384424, 37.871499, 2634.4], [-119.384401, 37.871537, 2634.6], [-119.384344, 37.87155, 2632.4], [-119.384292, 37.871572, 2630.7], [-119.384275, 37.871591, 2630.4], [-119.384247, 37.871678, 2630.0], [-119.384121, 37.871824, 2625.2], [-119.384087, 37.871878, 2623.4], [-119.383994, 37.871941, 2622.1], [-119.383956, 37.871982, 2623.2], [-119.383863, 37.872012, 2621.2], [-119.383683, 37.871948, 2621.4], [-119.383643, 37.871898, 2621.1], [-119.383483, 37.871755, 2620.7], [-119.383463, 37.871728, 2620.6], [-119.383364, 37.871691, 2620.6], [-119.383316, 37.871638, 2620.4], [-119.383214, 37.871586, 2623.1], [-119.383121, 37.871562, 2623.6], [-119.382828, 37.871609, 2620.2], [-119.382796, 37.87163, 2618.1], [-119.382741, 37.871649, 2615.5], [-119.382674, 37.871727, 2613.7], [-119.382603, 37.871743, 2612.8], [-119.38256, 37.871766, 2612.5], [-119.38254, 37.871796, 2612.7], [-119.382479, 37.871838, 2613.0], [-119.382411, 37.871907, 2612.9], [-119.382346, 37.871992, 2614.0], [-119.382278, 37.872027, 2614.5], [-119.382255, 37.872058, 2614.7], [-119.382168, 37.872071, 2613.5], [-119.382108, 37.872091, 2613.6], [-119.382012, 37.872097, 2612.7], [-119.381813, 37.872089, 2612.1], [-119.381744, 37.872099, 2614.0], [-119.381644, 37.872129, 2613.8], [-119.381618, 37.872163, 2614.3], [-119.381623, 37.872186, 2614.3], [-119.381612, 37.87225, 2614.6], [-119.381592, 37.872264, 2613.5], [-119.381598, 37.872336, 2611.4], [-119.381534, 37.872454, 2609.3], [-119.381455, 37.872544, 2610.7], [-119.381442, 37.872553, 2609.6], [-119.381388, 37.872672, 2607.2], [-119.381288, 37.872793, 2605.8], [-119.381146, 37.872971, 2605.8], [-119.38109, 37.873095, 2606.7], [-119.381066, 37.873352, 2608.5], [-119.381101, 37.873443, 2610.9], [-119.381177, 37.873544, 2608.4], [-119.3812, 37.873563, 2609.7], [-119.381173, 37.873559, 2608.6], [-119.381166, 37.873534, 2608.9], [-119.381126, 37.873536, 2609.8], [-119.381108, 37.873547, 2609.7], [-119.381111, 37.873567, 2609.4], [-119.381146, 37.873585, 2608.4], [-119.381182, 37.873575, 2608.2], [-119.38137, 37.873473, 2607.6], [-119.381671, 37.873399, 2602.1], [-119.381949, 37.873359, 2597.7], [-119.382083, 37.873363, 2593.7], [-119.38218, 37.873342, 2592.5], [-119.382422, 37.873327, 2586.2], [-119.382588, 37.873323, 2582.8]]}}