{"type": "Feature", "properties": {}, "geometry": {"type": "LineString", "coordinates": [[-120.710167, 47.544248, 411.7], [-120.710157, 47.544243, 411.8], [-120.710188, 47.544227, 410.5], [-120.710151, 47.544237, 410.6], [-120.710157, 47.544211, 410.0], [-120.710117, 47.544185, 409.6], [-120.710109, 47.544208, 408.2], [-120.710055, 47.54421, 403.3], [-120.710037, 47.544205, 403.1], [-120.709983, 47.544182, 402.2], [-120.70984, 47.544156, 396.1], [-120.709824, 47.544147, 395.0], [-120.709759, 47.544104, 395.9], [-120.709634, 47.544058, 396.9], [-120.709621, 47.544059, 400.1], [-120.709585, 47.544042, 400.4], [-120.70961, 47.544061, 408.0], [-120.709596, 47.544092, 414.5], [-120.70963, 47.544099, 406.9], [-120.709653, 47.544088, 407.2], [-120.709665, 47.544063, 399.3], [-120.709634, 47.544036, 397.5], [-120.709616, 47.544027, 398.7], [-120.709524, 47.544006, 396.6], [-120.709418, 47.543966, 394.6], [-120.709378, 47.543934, 391.6], [-120.70931, 47.543906, 391.4], [-120.709253, 47.543914, 391.3], [-120.709182, 47.543911, 390.4], [-120.709163, 47.543902, 390.0], [-120.709079, 47.543803, 390.3], [-120.709032, 47.543794, 389.3], [-120.709007, 47.543783, 389.1], [-120.708996, 47.543755, 389.5], [-120.708974, 47.543724, 388.5], [-120.708894, 47.543676, 387.2], [-120.708875, 47.543601, 387.3], [-120.708879, 47.54359, 387.7], [-120.708901, 47.543509, 387.8], [-120.708935, 47.543461, 384.6], [-120.708949, 47.543406, 384.9], [-120.70895, 47.543394, 386.7], [-120.708994, 47.543375, 388.7], [-120.709049, 47.543317, 385.7], [-120.709104, 47.543309, 384.8], [-120.709124, 47.543308, 384.8], [-120.709226, 47.543298, 383.8], [-120.709358, 47.543256, 386.0], [-120.709376, 47.543252, 385.7], [-120.709486, 47.543176, 385.9], [-120.709606, 47.543178, 384.8], [-120.709622, 47.543174, 384.8], [-120.709837, 47.543104, 384.5], [-120.709847, 47.543108, 383.3], [-120.709876, 47.543109, 382.8], [-120.709941, 47.54308, 384.1], [-120.709967, 47.543077, 384.6], [-120.710035, 47.543094, 384.8], [-120.710065, 47.543085, 384.8], [-120.710084, 47.54301, 385.5], [-120.710081, 47.542963, 385.7], [-120.71011, 47.542906, 382.7], [-120.710204, 47.542836, 385.8], [-120.710289, 47.542814, 387.2], [-120.710301, 47.542777, 387.2], [-120.710367, 47.542724, 389.1], [-120.710398, 47.542684, 389.8], [-120.710438, 47.542667, 391.1], [-120.710454, 47.542663, 391.3], [-120.710618, 47.54264, 394.4], [-120.710647, 47.542626, 394.1], [-120.710663, 47.542601, 395.3], [-120.710708, 47.542571, 396.6], [-120.710734, 47.542532, 396.4], [-120.710768, 47.542525, 397.2], [-120.710784, 47.542504, 398.5], [-120.710835, 47.542485, 400.3], [-120.710852, 47.54247, 400.6], [-120.710862, 47.542454, 400.9], [-120.71091, 47.5424, 400.8], [-120.710962, 47.542363, 402.4], [-120.711008, 47.542247, 400.9], [-120.711143, 47.542186, 402.7], [-120.711149, 47.542172, 403.1], [-120.711201, 47.542113, 404.6], [-120.711264, 47.542066, 407.5], [-120.711283, 47.542, 406.9], [-120.711322, 47.54194, 408.6], [-120.711382, 47.541919, 408.6], [-120.711416, 47.541879, 411.7], [-120.711408, 47.541847, 411.1], [-120.711396, 47.541825, 411.7], [-120.711431, 47.541811, 413.0], [-120.711469, 47.541774, 412.4], [-120.71148, 47.541693, 412.4], [-120.711483, 47.541658, 413.6], [-120.711466, 47.541634, 414.8], [-120.711391, 47.541594, 415.9], [-120.711358, 47.541606, 416.6], [-120.711305, 47.541665, 422.2], [-120.711222, 47.541741, 423.8], [-120.711116, 47.541802, 421.6], [-120.7111, 47.541815, 422.1], [-120.711049, 47.541851, 424.0], [-120.710984, 47.541967, 430.6], [-120.710977, 47.541981, 429.3], [-120.710944, 47.542007, 428.9], [-120.710914, 47.542016, 430.7], [-120.710926, 47.542036, 431.3], [-120.710898, 47.542049, 428.9], [-120.710863, 47.542043, 427.5], [-120.710783, 47.542055, 425.7], [-120.710768, 47.542059, 425.5], [-120.710718, 47.542064, 425.6], [-120.710697, 47.542048, 424.5], [-120.710741, 47.541963, 427.0], [-120.710782, 47.541951, 426.0], [-120.710822, 47.541912, 427.7], [-120.710886, 47.541789, 431.7], [-120.710912, 47.541703, 430.6], [-120.710905, 47.541668, 430.6], [-120.710918, 47.541613, 430.1], [-120.710923, 47.541604, 430.1], [-120.710947, 47.541579, 429.5], [-120.710942, 47.541535, 428.4], [-120.71096, 47.541523, 427.9], [-120.710895, 47.541538, 433.8], [-120.710868, 47.54156, 436.6], [-120.710855, 47.541567, 437.0], [-120.7107, 47.541707, 440.5], [-120.710691, 47.541712, 440.9], [-120.710618, 47.54174, 443.8], [-120.710573, 47.541774, 444.6], [-120.710512, 47.541781, 442.9], [-120.710453, 47.541802, 445.0], [-120.710315, 47.541862, 447.3], [-120.710254, 47.541876, 447.3], [-120.710237, 47.541878, 447.8], [-120.710157, 47.541857, 447.5], [-120.710094, 47.541873, 451.7], [-120.709991, 47.541878, 452.8], [-120.709914, 47.541874, 453.7], [-120.709822, 47.541888, 454.4], [-120.709782, 47.541911, 454.3], [-120.709711, 47.541949, 453.6], [-120.709683, 47.541953, 453.3], [-120.709656, 47.541938, 452.9], [-120.709675, 47.541881, 450.0], [-120.709681, 47.541873, 449.8], [-120.709727, 47.541833, 450.2], [-120.70974, 47.541797, 450.1], [-120.709794, 47.541766, 452.5], [-120.709812, 47.541731, 451.4], [-120.709821, 47.541721, 452.6], [-120.709888, 47.541698, 453.4], [-120.709925, 47.541701, 452.7], [-120.709948, 47.541634, 449.6], [-120.709979, 47.54161, 449.9], [-120.710204, 47.541502, 457.6], [-120.710216, 47.541497, 457.5], [-120.710306, 47.541452, 458.5], [-120.710298, 47.541426, 461.1], [-120.710245, 47.541446, 463.8], [-120.710219, 47.541471, 466.8], [-120.710215, 47.541478, 466.9], [-120.710154, 47.541503, 466.7], [-120.710191, 47.541437, 476.3], [-120.710293, 47.541428, 480.9], [-120.710282, 47.541406, 481.6], [-120.71022, 47.541384, 479.7], [-120.710093, 47.541359, 480.1], [-120.710077, 47.541357, 480.4], [-120.710023, 47.541369, 480.7], [-120.710013, 47.541346, 481.2], [-120.710026, 47.541332, 480.8], [-120.710084, 47.541328, 482.7], [-120.710122, 47.541309, 482.6], [-120.710132, 47.541296, 483.2], [-120.710191, 47.541256, 484.8], [-120.710183, 47.541232, 486.3], [-120.710099, 47.541203, 488.9], [-120.710039, 47.54121, 489.7], [-120.709961, 47.541225, 492.1], [-120.70987, 47.541255, 492.4], [-120.709849, 47.54127, 493.3], [-120.709877, 47.541241, 494.9], [-120.709888, 47.541226, 495.0], [-120.709984, 47.541145, 497.7], [-120.710002, 47.541106, 497.0], [-120.710029, 47.541081, 497.1], [-120.710042, 47.541066, 497.6], [-120.710077, 47.541045, 499.1], [-120.710188, 47.541031, 498.4], [-120.710234, 47.540992, 497.2], [-120.710164, 47.540965, 500.3], [-120.7101, 47.540956, 501.8], [-120.709992, 47.540963, 504.2], [-120.709973, 47.540966, 504.1], [-120.709884, 47.541004, 505.3], [-120.709748, 47.540997, 502.2], [-120.709737, 47.540991, 502.0], [-120.709743, 47.540972, 504.1], [-120.709766, 47.540953, 503.7], [-120.709893, 47.540872, 506.5], [-120.709897, 47.540882, 507.0], [-120.709974, 47.540841, 511.5], [-120.710037, 47.540853, 514.4], [-120.710066, 47.540829, 511.8], [-120.71006, 47.540818, 511.2], [-120.710069, 47.540705, 508.4], [-120.710097, 47.540644, 510.9], [-120.710104, 47.540624, 511.0], [-120.710129, 47.54051, 517.6], [-120.71015, 47.54049, 522.2], [-120.710156, 47.540452, 521.0], [-120.710153, 47.54044, 521.2], [-120.710179, 47.540413, 522.6], [-120.710192, 47.54035, 524.4], [-120.71016, 47.540336, 531.2], [-120.710081, 47.540352, 531.0], [-120.710051, 47.540362, 530.4], [-120.710056, 47.540377, 532.6], [-120.710037, 47.540396, 533.4], [-120.710005, 47.540411, 534.2], [-120.709961, 47.540449, 536.6], [-120.709912, 47.540507, 537.4], [-120.709905, 47.540523, 536.3], [-120.709841, 47.540604, 535.4], [-120.709751, 47.540631, 533.9], [-120.709734, 47.540639, 533.6], [-120.709694, 47.540696, 535.0], [-120.709608, 47.540727, 537.1], [-120.709581, 47.540745, 539.0], [-120.709564, 47.540772, 540.7], [-120.709557, 47.540789, 541.4], [-120.70951, 47.540836, 541.8], [-120.709482, 47.540846, 543.4], [-120.709444, 47.540885, 543.9], [-120.709376, 47.540924, 542.5], [-120.709364, 47.540928, 542.5], [-120.70928, 47.540967, 539.7], [-120.709187, 47.541037, 543.3], [-120.709184, 47.541043, 542.8], [-120.709129, 47.541102, 543.3], [-120.708986, 47.541137, 541.5], [-120.708968, 47.541146, 542.2], [-120.708922, 47.541153, 541.7], [-120.708766, 47.541097, 542.1], [-120.708751, 47.541087, 541.4], [-120.708721, 47.541057, 540.1], [-120.708655, 47.541043, 540.5], [-120.708568, 47.540962, 540.1], [-120.70856, 47.540957, 539.7], [-120.708595, 47.540946, 537.3], [-120.708649, 47.54098, 537.3], [-120.708741, 47.540992, 538.1], [-120.708782, 47.541013, 538.6], [-120.708841, 47.541018, 539.5], [-120.708863, 47.541002, 541.8], [-120.708918, 47.540875, 548.2], [-120.70892, 47.540862, 548.5], [-120.70894, 47.540784, 551.4], [-120.708966, 47.540764, 550.2], [-120.708968, 47.540678, 552.9], [-120.708965, 47.540663, 552.8], [-120.708973, 47.540638, 554.6], [-120.708975, 47.540547, 555.3], [-120.708966, 47.540518, 557.8], [-120.708969, 47.540515, 557.5], [-120.70901, 47.540366, 561.5], [-120.709011, 47.540357, 562.0], [-120.709005, 47.540321, 564.5], [-120.708988, 47.540298, 564.5], [-120.708958, 47.540286, 563.8], [-120.708955, 47.540272, 562.8], [-120.708983, 47.540186, 563.6], [-120.708992, 47.540166, 564.5], [-120.709006, 47.540092, 567.6], [-120.708996, 47.540069, 566.0], [-120.70896, 47.540078, 564.9], [-120.708951, 47.5401, 566.7], [-120.708953, 47.540265, 565.8], [-120.708947, 47.540291, 567.2], [-120.708924, 47.540321, 570.0], [-120.708918, 47.540325, 569.1], [-120.708893, 47.540368, 571.1], [-120.708826, 47.540427, 571.9], [-120.708791, 47.540474, 572.8], [-120.708784, 47.540477, 572.2], [-120.708706, 47.540462, 569.9], [-120.708611, 47.540393, 570.8], [-120.708588, 47.540385, 571.5], [-120.708523, 47.540353, 573.6], [-120.708403, 47.540253, 568.1], [-120.708406, 47.540232, 569.5], [-120.708435, 47.540216, 568.7], [-120.70847, 47.540237, 567.8], [-120.708577, 47.540274, 569.7], [-120.708663, 47.540254, 570.6], [-120.708673, 47.540234, 572.2], [-120.708648, 47.540138, 573.4], [-120.708656, 47.540105, 575.5], [-120.708632, 47.540068, 576.4], [-120.708628, 47.540043, 578.5], [-120.708631, 47.539972, 581.0], [-120.708636, 47.539938, 580.9], [-120.708611, 47.539883, 583.0], [-120.708612, 47.539861, 583.3], [-120.708579, 47.539817, 581.4], [-120.708581, 47.539808, 582.8], [-120.708631, 47.539723, 580.7], [-120.708638, 47.539643, 585.4], [-120.708619, 47.539614, 582.1], [-120.708629, 47.539572, 583.0], [-120.708683, 47.539483, 587.5], [-120.708685, 47.539474, 586.8], [-120.708706, 47.539419, 591.0], [-120.708697, 47.539393, 589.5], [-120.70867, 47.539401, 591.2], [-120.708631, 47.539455, 589.0], [-120.708597, 47.539485, 594.2], [-120.708551, 47.539615, 595.6], [-120.708528, 47.539658, 597.8], [-120.70845, 47.53971, 598.9], [-120.708401, 47.539777, 600.7], [-120.708291, 47.539763, 600.4], [-120.708243, 47.53974, 600.5], [-120.708207, 47.539706, 600.6], [-120.708121, 47.539656, 598.8], [-120.708112, 47.539632, 598.0], [-120.708154, 47.5396, 597.0], [-120.708204, 47.539627, 599.0], [-120.708219, 47.539641, 598.4], [-120.708249, 47.539643, 599.4], [-120.708291, 47.539619, 600.1], [-120.708313, 47.539543, 603.8], [-120.708319, 47.539527, 603.7], [-120.708314, 47.539454, 608.1], [-120.708333, 47.539359, 610.8], [-120.708333, 47.539347, 611.1], [-120.708348, 47.539246, 611.6], [-120.708328, 47.539162, 614.4], [-120.70831, 47.539166, 612.7], [-120.708303, 47.539225, 613.3], [-120.708242, 47.539237, 614.0], [-120.708215, 47.539291, 617.3], [-120.708208, 47.539298, 617.6], [-120.708163, 47.539313, 618.2], [-120.708007, 47.539306, 616.4], [-120.707951, 47.539313, 619.4], [-120.707874, 47.539342, 620.6], [-120.707856, 47.539355, 621.7], [-120.707837, 47.539393, 622.2], [-120.707785, 47.539408, 622.4], [-120.707752, 47.539409, 623.3], [-120.707699, 47.539383, 622.7], [-120.707587, 47.539303, 621.5], [-120.707582, 47.539295, 621.3], [-120.707461, 47.539252, 625.3], [-120.707372, 47.539257, 626.3], [-120.707351, 47.539261, 627.1], [-120.707202, 47.539281, 628.5], [-120.707085, 47.539323, 630.9], [-120.706932, 47.539383, 633.9], [-120.706887, 47.539367, 633.3], [-120.706898, 47.539339, 635.4], [-120.706947, 47.539318, 631.2], [-120.706988, 47.539272, 630.7], [-120.707038, 47.539235, 633.9], [-120.707049, 47.539225, 633.7], [-120.707069, 47.539163, 632.5], [-120.707173, 47.539072, 637.3], [-120.707239, 47.539034, 636.9], [-120.707245, 47.539011, 636.7], [-120.707268, 47.538989, 637.1], [-120.707342, 47.538936, 639.6], [-120.707374, 47.538934, 639.4], [-120.707387, 47.53891, 639.0], [-120.707445, 47.538865, 637.7], [-120.707526, 47.538829, 639.3], [-120.707598, 47.538804, 640.4], [-120.707647, 47.538775, 641.2], [-120.707712, 47.538761, 642.0], [-120.707739, 47.538739, 640.7], [-120.707748, 47.538726, 642.0], [-120.707806, 47.538682, 642.2], [-120.70784, 47.53867, 640.2], [-120.707873, 47.538639, 640.5], [-120.707888, 47.538619, 643.1], [-120.707893, 47.538588, 644.8], [-120.707891, 47.538584, 644.2], [-120.707931, 47.538543, 646.1], [-120.707971, 47.538522, 647.1], [-120.707982, 47.538505, 647.4], [-120.707987, 47.538458, 649.1], [-120.707993, 47.538447, 648.7], [-120.708005, 47.538377, 649.6], [-120.708114, 47.538303, 648.3], [-120.708127, 47.538296, 649.7], [-120.7082, 47.538244, 652.2], [-120.708217, 47.538201, 652.2], [-120.708268, 47.538132, 654.6], [-120.708269, 47.538083, 655.2], [-120.708322, 47.537936, 659.4], [-120.708324, 47.537851, 661.4], [-120.708297, 47.537813, 660.4], [-120.708295, 47.537789, 663.4], [-120.708308, 47.537762, 663.6], [-120.708305, 47.537756, 662.7], [-120.708304, 47.537727, 662.7], [-120.708319, 47.537703, 661.8], [-120.708321, 47.537678, 659.6], [-120.708382, 47.537593, 662.0], [-120.708393, 47.537585, 662.3], [-120.70844, 47.537526, 661.4], [-120.70842, 47.53751, 664.8], [-120.708422, 47.53745, 665.5], [-120.708425, 47.537443, 667.2], [-120.708464, 47.537419, 668.9], [-120.708502, 47.537365, 668.5], [-120.708521, 47.537325, 668.5], [-120.70851, 47.537285, 671.0], [-120.708512, 47.537224, 671.6], [-120.708522, 47.537196, 672.6], [-120.708516, 47.537148, 674.0], [-120.70856, 47.537122, 675.7], [-120.708591, 47.53705, 679.7], [-120.708588, 47.537025, 681.3], [-120.70856, 47.537006, 683.3], [-120.708571, 47.536939, 685.6], [-120.708555, 47.536888, 683.5], [-120.708559, 47.536863, 683.9], [-120.708574, 47.536824, 684.9], [-120.708613, 47.536774, 683.2], [-120.708624, 47.536711, 684.8], [-120.708613, 47.536676, 684.9], [-120.708557, 47.536619, 690.6], [-120.708559, 47.536606, 691.8], [-120.708568, 47.536591, 691.9], [-120.708608, 47.536504, 691.1], [-120.70867, 47.536448, 692.3], [-120.708685, 47.536411, 694.7], [-120.708686, 47.536399, 695.3], [-120.708683, 47.53635, 695.6], [-120.708706, 47.536311, 691.0], [-120.70874, 47.536267, 690.4], [-120.708774, 47.536261, 686.1], [-120.708782, 47.536233, 687.0], [-120.70879, 47.536155, 688.1], [-120.708802, 47.536131, 689.0], [-120.708793, 47.536088, 690.1], [-120.70883, 47.536053, 691.4], [-120.70889, 47.535966, 689.8], [-120.708884, 47.535945, 689.6], [-120.708853, 47.53596, 688.0], [-120.708832, 47.535987, 688.3], [-120.708795, 47.536053, 688.6], [-120.708693, 47.536081, 689.4], [-120.708622, 47.536139, 690.8], [-120.708523, 47.536174, 695.2], [-120.708502, 47.536152, 694.2], [-120.708557, 47.536082, 696.0], [-120.708556, 47.536074, 695.4], [-120.708567, 47.535977, 695.5], [-120.708553, 47.535933, 699.4], [-120.708557, 47.53591, 700.5], [-120.708536, 47.535894, 700.9], [-120.708523, 47.535862, 703.5], [-120.708605, 47.53575, 706.3], [-120.708609, 47.53574, 707.1], [-120.70854, 47.535687, 710.1], [-120.708524, 47.535644, 710.1], [-120.708528, 47.53559, 711.5], [-120.708525, 47.535583, 711.2], [-120.708464, 47.535527, 713.2], [-120.708445, 47.535484, 713.9], [-120.708448, 47.535471, 713.5], [-120.708479, 47.535468, 713.5], [-120.708474, 47.535492, 710.8], [-120.708408, 47.535509, 710.6], [-120.708394, 47.535531, 711.1], [-120.708393, 47.535579, 712.0], [-120.708363, 47.535601, 711.9], [-120.70836, 47.535607, 711.8], [-120.708339, 47.535725, 713.8], [-120.708315, 47.535758, 714.4], [-120.708302, 47.535765, 715.0], [-120.708254, 47.535811, 717.5], [-120.708181, 47.535847, 717.5], [-120.708092, 47.535802, 714.5], [-120.708084, 47.535805, 715.8], [-120.708065, 47.535828, 716.7], [-120.708048, 47.535881, 719.4], [-120.708026, 47.535896, 717.7], [-120.708054, 47.535836, 723.5], [-120.708081, 47.535763, 727.0], [-120.708096, 47.535672, 729.0], [-120.708094, 47.535597, 732.6], [-120.708103, 47.535573, 733.1], [-120.708088, 47.535537, 731.8], [-120.708102, 47.535488, 733.1], [-120.708105, 47.53541, 736.7], [-120.708091, 47.535367, 737.1], [-120.708063, 47.535327, 739.6], [-120.708079, 47.535296, 739.4], [-120.708089, 47.535258, 736.3], [-120.708071, 47.535189, 737.3], [-120.70809, 47.535155, 738.4], [-120.708072, 47.535132, 740.4], [-120.708062, 47.53513, 740.7], [-120.708088, 47.535095, 738.7], [-120.708087, 47.535048, 738.5], [-120.708097, 47.535027, 737.5], [-120.708157, 47.534941, 743.5], [-120.708175, 47.53486, 739.4], [-120.708214, 47.534825, 738.9], [-120.708209, 47.534761, 736.8], [-120.708216, 47.534746, 738.8], [-120.70825, 47.534695, 737.1], [-120.708258, 47.53467, 740.0], [-120.708249, 47.534626, 742.1], [-120.708279, 47.534581, 745.2], [-120.708305, 47.534556, 744.9], [-120.708318, 47.534497, 749.1], [-120.708357, 47.534455, 749.7], [-120.708371, 47.534446, 749.3], [-120.708472, 47.534313, 749.4], [-120.70851, 47.534273, 746.9], [-120.708585, 47.534234, 747.3], [-120.70862, 47.534185, 746.5], [-120.708631, 47.534174, 747.3], [-120.708681, 47.534101, 747.9], [-120.708679, 47.534031, 750.6], [-120.7087, 47.533996, 751.9], [-120.708716, 47.533985, 752.0], [-120.708798, 47.533871, 753.5], [-120.708802, 47.533824, 751.9], [-120.708808, 47.533803, 752.5], [-120.708914, 47.533732, 749.1], [-120.708937, 47.533688, 747.7], [-120.708925, 47.533649, 750.4], [-120.708932, 47.533639, 751.9], [-120.709052, 47.533562, 755.9], [-120.709064, 47.533537, 757.8], [-120.709108, 47.533516, 756.9], [-120.709133, 47.53349, 753.2], [-120.7092, 47.53345, 757.1], [-120.709258, 47.533389, 759.4], [-120.709285, 47.533344, 759.9], [-120.709313, 47.533307, 760.5], [-120.709305, 47.533268, 760.5], [-120.709332, 47.53323, 760.2], [-120.709341, 47.533189, 759.0], [-120.709342, 47.533123, 759.4], [-120.709377, 47.533083, 761.2], [-120.709404, 47.533002, 765.5], [-120.709446, 47.53292, 769.1], [-120.709442, 47.532859, 763.4], [-120.709462, 47.532778, 763.3], [-120.70952, 47.532698, 764.9], [-120.709525, 47.532687, 765.0], [-120.709526, 47.53266, 763.8], [-120.709582, 47.532574, 766.1], [-120.709612, 47.532555, 764.6], [-120.709673, 47.532487, 760.9], [-120.709676, 47.532441, 761.4], [-120.709714, 47.532395, 766.8], [-120.709724, 47.53239, 767.7], [-120.70975, 47.532336, 775.2], [-120.709815, 47.532317, 773.0], [-120.709813, 47.532291, 776.7], [-120.709838, 47.532239, 776.9], [-120.709842, 47.532226, 776.6], [-120.709869, 47.532189, 776.8], [-120.709868, 47.532135, 779.1], [-120.709921, 47.532083, 784.1], [-120.709924, 47.532049, 782.7], [-120.709906, 47.532029, 783.6], [-120.709914, 47.53201, 784.8], [-120.709975, 47.531946, 783.4], [-120.710015, 47.531936, 785.2], [-120.71007, 47.531919, 787.0], [-120.710105, 47.531925, 787.7], [-120.710209, 47.531865, 782.2], [-120.710259, 47.53187, 779.8], [-120.710273, 47.531873, 781.8], [-120.710308, 47.531852, 779.6], [-120.710328, 47.531822, 775.8], [-120.710388, 47.531775, 778.1], [-120.710412, 47.53174, 776.1], [-120.71057, 47.531641, 783.0], [-120.710588, 47.531631, 784.9], [-120.710724, 47.531605, 786.6], [-120.710763, 47.531553, 790.9], [-120.710817, 47.531511, 792.7], [-120.710893, 47.531423, 790.2], [-120.710923, 47.53141, 790.9], [-120.711067, 47.531306, 788.2], [-120.711086, 47.53129, 789.3], [-120.711218, 47.531153, 799.3], [-120.711232, 47.531148, 798.4], [-120.711282, 47.531139, 798.3], [-120.711422, 47.53104, 795.0], [-120.711563, 47.530955, 797.3], [-120.711591, 47.530911, 796.9], [-120.711591, 47.530902, 795.5], [-120.711614, 47.530863, 789.7], [-120.711649, 47.530854, 796.4], [-120.711715, 47.530791, 793.1], [-120.711748, 47.530768, 792.5], [-120.711726, 47.530751, 791.8], [-120.711746, 47.530734, 791.0], [-120.711886, 47.530653, 787.7], [-120.711935, 47.530629, 787.4], [-120.71197, 47.530627, 787.0], [-120.711991, 47.530607, 786.6], [-120.712003, 47.530557, 789.7], [-120.712053, 47.530507, 793.3], [-120.712076, 47.530462, 798.1], [-120.712107, 47.530444, 805.6], [-120.712092, 47.530393, 808.4], [-120.712099, 47.530365, 809.3], [-120.712098, 47.530339, 809.5], [-120.71216, 47.530246, 808.5], [-120.712191, 47.530161, 813.2], [-120.712196, 47.530154, 810.8], [-120.712293, 47.530089, 805.9], [-120.712357, 47.530077, 802.8], [-120.712381, 47.530036, 805.1], [-120.712445, 47.529993, 801.6], [-120.712545, 47.529953, 799.0], [-120.712592, 47.529923, 800.3], [-120.712626, 47.529934, 803.1], [-120.712658, 47.529923, 803.3], [-120.712745, 47.529885, 803.7], [-120.712767, 47.529862, 803.9], [-120.712836, 47.52981, 796.3], [-120.712856, 47.529769, 798.7], [-120.712927, 47.529717, 797.1], [-120.712944, 47.52971, 796.8], [-120.71313, 47.529622, 788.7], [-120.71322, 47.529543, 793.5], [-120.713284, 47.529459, 794.4], [-120.713296, 47.529442, 794.4], [-120.713389, 47.529368, 787.8], [-120.713421, 47.529353, 785.6], [-120.713505, 47.529342, 786.0], [-120.713604, 47.529285, 775.8], [-120.713689, 47.529216, 777.6], [-120.713775, 47.529166, 791.3], [-120.713772, 47.529132, 794.1], [-120.713784, 47.529082, 796.1], [-120.713768, 47.529047, 797.7], [-120.713771, 47.529029, 800.5], [-120.713843, 47.528951, 810.5], [-120.71387, 47.528905, 808.3], [-120.713857, 47.528856, 812.8], [-120.713911, 47.528816, 807.4], [-120.713917, 47.528786, 807.0], [-120.713915, 47.528764, 808.9], [-120.713886, 47.528752, 803.6], [-120.713958, 47.52868, 800.7], [-120.713974, 47.52865, 805.3], [-120.713982, 47.528609, 804.4], [-120.714033, 47.528561, 801.7], [-120.714033, 47.52853, 802.4], [-120.714063, 47.528495, 799.5], [-120.714074, 47.528476, 796.9], [-120.714142, 47.528416, 796.9], [-120.714162, 47.528373, 795.8], [-120.714188, 47.528349, 797.6], [-120.7142, 47.528345, 798.1], [-120.714274, 47.528332, 790.8], [-120.714333, 47.528304, 793.3], [-120.714354, 47.528246, 794.3], [-120.714366, 47.528239, 793.5], [-120.714382, 47.528214, 796.9], [-120.714406, 47.528198, 795.9], [-120.714434, 47.528217, 791.1], [-120.714458, 47.528206, 788.1], [-120.714526, 47.528136, 786.5], [-120.71454, 47.528119, 788.0], [-120.714638, 47.528021, 796.4], [-120.714694, 47.527988, 798.9], [-120.714707, 47.527983, 799.0], [-120.71475, 47.527976, 798.2], [-120.714786, 47.527947, 798.2], [-120.714845, 47.527921, 802.0], [-120.714866, 47.527947, 804.7], [-120.71486, 47.527987, 806.0], [-120.714859, 47.528025, 800.8], [-120.714876, 47.528046, 804.8], [-120.714904, 47.528046, 802.8], [-120.714956, 47.528019, 806.2], [-120.715013, 47.527972, 807.8], [-120.714987, 47.527954, 806.0], [-120.715036, 47.527945, 809.4], [-120.715051, 47.527904, 811.7], [-120.715107, 47.527879, 813.1], [-120.715194, 47.527922, 809.1], [-120.715233, 47.527909, 810.4], [-120.715239, 47.527902, 810.1], [-120.715295, 47.527909, 809.9], [-120.715263, 47.527936, 813.0], [-120.715293, 47.527948, 814.4], [-120.715317, 47.527927, 810.8], [-120.715382, 47.527904, 818.3], [-120.715387, 47.527901, 818.5], [-120.715432, 47.527908, 819.3], [-120.715448, 47.527884, 827.4], [-120.715537, 47.527887, 823.0], [-120.715547, 47.52791, 817.7], [-120.71553, 47.527939, 814.5], [-120.715543, 47.527957, 817.2], [-120.715612, 47.527952, 815.4], [-120.715656, 47.527984, 813.7], [-120.715642, 47.528, 817.4], [-120.715687, 47.527996, 816.6], [-120.715689, 47.527992, 817.3], [-120.715701, 47.528016, 814.7], [-120.715734, 47.528026, 814.0], [-120.715802, 47.528003, 815.4], [-120.715867, 47.528013, 815.5], [-120.715914, 47.528, 816.6], [-120.715925, 47.528006, 815.2], [-120.715935, 47.528052, 809.9], [-120.715963, 47.528044, 821.2], [-120.715959, 47.528018, 825.4], [-120.716021, 47.528037, 824.4], [-120.716061, 47.528018, 829.0], [-120.716146, 47.527989, 838.3], [-120.716184, 47.527991, 840.3], [-120.716196, 47.528013, 833.2], [-120.716193, 47.528058, 830.7], [-120.71621, 47.528102, 827.9], [-120.716226, 47.528136, 828.6], [-120.716251, 47.528154, 828.6], [-120.716294, 47.528112, 831.9], [-120.716293, 47.528087, 835.1], [-120.716315, 47.528104, 829.7], [-120.716364, 47.528092, 827.6], [-120.716431, 47.528095, 831.3], [-120.716466, 47.528084, 836.4], [-120.716511, 47.528118, 838.3], [-120.716552, 47.528167, 839.9], [-120.716586, 47.528193, 841.8], [-120.716595, 47.528215, 845.8], [-120.716624, 47.528231, 849.9], [-120.716659, 47.528218, 852.5], [-120.716723, 47.528219, 854.7], [-120.716758, 47.528237, 855.3], [-120.716789, 47.528263, 856.2], [-120.71683, 47.528326, 859.3], [-120.716954, 47.528339, 866.1], [-120.716945, 47.528335, 867.3], [-120.716956, 47.528309, 869.9], [-120.71699, 47.528297, 872.1], [-120.716957, 47.528275, 873.5], [-120.717002, 47.528241, 874.8], [-120.717118, 47.528235, 876.0], [-120.717134, 47.528233, 878.3], [-120.717173, 47.528215, 879.0], [-120.717208, 47.528219, 875.6], [-120.717217, 47.528245, 880.5], [-120.717241, 47.528257, 878.2], [-120.717264, 47.528218, 886.9], [-120.71723, 47.528267, 884.4], [-120.717226, 47.528289, 885.7], [-120.717208, 47.52829, 885.5], [-120.717235, 47.52832, 884.8], [-120.717354, 47.52836, 882.4], [-120.717372, 47.528382, 879.4], [-120.71737, 47.528405, 879.1], [-120.71733, 47.528403, 880.2], [-120.717329, 47.528406, 880.0], [-120.717295, 47.528427, 882.8], [-120.71731, 47.528454, 893.8], [-120.717387, 47.528503, 904.1], [-120.717437, 47.528455, 912.9], [-120.717437, 47.528448, 912.7], [-120.717518, 47.528468, 914.9], [-120.717576, 47.528469, 917.6], [-120.717585, 47.528444, 921.5], [-120.717633, 47.528497, 913.3], [-120.717641, 47.528524, 912.2], [-120.717665, 47.528504, 916.9], [-120.71765, 47.528481, 918.5], [-120.717715, 47.528505, 918.4], [-120.717757, 47.528488, 923.8], [-120.717758, 47.52846, 923.8], [-120.717788, 47.528466, 927.4], [-120.71783, 47.528434, 930.6], [-120.717858, 47.528444, 930.6], [-120.717895, 47.528435, 931.0], [-120.717916, 47.528451, 931.4], [-120.717962, 47.528459, 933.5], [-120.717968, 47.528456, 933.9], [-120.717938, 47.528436, 934.0], [-120.717968, 47.528436, 938.5], [-120.718025, 47.528417, 944.1], [-120.718092, 47.528419, 941.8], [-120.718126, 47.528433, 937.7], [-120.718121, 47.528441, 939.0], [-120.718082, 47.528427, 933.3], [-120.718111, 47.528413, 940.5], [-120.718173, 47.528427, 941.9], [-120.718164, 47.528375, 946.6], [-120.718207, 47.528369, 947.2], [-120.718222, 47.52837, 947.5], [-120.718336, 47.528368, 950.7], [-120.718364, 47.528353, 951.1], [-120.71844, 47.528346, 954.0], [-120.718409, 47.528314, 957.3], [-120.718376, 47.528303, 959.8], [-120.718328, 47.528331, 958.5], [-120.718335, 47.528305, 957.2], [-120.7183, 47.528304, 953.7], [-120.718345, 47.528321, 952.7], [-120.720478, 47.528374, 1220.5], [-120.718157, 47.528575, 993.5], [-120.718137, 47.528629, 989.4], [-120.71819, 47.528635, 975.5], [-120.717841, 47.528624, 1016.9], [-120.717912, 47.528664, 1010.7], [-120.717982, 47.528653, 1006.9], [-120.717992, 47.528628, 1007.6], [-120.718063, 47.528626, 998.3]]}}