{"type": "Feature", "properties": {}, "geometry": {"type": "LineString", "coordinates": [[-119.925418, 38.379705, 2177.6], [-119.925356, 38.37964, 2174.9], [-119.925477, 38.379662, 2189.6], [-119.92548, 38.379688, 2188.3], [-119.925458, 38.379731, 2191.3], [-119.925431, 38.379745, 2190.0], [-119.925396, 38.379803, 2192.0], [-119.925395, 38.379855, 2192.9], [-119.925365, 38.379931, 2192.6], [-119.925415, 38.379975, 2193.7], [-119.925416, 38.379989, 2193.7], [-119.925381, 38.38003, 2195.7], [-119.925384, 38.380097, 2195.3], [-119.925364, 38.380148, 2195.5], [-119.92535, 38.380163, 2196.4], [-119.925276, 38.380218, 2195.8], [-119.925256, 38.380287, 2198.9], [-119.925235, 38.380317, 2198.3], [-119.925165, 38.380399, 2202.1], [-119.925088, 38.38044, 2200.2], [-119.925052, 38.380468, 2197.9], [-119.924994, 38.380481, 2199.5], [-119.924951, 38.380512, 2202.0], [-119.924893, 38.380519, 2203.0], [-119.92488, 38.380518, 2202.9], [-119.924833, 38.380525, 2203.6], [-119.924761, 38.38056, 2204.6], [-119.924682, 38.380555, 2209.4], [-119.924666, 38.380552, 2209.3], [-119.924559, 38.380542, 2211.8], [-119.924476, 38.380565, 2207.3], [-119.924459, 38.380592, 2206.0], [-119.924433, 38.380693, 2210.9], [-119.92442, 38.380715, 2211.0], [-119.924397, 38.380714, 2212.9], [-119.924404, 38.380745, 2214.5], [-119.924418, 38.380783, 2213.5], [-119.924414, 38.380848, 2212.6], [-119.924459, 38.380917, 2212.3], [-119.924468, 38.380965, 2211.6], [-119.924538, 38.380994, 2214.2], [-119.924582, 38.381034, 2215.1], [-119.924611, 38.381115, 2214.7], [-119.924655, 38.38117, 2215.7], [-119.924689, 38.381194, 2215.1], [-119.924736, 38.381215, 2215.2], [-119.924773, 38.381251, 2214.6], [-119.924792, 38.381299, 2212.9], [-119.924822, 38.381331, 2213.5], [-119.924831, 38.381335, 2213.6], [-119.924897, 38.381382, 2212.4], [-119.924944, 38.381441, 2214.2], [-119.924982, 38.381469, 2214.7], [-119.92499, 38.38148, 2214.9], [-119.925018, 38.381534, 2213.4], [-119.925079, 38.381603, 2215.6], [-119.925098, 38.381639, 2215.1], [-119.925177, 38.381711, 2213.0], [-119.925231, 38.381728, 2213.1], [-119.925262, 38.38175, 2214.0], [-119.925304, 38.381775, 2217.0], [-119.925304, 38.3818, 2216.3], [-119.925348, 38.381866, 2221.4], [-119.925355, 38.381925, 2220.5], [-119.925511, 38.381997, 2227.0], [-119.92556, 38.381997, 2229.0], [-119.925624, 38.381972, 2233.5], [-119.925714, 38.381987, 2235.4], [-119.925786, 38.381966, 2234.4], [-119.925798, 38.381967, 2234.3], [-119.925943, 38.38196, 2236.9], [-119.926003, 38.381946, 2238.5], [-119.926072, 38.381952, 2240.4], [-119.926141, 38.381929, 2241.6], [-119.926209, 38.381946, 2244.4], [-119.926246, 38.38196, 2243.4], [-119.926392, 38.381918, 2244.9], [-119.926454, 38.38192, 2244.4], [-119.926518, 38.381962, 2243.4], [-119.926604, 38.381987, 2241.6], [-119.926716, 38.381993, 2243.1], [-119.926788, 38.382043, 2239.5], [-119.926801, 38.382049, 2239.3], [-119.926912, 38.382129, 2239.3], [-119.92692, 38.382175, 2238.9], [-119.926959, 38.382225, 2238.1], [-119.926968, 38.38227, 2237.8], [-119.927002, 38.38231, 2238.8], [-119.927002, 38.382343, 2244.3], [-119.927059, 38.382438, 2244.4], [-119.927057, 38.382514, 2243.8], [-119.927064, 38.382526, 2244.3], [-119.927096, 38.382548, 2244.9], [-119.927119, 38.382593, 2246.0], [-119.92717, 38.382627, 2247.5], [-119.927186, 38.382649, 2247.3], [-119.927172, 38.382663, 2247.5], [-119.92716, 38.382686, 2247.4], [-119.927116, 38.382747, 2244.6], [-119.927081, 38.38278, 2244.4], [-119.927057, 38.382838, 2245.3], [-119.927002, 38.382915, 2241.8], [-119.927031, 38.382977, 2243.3], [-119.927068, 38.383016, 2243.6], [-119.927131, 38.383041, 2242.3], [-119.927148, 38.383058, 2241.6], [-119.927178, 38.383117, 2240.3], [-119.92718, 38.383164, 2238.7], [-119.927192, 38.383194, 2239.6], [-119.927189, 38.383242, 2239.9], [-119.927148, 38.383315, 2239.2], [-119.927114, 38.383389, 2238.0], [-119.927139, 38.383422, 2239.1], [-119.927111, 38.383463, 2239.0], [-119.927101, 38.38349, 2241.8], [-119.927097, 38.383464, 2238.4], [-119.927087, 38.383554, 2238.2], [-119.92705, 38.383568, 2241.4], [-119.927034, 38.38359, 2236.7], [-119.927005, 38.383591, 2238.2], [-119.926976, 38.383618, 2242.0], [-119.926949, 38.383688, 2244.7], [-119.926956, 38.383697, 2244.4], [-119.926956, 38.383748, 2248.2], [-119.926987, 38.383785, 2250.3], [-119.92701, 38.38383, 2249.6], [-119.927005, 38.383883, 2246.9], [-119.926965, 38.383926, 2244.5], [-119.926952, 38.383998, 2248.2], [-119.926928, 38.384073, 2248.6], [-119.926932, 38.384093, 2249.9], [-119.926923, 38.384134, 2250.2], [-119.926901, 38.384152, 2249.6], [-119.926904, 38.384195, 2244.7], [-119.926938, 38.384199, 2246.6], [-119.926969, 38.384237, 2250.0], [-119.926971, 38.384262, 2248.1], [-119.92695, 38.384335, 2246.0], [-119.92695, 38.384385, 2246.8], [-119.926914, 38.384467, 2247.6], [-119.926914, 38.384494, 2249.3], [-119.926967, 38.38453, 2249.0], [-119.926964, 38.384579, 2247.6], [-119.926982, 38.384654, 2248.3], [-119.927101, 38.384767, 2250.4], [-119.927114, 38.384776, 2250.8], [-119.92713, 38.384811, 2249.1], [-119.927083, 38.384915, 2248.2], [-119.927046, 38.384966, 2245.5], [-119.927069, 38.385004, 2243.4], [-119.927072, 38.385031, 2243.3], [-119.927128, 38.385067, 2243.4], [-119.92713, 38.385077, 2241.8], [-119.927077, 38.385142, 2240.2], [-119.92707, 38.385164, 2239.8], [-119.927115, 38.385243, 2241.2], [-119.927123, 38.385364, 2240.2], [-119.927154, 38.385462, 2238.8], [-119.927205, 38.385542, 2238.2], [-119.927209, 38.385593, 2240.9], [-119.927226, 38.385651, 2240.3], [-119.92721, 38.385715, 2239.9], [-119.927245, 38.385854, 2245.6], [-119.927263, 38.385873, 2244.8], [-119.927266, 38.385895, 2244.4], [-119.927254, 38.385918, 2241.3], [-119.927288, 38.385961, 2243.6], [-119.927273, 38.385978, 2243.8], [-119.927281, 38.386003, 2239.2], [-119.927304, 38.38602, 2238.7], [-119.927316, 38.386061, 2239.2], [-119.927374, 38.386043, 2239.5], [-119.927456, 38.386063, 2242.8], [-119.927473, 38.386086, 2243.5], [-119.927453, 38.386162, 2244.3], [-119.927496, 38.386204, 2244.4], [-119.927653, 38.386271, 2241.6], [-119.927778, 38.386345, 2240.1], [-119.927869, 38.386346, 2242.6], [-119.927877, 38.386351, 2242.1], [-119.927891, 38.386423, 2240.0], [-119.927884, 38.386524, 2241.2], [-119.927849, 38.386692, 2237.4], [-119.927834, 38.386797, 2233.9], [-119.92784, 38.386859, 2232.8], [-119.927868, 38.386924, 2229.9], [-119.927888, 38.386941, 2229.3], [-119.927958, 38.387046, 2229.6], [-119.92799, 38.387119, 2232.7], [-119.927995, 38.387162, 2233.3], [-119.928015, 38.387183, 2233.7], [-119.928055, 38.387201, 2233.0], [-119.928059, 38.387183, 2231.2], [-119.928025, 38.387177, 2226.3], [-119.928032, 38.387246, 2225.4], [-119.928062, 38.387289, 2225.3], [-119.928066, 38.387357, 2225.0], [-119.928052, 38.387398, 2225.9], [-119.928065, 38.387438, 2227.3], [-119.928077, 38.387451, 2227.7], [-119.928167, 38.387509, 2227.6], [-119.928144, 38.387556, 2226.3], [-119.928143, 38.387623, 2224.4], [-119.928153, 38.38768, 2226.1], [-119.928133, 38.387727, 2223.9], [-119.928098, 38.387763, 2223.0], [-119.928104, 38.387798, 2220.5], [-119.928151, 38.387831, 2218.3], [-119.928155, 38.387852, 2219.9], [-119.928136, 38.387981, 2218.3], [-119.928136, 38.387988, 2218.1], [-119.928084, 38.388083, 2218.1], [-119.928112, 38.388128, 2217.7], [-119.928134, 38.388149, 2217.5], [-119.928063, 38.388287, 2211.5], [-119.928066, 38.388297, 2214.9], [-119.928123, 38.388377, 2215.1], [-119.928147, 38.388451, 2212.3], [-119.928232, 38.388496, 2213.6], [-119.92829, 38.388493, 2210.8], [-119.928358, 38.388533, 2212.6], [-119.928391, 38.388539, 2212.0], [-119.928453, 38.388525, 2206.8], [-119.928508, 38.388529, 2203.3], [-119.92856, 38.388558, 2204.6], [-119.928616, 38.3886, 2206.2], [-119.928617, 38.388638, 2207.5], [-119.928635, 38.388655, 2207.1], [-119.928654, 38.38871, 2205.6], [-119.928681, 38.388749, 2203.4], [-119.928788, 38.388843, 2204.2], [-119.928731, 38.388842, 2201.4], [-119.928729, 38.388857, 2201.2], [-119.92874, 38.388856, 2198.9], [-119.928779, 38.388832, 2196.9], [-119.928803, 38.38883, 2196.8], [-119.928874, 38.388857, 2199.6], [-119.928918, 38.388896, 2202.1], [-119.928906, 38.388921, 2202.3], [-119.928876, 38.388921, 2202.4], [-119.928902, 38.388897, 2205.3], [-119.928956, 38.388872, 2205.6], [-119.928977, 38.388867, 2206.4], [-119.928978, 38.388885, 2207.4], [-119.928895, 38.388917, 2205.2], [-119.928872, 38.388954, 2196.0], [-119.928899, 38.388973, 2200.8], [-119.928902, 38.388949, 2204.3], [-119.928887, 38.388926, 2204.3], [-119.928903, 38.388973, 2205.4], [-119.928896, 38.389043, 2206.2], [-119.928898, 38.389057, 2205.5], [-119.928893, 38.389092, 2203.3], [-119.928903, 38.389136, 2202.5], [-119.928872, 38.389221, 2200.1], [-119.928929, 38.389332, 2197.9], [-119.928919, 38.389353, 2197.6], [-119.928918, 38.389418, 2196.8], [-119.928899, 38.389494, 2198.2], [-119.928842, 38.389536, 2195.5], [-119.928828, 38.389563, 2196.3], [-119.928848, 38.389588, 2197.8], [-119.928908, 38.38972, 2194.6], [-119.928908, 38.389729, 2194.4], [-119.928867, 38.389816, 2191.6], [-119.928875, 38.389835, 2192.1], [-119.928926, 38.389876, 2194.7], [-119.928934, 38.389885, 2194.1], [-119.928994, 38.389905, 2191.9], [-119.929116, 38.389982, 2192.8], [-119.929143, 38.389991, 2193.4], [-119.929178, 38.390094, 2188.1], [-119.929207, 38.390133, 2189.0], [-119.929202, 38.390135, 2188.5], [-119.929213, 38.390205, 2188.7], [-119.92927, 38.390226, 2188.5], [-119.929288, 38.390244, 2187.7], [-119.929284, 38.390281, 2186.8], [-119.929288, 38.390406, 2182.3], [-119.929253, 38.390453, 2180.2], [-119.929246, 38.390458, 2180.2], [-119.92923, 38.390487, 2180.9], [-119.929205, 38.390614, 2179.6], [-119.92922, 38.390658, 2179.2], [-119.92923, 38.390749, 2175.9], [-119.929259, 38.390807, 2175.4], [-119.929264, 38.39086, 2175.6], [-119.929246, 38.390883, 2174.3], [-119.929216, 38.390972, 2176.9], [-119.929171, 38.391047, 2175.5], [-119.929176, 38.391136, 2174.3], [-119.929175, 38.391182, 2175.0], [-119.929187, 38.391204, 2172.6], [-119.929211, 38.391217, 2171.7], [-119.929194, 38.391281, 2175.5], [-119.929221, 38.391389, 2174.7], [-119.929222, 38.391432, 2172.7], [-119.929246, 38.391477, 2172.1], [-119.929246, 38.391485, 2171.6], [-119.929278, 38.391497, 2173.3], [-119.929295, 38.391537, 2170.5], [-119.92931, 38.391544, 2171.2], [-119.929301, 38.391566, 2165.9], [-119.929301, 38.391608, 2166.4], [-119.929298, 38.391617, 2166.9], [-119.929233, 38.391677, 2169.2], [-119.929217, 38.391732, 2165.4], [-119.92923, 38.391767, 2164.8], [-119.929263, 38.391799, 2164.5], [-119.929261, 38.391815, 2164.4], [-119.929238, 38.391843, 2163.8], [-119.929152, 38.391854, 2166.3], [-119.929028, 38.39186, 2165.0], [-119.929002, 38.39187, 2165.6], [-119.928972, 38.391866, 2165.9], [-119.928928, 38.39189, 2165.8], [-119.92892, 38.391901, 2166.0], [-119.92891, 38.391941, 2166.4], [-119.928936, 38.392005, 2165.0], [-119.928923, 38.392048, 2165.0], [-119.928886, 38.392084, 2165.7], [-119.928894, 38.392058, 2169.5], [-119.928865, 38.392072, 2166.0], [-119.92888, 38.392092, 2164.5], [-119.928861, 38.392129, 2166.0], [-119.928892, 38.392158, 2165.7], [-119.928893, 38.392169, 2165.7], [-119.928844, 38.392255, 2165.5], [-119.928821, 38.392335, 2166.5], [-119.928819, 38.392349, 2166.5], [-119.928885, 38.392476, 2165.5], [-119.928888, 38.392535, 2165.2], [-119.928881, 38.392585, 2165.2], [-119.928892, 38.392601, 2165.0], [-119.928976, 38.392635, 2165.3], [-119.928917, 38.392656, 2166.5], [-119.9289, 38.392696, 2165.5], [-119.928892, 38.39277, 2164.4], [-119.928864, 38.392833, 2163.5], [-119.928857, 38.392888, 2164.5], [-119.928828, 38.392914, 2163.9], [-119.92882, 38.392958, 2164.6], [-119.928747, 38.393043, 2163.8], [-119.92874, 38.393081, 2162.2], [-119.928719, 38.393114, 2160.6], [-119.928619, 38.393166, 2158.5], [-119.928615, 38.393192, 2158.0], [-119.928673, 38.393271, 2156.3], [-119.928678, 38.393289, 2155.9], [-119.928657, 38.393356, 2156.9], [-119.928663, 38.393467, 2152.5], [-119.928649, 38.393506, 2151.6], [-119.9286, 38.393543, 2151.1], [-119.928573, 38.393586, 2154.0], [-119.928561, 38.393667, 2154.3], [-119.928554, 38.39368, 2154.4], [-119.928547, 38.393711, 2155.1], [-119.928512, 38.393762, 2152.8], [-119.928482, 38.393829, 2148.2], [-119.928482, 38.393865, 2147.9], [-119.928509, 38.393935, 2146.3], [-119.928492, 38.394003, 2148.0], [-119.928481, 38.394045, 2147.6], [-119.928447, 38.394118, 2148.3], [-119.928442, 38.394172, 2146.9], [-119.928444, 38.394187, 2147.4], [-119.928476, 38.394264, 2146.4], [-119.92853, 38.39432, 2146.2], [-119.928535, 38.394328, 2145.7], [-119.928599, 38.394382, 2146.1], [-119.928581, 38.394426, 2142.9], [-119.928591, 38.394474, 2143.8], [-119.92861, 38.394523, 2142.3], [-119.928582, 38.394567, 2141.2], [-119.928597, 38.394608, 2141.3], [-119.92859, 38.394644, 2139.9], [-119.928592, 38.394653, 2140.9], [-119.928572, 38.394721, 2139.7], [-119.92859, 38.394739, 2136.0], [-119.928594, 38.394785, 2134.8], [-119.92858, 38.39481, 2133.1], [-119.928559, 38.394838, 2132.1], [-119.928541, 38.39492, 2131.4], [-119.928514, 38.394944, 2130.8], [-119.928485, 38.394957, 2132.3], [-119.928518, 38.39496, 2132.3], [-119.928542, 38.394946, 2131.5], [-119.928693, 38.394806, 2133.9], [-119.928789, 38.394756, 2123.3], [-119.928823, 38.394721, 2121.4], [-119.928852, 38.394703, 2121.8], [-119.928904, 38.394647, 2120.9], [-119.928936, 38.394585, 2124.0], [-119.92899, 38.394521, 2121.4], [-119.929042, 38.394503, 2123.1], [-119.929074, 38.394477, 2121.3], [-119.929169, 38.394381, 2119.6], [-119.929188, 38.394344, 2118.6], [-119.9292, 38.39433, 2118.8], [-119.929291, 38.394267, 2119.4], [-119.929358, 38.394195, 2121.0], [-119.929403, 38.394157, 2122.5], [-119.929473, 38.394135, 2120.6], [-119.929544, 38.39413, 2121.4], [-119.929555, 38.394127, 2121.4], [-119.929573, 38.39411, 2118.0], [-119.929647, 38.394079, 2117.6], [-119.929745, 38.394066, 2122.0], [-119.929791, 38.394055, 2121.8], [-119.929838, 38.393999, 2119.1], [-119.929923, 38.393987, 2121.7], [-119.929983, 38.393963, 2120.8], [-119.930009, 38.393967, 2123.2], [-119.930021, 38.393986, 2120.8], [-119.930047, 38.394, 2120.5], [-119.930109, 38.393991, 2118.2], [-119.930116, 38.393995, 2119.1], [-119.930122, 38.394024, 2117.3], [-119.930152, 38.394037, 2117.3], [-119.930243, 38.394035, 2114.1], [-119.930302, 38.394017, 2112.7], [-119.930323, 38.393986, 2113.2], [-119.930349, 38.39397, 2109.2], [-119.930354, 38.393949, 2108.4], [-119.930378, 38.393933, 2108.9], [-119.930483, 38.393952, 2112.9], [-119.930586, 38.393974, 2108.6], [-119.93064, 38.394031, 2105.0], [-119.930696, 38.394032, 2105.8], [-119.930774, 38.394046, 2107.2], [-119.930847, 38.394091, 2103.3], [-119.930917, 38.394118, 2100.9], [-119.930944, 38.394157, 2101.3], [-119.930999, 38.394188, 2100.8], [-119.93105, 38.394157, 2097.2], [-119.931033, 38.394185, 2096.4], [-119.93103, 38.394182, 2096.7], [-119.931115, 38.394208, 2099.9], [-119.931247, 38.394209, 2100.0], [-119.931419, 38.394221, 2095.2], [-119.931464, 38.394206, 2095.3], [-119.931557, 38.394187, 2093.2], [-119.931639, 38.39415, 2094.1], [-119.931651, 38.394143, 2092.8], [-119.931713, 38.394125, 2090.6], [-119.931721, 38.394105, 2091.2], [-119.931746, 38.394092, 2092.3], [-119.931805, 38.39409, 2092.4], [-119.931854, 38.39407, 2094.1], [-119.931971, 38.394067, 2089.9], [-119.932047, 38.394028, 2089.7], [-119.932058, 38.394001, 2088.2], [-119.932106, 38.393957, 2090.9], [-119.932152, 38.393969, 2092.0], [-119.932188, 38.394032, 2091.5], [-119.932186, 38.394088, 2091.1], [-119.932219, 38.394139, 2091.2], [-119.932267, 38.394166, 2090.7], [-119.932276, 38.394207, 2090.6], [-119.932305, 38.39425, 2089.6], [-119.932303, 38.394303, 2087.3], [-119.932328, 38.39437, 2084.9], [-119.932384, 38.394434, 2085.1], [-119.932367, 38.394452, 2086.5], [-119.932397, 38.394452, 2085.3], [-119.932421, 38.39451, 2086.0], [-119.932459, 38.394675, 2086.1], [-119.932478, 38.394733, 2083.9], [-119.932517, 38.394788, 2084.8], [-119.932519, 38.394826, 2086.6], [-119.932515, 38.394824, 2085.9], [-119.932493, 38.394762, 2087.5], [-119.932524, 38.394763, 2082.1], [-119.932556, 38.394821, 2082.1], [-119.932553, 38.394832, 2081.2], [-119.932533, 38.394857, 2080.9], [-119.932538, 38.394881, 2081.7], [-119.932639, 38.39497, 2081.6], [-119.932661, 38.395017, 2082.6], [-119.932632, 38.395058, 2081.8], [-119.932617, 38.395159, 2081.8], [-119.932614, 38.395168, 2082.2], [-119.932615, 38.395207, 2082.6], [-119.932636, 38.395233, 2082.3], [-119.932715, 38.395275, 2083.4], [-119.932747, 38.395302, 2083.1], [-119.93285, 38.395433, 2082.6], [-119.932854, 38.395445, 2082.5], [-119.932917, 38.395513, 2079.8], [-119.932915, 38.395555, 2076.8], [-119.932935, 38.395593, 2076.1], [-119.932976, 38.395692, 2076.2], [-119.932989, 38.395707, 2076.7], [-119.933036, 38.395726, 2075.3], [-119.933104, 38.395726, 2074.1], [-119.933168, 38.39571, 2074.9], [-119.933196, 38.395711, 2075.0], [-119.933229, 38.395729, 2076.0], [-119.93333, 38.395749, 2072.3], [-119.933445, 38.395683, 2077.0], [-119.933458, 38.395677, 2076.7], [-119.933508, 38.395635, 2072.0], [-119.933632, 38.395573, 2073.4], [-119.93367, 38.395572, 2069.4], [-119.933707, 38.39552, 2072.3], [-119.933748, 38.395483, 2074.4], [-119.933759, 38.39548, 2074.1], [-119.93383, 38.395482, 2074.4], [-119.933907, 38.395452, 2072.2], [-119.933936, 38.395466, 2068.5], [-119.933962, 38.395494, 2070.7], [-119.933965, 38.395505, 2072.3], [-119.933926, 38.39558, 2071.4], [-119.933873, 38.395638, 2068.3], [-119.933824, 38.395676, 2071.3], [-119.933797, 38.395787, 2071.6], [-119.933813, 38.395832, 2070.3], [-119.933796, 38.395868, 2070.8], [-119.933773, 38.395966, 2071.2], [-119.933765, 38.395979, 2070.6], [-119.933724, 38.396028, 2065.8], [-119.933673, 38.396043, 2064.0], [-119.933621, 38.396106, 2065.1], [-119.933592, 38.396158, 2066.3], [-119.93357, 38.396171, 2065.3], [-119.933538, 38.396169, 2064.9], [-119.933489, 38.396206, 2065.3], [-119.933468, 38.396238, 2062.7], [-119.93347, 38.396297, 2061.3], [-119.933546, 38.396332, 2061.8], [-119.933584, 38.396377, 2060.2], [-119.933585, 38.396383, 2059.3], [-119.933763, 38.396487, 2057.6], [-119.933823, 38.396515, 2058.1], [-119.933907, 38.39652, 2057.8], [-119.933964, 38.396539, 2057.8], [-119.933976, 38.396547, 2059.2], [-119.934081, 38.396604, 2054.2], [-119.934113, 38.396609, 2054.9], [-119.934168, 38.396646, 2051.0], [-119.934192, 38.39668, 2051.0], [-119.934237, 38.396709, 2050.2], [-119.934322, 38.39679, 2053.1], [-119.934358, 38.396879, 2048.0], [-119.934443, 38.396888, 2048.5], [-119.934463, 38.396901, 2049.0], [-119.934477, 38.396923, 2048.9], [-119.934435, 38.396984, 2052.0], [-119.934432, 38.39707, 2053.4], [-119.934423, 38.397081, 2052.7], [-119.934396, 38.397159, 2054.4], [-119.934376, 38.397177, 2052.5], [-119.934355, 38.397248, 2053.6], [-119.934327, 38.397286, 2053.8], [-119.934345, 38.397368, 2054.7], [-119.934334, 38.397435, 2055.4], [-119.934273, 38.397546, 2055.6], [-119.934216, 38.39757, 2055.3], [-119.934114, 38.397564, 2055.1], [-119.934094, 38.397604, 2054.9], [-119.934095, 38.397629, 2054.5], [-119.934059, 38.39766, 2053.7], [-119.934023, 38.397745, 2051.8], [-119.934025, 38.397791, 2050.4], [-119.934039, 38.397816, 2050.8], [-119.934039, 38.397826, 2050.0], [-119.934052, 38.3979, 2047.2], [-119.934043, 38.397937, 2045.6], [-119.934076, 38.397997, 2048.4], [-119.9341, 38.398026, 2048.5], [-119.934204, 38.398098, 2049.0], [-119.934226, 38.398132, 2049.2], [-119.934347, 38.398271, 2051.5], [-119.934401, 38.398298, 2049.3], [-119.934404, 38.398345, 2049.4], [-119.934445, 38.398381, 2048.7], [-119.934463, 38.398424, 2046.3], [-119.934537, 38.398474, 2046.9], [-119.934652, 38.398517, 2049.9], [-119.934741, 38.398573, 2044.3], [-119.934859, 38.398574, 2047.1], [-119.934926, 38.398589, 2047.8], [-119.935039, 38.39865, 2049.7], [-119.93505, 38.398654, 2050.4], [-119.935077, 38.398681, 2052.1], [-119.935123, 38.398763, 2056.4], [-119.935126, 38.398787, 2057.0], [-119.935116, 38.398824, 2059.0], [-119.935065, 38.398871, 2057.4], [-119.935045, 38.39893, 2055.2], [-119.935043, 38.398987, 2057.7], [-119.935046, 38.398998, 2055.5], [-119.935051, 38.399097, 2057.1], [-119.935037, 38.399145, 2058.2], [-119.935011, 38.399176, 2060.1], [-119.934994, 38.399208, 2056.8], [-119.934932, 38.399263, 2058.9], [-119.934911, 38.399309, 2057.5], [-119.934908, 38.399339, 2061.0], [-119.934914, 38.399338, 2062.2], [-119.934903, 38.399413, 2063.3], [-119.934864, 38.399472, 2062.9], [-119.934876, 38.399509, 2063.3], [-119.934885, 38.399518, 2062.2], [-119.934892, 38.399546, 2062.5], [-119.934882, 38.399681, 2065.0], [-119.934893, 38.399768, 2066.1], [-119.934878, 38.399854, 2068.5], [-119.934884, 38.399866, 2070.3], [-119.934921, 38.39991, 2068.5], [-119.934922, 38.399935, 2068.2], [-119.9349, 38.399979, 2069.4], [-119.934865, 38.400017, 2068.6], [-119.934824, 38.400039, 2069.7], [-119.93481, 38.400092, 2069.0], [-119.934828, 38.40019, 2067.7], [-119.934826, 38.400196, 2068.1], [-119.93473, 38.40034, 2067.2], [-119.934719, 38.400351, 2066.8], [-119.934701, 38.400426, 2067.3], [-119.934671, 38.400491, 2065.0], [-119.934677, 38.400533, 2066.1], [-119.934673, 38.400552, 2068.0], [-119.934637, 38.4006, 2067.9], [-119.934637, 38.400643, 2066.7], [-119.934606, 38.400682, 2067.5], [-119.9346, 38.400709, 2068.1], [-119.934582, 38.400752, 2068.1], [-119.934586, 38.400777, 2067.5], [-119.934618, 38.400842, 2067.5], [-119.934598, 38.400894, 2066.7], [-119.934601, 38.400951, 2066.9], [-119.934571, 38.400992, 2067.8], [-119.93455, 38.401079, 2066.7], [-119.934497, 38.401144, 2066.7], [-119.934485, 38.401184, 2065.4], [-119.934459, 38.40122, 2064.4], [-119.934416, 38.401273, 2062.8], [-119.934379, 38.401301, 2061.7], [-119.934346, 38.401373, 2064.1], [-119.934344, 38.401385, 2064.9], [-119.934309, 38.401434, 2065.6], [-119.934187, 38.401502, 2065.7], [-119.934181, 38.401504, 2065.1], [-119.934113, 38.401576, 2064.4], [-119.934041, 38.401611, 2065.1], [-119.933999, 38.401657, 2065.7], [-119.933985, 38.401679, 2066.4], [-119.93395, 38.401714, 2065.4], [-119.933948, 38.401786, 2069.3], [-119.933888, 38.401825, 2068.0], [-119.933853, 38.401872, 2071.4], [-119.933804, 38.401902, 2072.7], [-119.933784, 38.401947, 2071.1], [-119.933741, 38.401974, 2068.1], [-119.933729, 38.402004, 2068.4], [-119.933693, 38.402047, 2068.7], [-119.933687, 38.402069, 2068.8], [-119.933699, 38.402124, 2068.3], [-119.933701, 38.402158, 2070.5], [-119.933688, 38.402178, 2071.6], [-119.933618, 38.402211, 2070.5], [-119.933564, 38.402271, 2071.1], [-119.933532, 38.402293, 2070.8], [-119.933482, 38.402382, 2068.9], [-119.933474, 38.402406, 2069.3], [-119.933483, 38.402433, 2069.7], [-119.933464, 38.402498, 2069.9], [-119.933435, 38.402539, 2068.4], [-119.933431, 38.40256, 2068.5], [-119.933446, 38.402597, 2068.0], [-119.933453, 38.402673, 2069.6], [-119.933407, 38.402741, 2070.3], [-119.933343, 38.40282, 2071.3], [-119.933249, 38.402837, 2073.3], [-119.933201, 38.40284, 2072.7], [-119.933167, 38.40287, 2073.4], [-119.933153, 38.40296, 2073.4], [-119.933127, 38.402992, 2070.3], [-119.933079, 38.403019, 2071.9], [-119.933048, 38.403026, 2072.0], [-119.933026, 38.40301, 2065.7], [-119.932946, 38.403016, 2069.8], [-119.932889, 38.403023, 2071.1], [-119.932746, 38.403083, 2072.3], [-119.932695, 38.403102, 2072.3], [-119.932582, 38.403176, 2071.6], [-119.932574, 38.403187, 2070.7], [-119.932488, 38.403232, 2070.1], [-119.932461, 38.403273, 2070.8], [-119.932394, 38.403305, 2070.5], [-119.932275, 38.403355, 2069.7], [-119.932253, 38.403417, 2069.8], [-119.932222, 38.403481, 2068.4], [-119.932202, 38.403585, 2069.4], [-119.932203, 38.403642, 2070.5], [-119.932158, 38.403739, 2070.8], [-119.932121, 38.403823, 2070.4], [-119.932134, 38.403924, 2069.8], [-119.932139, 38.403934, 2070.5], [-119.932214, 38.404033, 2068.5], [-119.932221, 38.404096, 2067.1], [-119.932235, 38.404129, 2067.0], [-119.932295, 38.404129, 2065.0], [-119.932338, 38.404221, 2064.0], [-119.932373, 38.404277, 2063.1], [-119.932472, 38.404368, 2063.6], [-119.932483, 38.404368, 2062.1], [-119.932515, 38.404385, 2062.6], [-119.932531, 38.404407, 2062.1], [-119.932632, 38.404441, 2062.2], [-119.932662, 38.404469, 2062.4], [-119.93273, 38.404526, 2063.2], [-119.932751, 38.404582, 2061.8], [-119.93278, 38.404609, 2064.1], [-119.932789, 38.404613, 2063.8], [-119.932853, 38.404625, 2065.5], [-119.932878, 38.40464, 2065.8], [-119.932894, 38.404713, 2065.7], [-119.93293, 38.404716, 2071.5], [-119.932935, 38.404721, 2072.6], [-119.932998, 38.404735, 2073.0], [-119.933135, 38.404786, 2074.7], [-119.933213, 38.404801, 2073.3], [-119.933327, 38.404841, 2073.4], [-119.933381, 38.404843, 2072.3], [-119.933596, 38.404884, 2075.0], [-119.93361, 38.404886, 2075.6], [-119.933687, 38.404918, 2075.5], [-119.933717, 38.40492, 2075.2], [-119.93381, 38.404888, 2074.8], [-119.933933, 38.404869, 2076.6], [-119.93402, 38.404825, 2074.6], [-119.934105, 38.404813, 2072.0], [-119.934183, 38.404818, 2072.0], [-119.934208, 38.404823, 2071.4], [-119.934237, 38.404854, 2071.4], [-119.934357, 38.404913, 2075.2], [-119.934593, 38.404957, 2081.1], [-119.934643, 38.405004, 2080.8], [-119.934653, 38.40501, 2080.0], [-119.934734, 38.405029, 2078.2], [-119.934855, 38.40501, 2079.5], [-119.934864, 38.405012, 2079.1], [-119.934917, 38.405045, 2079.3], [-119.93491, 38.405089, 2077.6], [-119.934887, 38.40514, 2077.3], [-119.934887, 38.405154, 2077.9], [-119.934941, 38.405178, 2075.1], [-119.93493, 38.405268, 2073.0], [-119.934908, 38.405307, 2072.2], [-119.934904, 38.40532, 2071.0], [-119.934907, 38.405376, 2071.6], [-119.934941, 38.405374, 2060.8], [-119.934939, 38.405398, 2065.1], [-119.935021, 38.40544, 2068.6], [-119.935032, 38.405442, 2070.6], [-119.935114, 38.405479, 2072.2], [-119.935173, 38.405538, 2069.4], [-119.93522, 38.405574, 2069.9], [-119.935222, 38.405691, 2069.9], [-119.935216, 38.405703, 2069.4], [-119.935212, 38.40568, 2069.8], [-119.935247, 38.405614, 2071.2], [-119.935291, 38.405584, 2071.7], [-119.935299, 38.405556, 2074.4], [-119.935307, 38.405569, 2072.0], [-119.935338, 38.405572, 2073.2], [-119.935368, 38.40556, 2074.1], [-119.935425, 38.405504, 2070.8], [-119.935459, 38.405495, 2071.3], [-119.935464, 38.4055, 2071.2], [-119.935435, 38.405523, 2069.3], [-119.935457, 38.405529, 2069.7], [-119.935581, 38.405487, 2068.1], [-119.935544, 38.405482, 2069.4], [-119.935686, 38.405468, 2074.9], [-119.935783, 38.405499, 2072.6], [-119.935831, 38.405539, 2072.3], [-119.935853, 38.405575, 2073.1], [-119.935821, 38.405654, 2071.3], [-119.93579, 38.405688, 2071.8], [-119.935774, 38.405725, 2071.8], [-119.935725, 38.40579, 2067.8], [-119.935706, 38.405889, 2070.1], [-119.935678, 38.40595, 2070.5], [-119.935675, 38.406059, 2071.0], [-119.935667, 38.406075, 2071.3], [-119.935659, 38.406111, 2070.4], [-119.93568, 38.406175, 2068.8], [-119.93566, 38.406225, 2069.3], [-119.935651, 38.406235, 2069.0], [-119.935604, 38.406254, 2066.9], [-119.935528, 38.406232, 2066.4], [-119.935468, 38.406235, 2066.1], [-119.935433, 38.406214, 2066.1], [-119.935431, 38.406207, 2066.9], [-119.935408, 38.406222, 2070.9], [-119.935402, 38.406248, 2070.5], [-119.935334, 38.406344, 2069.6], [-119.935292, 38.40637, 2068.9], [-119.935251, 38.406426, 2069.6], [-119.935153, 38.406425, 2068.6], [-119.935147, 38.406429, 2068.7], [-119.935084, 38.406542, 2069.4], [-119.935061, 38.406562, 2069.0], [-119.935001, 38.406579, 2067.7], [-119.935025, 38.406577, 2067.1], [-119.935079, 38.406595, 2070.0], [-119.935117, 38.406571, 2069.2], [-119.935181, 38.406571, 2069.5], [-119.935195, 38.406573, 2069.9], [-119.935229, 38.406566, 2070.5], [-119.935274, 38.406529, 2069.6], [-119.935323, 38.406525, 2068.8], [-119.935332, 38.406495, 2068.3], [-119.935312, 38.406444, 2069.6], [-119.935302, 38.406346, 2071.4], [-119.935315, 38.40629, 2070.7], [-119.935351, 38.406244, 2071.5], [-119.935362, 38.406203, 2071.5], [-119.935385, 38.40619, 2068.2], [-119.935411, 38.406197, 2067.9], [-119.935445, 38.406214, 2066.6], [-119.935531, 38.406245, 2067.2], [-119.935561, 38.406265, 2065.7], [-119.935582, 38.406295, 2065.6], [-119.935577, 38.406378, 2063.6], [-119.935588, 38.406437, 2064.4], [-119.93562, 38.406515, 2066.2], [-119.935614, 38.40658, 2066.9], [-119.935622, 38.406615, 2064.5], [-119.935572, 38.406632, 2070.9], [-119.935565, 38.406609, 2071.7], [-119.935572, 38.406561, 2073.5], [-119.935586, 38.406523, 2071.9], [-119.935578, 38.406456, 2072.0], [-119.935551, 38.406383, 2072.6], [-119.935543, 38.406353, 2073.2], [-119.935547, 38.406293, 2073.5], [-119.935557, 38.406272, 2073.2], [-119.935588, 38.40625, 2072.3], [-119.935629, 38.406187, 2073.8], [-119.935606, 38.406122, 2073.9], [-119.935625, 38.406056, 2071.3], [-119.935631, 38.405984, 2070.0], [-119.935645, 38.405959, 2069.9], [-119.935692, 38.405926, 2069.2], [-119.935697, 38.40588, 2068.8], [-119.935708, 38.405821, 2067.5], [-119.935722, 38.405797, 2067.7], [-119.935763, 38.405774, 2069.2], [-119.935807, 38.405724, 2068.0], [-119.935838, 38.405684, 2070.5], [-119.935829, 38.405661, 2071.4], [-119.935795, 38.40561, 2071.7], [-119.935733, 38.405555, 2072.9], [-119.935657, 38.405499, 2072.8], [-119.935589, 38.405507, 2072.0], [-119.935545, 38.405494, 2073.7], [-119.935483, 38.40551, 2073.6], [-119.935418, 38.405513, 2074.3], [-119.935351, 38.405536, 2075.8], [-119.935334, 38.405539, 2075.7], [-119.935168, 38.405539, 2074.1], [-119.935131, 38.405522, 2074.3], [-119.935126, 38.405514, 2074.1], [-119.935095, 38.405493, 2075.0], [-119.934934, 38.405446, 2073.6], [-119.934888, 38.405436, 2073.5], [-119.934875, 38.405423, 2073.5], [-119.934867, 38.405378, 2073.9], [-119.934872, 38.405342, 2074.6], [-119.934849, 38.405295, 2074.4], [-119.934815, 38.405269, 2073.4], [-119.934787, 38.405261, 2075.3], [-119.934794, 38.40519, 2076.6], [-119.934776, 38.405167, 2078.4], [-119.934814, 38.405145, 2076.6], [-119.934866, 38.40511, 2075.8], [-119.934899, 38.405067, 2075.9], [-119.934858, 38.405041, 2078.5], [-119.934807, 38.405033, 2078.5], [-119.934727, 38.405046, 2078.1], [-119.934565, 38.404962, 2080.4], [-119.93448, 38.404947, 2082.4], [-119.934405, 38.404946, 2083.8], [-119.934345, 38.404932, 2085.6], [-119.934244, 38.404881, 2086.8], [-119.934171, 38.404868, 2089.3], [-119.934131, 38.404846, 2087.0], [-119.933998, 38.404848, 2086.5], [-119.933942, 38.404861, 2085.6], [-119.933821, 38.40487, 2087.5], [-119.933732, 38.404901, 2088.0], [-119.933681, 38.404902, 2087.2], [-119.933544, 38.404855, 2088.0], [-119.933528, 38.404854, 2087.3], [-119.93331, 38.404858, 2086.8], [-119.933281, 38.404863, 2084.7], [-119.933257, 38.40486, 2084.1], [-119.93302, 38.404732, 2078.5], [-119.932926, 38.404698, 2075.2], [-119.932892, 38.404638, 2073.4], [-119.932815, 38.404604, 2072.7], [-119.932676, 38.404475, 2074.1], [-119.932557, 38.404394, 2073.7], [-119.932476, 38.404358, 2072.2], [-119.932419, 38.404304, 2071.2], [-119.932365, 38.404226, 2069.5], [-119.932238, 38.404052, 2072.5], [-119.932173, 38.404016, 2071.4], [-119.932105, 38.403912, 2069.8], [-119.932098, 38.403898, 2069.7], [-119.932084, 38.403837, 2070.7], [-119.932127, 38.403657, 2069.9], [-119.932158, 38.403604, 2069.8], [-119.932162, 38.403548, 2070.9], [-119.932189, 38.403422, 2072.2], [-119.93222, 38.403353, 2072.0], [-119.93235, 38.403274, 2069.4], [-119.932414, 38.403273, 2065.7], [-119.932541, 38.40323, 2062.9], [-119.932617, 38.403175, 2061.8], [-119.93275, 38.403081, 2061.3], [-119.932938, 38.402973, 2065.1], [-119.93309, 38.402894, 2067.3], [-119.933147, 38.402833, 2067.6], [-119.933204, 38.402789, 2067.4], [-119.933252, 38.402781, 2068.4], [-119.93334, 38.40274, 2069.5], [-119.933349, 38.402729, 2069.9], [-119.933408, 38.40264, 2070.1], [-119.93341, 38.402612, 2069.5], [-119.933382, 38.402571, 2069.8], [-119.933369, 38.402541, 2069.3], [-119.933374, 38.402523, 2068.6], [-119.933436, 38.402434, 2070.0], [-119.933475, 38.402362, 2068.5], [-119.933553, 38.402335, 2067.9], [-119.933573, 38.402311, 2067.6], [-119.933569, 38.402299, 2068.2], [-119.933542, 38.402257, 2067.6], [-119.933541, 38.402226, 2067.8], [-119.933555, 38.402192, 2068.1], [-119.933608, 38.40217, 2067.5], [-119.933659, 38.402136, 2066.6], [-119.933657, 38.402049, 2065.9], [-119.933659, 38.402035, 2066.8], [-119.933709, 38.401947, 2067.1], [-119.933773, 38.401903, 2066.7], [-119.933841, 38.401819, 2066.3], [-119.933875, 38.40176, 2066.4], [-119.933917, 38.401719, 2067.9], [-119.933925, 38.401694, 2068.8], [-119.933919, 38.401633, 2070.0], [-119.93394, 38.401612, 2069.0], [-119.934013, 38.401578, 2068.9], [-119.934093, 38.401519, 2068.1], [-119.934201, 38.40145, 2067.7], [-119.934265, 38.401391, 2067.2], [-119.934317, 38.401307, 2065.7], [-119.934379, 38.401258, 2064.9], [-119.934441, 38.401211, 2064.6], [-119.934501, 38.401142, 2064.2], [-119.934509, 38.401128, 2065.4], [-119.934558, 38.401022, 2064.5], [-119.934574, 38.400961, 2064.4], [-119.934574, 38.400944, 2064.6], [-119.934589, 38.400861, 2065.2], [-119.934566, 38.400777, 2064.9], [-119.93456, 38.400761, 2064.6], [-119.934556, 38.400718, 2063.2], [-119.934582, 38.400648, 2063.3], [-119.934613, 38.400604, 2063.8], [-119.934628, 38.400487, 2066.0], [-119.9346, 38.400482, 2065.6], [-119.934597, 38.400451, 2066.0], [-119.934607, 38.400391, 2063.8], [-119.93471, 38.400282, 2061.9], [-119.93478, 38.400211, 2061.9], [-119.934789, 38.400134, 2063.7], [-119.934798, 38.400077, 2063.2], [-119.934856, 38.399974, 2064.5], [-119.934878, 38.399895, 2065.2], [-119.934867, 38.399863, 2064.3], [-119.934836, 38.399825, 2063.5], [-119.934832, 38.399811, 2063.9], [-119.934852, 38.399726, 2065.5], [-119.934838, 38.399668, 2065.3], [-119.934834, 38.399595, 2066.0], [-119.934847, 38.3995, 2066.7], [-119.934843, 38.399485, 2066.1], [-119.934816, 38.399433, 2065.9], [-119.934886, 38.399259, 2064.2], [-119.934947, 38.399191, 2061.2], [-119.934956, 38.399176, 2060.8], [-119.935003, 38.39908, 2059.8], [-119.935014, 38.399018, 2058.4], [-119.935004, 38.398862, 2059.4], [-119.935005, 38.398851, 2059.4], [-119.935063, 38.398781, 2055.2], [-119.935039, 38.398703, 2054.1], [-119.935032, 38.39869, 2054.0], [-119.935007, 38.398624, 2054.3], [-119.93498, 38.398602, 2055.9], [-119.934908, 38.398577, 2055.7], [-119.934849, 38.398566, 2056.4], [-119.934724, 38.39859, 2054.8], [-119.93467, 38.398577, 2054.1], [-119.934573, 38.398531, 2054.0], [-119.934507, 38.398456, 2051.9], [-119.934465, 38.398404, 2050.8], [-119.934432, 38.398384, 2051.2], [-119.93439, 38.398336, 2052.1], [-119.934376, 38.398294, 2052.5], [-119.9343, 38.398244, 2051.7], [-119.934267, 38.398199, 2053.7], [-119.934239, 38.398135, 2053.6], [-119.934151, 38.398064, 2052.0], [-119.934063, 38.398022, 2054.0], [-119.934038, 38.397988, 2054.1], [-119.934017, 38.397934, 2054.5], [-119.934009, 38.397902, 2053.8], [-119.93401, 38.39776, 2051.0], [-119.933998, 38.397593, 2051.1], [-119.934006, 38.397544, 2051.8], [-119.934073, 38.397475, 2052.7], [-119.934089, 38.397404, 2051.0], [-119.934116, 38.397305, 2051.3], [-119.93411, 38.397248, 2050.1], [-119.934111, 38.397209, 2050.8], [-119.934126, 38.397172, 2051.6], [-119.934194, 38.397109, 2049.7], [-119.934209, 38.397102, 2050.0], [-119.934257, 38.397094, 2051.1], [-119.934345, 38.397127, 2051.8], [-119.934374, 38.397083, 2049.8], [-119.934404, 38.397012, 2049.4], [-119.934426, 38.397032, 2051.1], [-119.934435, 38.396989, 2053.9], [-119.934423, 38.396969, 2055.3], [-119.934444, 38.396923, 2057.4], [-119.934443, 38.39689, 2057.9], [-119.93443, 38.396876, 2057.4], [-119.934353, 38.396866, 2055.7], [-119.934325, 38.396821, 2056.8], [-119.934321, 38.39681, 2056.9], [-119.93425, 38.396706, 2057.4], [-119.934197, 38.396665, 2057.0], [-119.934187, 38.396661, 2057.0], [-119.933993, 38.396569, 2057.9], [-119.933981, 38.396561, 2057.3], [-119.933771, 38.39649, 2058.7], [-119.933719, 38.396461, 2059.3], [-119.93369, 38.396424, 2060.3], [-119.933594, 38.39635, 2062.8], [-119.933555, 38.396333, 2062.6], [-119.933464, 38.396244, 2065.1], [-119.933452, 38.396199, 2065.2], [-119.933454, 38.396153, 2064.0], [-119.93347, 38.396137, 2063.1], [-119.933516, 38.396125, 2062.5], [-119.933558, 38.396085, 2063.2], [-119.933563, 38.396057, 2063.8], [-119.933652, 38.396, 2064.0], [-119.933681, 38.39595, 2063.2], [-119.933732, 38.395892, 2065.8], [-119.933771, 38.395772, 2069.0], [-119.933816, 38.395691, 2070.4], [-119.933912, 38.395621, 2071.5], [-119.933922, 38.39561, 2070.9], [-119.933957, 38.395535, 2072.2], [-119.93394, 38.395511, 2073.8], [-119.933911, 38.395493, 2074.2], [-119.93389, 38.395497, 2074.4], [-119.933824, 38.395518, 2072.1], [-119.933748, 38.395517, 2071.7], [-119.933672, 38.395544, 2072.1], [-119.933463, 38.395648, 2073.3], [-119.933365, 38.395699, 2074.0], [-119.933334, 38.395706, 2075.0], [-119.933255, 38.395692, 2077.3], [-119.933211, 38.395682, 2078.0], [-119.933035, 38.39569, 2081.0], [-119.933018, 38.395689, 2081.0], [-119.932979, 38.395664, 2080.8], [-119.932957, 38.395619, 2081.9], [-119.932881, 38.395539, 2084.4], [-119.932882, 38.395531, 2085.3], [-119.932848, 38.395461, 2084.1], [-119.932785, 38.395374, 2086.8], [-119.932776, 38.395366, 2087.4], [-119.932747, 38.395324, 2085.5], [-119.932639, 38.395217, 2086.4], [-119.932619, 38.395171, 2087.7], [-119.932616, 38.395092, 2087.5], [-119.932617, 38.395072, 2087.6], [-119.932645, 38.395042, 2087.3], [-119.93265, 38.395011, 2087.4], [-119.93262, 38.394966, 2087.8], [-119.93257, 38.394936, 2088.4], [-119.932558, 38.394894, 2088.7], [-119.932528, 38.394801, 2091.0], [-119.932504, 38.394782, 2090.9], [-119.932506, 38.394763, 2090.0], [-119.932473, 38.394715, 2090.5], [-119.932429, 38.394633, 2090.6], [-119.932389, 38.394519, 2090.6], [-119.932387, 38.394504, 2090.4], [-119.932365, 38.394415, 2091.0], [-119.932322, 38.394335, 2092.2], [-119.932278, 38.394219, 2092.9], [-119.932246, 38.394175, 2092.1], [-119.932245, 38.394151, 2092.3], [-119.932199, 38.394127, 2092.6], [-119.932167, 38.394091, 2094.2], [-119.932144, 38.394013, 2094.1], [-119.932138, 38.394002, 2094.3], [-119.93211, 38.393976, 2095.6], [-119.932081, 38.393975, 2095.9], [-119.932056, 38.39399, 2095.4], [-119.932018, 38.394042, 2095.0], [-119.931987, 38.394066, 2095.1], [-119.931974, 38.394071, 2095.8], [-119.931838, 38.394082, 2096.4], [-119.931744, 38.394122, 2095.9], [-119.931701, 38.39413, 2096.4], [-119.931665, 38.394159, 2097.5], [-119.931619, 38.394165, 2097.5], [-119.93155, 38.394201, 2098.1], [-119.931513, 38.394213, 2098.2], [-119.931361, 38.394225, 2097.9], [-119.931189, 38.394232, 2099.3], [-119.931118, 38.394215, 2099.7], [-119.931028, 38.39418, 2100.2], [-119.93096, 38.39414, 2099.6], [-119.930935, 38.394106, 2100.5], [-119.930902, 38.394091, 2101.0], [-119.930844, 38.394076, 2102.7], [-119.930818, 38.39408, 2102.5], [-119.930727, 38.394052, 2102.1], [-119.930694, 38.394021, 2104.0], [-119.930631, 38.394004, 2106.4], [-119.930593, 38.393964, 2106.8], [-119.930536, 38.393936, 2108.0], [-119.93039, 38.39392, 2110.0], [-119.930326, 38.393937, 2111.6], [-119.930273, 38.39396, 2111.7], [-119.930226, 38.394013, 2111.9], [-119.930195, 38.394024, 2112.6], [-119.930129, 38.394005, 2113.6], [-119.930121, 38.394005, 2113.6], [-119.930059, 38.393983, 2115.1], [-119.929976, 38.393979, 2116.0], [-119.929911, 38.393963, 2118.5], [-119.929897, 38.393964, 2117.8], [-119.92983, 38.393982, 2118.4], [-119.929772, 38.394021, 2119.2], [-119.929701, 38.394038, 2121.3], [-119.929623, 38.394087, 2121.0], [-119.929513, 38.39412, 2120.8], [-119.929505, 38.394126, 2120.6], [-119.929438, 38.394118, 2122.0], [-119.929411, 38.394125, 2122.2], [-119.929301, 38.394192, 2119.5], [-119.92926, 38.394259, 2120.6], [-119.929209, 38.394289, 2120.6], [-119.929161, 38.394364, 2121.2], [-119.929009, 38.394489, 2121.1], [-119.928998, 38.3945, 2121.5], [-119.928932, 38.394601, 2123.0], [-119.928881, 38.39465, 2122.6], [-119.928726, 38.394767, 2125.3], [-119.928614, 38.394818, 2128.1], [-119.928553, 38.394881, 2128.4], [-119.928463, 38.394939, 2128.6], [-119.928469, 38.394919, 2132.5], [-119.928519, 38.394882, 2134.4], [-119.928524, 38.394874, 2134.4], [-119.928544, 38.394776, 2137.2], [-119.92854, 38.394697, 2139.9], [-119.928575, 38.394584, 2138.4], [-119.928579, 38.394527, 2140.1], [-119.928594, 38.394501, 2141.2], [-119.928589, 38.394366, 2144.3], [-119.928585, 38.394354, 2144.2], [-119.92852, 38.394285, 2145.4], [-119.928459, 38.394238, 2147.4], [-119.928437, 38.394194, 2146.8], [-119.928426, 38.394134, 2146.6], [-119.92843, 38.394115, 2147.0], [-119.928487, 38.394022, 2149.6], [-119.928504, 38.393956, 2151.0], [-119.928496, 38.393839, 2151.5], [-119.928494, 38.393828, 2150.2], [-119.928475, 38.393797, 2151.6], [-119.92852, 38.393645, 2154.2], [-119.928525, 38.393635, 2154.2], [-119.928535, 38.393585, 2153.9], [-119.928593, 38.393513, 2154.5], [-119.928602, 38.393472, 2154.3], [-119.928633, 38.393311, 2153.9], [-119.92863, 38.393299, 2154.1], [-119.928586, 38.393196, 2154.9], [-119.928588, 38.39317, 2154.6], [-119.928634, 38.393135, 2156.8], [-119.928697, 38.393106, 2157.6], [-119.928722, 38.393048, 2158.4], [-119.928758, 38.393007, 2159.0], [-119.928816, 38.392824, 2158.5], [-119.928846, 38.392622, 2160.6], [-119.928847, 38.392566, 2160.8], [-119.928876, 38.392481, 2161.1], [-119.928872, 38.392444, 2161.9], [-119.928835, 38.392355, 2164.1], [-119.928822, 38.392279, 2164.1], [-119.928845, 38.392229, 2163.5], [-119.928892, 38.392172, 2163.6], [-119.928916, 38.392118, 2164.1], [-119.928915, 38.392106, 2164.3], [-119.928867, 38.392057, 2163.4], [-119.928862, 38.392033, 2163.8], [-119.928897, 38.391996, 2163.7], [-119.928922, 38.391945, 2164.9], [-119.928905, 38.391906, 2165.2], [-119.928906, 38.391884, 2165.4], [-119.928927, 38.39187, 2165.3], [-119.929042, 38.391859, 2165.2], [-119.929052, 38.391862, 2164.6], [-119.929196, 38.391873, 2166.1], [-119.929217, 38.391853, 2166.3], [-119.929214, 38.391814, 2166.3], [-119.92921, 38.391804, 2166.2], [-119.929208, 38.391701, 2166.7], [-119.929215, 38.39168, 2167.2], [-119.929264, 38.39164, 2165.5], [-119.929271, 38.391629, 2165.6], [-119.929263, 38.391579, 2166.5], [-119.929219, 38.391513, 2166.5], [-119.929198, 38.391462, 2166.3], [-119.929197, 38.391453, 2166.5], [-119.929165, 38.391353, 2167.1], [-119.929167, 38.391276, 2169.3], [-119.929179, 38.391223, 2169.3], [-119.929171, 38.391199, 2169.6], [-119.929135, 38.391162, 2170.0], [-119.929125, 38.391137, 2171.0], [-119.929138, 38.391087, 2171.9], [-119.929156, 38.391028, 2171.1], [-119.929186, 38.390989, 2171.3], [-119.929217, 38.390913, 2172.2], [-119.929228, 38.390869, 2172.1], [-119.929253, 38.390836, 2172.3], [-119.929254, 38.39081, 2172.7], [-119.929228, 38.390732, 2174.4], [-119.929201, 38.390641, 2177.4], [-119.929197, 38.390592, 2177.9], [-119.929207, 38.390573, 2178.6], [-119.929199, 38.39053, 2179.0], [-119.929211, 38.390449, 2179.9], [-119.929262, 38.390355, 2181.5], [-119.929238, 38.390249, 2182.8], [-119.92924, 38.390222, 2183.6], [-119.92922, 38.390196, 2183.3], [-119.929161, 38.390183, 2182.5], [-119.929136, 38.390165, 2181.4], [-119.929143, 38.390093, 2181.9], [-119.929128, 38.390034, 2182.1], [-119.929121, 38.390026, 2181.9], [-119.929024, 38.389966, 2183.5], [-119.928977, 38.389912, 2183.2], [-119.928877, 38.389842, 2185.4], [-119.928857, 38.389801, 2188.6], [-119.928874, 38.389761, 2190.3], [-119.928872, 38.389728, 2191.4], [-119.928812, 38.389584, 2195.1], [-119.928817, 38.389531, 2195.9], [-119.928858, 38.389445, 2195.2], [-119.928891, 38.389403, 2195.3], [-119.928907, 38.389371, 2195.0], [-119.928898, 38.38929, 2197.0], [-119.92888, 38.38924, 2198.9], [-119.928882, 38.389238, 2198.8], [-119.928862, 38.389188, 2199.8], [-119.928861, 38.38917, 2200.2], [-119.928884, 38.389127, 2200.8], [-119.928874, 38.389073, 2201.6], [-119.92888, 38.389015, 2202.9], [-119.928894, 38.388977, 2202.6], [-119.928872, 38.388902, 2201.7], [-119.928863, 38.388896, 2202.6], [-119.928863, 38.388872, 2202.1], [-119.928885, 38.388852, 2200.9], [-119.928777, 38.388841, 2203.6], [-119.928693, 38.388808, 2203.9], [-119.928635, 38.388761, 2203.0], [-119.928616, 38.38873, 2202.8], [-119.928614, 38.38872, 2203.1], [-119.928639, 38.388672, 2202.4], [-119.928619, 38.388627, 2201.7], [-119.928611, 38.388547, 2203.9], [-119.92856, 38.388515, 2207.7], [-119.928443, 38.388508, 2208.8], [-119.928401, 38.388526, 2208.3], [-119.928225, 38.388519, 2213.9], [-119.928199, 38.388538, 2213.8], [-119.928164, 38.388525, 2214.1], [-119.928109, 38.38847, 2215.6], [-119.9281, 38.388427, 2216.2], [-119.928061, 38.388395, 2215.0], [-119.928011, 38.388321, 2215.7], [-119.928025, 38.388208, 2216.4], [-119.928033, 38.388087, 2219.9], [-119.92807, 38.388019, 2218.3], [-119.928081, 38.387988, 2218.5], [-119.928087, 38.387866, 2219.7], [-119.928076, 38.387831, 2220.1], [-119.928068, 38.387822, 2220.3], [-119.928042, 38.387762, 2218.9], [-119.928083, 38.387705, 2219.5], [-119.928074, 38.38765, 2221.2], [-119.928056, 38.387597, 2222.7], [-119.928076, 38.387532, 2223.9], [-119.928054, 38.387474, 2224.5], [-119.928046, 38.387417, 2226.0], [-119.928024, 38.387376, 2225.8], [-119.928018, 38.387299, 2229.2], [-119.928015, 38.387293, 2229.3], [-119.928006, 38.387216, 2228.9], [-119.927996, 38.387193, 2228.9], [-119.927964, 38.387163, 2229.4], [-119.927951, 38.387131, 2229.1], [-119.927911, 38.387005, 2229.7], [-119.92788, 38.386947, 2230.1], [-119.927811, 38.386795, 2232.0], [-119.927839, 38.386601, 2233.1], [-119.927835, 38.386518, 2233.0], [-119.92782, 38.38645, 2234.3], [-119.927796, 38.386407, 2234.6], [-119.927703, 38.386329, 2235.8], [-119.927606, 38.386278, 2236.8], [-119.92754, 38.386225, 2239.1], [-119.927431, 38.386171, 2239.2], [-119.927426, 38.38616, 2239.0], [-119.927418, 38.386107, 2239.9], [-119.927387, 38.386069, 2239.4], [-119.927273, 38.386032, 2236.3], [-119.927211, 38.386007, 2237.2], [-119.927191, 38.385988, 2237.5], [-119.927169, 38.385929, 2236.1], [-119.927169, 38.385885, 2237.6], [-119.927163, 38.385751, 2235.9], [-119.927167, 38.385701, 2233.5], [-119.927152, 38.385646, 2233.6], [-119.927147, 38.385573, 2232.9], [-119.927116, 38.385428, 2231.6], [-119.927109, 38.385354, 2231.8], [-119.927093, 38.385315, 2233.0], [-119.927091, 38.385244, 2233.2], [-119.927076, 38.38516, 2234.6], [-119.927103, 38.385063, 2235.7], [-119.9271, 38.385056, 2235.2], [-119.927065, 38.385018, 2236.3], [-119.927018, 38.384942, 2237.2], [-119.927023, 38.384898, 2239.1], [-119.927004, 38.384766, 2238.6], [-119.926972, 38.384715, 2236.3], [-119.926968, 38.384704, 2236.8], [-119.926913, 38.384617, 2239.0], [-119.926893, 38.384541, 2239.7], [-119.926901, 38.38445, 2243.0], [-119.926891, 38.384392, 2241.9], [-119.926891, 38.384376, 2241.6], [-119.926901, 38.384312, 2244.1], [-119.92689, 38.384271, 2245.2], [-119.926899, 38.384192, 2245.3], [-119.926879, 38.384051, 2243.9], [-119.926899, 38.384012, 2243.7], [-119.926915, 38.383867, 2247.5], [-119.926906, 38.383816, 2245.4], [-119.92691, 38.383785, 2245.2], [-119.926941, 38.383723, 2242.1], [-119.926946, 38.383678, 2239.4], [-119.926985, 38.383638, 2236.7], [-119.927022, 38.383575, 2235.9], [-119.927022, 38.383536, 2234.7], [-119.927056, 38.383478, 2234.9], [-119.92708, 38.383459, 2233.6], [-119.92709, 38.383414, 2230.8], [-119.92708, 38.383329, 2229.2], [-119.927093, 38.38329, 2230.3], [-119.927106, 38.383201, 2230.3], [-119.927077, 38.38313, 2229.9], [-119.927012, 38.383053, 2230.9], [-119.926948, 38.383011, 2234.4], [-119.926936, 38.382968, 2234.9], [-119.926942, 38.382888, 2235.2], [-119.926995, 38.382789, 2233.7], [-119.927032, 38.382723, 2233.9], [-119.927056, 38.382608, 2235.2], [-119.927055, 38.382595, 2235.1], [-119.927022, 38.382533, 2238.2], [-119.927011, 38.382431, 2239.1], [-119.927005, 38.382419, 2239.1], [-119.926906, 38.382295, 2237.5], [-119.926843, 38.382142, 2236.7], [-119.926835, 38.382131, 2236.8], [-119.926753, 38.38205, 2238.8], [-119.926678, 38.382, 2239.2], [-119.926487, 38.38194, 2243.1], [-119.926475, 38.381935, 2243.1], [-119.926402, 38.381923, 2242.6], [-119.926376, 38.381938, 2241.8], [-119.926259, 38.381958, 2239.8], [-119.926201, 38.381979, 2239.7], [-119.926127, 38.381946, 2239.4], [-119.926056, 38.381963, 2238.2], [-119.925962, 38.381956, 2238.6], [-119.925908, 38.381968, 2238.4], [-119.92584, 38.381958, 2238.4], [-119.925758, 38.381958, 2239.1], [-119.925674, 38.381977, 2238.3], [-119.925609, 38.381962, 2236.4], [-119.925559, 38.381973, 2234.8], [-119.925463, 38.381971, 2233.9], [-119.92539, 38.381943, 2231.6], [-119.925357, 38.381898, 2227.0], [-119.925354, 38.381838, 2225.6], [-119.925311, 38.381799, 2224.4], [-119.925282, 38.381742, 2222.4], [-119.925136, 38.381677, 2222.8], [-119.925032, 38.381597, 2219.5], [-119.924988, 38.381538, 2217.8], [-119.924853, 38.381382, 2216.9], [-119.924834, 38.381354, 2217.0], [-119.924752, 38.381285, 2216.7], [-119.924709, 38.381232, 2216.2], [-119.924625, 38.381147, 2216.4], [-119.924553, 38.381032, 2220.1], [-119.924471, 38.380954, 2217.2], [-119.924451, 38.380919, 2216.7], [-119.924429, 38.380872, 2216.0], [-119.924398, 38.380745, 2216.7], [-119.924398, 38.380733, 2217.0], [-119.924419, 38.380698, 2214.9], [-119.924417, 38.380653, 2212.8], [-119.924446, 38.380615, 2213.0], [-119.924497, 38.38058, 2210.4], [-119.924538, 38.380522, 2210.1], [-119.924541, 38.3805, 2210.6], [-119.924516, 38.380424, 2209.5], [-119.924517, 38.380418, 2209.5], [-119.924497, 38.380398, 2207.0], [-119.924477, 38.38035, 2206.3], [-119.924606, 38.380338, 2208.4], [-119.924696, 38.380412, 2206.4], [-119.924757, 38.380483, 2207.8], [-119.924762, 38.380496, 2207.5], [-119.924794, 38.380517, 2207.3], [-119.924851, 38.380528, 2206.7], [-119.924975, 38.380503, 2203.9], [-119.924993, 38.380501, 2203.0], [-119.925032, 38.380483, 2202.5], [-119.925152, 38.380382, 2198.8], [-119.92516, 38.380372, 2198.6], [-119.925243, 38.380242, 2195.9], [-119.92525, 38.380229, 2195.8], [-119.925322, 38.380133, 2194.2], [-119.925337, 38.380092, 2192.9], [-119.925357, 38.379951, 2192.3], [-119.925376, 38.379905, 2190.7], [-119.925374, 38.379869, 2190.4], [-119.925422, 38.379742, 2187.6], [-119.925433, 38.379684, 2187.9], [-119.925419, 38.379557, 2185.5], [-119.925392, 38.379417, 2182.9], [-119.925373, 38.379393, 2182.0], [-119.925365, 38.379331, 2179.2], [-119.925375, 38.379284, 2178.4], [-119.925359, 38.379235, 2176.3], [-119.925347, 38.379188, 2175.7], [-119.925321, 38.379153, 2174.1], [-119.92527, 38.379126, 2172.9], [-119.925217, 38.379128, 2173.2], [-119.925172, 38.379119, 2173.6], [-119.925156, 38.379099, 2173.6], [-119.925173, 38.379011, 2172.7], [-119.925161, 38.378983, 2173.6], [-119.925113, 38.378937, 2173.1], [-119.925073, 38.378856, 2170.6], [-119.925038, 38.378821, 2170.3], [-119.924929, 38.378674, 2169.5], [-119.924923, 38.378664, 2169.8], [-119.924917, 38.378631, 2168.8], [-119.924936, 38.378595, 2169.4], [-119.924953, 38.378496, 2168.2], [-119.924958, 38.378489, 2167.7], [-119.925017, 38.378438, 2169.1], [-119.925076, 38.378346, 2167.0], [-119.925084, 38.378341, 2166.6], [-119.925199, 38.378231, 2162.4], [-119.925213, 38.378221, 2162.1], [-119.925265, 38.378207, 2162.4], [-119.925375, 38.378227, 2162.4], [-119.925401, 38.378225, 2162.1], [-119.925407, 38.378165, 2161.7], [-119.92542, 38.378142, 2162.2], [-119.925487, 38.378091, 2160.1], [-119.925456, 38.378102, 2160.7], [-119.925436, 38.37812, 2161.2], [-119.92545, 38.378142, 2161.8], [-119.925482, 38.378133, 2161.2], [-119.925465, 38.378114, 2160.7], [-119.925498, 38.3781, 2160.7], [-119.92552, 38.378125, 2161.9], [-119.92552, 38.37814, 2162.5]]}}