{"type": "Feature", "properties": {}, "geometry": {"type": "LineString", "coordinates": [[-119.410315, 37.875911, 2557.8], [-119.410241, 37.875965, 2539.1], [-119.410204, 37.875961, 2535.6], [-119.410216, 37.875982, 2532.9], [-119.410193, 37.876, 2534.7], [-119.410196, 37.876023, 2534.5], [-119.410168, 37.876008, 2535.0], [-119.410171, 37.876036, 2533.3], [-119.410191, 37.876043, 2534.8], [-119.410185, 37.876017, 2535.7], [-119.410156, 37.876013, 2536.7], [-119.41013, 37.87603, 2528.1], [-119.41013, 37.876056, 2527.4], [-119.410065, 37.876049, 2525.4], [-119.410019, 37.876055, 2525.2], [-119.409993, 37.876044, 2522.9], [-119.409951, 37.875997, 2521.2], [-119.409871, 37.875976, 2521.2], [-119.409862, 37.875971, 2520.8], [-119.409791, 37.875958, 2520.3], [-119.409702, 37.875907, 2520.7], [-119.409679, 37.875902, 2521.2], [-119.409572, 37.875841, 2525.1], [-119.409555, 37.875784, 2526.4], [-119.409548, 37.875776, 2525.8], [-119.409486, 37.875747, 2528.4], [-119.409426, 37.875671, 2529.3], [-119.409413, 37.87566, 2529.1], [-119.40933, 37.875602, 2532.4], [-119.409312, 37.875582, 2529.2], [-119.409307, 37.875544, 2525.9], [-119.409222, 37.875443, 2527.7], [-119.409184, 37.875418, 2527.6], [-119.409139, 37.875408, 2528.7], [-119.409117, 37.875412, 2529.0], [-119.409052, 37.875381, 2530.7], [-119.408932, 37.875344, 2532.9], [-119.408821, 37.87537, 2527.1], [-119.408763, 37.875365, 2526.5], [-119.408725, 37.875319, 2528.3], [-119.408693, 37.875285, 2528.6], [-119.408602, 37.875243, 2529.3], [-119.408573, 37.875213, 2528.4], [-119.408555, 37.875177, 2528.3], [-119.408446, 37.875103, 2529.3], [-119.408428, 37.875094, 2529.2], [-119.408399, 37.875073, 2526.0], [-119.408405, 37.874995, 2526.9], [-119.408368, 37.87493, 2525.6], [-119.408356, 37.874768, 2523.4], [-119.40833, 37.874688, 2525.7], [-119.408331, 37.87457, 2534.6], [-119.408343, 37.874519, 2534.8], [-119.408285, 37.874466, 2530.4], [-119.408236, 37.87444, 2532.2], [-119.408221, 37.874428, 2532.3], [-119.408048, 37.87432, 2532.3], [-119.408026, 37.8743, 2533.9], [-119.407997, 37.8743, 2532.0], [-119.407923, 37.874264, 2531.7], [-119.407874, 37.874184, 2532.2], [-119.40787, 37.87417, 2532.3], [-119.407871, 37.874142, 2532.4], [-119.40781, 37.874072, 2539.7], [-119.407786, 37.874022, 2540.4], [-119.407785, 37.874007, 2541.8], [-119.407747, 37.873975, 2538.3], [-119.407692, 37.873952, 2540.4], [-119.407675, 37.873936, 2538.2], [-119.407645, 37.87393, 2538.5], [-119.407643, 37.873901, 2541.8], [-119.407638, 37.873887, 2541.1], [-119.407561, 37.873786, 2544.1], [-119.407499, 37.873769, 2549.2], [-119.407481, 37.873767, 2550.3], [-119.407425, 37.87374, 2546.7], [-119.407366, 37.873729, 2552.1], [-119.407335, 37.873693, 2552.4], [-119.407306, 37.873677, 2554.0], [-119.407259, 37.873612, 2555.8], [-119.407228, 37.873604, 2557.5], [-119.40719, 37.873567, 2558.3], [-119.407145, 37.873556, 2559.0], [-119.407109, 37.873537, 2556.7], [-119.407111, 37.873511, 2554.6], [-119.407066, 37.873483, 2555.1], [-119.407034, 37.873441, 2556.0], [-119.407071, 37.87342, 2555.7], [-119.407112, 37.873411, 2560.4], [-119.40709, 37.873391, 2565.9], [-119.407084, 37.873367, 2565.6], [-119.407131, 37.873332, 2566.2], [-119.407122, 37.873307, 2570.6], [-119.407082, 37.873284, 2570.9], [-119.407004, 37.873224, 2577.8], [-119.406956, 37.873168, 2578.1], [-119.406952, 37.873138, 2576.0], [-119.406908, 37.873075, 2581.0], [-119.406867, 37.873055, 2580.6], [-119.40683, 37.873014, 2582.6], [-119.406816, 37.87299, 2585.1], [-119.406761, 37.872966, 2587.4], [-119.406736, 37.872962, 2589.8], [-119.406684, 37.872983, 2586.9], [-119.406659, 37.872986, 2586.7], [-119.406622, 37.872978, 2591.8], [-119.406582, 37.873037, 2593.2], [-119.406555, 37.873037, 2590.5], [-119.406533, 37.873017, 2593.1], [-119.406474, 37.873006, 2590.3], [-119.406383, 37.872974, 2592.1], [-119.406315, 37.873029, 2593.2], [-119.406296, 37.873031, 2591.9], [-119.406199, 37.873071, 2595.1], [-119.406116, 37.873021, 2594.1], [-119.406091, 37.873041, 2592.6], [-119.406054, 37.873062, 2590.8], [-119.406041, 37.873085, 2590.7], [-119.405986, 37.873097, 2590.3], [-119.405935, 37.87308, 2590.8], [-119.405895, 37.873108, 2589.6], [-119.405856, 37.873123, 2588.8], [-119.40585, 37.873161, 2589.1], [-119.405728, 37.873164, 2589.2], [-119.405671, 37.873156, 2586.7], [-119.405626, 37.873182, 2586.8], [-119.405562, 37.873168, 2585.9], [-119.405503, 37.873178, 2587.8], [-119.405491, 37.873165, 2588.7], [-119.405464, 37.873187, 2591.0], [-119.405425, 37.873147, 2588.2], [-119.405409, 37.873143, 2590.6], [-119.405374, 37.873103, 2592.5], [-119.405333, 37.873077, 2597.0], [-119.405327, 37.873055, 2596.0], [-119.405339, 37.873031, 2597.8], [-119.405333, 37.873005, 2597.7], [-119.40536, 37.872976, 2591.5], [-119.405344, 37.87296, 2596.2], [-119.40532, 37.872968, 2596.3], [-119.405306, 37.872965, 2597.4], [-119.405276, 37.873004, 2596.7], [-119.40528, 37.872936, 2598.5], [-119.405259, 37.87292, 2607.8], [-119.405261, 37.872886, 2608.9], [-119.405209, 37.872858, 2616.6], [-119.405237, 37.872894, 2615.2], [-119.405229, 37.872844, 2623.3], [-119.405216, 37.872886, 2613.1], [-119.405207, 37.872863, 2614.7], [-119.405234, 37.872847, 2618.0], [-119.405245, 37.87287, 2617.9], [-119.405216, 37.872823, 2617.0], [-119.405236, 37.872843, 2619.0], [-119.405259, 37.872825, 2621.7], [-119.405246, 37.872801, 2619.7], [-119.405232, 37.872824, 2617.0], [-119.405244, 37.872835, 2624.2], [-119.40523, 37.872812, 2619.3], [-119.405232, 37.872766, 2619.2], [-119.405227, 37.872741, 2622.5], [-119.405209, 37.872741, 2631.1], [-119.405176, 37.872777, 2635.4], [-119.405189, 37.872727, 2639.0], [-119.405175, 37.872701, 2639.9], [-119.405196, 37.872686, 2641.2], [-119.405232, 37.872762, 2642.9], [-119.405311, 37.87258, 2638.8], [-119.405289, 37.872571, 2638.7], [-119.405316, 37.872557, 2633.9], [-119.4053, 37.87255, 2636.0], [-119.405269, 37.872599, 2636.0], [-119.405236, 37.872593, 2640.7], [-119.405209, 37.872608, 2643.7], [-119.405197, 37.872631, 2647.6], [-119.405192, 37.872601, 2648.7], [-119.405195, 37.872568, 2647.5], [-119.405176, 37.872613, 2656.7], [-119.405176, 37.87263, 2663.1], [-119.405159, 37.872659, 2666.8], [-119.405155, 37.872676, 2668.7], [-119.405118, 37.872641, 2668.1], [-119.405111, 37.872618, 2666.7], [-119.405106, 37.872647, 2671.1], [-119.405106, 37.872594, 2664.3], [-119.405077, 37.872572, 2668.4], [-119.405111, 37.872579, 2669.0], [-119.40509, 37.872629, 2682.4], [-119.405063, 37.872654, 2687.8], [-119.405059, 37.872615, 2687.0], [-119.405092, 37.872613, 2691.3], [-119.405086, 37.872656, 2686.8], [-119.405105, 37.872693, 2690.3], [-119.405097, 37.872635, 2688.1], [-119.405098, 37.872605, 2687.3], [-119.405078, 37.872591, 2688.3], [-119.40502, 37.872588, 2682.5], [-119.405064, 37.87258, 2698.3], [-119.405094, 37.87258, 2698.9], [-119.405086, 37.872592, 2700.5], [-119.405092, 37.872546, 2700.1], [-119.405119, 37.872586, 2703.2], [-119.405125, 37.872631, 2707.2], [-119.405111, 37.872669, 2702.4], [-119.405117, 37.8727, 2701.2], [-119.405077, 37.872674, 2695.8], [-119.405046, 37.872615, 2693.2], [-119.405057, 37.872591, 2696.5], [-119.405047, 37.872566, 2692.8], [-119.405052, 37.872541, 2691.5], [-119.405022, 37.872506, 2687.2], [-119.404978, 37.872494, 2684.5], [-119.404952, 37.87248, 2683.4], [-119.404901, 37.872409, 2702.4], [-119.404939, 37.87245, 2711.6], [-119.404926, 37.872486, 2712.8], [-119.404944, 37.872513, 2716.8], [-119.404949, 37.87247, 2715.3], [-119.404926, 37.872454, 2711.2], [-119.404919, 37.87243, 2704.4], [-119.404903, 37.872452, 2720.8], [-119.40491, 37.872503, 2723.6], [-119.404897, 37.872512, 2728.0], [-119.404881, 37.872533, 2728.4], [-119.404886, 37.872586, 2726.0], [-119.404924, 37.872557, 2724.3], [-119.404927, 37.872587, 2726.0], [-119.404925, 37.87262, 2724.7], [-119.404895, 37.872539, 2734.0], [-119.40493, 37.872449, 2722.8], [-119.404916, 37.87236, 2725.9], [-119.404901, 37.872333, 2725.1], [-119.404893, 37.872352, 2722.1], [-119.404874, 37.872376, 2728.5], [-119.404876, 37.872393, 2725.1], [-119.404886, 37.872411, 2729.1], [-119.404856, 37.872399, 2735.6], [-119.404854, 37.872423, 2737.9], [-119.404872, 37.872444, 2737.0], [-119.404899, 37.872428, 2731.6], [-119.404881, 37.872402, 2730.2], [-119.404897, 37.872381, 2727.9], [-119.404869, 37.872387, 2727.4], [-119.40485, 37.872337, 2716.3], [-119.404872, 37.872318, 2714.5], [-119.404904, 37.872324, 2714.0], [-119.40489, 37.87233, 2719.8], [-119.404896, 37.872304, 2715.4], [-119.404882, 37.872328, 2716.3], [-119.404866, 37.872304, 2721.1], [-119.404856, 37.872329, 2721.5], [-119.404825, 37.872321, 2725.9], [-119.404805, 37.872347, 2729.8], [-119.404803, 37.872379, 2733.9], [-119.404845, 37.872319, 2726.4], [-119.40488, 37.872357, 2725.4], [-119.404891, 37.872318, 2721.2], [-119.404877, 37.872345, 2727.9], [-119.40488, 37.872371, 2736.4], [-119.404875, 37.872375, 2734.8], [-119.404872, 37.872348, 2731.5], [-119.404888, 37.872335, 2726.7], [-119.404857, 37.872324, 2729.5], [-119.404853, 37.872304, 2731.7], [-119.40483, 37.872316, 2737.1], [-119.404795, 37.872373, 2745.8], [-119.404719, 37.872379, 2755.8], [-119.404772, 37.872293, 2748.0], [-119.404778, 37.872275, 2748.2], [-119.404807, 37.872269, 2744.7], [-119.404792, 37.872289, 2750.3], [-119.404813, 37.872112, 2750.4], [-119.404834, 37.872246, 2745.4], [-119.404846, 37.872201, 2744.9], [-119.404879, 37.872201, 2748.6], [-119.404861, 37.872253, 2751.1], [-119.404869, 37.872274, 2751.3], [-119.404845, 37.872265, 2756.2], [-119.404819, 37.872217, 2754.3], [-119.404806, 37.872247, 2755.0], [-119.404774, 37.872248, 2758.0], [-119.404781, 37.872225, 2756.8], [-119.404734, 37.872203, 2754.5], [-119.404743, 37.872228, 2755.6], [-119.404738, 37.872174, 2765.0], [-119.404757, 37.872194, 2769.2], [-119.40473, 37.872208, 2766.5], [-119.404706, 37.872193, 2766.8], [-119.404673, 37.872192, 2762.8], [-119.404661, 37.872169, 2762.0], [-119.404628, 37.87217, 2766.5], [-119.404633, 37.872208, 2762.8], [-119.404611, 37.872192, 2764.6], [-119.404602, 37.872168, 2769.0], [-119.404568, 37.872164, 2768.3], [-119.404503, 37.872175, 2777.8], [-119.404474, 37.872199, 2790.7], [-119.404463, 37.872186, 2800.7], [-119.404484, 37.872175, 2801.0], [-119.4045, 37.872235, 2800.8], [-119.404514, 37.872268, 2801.4], [-119.404538, 37.872287, 2801.2], [-119.404521, 37.872327, 2809.0], [-119.404502, 37.872274, 2811.8], [-119.404505, 37.872331, 2817.8], [-119.404494, 37.872268, 2813.9], [-119.404492, 37.872357, 2827.0], [-119.40449, 37.872372, 2828.2], [-119.404505, 37.872356, 2827.1], [-119.404484, 37.872307, 2820.8], [-119.404489, 37.872351, 2819.3], [-119.40447, 37.872323, 2821.6], [-119.404463, 37.872287, 2818.3], [-119.404477, 37.872211, 2813.7], [-119.404449, 37.872216, 2821.6], [-119.404409, 37.87221, 2821.0], [-119.404408, 37.872179, 2816.8], [-119.404393, 37.872155, 2819.1], [-119.40441, 37.872133, 2819.0], [-119.404326, 37.87212, 2818.6], [-119.404333, 37.872149, 2834.2], [-119.404319, 37.87213, 2833.1], [-119.404282, 37.872132, 2834.0], [-119.404308, 37.872095, 2829.0], [-119.404319, 37.87212, 2829.0], [-119.404342, 37.872102, 2833.7], [-119.404384, 37.87212, 2840.2], [-119.404358, 37.872136, 2838.5], [-119.404359, 37.872113, 2832.5], [-119.404364, 37.872164, 2834.5], [-119.404321, 37.87216, 2834.6], [-119.404379, 37.872157, 2837.6], [-119.404399, 37.872158, 2839.7], [-119.404472, 37.872112, 2835.8], [-119.404505, 37.872119, 2835.0], [-119.404505, 37.872143, 2836.6], [-119.404496, 37.872134, 2833.9], [-119.404482, 37.872062, 2833.3], [-119.404504, 37.872083, 2837.1], [-119.4045, 37.872045, 2840.5], [-119.404526, 37.872029, 2840.1], [-119.404537, 37.872058, 2844.8], [-119.404561, 37.872032, 2845.3], [-119.404562, 37.872019, 2843.9], [-119.404572, 37.872057, 2846.8], [-119.40455, 37.872102, 2852.2], [-119.404547, 37.871986, 2847.7], [-119.404549, 37.871968, 2846.6], [-119.404583, 37.871958, 2850.7], [-119.404602, 37.871936, 2849.2], [-119.404568, 37.871903, 2854.8], [-119.404553, 37.871858, 2855.8], [-119.404563, 37.871825, 2855.6], [-119.404574, 37.871811, 2860.1], [-119.404556, 37.871947, 2861.3], [-119.404562, 37.871933, 2862.4], [-119.404557, 37.871885, 2861.9], [-119.404537, 37.871865, 2861.7], [-119.40456, 37.871826, 2862.4], [-119.404588, 37.871836, 2864.3], [-119.404582, 37.871817, 2867.4], [-119.404592, 37.871768, 2863.5], [-119.40461, 37.871733, 2870.8], [-119.404592, 37.871736, 2877.1], [-119.404573, 37.871767, 2878.1], [-119.404573, 37.871708, 2873.5], [-119.40453, 37.871703, 2880.0], [-119.404524, 37.871725, 2882.9], [-119.404543, 37.871675, 2881.7], [-119.404538, 37.871646, 2882.9], [-119.404516, 37.871633, 2881.0], [-119.404508, 37.871598, 2884.4], [-119.404516, 37.871546, 2884.8], [-119.404502, 37.871586, 2886.5], [-119.404508, 37.871628, 2890.1], [-119.404485, 37.871668, 2892.7], [-119.404491, 37.871625, 2892.3], [-119.404464, 37.871546, 2897.0], [-119.404478, 37.871526, 2900.1], [-119.404449, 37.871514, 2899.9], [-119.40448, 37.871503, 2901.6], [-119.404476, 37.871473, 2902.8], [-119.404436, 37.871481, 2905.3], [-119.404416, 37.871459, 2907.0], [-119.404384, 37.871466, 2903.4], [-119.404381, 37.871492, 2907.8], [-119.404359, 37.871513, 2908.4], [-119.40432, 37.871467, 2920.5], [-119.404255, 37.871445, 2924.3], [-119.404233, 37.871425, 2924.0], [-119.404242, 37.871446, 2933.3], [-119.404215, 37.871458, 2930.5], [-119.404203, 37.87145, 2927.2], [-119.404191, 37.87141, 2928.1], [-119.404192, 37.871384, 2926.5], [-119.404204, 37.871406, 2927.9], [-119.40416, 37.871465, 2930.9], [-119.4041, 37.871455, 2935.4], [-119.404118, 37.871387, 2941.1], [-119.404098, 37.87139, 2939.2], [-119.404109, 37.871334, 2940.2], [-119.404107, 37.871327, 2940.4], [-119.404076, 37.871335, 2939.4], [-119.404083, 37.871359, 2938.9], [-119.40411, 37.871375, 2938.7], [-119.404163, 37.871292, 2941.5], [-119.404221, 37.871239, 2938.2], [-119.404216, 37.871184, 2940.2], [-119.404245, 37.871141, 2939.2], [-119.404268, 37.871086, 2937.3], [-119.404355, 37.871052, 2935.7], [-119.404455, 37.870964, 2932.1], [-119.404503, 37.870902, 2930.9], [-119.404516, 37.870868, 2930.7], [-119.404525, 37.870854, 2929.8], [-119.404559, 37.870831, 2928.6], [-119.404585, 37.870725, 2927.0], [-119.404636, 37.870641, 2924.3], [-119.404751, 37.870563, 2921.2], [-119.404743, 37.870547, 2919.5], [-119.404723, 37.870537, 2919.9], [-119.404683, 37.870548, 2920.9], [-119.404652, 37.87054, 2921.1], [-119.404622, 37.870548, 2922.4], [-119.404652, 37.870555, 2920.8], [-119.4047, 37.870551, 2921.1], [-119.40473, 37.870544, 2919.9], [-119.40476, 37.870503, 2917.6], [-119.40476, 37.870462, 2916.1], [-119.404794, 37.870426, 2910.6], [-119.404812, 37.870385, 2910.4], [-119.404838, 37.870362, 2906.5], [-119.404854, 37.870322, 2905.8], [-119.404855, 37.870279, 2902.4], [-119.404838, 37.870232, 2899.5], [-119.40484, 37.870227, 2899.9], [-119.404819, 37.870135, 2895.2], [-119.404827, 37.870111, 2894.4], [-119.404817, 37.870058, 2892.6], [-119.404821, 37.870051, 2892.7], [-119.404855, 37.870032, 2891.4], [-119.404866, 37.870014, 2890.7], [-119.404826, 37.869961, 2888.0], [-119.404845, 37.869917, 2886.1], [-119.404839, 37.869902, 2885.4], [-119.40482, 37.869828, 2884.6], [-119.404795, 37.869783, 2885.7], [-119.404812, 37.86976, 2883.5], [-119.404846, 37.869759, 2881.8], [-119.404856, 37.869755, 2881.6], [-119.404898, 37.869689, 2876.8], [-119.404957, 37.869634, 2873.1], [-119.404948, 37.869602, 2871.6], [-119.40495, 37.86956, 2871.5], [-119.40498, 37.869462, 2867.5], [-119.404941, 37.869426, 2865.8], [-119.404919, 37.869402, 2864.6], [-119.404961, 37.869365, 2859.2], [-119.404958, 37.869342, 2857.3], [-119.404905, 37.869314, 2856.2], [-119.404928, 37.869292, 2851.9], [-119.404905, 37.869272, 2852.5], [-119.404899, 37.869226, 2851.4], [-119.404796, 37.869169, 2852.3], [-119.404709, 37.869163, 2849.7], [-119.404653, 37.869099, 2844.2], [-119.404675, 37.869081, 2841.9], [-119.404675, 37.869055, 2838.4], [-119.404694, 37.869047, 2836.2], [-119.404711, 37.869014, 2835.2], [-119.404676, 37.868985, 2833.9], [-119.40469, 37.86891, 2827.2], [-119.404671, 37.868881, 2826.7], [-119.404663, 37.868875, 2826.9], [-119.404644, 37.868845, 2826.9], [-119.404651, 37.868823, 2825.0], [-119.404667, 37.868824, 2824.5], [-119.404656, 37.868804, 2823.9], [-119.404601, 37.868782, 2822.3], [-119.404586, 37.868752, 2818.3], [-119.404583, 37.86872, 2816.8], [-119.40456, 37.868713, 2816.2], [-119.404447, 37.868694, 2816.0], [-119.404387, 37.868706, 2815.3], [-119.404385, 37.868681, 2810.1], [-119.404397, 37.868671, 2809.0], [-119.404308, 37.868614, 2804.6], [-119.404306, 37.868584, 2803.4], [-119.404344, 37.86852, 2797.3], [-119.404341, 37.868497, 2795.8], [-119.404322, 37.868478, 2795.9], [-119.404348, 37.868401, 2789.7], [-119.404335, 37.868374, 2789.1], [-119.404189, 37.86831, 2785.5], [-119.404168, 37.868306, 2785.2], [-119.404008, 37.868301, 2782.8], [-119.403975, 37.868273, 2781.9], [-119.403966, 37.868261, 2780.8], [-119.403955, 37.86822, 2778.9], [-119.404007, 37.868136, 2773.7], [-119.404011, 37.868084, 2772.0], [-119.404003, 37.868029, 2769.4], [-119.404033, 37.867951, 2767.8], [-119.403994, 37.867882, 2764.8], [-119.404011, 37.867849, 2763.5], [-119.404048, 37.867811, 2762.9], [-119.404124, 37.867738, 2760.2], [-119.404196, 37.8677, 2757.7], [-119.404219, 37.867652, 2757.0], [-119.404228, 37.86764, 2755.2], [-119.404311, 37.867569, 2752.0], [-119.404401, 37.867529, 2750.4], [-119.404421, 37.867501, 2748.4], [-119.404488, 37.867438, 2748.3], [-119.404503, 37.867411, 2747.6], [-119.404559, 37.867373, 2745.9], [-119.404629, 37.867282, 2744.4], [-119.404638, 37.867222, 2744.8], [-119.40467, 37.867178, 2741.9], [-119.404812, 37.867076, 2732.3], [-119.404827, 37.867067, 2731.4], [-119.404922, 37.866987, 2726.4], [-119.404968, 37.866914, 2723.0], [-119.405029, 37.866865, 2721.7], [-119.405211, 37.866803, 2722.1], [-119.405291, 37.866797, 2719.3], [-119.405336, 37.866808, 2717.7], [-119.405415, 37.866879, 2717.9], [-119.405546, 37.866942, 2714.9], [-119.405594, 37.86695, 2715.4], [-119.405632, 37.866938, 2715.4], [-119.405727, 37.8669, 2715.8], [-119.405774, 37.866909, 2713.7], [-119.405833, 37.866944, 2712.5], [-119.405856, 37.866979, 2711.7], [-119.405881, 37.867034, 2709.0], [-119.405923, 37.867081, 2708.8], [-119.405929, 37.867115, 2706.3], [-119.405936, 37.86713, 2706.7], [-119.40609, 37.867214, 2707.0], [-119.406141, 37.867213, 2702.8], [-119.406145, 37.867256, 2697.3], [-119.406159, 37.867272, 2698.4], [-119.406264, 37.867333, 2697.3], [-119.406283, 37.86734, 2697.1], [-119.40647, 37.867388, 2693.1], [-119.406481, 37.867395, 2692.9], [-119.406548, 37.867456, 2690.6], [-119.406623, 37.867491, 2688.6], [-119.406644, 37.867499, 2688.4], [-119.406653, 37.867518, 2687.0], [-119.406643, 37.867589, 2687.5], [-119.406604, 37.86765, 2686.8], [-119.406547, 37.867707, 2685.9], [-119.406507, 37.867796, 2686.9], [-119.406504, 37.867844, 2686.9], [-119.406535, 37.867919, 2688.6], [-119.406534, 37.867984, 2686.0], [-119.406544, 37.868001, 2687.0], [-119.406591, 37.868046, 2686.1], [-119.406574, 37.868083, 2686.5], [-119.406589, 37.868128, 2684.6], [-119.406584, 37.86818, 2684.2], [-119.406658, 37.868231, 2685.5], [-119.406685, 37.868269, 2687.2], [-119.406698, 37.868292, 2686.3], [-119.406702, 37.868339, 2690.4], [-119.406735, 37.868387, 2689.2], [-119.40677, 37.868433, 2688.7], [-119.406769, 37.868465, 2686.7], [-119.406782, 37.868489, 2687.6], [-119.406851, 37.868546, 2688.4], [-119.406909, 37.868608, 2685.6], [-119.406907, 37.868631, 2686.4], [-119.406855, 37.86869, 2685.9], [-119.406842, 37.868699, 2684.3], [-119.406851, 37.868714, 2686.9], [-119.406893, 37.868739, 2687.1], [-119.406898, 37.868796, 2685.2], [-119.406916, 37.868859, 2684.3], [-119.406903, 37.868907, 2683.1], [-119.406852, 37.868957, 2681.3], [-119.406786, 37.868971, 2682.5], [-119.406685, 37.869052, 2682.4], [-119.406723, 37.869102, 2681.7], [-119.406736, 37.869114, 2681.7], [-119.406741, 37.869144, 2677.7], [-119.406709, 37.869167, 2677.3], [-119.406625, 37.869195, 2672.6], [-119.406591, 37.869252, 2672.8], [-119.406596, 37.869322, 2673.0], [-119.406551, 37.869422, 2676.2], [-119.406539, 37.869466, 2673.7], [-119.406489, 37.869534, 2669.1], [-119.40644, 37.869554, 2667.0], [-119.406419, 37.869586, 2665.7], [-119.406413, 37.869611, 2663.5], [-119.40638, 37.869651, 2660.0], [-119.406356, 37.869699, 2661.4], [-119.406342, 37.869746, 2660.5], [-119.406339, 37.869767, 2658.9], [-119.406342, 37.869813, 2659.7], [-119.406292, 37.869823, 2656.4], [-119.406293, 37.86986, 2659.5], [-119.406317, 37.869909, 2662.9], [-119.406355, 37.86994, 2661.3], [-119.406362, 37.869961, 2661.6], [-119.406307, 37.870046, 2658.4], [-119.406299, 37.870076, 2657.0], [-119.406307, 37.870127, 2656.8], [-119.406351, 37.870183, 2656.5], [-119.40636, 37.870224, 2653.5], [-119.406447, 37.870255, 2652.2], [-119.406464, 37.870267, 2650.4], [-119.406491, 37.870322, 2652.2], [-119.40647, 37.870419, 2652.9], [-119.40649, 37.870432, 2652.0], [-119.406546, 37.870442, 2651.3], [-119.406578, 37.87048, 2650.4], [-119.406663, 37.870506, 2650.6], [-119.406691, 37.870513, 2647.9], [-119.406767, 37.870603, 2644.8], [-119.406818, 37.870631, 2646.8], [-119.406842, 37.870672, 2642.4], [-119.406903, 37.870735, 2639.0], [-119.406917, 37.870771, 2637.9], [-119.406921, 37.870798, 2636.1], [-119.406917, 37.870884, 2633.4], [-119.406933, 37.870907, 2631.2], [-119.407008, 37.870945, 2632.1], [-119.407016, 37.870975, 2630.9], [-119.40705, 37.871032, 2627.8], [-119.407065, 37.87108, 2624.2], [-119.407099, 37.871125, 2621.7], [-119.407092, 37.871147, 2623.4], [-119.407097, 37.871179, 2623.5], [-119.407115, 37.871206, 2622.3], [-119.407191, 37.871253, 2621.2], [-119.407222, 37.871287, 2620.5], [-119.407234, 37.871307, 2620.4], [-119.40733, 37.87145, 2614.0], [-119.407371, 37.871489, 2611.1], [-119.407381, 37.871521, 2612.4], [-119.407379, 37.87156, 2610.6], [-119.407361, 37.871603, 2612.1], [-119.40737, 37.871756, 2607.4], [-119.407406, 37.871911, 2604.9], [-119.407374, 37.871954, 2602.6], [-119.407322, 37.872089, 2598.9], [-119.407302, 37.872076, 2599.3], [-119.407294, 37.872096, 2598.9], [-119.407345, 37.872184, 2598.7], [-119.407356, 37.872206, 2600.6], [-119.407398, 37.872263, 2595.4], [-119.40745, 37.872393, 2596.5], [-119.407593, 37.872552, 2597.7], [-119.407644, 37.87266, 2594.0], [-119.407647, 37.872696, 2591.5], [-119.407668, 37.872726, 2590.4], [-119.40777, 37.872745, 2591.4], [-119.407785, 37.872776, 2590.4], [-119.407786, 37.872873, 2584.0], [-119.407823, 37.873038, 2585.6], [-119.407864, 37.873042, 2585.6], [-119.407871, 37.873085, 2583.1], [-119.407825, 37.873166, 2581.1], [-119.407816, 37.873188, 2581.1], [-119.407779, 37.873247, 2580.7], [-119.407781, 37.873364, 2573.5], [-119.407733, 37.873396, 2573.1], [-119.407689, 37.873389, 2572.0], [-119.407641, 37.873359, 2570.5], [-119.407684, 37.873445, 2569.2], [-119.407705, 37.873443, 2571.3], [-119.407711, 37.873426, 2571.3], [-119.40774, 37.87341, 2570.5], [-119.407745, 37.873544, 2562.9], [-119.407764, 37.873576, 2562.5], [-119.407747, 37.87366, 2558.3], [-119.407753, 37.873683, 2558.0], [-119.407809, 37.873781, 2559.4], [-119.407873, 37.873815, 2559.7], [-119.407891, 37.873841, 2558.0], [-119.407898, 37.873859, 2558.7], [-119.407898, 37.873921, 2559.2], [-119.407804, 37.87398, 2558.6], [-119.407849, 37.874013, 2560.1], [-119.407924, 37.874151, 2555.5], [-119.407948, 37.874184, 2554.2], [-119.407974, 37.874191, 2554.7], [-119.407964, 37.874173, 2556.9], [-119.407983, 37.874153, 2557.9], [-119.408013, 37.874141, 2558.5], [-119.408097, 37.87418, 2554.9], [-119.408137, 37.874224, 2557.3], [-119.408138, 37.874233, 2559.0], [-119.408208, 37.874396, 2553.5], [-119.408225, 37.874423, 2553.4], [-119.408248, 37.874469, 2551.1], [-119.408241, 37.874551, 2549.5], [-119.408257, 37.874637, 2547.7], [-119.408347, 37.874808, 2544.2], [-119.408364, 37.874871, 2543.0], [-119.408362, 37.874947, 2539.5], [-119.40839, 37.875019, 2537.0], [-119.408469, 37.875103, 2533.1], [-119.40852, 37.875138, 2532.4], [-119.408565, 37.875215, 2530.3], [-119.408579, 37.87522, 2529.3], [-119.408698, 37.875239, 2532.5], [-119.408765, 37.875269, 2530.2], [-119.408784, 37.875273, 2532.0], [-119.408842, 37.875302, 2531.7], [-119.40901, 37.875331, 2536.4], [-119.409098, 37.875348, 2535.8], [-119.409203, 37.875392, 2532.4], [-119.409219, 37.875402, 2533.4], [-119.409293, 37.875493, 2534.9], [-119.409368, 37.875531, 2537.9], [-119.409428, 37.875555, 2538.6], [-119.409495, 37.875648, 2532.8], [-119.409506, 37.875654, 2533.4], [-119.409557, 37.875733, 2533.7], [-119.409611, 37.875783, 2534.1], [-119.409721, 37.87585, 2537.1], [-119.409816, 37.87588, 2535.3], [-119.409902, 37.875965, 2533.5], [-119.409939, 37.875982, 2535.5], [-119.409964, 37.875975, 2535.7], [-119.410009, 37.87597, 2541.6], [-119.41006, 37.875978, 2531.4], [-119.410167, 37.876024, 2533.3], [-119.410188, 37.876048, 2530.8], [-119.41016, 37.876047, 2532.3], [-119.410134, 37.876031, 2536.5], [-119.41014, 37.876059, 2536.4]]}}