{"type": "Feature", "properties": {}, "geometry": {"type": "LineString", "coordinates": [[-121.98843441903591, 37.759874984622, 165.48], [-121.9883260410279, 37.759820921346545, 172.21], [-121.98817357420921, 37.759524788707495, 181.35], [-121.98789169080555, 37.75938875041902, 186.63], [-121.98764752596617, 37.759365448728204, 188.56], [-121.98733546771109, 37.75929931551218, 189.04], [-121.98707185685635, 37.759190518409014, 190.0], [-121.98685627430677, 37.758995639160275, 192.4], [-121.98674043640494, 37.75879858061671, 199.13], [-121.9864800106734, 37.75827228091657, 216.91], [-121.98631078004837, 37.7578132878989, 224.12], [-121.9861454050988, 37.75746610946953, 227.97], [-121.9863005541265, 37.75703293271363, 235.18], [-121.98620533570647, 37.75685121305287, 242.87], [-121.98598455637693, 37.75668072514236, 248.16], [-121.98582144454122, 37.7566007617861, 251.04], [-121.98554794304073, 37.756513422355056, 249.6], [-121.98538122698665, 37.75651518255472, 248.64], [-121.98513739742339, 37.75655306875706, 252.0], [-121.9850576017052, 37.75649732910097, 253.93], [-121.98483129031956, 37.75643119588494, 257.29], [-121.98472006246448, 37.75632365606725, 260.65], [-121.98469189926982, 37.75613942183554, 264.5], [-121.98473305441439, 37.75600891560316, 267.38], [-121.98468527756631, 37.755745723843575, 270.75], [-121.98477320373058, 37.75546350516379, 273.15], [-121.98476021178067, 37.75538144633174, 274.11], [-121.98467588983476, 37.75530978105962, 274.59], [-121.98464688844979, 37.75519251823425, 275.07], [-121.9843609817326, 37.75465054437518, 278.44], [-121.9842333253473, 37.75447209365666, 282.28], [-121.98384121991694, 37.754105385392904, 283.73], [-121.98351801373065, 37.75376264937222, 284.69], [-121.98346118442714, 37.75361395440996, 286.13], [-121.98352195322514, 37.75338940322399, 288.05], [-121.98384080082178, 37.75305840186775, 285.17], [-121.98394188657403, 37.75293041020632, 284.21], [-121.9837983045727, 37.75271105580032, 283.73], [-121.98355254717171, 37.75256789289415, 282.77], [-121.98339169844985, 37.75241601280868, 280.84], [-121.98321760632098, 37.75199683383107, 281.32], [-121.98300294578075, 37.75187219493091, 282.77], [-121.98280077427626, 37.751915361732244, 283.25], [-121.98262760415673, 37.751996079459786, 284.21], [-121.98234622366726, 37.75194017216563, 287.09], [-121.98226089589298, 37.75176163762808, 289.01], [-121.9822218362242, 37.75150364264846, 294.3], [-121.98202352039516, 37.751243468374014, 296.7], [-121.98189603164792, 37.75101665407419, 300.55], [-121.98187490925193, 37.750756312161684, 304.88], [-121.9816435687244, 37.750632259994745, 304.39], [-121.98123059235513, 37.750628823414445, 306.8], [-121.98087628930807, 37.75056310929358, 307.76], [-121.98064888827503, 37.75050728581846, 306.8], [-121.98052307590842, 37.75049806572497, 305.36], [-121.98014153167605, 37.75039362721145, 308.24], [-121.9799437187612, 37.750277537852526, 310.64], [-121.9797716382891, 37.75010026060045, 313.53], [-121.97943988256156, 37.7497229911387, 315.93], [-121.97927509434521, 37.74955661036074, 317.85], [-121.97904484346509, 37.74943146854639, 317.37], [-121.97881333529949, 37.74936005473137, 318.33], [-121.97827471420169, 37.749105244874954, 315.45], [-121.97799584828317, 37.74903366342187, 313.05], [-121.97774045169353, 37.74889444001019, 313.05], [-121.97730828076601, 37.748618675395846, 310.64], [-121.97708825580776, 37.748522786423564, 310.16], [-121.97638476267457, 37.748320112004876, 307.76], [-121.97615073993802, 37.748238975182176, 307.28], [-121.97541086934507, 37.74813847616315, 302.47], [-121.97518782690167, 37.748060105368495, 302.95], [-121.97500434704125, 37.747957007959485, 303.91], [-121.97481282055378, 37.74779691360891, 305.36], [-121.97402114979923, 37.74717589840293, 295.26], [-121.97390330024064, 37.747096102684736, 292.38], [-121.97371127083898, 37.74690491147339, 292.86], [-121.97339619509876, 37.74663493037224, 291.9], [-121.97327775880694, 37.746459329500794, 289.97], [-121.97313375771046, 37.746198987588286, 287.57], [-121.97297031059861, 37.74598508141935, 284.69], [-121.97280426509678, 37.74581115692854, 283.73], [-121.97259555570781, 37.74564309976995, 283.73], [-121.97236957959831, 37.74553656578064, 283.73], [-121.9719966687262, 37.74545651860535, 281.32], [-121.9718711078167, 37.74528066627681, 280.36], [-121.97175183333457, 37.74506315588951, 277.48], [-121.9716771505773, 37.74486081674695, 274.11], [-121.97150741703808, 37.74465210735798, 270.75], [-121.97133491747081, 37.74452755227685, 268.35], [-121.97115328162909, 37.74442780762911, 264.02], [-121.97080752812326, 37.74427802301943, 252.96], [-121.97083652950823, 37.74432186037302, 254.89], [-121.97133273817599, 37.744561498984694, 265.94], [-121.97150783613324, 37.74469317868352, 268.35], [-121.97162912227213, 37.74488143622875, 271.71], [-121.9719123467803, 37.74539248086512, 281.32], [-121.97204930707812, 37.745504546910524, 283.73], [-121.97230327874422, 37.74554695934057, 285.65], [-121.97253964841366, 37.745620384812355, 287.57], [-121.9727136567235, 37.74574871174991, 289.97], [-121.97286386042833, 37.74590738117695, 292.86], [-121.97301926091313, 37.74610787630081, 294.3], [-121.97324146516621, 37.746484223753214, 297.67], [-121.97335076518357, 37.7466247882694, 299.59], [-121.97390162386, 37.747088642790914, 297.67], [-121.97409784421325, 37.74724286980927, 297.18], [-121.97444728575647, 37.747544534504414, 298.63], [-121.97494374588132, 37.74793571792543, 302.47], [-121.97522336617112, 37.74810922332108, 300.07], [-121.97545847855508, 37.748169992119074, 299.11], [-121.9756800122559, 37.74818239733577, 299.59], [-121.97603976354003, 37.74822506122291, 302.47], [-121.9763037096709, 37.74829932488501, 305.84], [-121.97668123058975, 37.74842832237482, 304.88], [-121.97690661996603, 37.74848364293575, 305.36], [-121.97727902792394, 37.748625464737415, 307.76], [-121.97764649055898, 37.748845322057605, 308.72], [-121.97779593989253, 37.74895638227463, 308.72], [-121.97793306782842, 37.749013379216194, 308.24], [-121.97833229787648, 37.74913935922086, 311.6], [-121.97875273413956, 37.74936022236943, 310.64], [-121.9791373796761, 37.749509336426854, 314.49], [-121.97935271076858, 37.74967077188194, 313.53], [-121.97978991083801, 37.75016731582582, 312.09], [-121.97995436377823, 37.75030771270394, 312.09], [-121.98013482615352, 37.750408882275224, 310.16], [-121.98062407784164, 37.75054642930627, 304.88], [-121.98087411001325, 37.75060158222914, 303.91], [-121.98124936781824, 37.75065941736102, 298.63], [-121.98158456012607, 37.75066561996937, 297.67], [-121.98182562366128, 37.7507124748081, 296.7], [-121.9818938523531, 37.750876089558005, 294.78], [-121.98188966140151, 37.75104875676334, 292.38], [-121.98196702636778, 37.75125067681074, 291.9], [-121.98219987563789, 37.751533817499876, 290.46], [-121.9822305534035, 37.75175484828651, 289.49], [-121.98237899690866, 37.751979902386665, 287.09], [-121.98265224695206, 37.751995995640755, 283.73], [-121.98282608762383, 37.75192089378834, 282.28], [-121.98306949809194, 37.75192039087415, 279.4], [-121.98319807648659, 37.752051651477814, 278.44], [-121.98329924605787, 37.75229472666979, 278.44], [-121.98339915834367, 37.752477368339896, 277.48], [-121.98353871703148, 37.75262606330216, 276.52], [-121.98380601592362, 37.75278280489147, 277.48], [-121.98393174447119, 37.75288699194789, 277.0], [-121.98382428847253, 37.75306393392384, 279.4], [-121.98352161794901, 37.75333886034787, 282.77], [-121.98344500735402, 37.75350255891681, 284.21], [-121.9834235496819, 37.75361755862832, 285.17], [-121.98344844393432, 37.75373465381563, 285.65], [-121.98357936926186, 37.753912433981895, 286.61], [-121.98388849385083, 37.75422591716051, 283.25], [-121.98424137197435, 37.754554906859994, 279.88], [-121.98466273024678, 37.75524373166263, 272.19], [-121.98468854650855, 37.755358731374145, 271.23], [-121.98474898003042, 37.755401311442256, 273.63], [-121.98475074023008, 37.75549099780619, 272.19], [-121.98466750793159, 37.75576977990568, 267.38], [-121.98469961062074, 37.755923084914684, 266.9], [-121.98469986207783, 37.756088711321354, 265.46], [-121.98463934473693, 37.756264144554734, 263.06], [-121.9847790710628, 37.75642340071499, 258.73], [-121.98485752567649, 37.756475703790784, 256.33], [-121.98514368385077, 37.756585255265236, 251.52], [-121.9853594340384, 37.75654108263552, 249.6], [-121.98569035157561, 37.75660168379545, 245.75], [-121.98600978590548, 37.756765550002456, 242.39], [-121.98625143617392, 37.75701289996505, 235.66], [-121.98626652359962, 37.757114404812455, 233.26], [-121.98607399128377, 37.75742872618139, 220.28], [-121.98610651306808, 37.75760122574866, 218.36], [-121.98623601347208, 37.75784991681576, 218.84], [-121.98631530627608, 37.75792686268687, 219.32], [-121.98639761656523, 37.75813926011324, 218.84], [-121.9864456448704, 37.75832852348685, 218.36], [-121.98655804619193, 37.75858676992357, 214.99], [-121.98665267787874, 37.75874166749418, 211.15], [-121.9866977725178, 37.75890352204442, 206.34], [-121.98689667508006, 37.75911818258464, 199.61], [-121.98721820488572, 37.75929545983672, 193.84], [-121.98754199780524, 37.75933200493455, 190.96], [-121.98784961365163, 37.75942152366042, 191.44], [-121.98813174851239, 37.75953526608646, 191.92], [-121.98821120895445, 37.75962553918362, 190.0], [-121.98826485313475, 37.75975126773119, 189.52]]}}