{"type": "Feature", "properties": {}, "geometry": {"type": "LineString", "coordinates": [[-119.98952, 38.695259, 2604.0], [-119.989536, 38.695224, 2609.4], [-119.989488, 38.695172, 2612.1], [-119.989476, 38.695123, 2610.9], [-119.989449, 38.695093, 2611.0], [-119.98944, 38.695047, 2610.8], [-119.989383, 38.694967, 2612.0], [-119.989396, 38.694942, 2610.9], [-119.989387, 38.694933, 2611.1], [-119.989344, 38.694823, 2610.3], [-119.989345, 38.694779, 2610.7], [-119.989413, 38.694714, 2609.8], [-119.989468, 38.694617, 2609.4], [-119.989546, 38.694546, 2610.4], [-119.989563, 38.69451, 2610.8], [-119.98966, 38.694472, 2611.5], [-119.989731, 38.694411, 2612.2], [-119.989741, 38.694359, 2612.1], [-119.989763, 38.694324, 2612.6], [-119.989821, 38.694277, 2613.5], [-119.989825, 38.694234, 2614.1], [-119.989893, 38.694175, 2614.7], [-119.989964, 38.694135, 2612.3], [-119.990017, 38.694077, 2611.3], [-119.990123, 38.694037, 2612.1], [-119.990149, 38.693934, 2611.5], [-119.990155, 38.693864, 2611.1], [-119.990226, 38.693778, 2610.8], [-119.990292, 38.693718, 2610.1], [-119.990369, 38.693669, 2610.7], [-119.990375, 38.693657, 2610.5], [-119.990456, 38.693613, 2611.5], [-119.990585, 38.693588, 2608.2], [-119.990606, 38.69354, 2607.4], [-119.990674, 38.693474, 2607.5], [-119.990727, 38.693442, 2606.9], [-119.990785, 38.693416, 2607.3], [-119.990793, 38.693395, 2607.0], [-119.990871, 38.693361, 2609.5], [-119.99091, 38.693329, 2608.9], [-119.990941, 38.693312, 2609.1], [-119.991019, 38.693295, 2608.8], [-119.991077, 38.693231, 2609.6], [-119.991085, 38.693214, 2609.7], [-119.991213, 38.693081, 2607.8], [-119.991383, 38.69295, 2607.5], [-119.991488, 38.692834, 2608.0], [-119.991496, 38.69282, 2608.3], [-119.991533, 38.692801, 2607.8], [-119.991725, 38.692631, 2607.6], [-119.99173, 38.692584, 2607.2], [-119.991755, 38.692512, 2607.3], [-119.991799, 38.692444, 2607.9], [-119.991836, 38.692409, 2607.7], [-119.991835, 38.692355, 2608.7], [-119.991861, 38.69228, 2608.6], [-119.991831, 38.692146, 2610.8], [-119.991725, 38.692042, 2611.8], [-119.991708, 38.692034, 2612.0], [-119.991664, 38.691958, 2612.5], [-119.991635, 38.691865, 2613.2], [-119.991665, 38.6918, 2613.3], [-119.991637, 38.69173, 2612.7], [-119.991585, 38.691665, 2611.6], [-119.991561, 38.691582, 2610.1], [-119.991558, 38.691485, 2608.1], [-119.991493, 38.691382, 2607.8], [-119.991491, 38.691363, 2607.4], [-119.991437, 38.691304, 2607.2], [-119.991412, 38.691266, 2607.2], [-119.991404, 38.691221, 2607.1], [-119.991354, 38.69114, 2604.2], [-119.991261, 38.691058, 2602.1], [-119.991266, 38.691038, 2601.3], [-119.991215, 38.690896, 2600.6], [-119.991226, 38.690869, 2599.2], [-119.991263, 38.690826, 2600.1], [-119.99126, 38.69076, 2600.9], [-119.991285, 38.690719, 2601.0], [-119.991335, 38.690696, 2600.3], [-119.991396, 38.690691, 2600.7], [-119.991473, 38.690698, 2598.9], [-119.991502, 38.690686, 2598.9], [-119.991634, 38.690685, 2598.5], [-119.991674, 38.690701, 2598.3], [-119.991701, 38.690701, 2598.3], [-119.991798, 38.690672, 2598.0], [-119.991834, 38.69064, 2599.0], [-119.991874, 38.690569, 2600.5], [-119.991913, 38.690526, 2602.1], [-119.991981, 38.690503, 2603.3], [-119.992006, 38.690479, 2603.1], [-119.992167, 38.690439, 2604.0], [-119.992226, 38.690417, 2603.7], [-119.992268, 38.690383, 2604.5], [-119.992297, 38.69038, 2604.6], [-119.992367, 38.690317, 2605.5], [-119.992409, 38.690306, 2605.9], [-119.99248, 38.690227, 2606.0], [-119.992493, 38.690169, 2605.9], [-119.992588, 38.690046, 2605.6], [-119.992598, 38.690009, 2604.7], [-119.992671, 38.689906, 2603.8], [-119.992712, 38.689871, 2603.5], [-119.992735, 38.689823, 2603.5], [-119.992766, 38.689787, 2605.2], [-119.992869, 38.689694, 2608.0], [-119.992874, 38.689669, 2608.7], [-119.992863, 38.689644, 2608.3], [-119.992871, 38.689619, 2607.0], [-119.992865, 38.689573, 2605.5], [-119.992841, 38.689527, 2605.3], [-119.992767, 38.689439, 2607.2], [-119.992743, 38.68943, 2607.2], [-119.992703, 38.689363, 2607.2], [-119.992658, 38.689252, 2606.1], [-119.992626, 38.689209, 2606.0], [-119.992625, 38.689119, 2603.6], [-119.992649, 38.6891, 2604.3], [-119.992678, 38.689, 2607.7], [-119.992661, 38.688958, 2608.7], [-119.992608, 38.688876, 2610.6], [-119.992565, 38.688838, 2611.7], [-119.992547, 38.688796, 2611.0], [-119.992547, 38.688775, 2611.7], [-119.992484, 38.688698, 2615.0], [-119.992434, 38.688599, 2618.7], [-119.992442, 38.68859, 2619.2], [-119.992419, 38.688488, 2622.4], [-119.992407, 38.68847, 2622.0], [-119.992406, 38.688419, 2623.2], [-119.992369, 38.688259, 2633.6], [-119.992277, 38.688164, 2636.5], [-119.992178, 38.688105, 2642.0], [-119.992095, 38.688045, 2643.5], [-119.992009, 38.687965, 2646.0], [-119.991912, 38.687891, 2648.3], [-119.991836, 38.687869, 2650.4], [-119.991747, 38.68782, 2654.0], [-119.991674, 38.687745, 2656.2], [-119.99155, 38.687655, 2665.7], [-119.991477, 38.687556, 2664.4], [-119.991385, 38.687485, 2663.9], [-119.991363, 38.687475, 2663.8], [-119.991274, 38.687451, 2663.1], [-119.991105, 38.687376, 2662.2], [-119.991044, 38.687326, 2662.0], [-119.990991, 38.68723, 2661.7], [-119.990911, 38.687152, 2661.3], [-119.990875, 38.687092, 2661.8], [-119.99078, 38.687007, 2662.9], [-119.990732, 38.686946, 2664.4], [-119.990728, 38.686935, 2663.9], [-119.990724, 38.68684, 2663.3], [-119.9907, 38.686792, 2664.4], [-119.990654, 38.686744, 2663.8], [-119.990608, 38.686649, 2662.4], [-119.990603, 38.686612, 2664.9], [-119.990616, 38.686589, 2663.1], [-119.990515, 38.686548, 2663.1], [-119.990479, 38.686508, 2662.4], [-119.990375, 38.686401, 2663.3], [-119.990323, 38.686319, 2663.0], [-119.990267, 38.686161, 2664.1], [-119.990218, 38.685921, 2662.1], [-119.990186, 38.685834, 2660.6], [-119.990132, 38.685786, 2661.2], [-119.990127, 38.685752, 2660.7], [-119.990095, 38.685699, 2660.7], [-119.990046, 38.68565, 2661.5], [-119.990013, 38.685594, 2664.0], [-119.990009, 38.685447, 2662.7], [-119.98999, 38.685397, 2661.9], [-119.989993, 38.685338, 2660.0], [-119.989967, 38.68532, 2659.4], [-119.989941, 38.685248, 2658.7], [-119.989913, 38.685157, 2658.5], [-119.989888, 38.685124, 2659.0], [-119.989871, 38.685077, 2659.0], [-119.989828, 38.684987, 2658.5], [-119.989808, 38.684916, 2658.3], [-119.989817, 38.684899, 2659.0], [-119.989811, 38.684875, 2660.0], [-119.989764, 38.684784, 2661.9], [-119.989763, 38.684737, 2661.9], [-119.989792, 38.684653, 2663.3], [-119.989826, 38.684603, 2663.9], [-119.98984, 38.684494, 2663.5], [-119.989833, 38.68445, 2663.7], [-119.989862, 38.684343, 2665.8], [-119.98991, 38.684282, 2666.1], [-119.98996, 38.68424, 2666.2], [-119.989993, 38.684178, 2667.3], [-119.990002, 38.684111, 2668.2], [-119.990043, 38.684065, 2669.8], [-119.990069, 38.684004, 2671.3], [-119.990026, 38.683892, 2670.6], [-119.990052, 38.683842, 2671.0], [-119.990195, 38.683712, 2671.1], [-119.990202, 38.683689, 2670.0], [-119.990324, 38.683666, 2673.1], [-119.990387, 38.683552, 2673.4], [-119.990447, 38.683508, 2674.2], [-119.990462, 38.68346, 2674.8], [-119.990497, 38.683406, 2675.2], [-119.990541, 38.683381, 2675.5], [-119.990567, 38.683342, 2676.8], [-119.990601, 38.683323, 2676.3], [-119.990615, 38.683335, 2675.5], [-119.990666, 38.683337, 2675.3], [-119.990724, 38.683296, 2674.8], [-119.990815, 38.683272, 2673.9], [-119.990892, 38.683231, 2673.0], [-119.99093, 38.683192, 2673.4], [-119.990964, 38.683137, 2673.8], [-119.990972, 38.683068, 2674.8], [-119.991007, 38.683007, 2674.7], [-119.991022, 38.682996, 2675.0], [-119.991057, 38.682946, 2674.8], [-119.991077, 38.682898, 2675.8], [-119.991145, 38.682832, 2675.9], [-119.991195, 38.682764, 2676.1], [-119.991234, 38.68267, 2675.7], [-119.991209, 38.682636, 2675.3], [-119.991212, 38.682612, 2675.6], [-119.991233, 38.682589, 2675.1], [-119.99124, 38.682565, 2675.0], [-119.991228, 38.682501, 2674.3], [-119.991216, 38.682373, 2674.6], [-119.99123, 38.682351, 2674.6], [-119.991214, 38.682316, 2675.8], [-119.991245, 38.682232, 2675.1], [-119.991253, 38.682169, 2675.9], [-119.991269, 38.68213, 2675.6], [-119.991269, 38.682083, 2676.1], [-119.991312, 38.681999, 2677.0], [-119.991318, 38.68191, 2676.6], [-119.991341, 38.681846, 2676.2], [-119.99136, 38.681701, 2677.1], [-119.991385, 38.681648, 2677.7], [-119.99137, 38.681606, 2679.2], [-119.991387, 38.681571, 2680.5], [-119.991387, 38.681521, 2684.6], [-119.991373, 38.6815, 2684.1], [-119.991411, 38.681385, 2685.4], [-119.991403, 38.681373, 2685.1], [-119.991413, 38.68132, 2684.3], [-119.991387, 38.68126, 2683.1], [-119.991375, 38.681185, 2682.5], [-119.991339, 38.681078, 2682.2], [-119.991329, 38.680977, 2680.2], [-119.991306, 38.6808, 2680.1], [-119.991278, 38.680772, 2681.4], [-119.991292, 38.680684, 2679.3], [-119.99133, 38.680591, 2677.9], [-119.991358, 38.680509, 2673.7], [-119.991369, 38.680438, 2673.2], [-119.991363, 38.680357, 2673.4], [-119.991465, 38.68021, 2673.1], [-119.991494, 38.68014, 2673.8], [-119.991458, 38.680069, 2675.9], [-119.991438, 38.679951, 2678.0], [-119.991456, 38.679889, 2677.4], [-119.991474, 38.679857, 2677.1], [-119.991481, 38.67975, 2676.5], [-119.991494, 38.679708, 2676.1], [-119.991519, 38.679533, 2673.0], [-119.991551, 38.67944, 2675.2], [-119.991535, 38.679313, 2677.4], [-119.991544, 38.679172, 2676.0], [-119.991532, 38.679154, 2676.3], [-119.991546, 38.679112, 2676.0], [-119.991589, 38.679026, 2677.8], [-119.991629, 38.678989, 2678.1], [-119.991649, 38.678925, 2679.7], [-119.991654, 38.67887, 2685.4], [-119.991686, 38.678806, 2688.0], [-119.991696, 38.678747, 2688.3], [-119.991754, 38.678657, 2690.1], [-119.991821, 38.678613, 2690.6], [-119.991858, 38.67858, 2691.0], [-119.991922, 38.678503, 2691.0], [-119.99199, 38.678461, 2691.3], [-119.99215, 38.678344, 2692.1], [-119.992261, 38.678295, 2692.1], [-119.992329, 38.678225, 2692.2], [-119.992402, 38.678174, 2693.7], [-119.992484, 38.678149, 2696.1], [-119.992532, 38.678116, 2695.6], [-119.992601, 38.678057, 2695.6], [-119.992686, 38.678007, 2696.8], [-119.992785, 38.677963, 2697.9], [-119.992884, 38.677899, 2698.9], [-119.99295, 38.677867, 2699.2], [-119.992991, 38.677829, 2699.7], [-119.993077, 38.677793, 2701.2], [-119.993181, 38.677736, 2700.7], [-119.993207, 38.677705, 2701.3], [-119.993215, 38.677671, 2702.0], [-119.993257, 38.677651, 2702.9], [-119.993288, 38.677625, 2704.4], [-119.993307, 38.677583, 2704.7], [-119.99335, 38.677546, 2705.7], [-119.993414, 38.677511, 2706.2], [-119.9935, 38.677401, 2707.4], [-119.993542, 38.677363, 2708.9], [-119.993568, 38.677353, 2708.9], [-119.993639, 38.67728, 2709.6], [-119.993643, 38.67727, 2709.8], [-119.993787, 38.677159, 2711.2], [-119.99392, 38.677039, 2716.2], [-119.993931, 38.677001, 2717.2], [-119.994, 38.676932, 2717.2], [-119.994042, 38.676852, 2718.1], [-119.994086, 38.676793, 2719.2], [-119.994115, 38.676729, 2720.4], [-119.994154, 38.676705, 2722.4], [-119.994182, 38.676642, 2723.4], [-119.99422, 38.676612, 2723.8], [-119.99429, 38.67652, 2728.5], [-119.994294, 38.676496, 2728.4], [-119.994313, 38.676473, 2729.1], [-119.994309, 38.676369, 2729.5], [-119.994332, 38.676273, 2730.2], [-119.994327, 38.676214, 2730.7], [-119.994315, 38.676172, 2732.7], [-119.994333, 38.676158, 2733.7], [-119.994331, 38.676131, 2733.3], [-119.994343, 38.676092, 2733.0], [-119.994334, 38.67603, 2734.4], [-119.994373, 38.675957, 2738.4], [-119.994419, 38.675792, 2740.4], [-119.994415, 38.675766, 2740.0], [-119.994467, 38.675674, 2741.2], [-119.994537, 38.675578, 2741.0], [-119.994559, 38.675501, 2739.6], [-119.994544, 38.675431, 2739.9], [-119.994575, 38.675328, 2742.9], [-119.9946, 38.675286, 2741.8], [-119.994621, 38.675165, 2741.8], [-119.99464, 38.675139, 2741.9], [-119.994696, 38.674996, 2740.9], [-119.994711, 38.67499, 2741.0], [-119.994747, 38.674943, 2741.8], [-119.994802, 38.674819, 2743.0], [-119.994815, 38.674807, 2742.6], [-119.994878, 38.674711, 2744.1], [-119.994952, 38.674625, 2742.2], [-119.994962, 38.674565, 2742.4], [-119.994988, 38.674541, 2742.5], [-119.995019, 38.674461, 2744.4], [-119.995027, 38.674379, 2744.3], [-119.995068, 38.674283, 2744.5], [-119.995081, 38.674242, 2745.1], [-119.995069, 38.67417, 2744.9], [-119.995095, 38.674096, 2745.6], [-119.995096, 38.674012, 2747.2], [-119.995124, 38.673916, 2747.0], [-119.995148, 38.673852, 2746.5], [-119.995151, 38.67379, 2745.3], [-119.995171, 38.67374, 2746.1], [-119.99518, 38.673732, 2745.7], [-119.995177, 38.673673, 2744.9], [-119.995245, 38.673583, 2744.4], [-119.995281, 38.67354, 2745.7], [-119.995338, 38.673407, 2746.4], [-119.99534, 38.673343, 2746.7], [-119.995375, 38.673218, 2747.4], [-119.995422, 38.673106, 2747.5], [-119.99541, 38.673086, 2747.4], [-119.995438, 38.67305, 2745.9], [-119.995493, 38.672902, 2748.1], [-119.995493, 38.672889, 2748.1], [-119.99557, 38.672735, 2747.4], [-119.995592, 38.672656, 2746.9], [-119.995625, 38.672608, 2745.9], [-119.995628, 38.672581, 2745.8], [-119.995697, 38.672462, 2745.4], [-119.995707, 38.672402, 2744.8], [-119.99571, 38.672355, 2743.3], [-119.99576, 38.672234, 2742.4], [-119.995778, 38.672163, 2742.1], [-119.99581, 38.672115, 2742.1], [-119.99586, 38.671927, 2743.7], [-119.995895, 38.671855, 2742.7], [-119.995985, 38.671758, 2742.9], [-119.996049, 38.671636, 2743.6], [-119.996057, 38.671633, 2743.9], [-119.996152, 38.671498, 2742.9], [-119.996193, 38.671472, 2743.6], [-119.996244, 38.671457, 2743.6], [-119.996349, 38.671462, 2742.7], [-119.996385, 38.671455, 2742.5], [-119.996544, 38.671413, 2742.8], [-119.996649, 38.671352, 2741.4], [-119.996772, 38.671294, 2741.0], [-119.996864, 38.671226, 2741.8], [-119.997, 38.671064, 2738.4], [-119.99701, 38.67105, 2737.9], [-119.997135, 38.670948, 2736.8], [-119.997187, 38.670911, 2736.7], [-119.997289, 38.670798, 2736.1], [-119.997298, 38.670781, 2735.8], [-119.997452, 38.67066, 2734.8], [-119.997457, 38.670651, 2734.8], [-119.997573, 38.670501, 2734.4], [-119.997593, 38.670445, 2734.7], [-119.997682, 38.670337, 2733.2], [-119.997716, 38.670253, 2733.4], [-119.997749, 38.670208, 2733.9], [-119.997775, 38.670193, 2733.6], [-119.997881, 38.67002, 2734.1], [-119.997913, 38.669989, 2734.7], [-119.997959, 38.669899, 2735.3], [-119.998017, 38.669841, 2735.3], [-119.998061, 38.669792, 2736.3], [-119.998074, 38.669754, 2736.2], [-119.99814, 38.66968, 2737.0], [-119.998185, 38.669636, 2738.2], [-119.998223, 38.669531, 2737.1], [-119.998253, 38.669401, 2740.2], [-119.998306, 38.669326, 2745.4], [-119.99834, 38.669323, 2748.6], [-119.998314, 38.669276, 2746.7], [-119.998381, 38.669206, 2746.8], [-119.998404, 38.669187, 2745.6], [-119.998479, 38.669063, 2745.5], [-119.998499, 38.669021, 2745.6], [-119.998522, 38.669002, 2746.2], [-119.998524, 38.668928, 2747.0], [-119.998551, 38.668871, 2749.2], [-119.998614, 38.668775, 2751.5], [-119.998606, 38.668721, 2752.7], [-119.998575, 38.66864, 2757.5], [-119.998565, 38.668572, 2758.1], [-119.998473, 38.668492, 2760.0], [-119.998471, 38.668466, 2762.2], [-119.998501, 38.66839, 2763.8], [-119.998574, 38.668313, 2765.2], [-119.998619, 38.668243, 2766.6], [-119.998716, 38.668149, 2770.7], [-119.99874, 38.668097, 2771.8], [-119.998794, 38.668064, 2774.9], [-119.998894, 38.667961, 2778.8], [-119.998948, 38.667931, 2782.1], [-119.998926, 38.667884, 2781.8], [-119.998816, 38.667751, 2789.4], [-119.998714, 38.667687, 2795.4], [-119.998614, 38.667663, 2800.5], [-119.998466, 38.667593, 2805.3], [-119.998474, 38.667568, 2809.4], [-119.998493, 38.667546, 2809.3], [-119.998465, 38.667531, 2810.6], [-119.998363, 38.667533, 2812.5], [-119.998271, 38.667521, 2815.4], [-119.998155, 38.667471, 2816.5], [-119.998032, 38.66741, 2817.3], [-119.998015, 38.667391, 2818.3], [-119.997931, 38.667379, 2820.7], [-119.997873, 38.667354, 2821.2], [-119.997775, 38.667265, 2821.1], [-119.997636, 38.667128, 2824.7], [-119.997439, 38.667029, 2828.5], [-119.997408, 38.667003, 2827.2], [-119.997327, 38.666971, 2827.8], [-119.99729, 38.666934, 2826.8], [-119.997242, 38.666909, 2827.4], [-119.997081, 38.666787, 2833.8], [-119.997073, 38.666776, 2834.0], [-119.9969, 38.666674, 2834.0], [-119.996763, 38.666533, 2832.4], [-119.996671, 38.666456, 2833.6], [-119.996577, 38.666435, 2834.8], [-119.996533, 38.666415, 2836.6], [-119.996506, 38.66637, 2837.5], [-119.996395, 38.666307, 2840.1], [-119.996311, 38.666204, 2843.1], [-119.996285, 38.666186, 2845.0], [-119.996237, 38.666172, 2846.7], [-119.996118, 38.666119, 2848.9], [-119.996103, 38.666096, 2850.1], [-119.996044, 38.666066, 2850.6], [-119.995906, 38.666015, 2854.8], [-119.99589, 38.665993, 2855.1], [-119.995846, 38.665975, 2856.2], [-119.995718, 38.665906, 2859.6], [-119.99568, 38.665852, 2858.9], [-119.995555, 38.665768, 2859.6], [-119.995524, 38.665758, 2859.9], [-119.995487, 38.665761, 2860.8], [-119.995475, 38.665754, 2860.8], [-119.995265, 38.665688, 2863.0], [-119.995232, 38.66567, 2862.9], [-119.995117, 38.665641, 2865.4], [-119.995045, 38.665611, 2867.6], [-119.994946, 38.665581, 2869.7], [-119.994837, 38.66551, 2870.5], [-119.99478, 38.665481, 2870.5], [-119.994732, 38.66542, 2870.7], [-119.994653, 38.665368, 2871.6], [-119.994564, 38.665278, 2871.5], [-119.994533, 38.665266, 2871.8], [-119.994456, 38.665201, 2874.3], [-119.994423, 38.665133, 2875.8], [-119.994419, 38.665099, 2875.6], [-119.994358, 38.665045, 2877.1], [-119.994277, 38.664952, 2879.6], [-119.994237, 38.664887, 2879.3], [-119.994147, 38.664819, 2880.4], [-119.994137, 38.664808, 2879.9], [-119.994061, 38.664757, 2880.7], [-119.994025, 38.664718, 2881.4], [-119.994031, 38.664663, 2879.9], [-119.994071, 38.66465, 2879.9], [-119.994067, 38.664567, 2879.9], [-119.994084, 38.664514, 2880.7], [-119.994134, 38.664483, 2882.6], [-119.994255, 38.664498, 2886.0], [-119.994289, 38.664484, 2887.0], [-119.994327, 38.664445, 2889.9], [-119.994331, 38.664399, 2891.0], [-119.994356, 38.664381, 2891.5], [-119.994283, 38.664378, 2895.8], [-119.994323, 38.664347, 2895.3], [-119.994325, 38.664325, 2895.4], [-119.994357, 38.664282, 2896.6], [-119.994374, 38.664228, 2896.1], [-119.994403, 38.664186, 2896.3], [-119.994513, 38.664128, 2897.0], [-119.994571, 38.664117, 2898.6], [-119.994735, 38.664137, 2901.4], [-119.994871, 38.664122, 2902.0], [-119.994959, 38.66408, 2904.2], [-119.995027, 38.664005, 2904.9], [-119.995148, 38.663972, 2910.9], [-119.995153, 38.663965, 2911.3], [-119.995272, 38.663916, 2911.9], [-119.995369, 38.663918, 2911.7], [-119.995453, 38.663879, 2911.7], [-119.995482, 38.663877, 2911.9], [-119.995578, 38.663902, 2913.4], [-119.99561, 38.663896, 2914.8], [-119.995707, 38.663908, 2920.5], [-119.995729, 38.663872, 2921.7], [-119.99576, 38.663863, 2922.3], [-119.995811, 38.663796, 2925.3], [-119.995853, 38.663756, 2926.8], [-119.995908, 38.663723, 2928.5], [-119.996033, 38.663717, 2929.5], [-119.996113, 38.663748, 2935.4], [-119.99615, 38.663729, 2934.6], [-119.996229, 38.663699, 2937.3], [-119.996239, 38.663725, 2939.0], [-119.99634, 38.663737, 2938.8], [-119.996459, 38.663705, 2937.9], [-119.996491, 38.663703, 2938.1], [-119.996521, 38.663717, 2939.4], [-119.996621, 38.663705, 2939.1], [-119.996612, 38.663717, 2939.2], [-119.996709, 38.66376, 2940.3], [-119.996787, 38.66376, 2943.1], [-119.996848, 38.66378, 2944.3], [-119.996909, 38.663808, 2947.2], [-119.996963, 38.663852, 2953.4], [-119.997047, 38.663881, 2955.3], [-119.997055, 38.663879, 2954.9], [-119.997113, 38.66394, 2955.8], [-119.99712, 38.663964, 2956.5], [-119.997139, 38.663864, 2956.0], [-119.997159, 38.663849, 2955.9], [-119.997175, 38.663806, 2955.9], [-119.997225, 38.663795, 2957.5], [-119.997233, 38.663774, 2957.6], [-119.997274, 38.663778, 2958.6], [-119.997317, 38.663758, 2958.5], [-119.997349, 38.663766, 2959.8], [-119.997424, 38.663761, 2960.7], [-119.997526, 38.663785, 2965.7], [-119.997535, 38.663806, 2967.3], [-119.997632, 38.663833, 2969.7], [-119.99771, 38.663808, 2971.9], [-119.997759, 38.663811, 2972.8], [-119.997889, 38.663809, 2976.9], [-119.997862, 38.663847, 2979.0], [-119.997802, 38.66387, 2981.0], [-119.9978, 38.663876, 2981.3], [-119.997886, 38.66387, 2984.0], [-119.997864, 38.663876, 2984.4], [-119.997891, 38.663888, 2985.3], [-119.997925, 38.663926, 2986.6], [-119.998018, 38.663948, 2990.0], [-119.9981, 38.663921, 2989.0], [-119.998156, 38.663924, 2990.2], [-119.998176, 38.663944, 2990.7], [-119.998278, 38.663958, 2993.4], [-119.998287, 38.663955, 2993.4], [-119.998424, 38.663946, 2995.8], [-119.998451, 38.663937, 2995.7], [-119.998516, 38.663943, 2996.6], [-119.998556, 38.66396, 2999.0], [-119.998664, 38.66399, 3003.2], [-119.998696, 38.663989, 3003.6], [-119.998724, 38.664004, 3004.7], [-119.998739, 38.664033, 3006.6], [-119.998772, 38.664058, 3006.4], [-119.9988, 38.664065, 3003.4], [-119.998848, 38.664099, 3005.2], [-119.998865, 38.664121, 3006.4], [-119.998918, 38.664133, 3006.8], [-119.998948, 38.664134, 3007.1], [-119.999062, 38.664167, 3009.5], [-119.999107, 38.664195, 3010.4], [-119.999121, 38.664234, 3010.6], [-119.999154, 38.664303, 3013.8], [-119.999194, 38.66434, 3014.9], [-119.999193, 38.664363, 3013.6], [-119.999277, 38.664425, 3015.4], [-119.999266, 38.664449, 3014.7], [-119.999273, 38.664473, 3014.7], [-119.999303, 38.664484, 3015.0], [-119.999317, 38.664506, 3015.0], [-119.99931, 38.664539, 3015.9], [-119.999327, 38.664562, 3018.1], [-119.999362, 38.664564, 3025.0], [-119.999374, 38.664587, 3025.2], [-119.999422, 38.664578, 3027.8], [-119.999349, 38.664635, 3027.1], [-119.99937, 38.664648, 3028.1], [-119.999403, 38.664642, 3026.8], [-119.999409, 38.664621, 3027.5], [-119.999378, 38.664608, 3030.6], [-119.999343, 38.66461, 3029.3], [-119.999302, 38.664728, 3027.2], [-119.999265, 38.664813, 3026.6], [-119.999248, 38.664829, 3026.3], [-119.999204, 38.664837, 3026.0], [-119.99916, 38.664872, 3025.5], [-119.999136, 38.664882, 3025.0], [-119.999012, 38.664915, 3022.1], [-119.998984, 38.664913, 3020.2], [-119.998931, 38.664729, 3017.5], [-119.998883, 38.66462, 3015.1], [-119.998841, 38.664586, 3013.0], [-119.998721, 38.664499, 3013.4], [-119.998666, 38.664444, 3011.9], [-119.99859, 38.664402, 3011.3], [-119.998036, 38.664169, 3009.8], [-119.998018, 38.664146, 2998.5], [-119.998015, 38.664121, 2998.0], [-119.998034, 38.664071, 2997.8], [-119.998029, 38.664053, 2997.6], [-119.997977, 38.664044, 3002.2], [-119.997839, 38.663983, 2999.5], [-119.997791, 38.663941, 2999.2], [-119.997755, 38.663902, 2997.6], [-119.997698, 38.663894, 2996.2], [-119.997683, 38.663871, 2996.3], [-119.997641, 38.663949, 2996.7], [-119.99755, 38.663988, 2993.3], [-119.99749, 38.663986, 2993.1], [-119.997403, 38.664002, 2992.4], [-119.997356, 38.663997, 2992.6], [-119.997087, 38.664052, 2984.4], [-119.997045, 38.664048, 2984.5], [-119.996991, 38.664054, 2984.6], [-119.996811, 38.664063, 2980.1], [-119.996536, 38.664112, 2973.3], [-119.996427, 38.664098, 2971.5], [-119.996343, 38.664018, 2970.5], [-119.996342, 38.663982, 2967.7], [-119.996312, 38.663955, 2964.9], [-119.996309, 38.663942, 2952.4], [-119.996266, 38.663955, 2952.1], [-119.996299, 38.663966, 2950.4], [-119.996337, 38.663945, 2948.7], [-119.996326, 38.663925, 2946.9], [-119.996278, 38.663944, 2947.2], [-119.996242, 38.663979, 2948.9], [-119.996176, 38.663969, 2946.0], [-119.996042, 38.663986, 2946.4], [-119.995991, 38.664001, 2945.7], [-119.995802, 38.664114, 2942.3], [-119.995744, 38.664132, 2940.5], [-119.995689, 38.664133, 2939.3], [-119.995194, 38.663963, 2937.3], [-119.995159, 38.663961, 2936.2], [-119.995139, 38.66398, 2933.6], [-119.995157, 38.664084, 2930.3], [-119.995135, 38.664076, 2927.6], [-119.995112, 38.664082, 2927.4], [-119.995052, 38.664077, 2927.1], [-119.995008, 38.66408, 2926.7], [-119.994893, 38.664161, 2923.0], [-119.994799, 38.664165, 2922.1], [-119.994662, 38.664148, 2920.2], [-119.994576, 38.664161, 2919.7], [-119.994554, 38.664175, 2918.3], [-119.994533, 38.66422, 2919.6], [-119.99451, 38.664244, 2918.1], [-119.994427, 38.664277, 2916.7], [-119.994364, 38.664281, 2915.5], [-119.994297, 38.66427, 2914.5], [-119.994061, 38.664175, 2909.5], [-119.993946, 38.664124, 2908.0], [-119.993823, 38.664085, 2907.7], [-119.993456, 38.664037, 2908.2], [-119.993315, 38.664033, 2907.3], [-119.993263, 38.664054, 2906.7], [-119.993263, 38.664089, 2904.0], [-119.993277, 38.664108, 2899.2], [-119.993255, 38.664126, 2893.2], [-119.993227, 38.664115, 2893.8], [-119.993124, 38.664188, 2894.6], [-119.993095, 38.664215, 2894.7], [-119.993066, 38.664223, 2894.5], [-119.993007, 38.664263, 2895.8], [-119.992963, 38.664304, 2896.8], [-119.992925, 38.664348, 2897.7], [-119.99292, 38.664369, 2898.3], [-119.992846, 38.664448, 2899.4], [-119.99284, 38.66445, 2899.5], [-119.992703, 38.664581, 2902.4], [-119.992604, 38.664748, 2903.8], [-119.9926, 38.664783, 2908.4], [-119.992691, 38.66491, 2908.5], [-119.992708, 38.664958, 2907.7], [-119.992778, 38.665074, 2907.3], [-119.992815, 38.665156, 2911.9], [-119.992845, 38.665157, 2911.5], [-119.992787, 38.665166, 2910.7], [-119.992814, 38.66523, 2914.2], [-119.992745, 38.665202, 2915.5], [-119.992673, 38.665182, 2918.0], [-119.992643, 38.66519, 2916.8], [-119.992623, 38.66517, 2917.1], [-119.992623, 38.665152, 2916.9], [-119.992581, 38.665106, 2917.2], [-119.992529, 38.665083, 2918.5], [-119.992469, 38.665074, 2919.4], [-119.992408, 38.665078, 2919.9], [-119.992361, 38.665066, 2920.9], [-119.992322, 38.66507, 2919.0], [-119.992305, 38.665088, 2919.6], [-119.992274, 38.665089, 2920.7], [-119.99222, 38.665117, 2922.3], [-119.992193, 38.665121, 2923.1], [-119.992166, 38.665094, 2923.8], [-119.992027, 38.665044, 2926.0], [-119.991889, 38.664955, 2926.7], [-119.991753, 38.664907, 2927.1], [-119.991738, 38.664904, 2927.1], [-119.991549, 38.664823, 2926.8], [-119.991311, 38.664755, 2921.6], [-119.991268, 38.664758, 2921.9], [-119.991224, 38.664737, 2921.9], [-119.991179, 38.664729, 2922.9], [-119.991143, 38.664714, 2924.0], [-119.991028, 38.664605, 2926.3], [-119.990982, 38.66457, 2922.2], [-119.990893, 38.664562, 2922.6], [-119.990804, 38.664532, 2919.4], [-119.990731, 38.664605, 2917.3], [-119.990712, 38.66461, 2917.4], [-119.990651, 38.664557, 2914.8], [-119.990589, 38.664537, 2916.6], [-119.990501, 38.664489, 2915.6], [-119.990285, 38.664445, 2911.0], [-119.990225, 38.664435, 2909.5], [-119.990093, 38.664402, 2908.0], [-119.989895, 38.664381, 2906.5], [-119.989732, 38.664403, 2904.6], [-119.989722, 38.66442, 2903.0], [-119.989723, 38.664454, 2902.0], [-119.989769, 38.664556, 2893.7], [-119.989807, 38.664598, 2889.6], [-119.989964, 38.664698, 2887.8], [-119.99002, 38.664758, 2886.8], [-119.990113, 38.664848, 2885.0], [-119.990151, 38.664903, 2884.5], [-119.990152, 38.664929, 2883.4], [-119.990124, 38.664957, 2882.2], [-119.990097, 38.664968, 2881.8], [-119.989677, 38.665033, 2877.5], [-119.989663, 38.665041, 2878.2], [-119.989638, 38.665082, 2876.3], [-119.989584, 38.66512, 2874.8], [-119.989544, 38.665133, 2874.7], [-119.989448, 38.665134, 2873.6], [-119.989396, 38.665155, 2872.5], [-119.989384, 38.665174, 2874.5], [-119.989431, 38.665187, 2863.5], [-119.989435, 38.665231, 2861.4], [-119.989482, 38.665303, 2857.3], [-119.989528, 38.665323, 2856.7], [-119.989619, 38.665405, 2855.0], [-119.989733, 38.6655, 2851.8], [-119.989724, 38.665521, 2851.3], [-119.989645, 38.665576, 2850.0], [-119.989599, 38.665613, 2847.6], [-119.989265, 38.665852, 2846.0], [-119.989166, 38.665946, 2844.6], [-119.98913, 38.665974, 2843.7], [-119.988998, 38.666102, 2840.5], [-119.988923, 38.666207, 2839.3], [-119.988904, 38.666239, 2839.2], [-119.988893, 38.666308, 2837.9], [-119.988846, 38.666507, 2833.7], [-119.988806, 38.666662, 2831.0], [-119.988779, 38.666695, 2830.7], [-119.98867, 38.666768, 2832.6], [-119.988681, 38.666797, 2832.6], [-119.988708, 38.666807, 2832.0], [-119.988741, 38.666804, 2831.8], [-119.988726, 38.666828, 2829.4], [-119.98867, 38.666851, 2828.0], [-119.988665, 38.666876, 2826.9], [-119.988631, 38.666883, 2826.7], [-119.988671, 38.666919, 2823.7], [-119.98868, 38.666939, 2825.0], [-119.988629, 38.666993, 2824.1], [-119.988599, 38.666998, 2823.2], [-119.988582, 38.667013, 2821.6], [-119.988589, 38.667074, 2822.3], [-119.988569, 38.667085, 2821.3], [-119.988535, 38.667084, 2818.1], [-119.988544, 38.667059, 2812.0], [-119.988488, 38.667075, 2811.3], [-119.9885, 38.667106, 2810.3], [-119.988475, 38.667121, 2810.9], [-119.988461, 38.667159, 2808.6], [-119.988529, 38.667191, 2808.7], [-119.988549, 38.667234, 2807.8], [-119.988586, 38.667272, 2806.3], [-119.988586, 38.66729, 2805.7], [-119.988618, 38.667276, 2796.0], [-119.988641, 38.667296, 2795.7], [-119.98864, 38.667354, 2793.6], [-119.988684, 38.667384, 2793.3], [-119.988698, 38.667412, 2792.5], [-119.988691, 38.667434, 2792.7], [-119.988668, 38.667436, 2791.6], [-119.988632, 38.667476, 2784.4], [-119.988721, 38.667524, 2781.5], [-119.988792, 38.667618, 2778.9], [-119.98882, 38.667622, 2772.3], [-119.988844, 38.667605, 2771.8], [-119.988881, 38.667606, 2770.7], [-119.988984, 38.667597, 2768.6], [-119.989016, 38.66761, 2767.4], [-119.989068, 38.667664, 2767.1], [-119.989095, 38.667755, 2765.8], [-119.989097, 38.667895, 2764.8], [-119.989096, 38.667967, 2765.3], [-119.98906, 38.668083, 2763.7], [-119.989011, 38.668194, 2760.9], [-119.989, 38.668342, 2757.3], [-119.988955, 38.668483, 2754.4], [-119.98895, 38.668532, 2753.3], [-119.988956, 38.668596, 2753.4], [-119.988981, 38.668614, 2752.6], [-119.988935, 38.668702, 2752.1], [-119.988914, 38.668676, 2752.0], [-119.988935, 38.668673, 2753.4], [-119.988968, 38.668697, 2753.4], [-119.988993, 38.668801, 2754.0], [-119.988975, 38.668873, 2754.7], [-119.989003, 38.668901, 2754.3], [-119.988943, 38.668913, 2754.2], [-119.988906, 38.668947, 2754.7], [-119.988874, 38.668954, 2755.8], [-119.98887, 38.669038, 2757.5], [-119.988834, 38.669117, 2758.2], [-119.988843, 38.669152, 2759.5], [-119.988884, 38.669196, 2758.4], [-119.988899, 38.66924, 2759.2], [-119.988894, 38.669283, 2759.5], [-119.988851, 38.669299, 2759.4], [-119.988797, 38.669326, 2758.8], [-119.988758, 38.669367, 2758.2], [-119.988753, 38.669392, 2760.5], [-119.98878, 38.669401, 2762.9], [-119.988887, 38.669389, 2762.4], [-119.988917, 38.6694, 2760.6], [-119.988952, 38.66954, 2757.7], [-119.989015, 38.669636, 2756.4], [-119.989029, 38.669728, 2754.6], [-119.988999, 38.669809, 2756.5], [-119.989016, 38.669901, 2755.6], [-119.989027, 38.669916, 2756.1], [-119.988988, 38.669976, 2758.6], [-119.988995, 38.670001, 2758.6], [-119.988949, 38.670058, 2761.5], [-119.988868, 38.670116, 2764.4], [-119.988824, 38.670172, 2763.5], [-119.988809, 38.670198, 2763.3], [-119.988751, 38.670249, 2767.7], [-119.988692, 38.670324, 2772.0], [-119.988652, 38.670335, 2772.0], [-119.988555, 38.670395, 2773.0], [-119.988507, 38.670442, 2772.6], [-119.988472, 38.670441, 2773.2], [-119.988457, 38.670465, 2773.1], [-119.988413, 38.670485, 2772.1], [-119.988323, 38.670589, 2776.7], [-119.988308, 38.670636, 2777.3], [-119.988281, 38.670675, 2780.3], [-119.988235, 38.670691, 2781.4], [-119.988164, 38.670795, 2783.4], [-119.988104, 38.670829, 2783.9], [-119.988036, 38.670848, 2786.5], [-119.987996, 38.670872, 2786.5], [-119.987861, 38.67091, 2786.6], [-119.987732, 38.670976, 2790.3], [-119.987653, 38.67107, 2789.0], [-119.987564, 38.67125, 2792.7], [-119.987557, 38.67127, 2793.5], [-119.987566, 38.671296, 2794.3], [-119.987554, 38.671317, 2794.1], [-119.987542, 38.671405, 2794.2], [-119.987512, 38.671438, 2794.5], [-119.987274, 38.671567, 2796.1], [-119.987148, 38.671654, 2797.3], [-119.987098, 38.671666, 2797.4], [-119.98705, 38.671696, 2798.4], [-119.986967, 38.671723, 2799.2], [-119.986871, 38.671735, 2797.9], [-119.986743, 38.671818, 2799.4], [-119.98672, 38.671807, 2799.6], [-119.986671, 38.671817, 2800.1], [-119.986535, 38.671906, 2802.7], [-119.98649, 38.671924, 2805.5], [-119.986348, 38.672101, 2805.7], [-119.98627, 38.672169, 2806.7], [-119.986245, 38.672208, 2807.4], [-119.986189, 38.672236, 2807.5], [-119.986096, 38.672349, 2810.4], [-119.986039, 38.672452, 2813.9], [-119.986031, 38.672491, 2814.9], [-119.985913, 38.672623, 2817.5], [-119.985856, 38.672632, 2817.4], [-119.985819, 38.672756, 2818.4], [-119.985799, 38.672775, 2818.7], [-119.985755, 38.672783, 2819.0], [-119.985621, 38.672863, 2820.4], [-119.985586, 38.672907, 2822.3], [-119.985522, 38.672945, 2822.0], [-119.985435, 38.67309, 2824.7], [-119.985393, 38.673142, 2825.7], [-119.985394, 38.673194, 2826.1], [-119.985371, 38.673246, 2825.3], [-119.985334, 38.673426, 2826.5], [-119.9853, 38.673566, 2831.0], [-119.985304, 38.673644, 2831.9], [-119.985254, 38.673833, 2830.8], [-119.985213, 38.673888, 2831.5], [-119.985211, 38.673986, 2832.5], [-119.985214, 38.674, 2832.5], [-119.985144, 38.674121, 2836.1], [-119.985122, 38.674103, 2839.9], [-119.985126, 38.674128, 2841.0], [-119.985118, 38.674153, 2841.5], [-119.985079, 38.674192, 2843.6], [-119.985045, 38.674271, 2843.8], [-119.985043, 38.674327, 2843.8], [-119.98503, 38.674347, 2846.2], [-119.984983, 38.674385, 2848.0], [-119.98491, 38.67442, 2849.2], [-119.984856, 38.674471, 2851.7], [-119.98486, 38.674495, 2852.2], [-119.984809, 38.674519, 2854.7], [-119.984808, 38.674564, 2855.0], [-119.984769, 38.674609, 2858.4], [-119.984737, 38.674619, 2859.4], [-119.984719, 38.674637, 2860.4], [-119.984661, 38.674645, 2861.8], [-119.984584, 38.674691, 2863.2], [-119.984569, 38.674717, 2867.6], [-119.984575, 38.674749, 2867.6], [-119.984533, 38.674755, 2867.8], [-119.984514, 38.674777, 2868.3], [-119.984523, 38.6748, 2868.7], [-119.984443, 38.674828, 2870.0], [-119.984417, 38.674878, 2870.0], [-119.98436, 38.674948, 2874.9], [-119.984324, 38.674972, 2875.8], [-119.984298, 38.675014, 2876.9], [-119.984292, 38.675124, 2876.8], [-119.984294, 38.675146, 2877.0], [-119.984232, 38.675233, 2879.7], [-119.984209, 38.675244, 2880.5], [-119.984206, 38.675303, 2882.1], [-119.984166, 38.675333, 2884.5], [-119.984099, 38.675345, 2887.6], [-119.984024, 38.675344, 2887.9], [-119.984, 38.675444, 2889.5], [-119.983981, 38.675473, 2889.5], [-119.983969, 38.675513, 2889.9], [-119.983978, 38.675555, 2890.8], [-119.983971, 38.675575, 2891.3], [-119.983946, 38.675593, 2891.8], [-119.983962, 38.675679, 2892.4], [-119.983941, 38.675706, 2892.5], [-119.98384, 38.67587, 2895.0], [-119.983816, 38.675931, 2895.3], [-119.983773, 38.675964, 2896.5], [-119.983715, 38.676051, 2897.5], [-119.983681, 38.676082, 2898.2], [-119.983679, 38.676107, 2897.0], [-119.983738, 38.676181, 2899.2], [-119.983735, 38.676233, 2900.6], [-119.983739, 38.676279, 2901.6], [-119.983724, 38.676343, 2902.2], [-119.983731, 38.676412, 2902.5], [-119.983719, 38.676443, 2902.4], [-119.983732, 38.676482, 2902.0], [-119.983729, 38.676509, 2901.7], [-119.983701, 38.676577, 2901.2], [-119.983649, 38.676683, 2902.4], [-119.983556, 38.676848, 2906.2], [-119.983521, 38.676882, 2904.7], [-119.983496, 38.676926, 2904.1], [-119.98346, 38.677021, 2903.0], [-119.983446, 38.677093, 2903.8], [-119.983467, 38.677143, 2908.7], [-119.983467, 38.677169, 2908.1], [-119.983432, 38.677154, 2908.5], [-119.983424, 38.677178, 2909.2], [-119.983383, 38.677222, 2908.0], [-119.983196, 38.677097, 2900.0], [-119.983164, 38.677086, 2899.2], [-119.983098, 38.677043, 2895.5], [-119.983048, 38.677026, 2894.2], [-119.982886, 38.676951, 2885.2], [-119.982819, 38.676886, 2881.9], [-119.98277, 38.676869, 2879.3], [-119.982696, 38.676859, 2875.8], [-119.982655, 38.676836, 2873.2], [-119.982562, 38.676796, 2874.2], [-119.982456, 38.676762, 2869.1], [-119.982411, 38.676728, 2866.8], [-119.982364, 38.676656, 2857.7], [-119.982316, 38.676613, 2854.9], [-119.982146, 38.676395, 2853.3], [-119.98208, 38.67638, 2841.8], [-119.98194, 38.676339, 2832.3], [-119.981884, 38.676302, 2833.0], [-119.981828, 38.67628, 2830.4], [-119.981796, 38.676248, 2827.8], [-119.981752, 38.676183, 2823.2], [-119.981724, 38.67616, 2821.7], [-119.981651, 38.676083, 2813.7], [-119.98153, 38.675993, 2807.6], [-119.981423, 38.67589, 2802.1], [-119.981376, 38.675878, 2803.7], [-119.981333, 38.675959, 2789.4], [-119.981324, 38.675983, 2779.9], [-119.981167, 38.676064, 2777.8], [-119.980975, 38.676107, 2774.7], [-119.980093, 38.676538, 2756.3], [-119.980054, 38.676577, 2755.5], [-119.98002, 38.676592, 2752.8], [-119.979968, 38.676499, 2742.7], [-119.979936, 38.67646, 2739.5], [-119.979949, 38.676438, 2736.4], [-119.979989, 38.676411, 2734.4], [-119.979998, 38.676388, 2728.7], [-119.979709, 38.67651, 2728.4], [-119.979698, 38.676495, 2725.6], [-119.979706, 38.67647, 2725.0], [-119.979758, 38.676369, 2724.8], [-119.979778, 38.676349, 2724.6], [-119.979815, 38.676296, 2724.3], [-119.979832, 38.676244, 2723.2], [-119.979819, 38.676217, 2719.0], [-119.979611, 38.676122, 2711.2], [-119.979586, 38.676126, 2709.3], [-119.979466, 38.676113, 2709.2], [-119.979393, 38.676146, 2709.1], [-119.979363, 38.676147, 2702.8], [-119.979363, 38.67612, 2701.9], [-119.979346, 38.676107, 2701.3], [-119.97931, 38.676106, 2692.8], [-119.979161, 38.676151, 2692.3], [-119.978993, 38.676234, 2691.1], [-119.978782, 38.676407, 2688.7], [-119.978805, 38.676417, 2685.1], [-119.978836, 38.676408, 2681.0], [-119.978589, 38.676576, 2677.5], [-119.978574, 38.676599, 2675.6], [-119.978481, 38.676648, 2676.3], [-119.97849, 38.676639, 2676.2], [-119.978366, 38.676812, 2671.5], [-119.978346, 38.67685, 2671.1], [-119.978312, 38.676981, 2670.2], [-119.978289, 38.677034, 2670.1], [-119.978269, 38.677136, 2666.3], [-119.978173, 38.677498, 2657.6], [-119.978121, 38.67756, 2661.4], [-119.978114, 38.677614, 2660.9], [-119.978119, 38.677642, 2661.6], [-119.978088, 38.677732, 2656.7], [-119.97809, 38.677802, 2656.5], [-119.978056, 38.677804, 2660.2], [-119.978053, 38.677822, 2660.7], [-119.978101, 38.677948, 2662.8], [-119.978116, 38.678028, 2665.6], [-119.978106, 38.678069, 2665.5], [-119.978112, 38.67809, 2665.1], [-119.97809, 38.678122, 2668.9], [-119.978104, 38.67815, 2667.4], [-119.978092, 38.678193, 2666.9], [-119.978114, 38.678296, 2663.8], [-119.97811, 38.67842, 2665.6], [-119.978118, 38.678462, 2665.7], [-119.978099, 38.678535, 2667.2], [-119.978102, 38.678609, 2668.8], [-119.978079, 38.678678, 2670.7], [-119.978075, 38.678922, 2669.3], [-119.978067, 38.679015, 2670.6], [-119.978077, 38.679113, 2671.4], [-119.978087, 38.679145, 2670.6], [-119.978077, 38.679188, 2671.1], [-119.978076, 38.679297, 2671.9], [-119.978114, 38.679425, 2670.9], [-119.978151, 38.679458, 2671.4], [-119.97823, 38.679494, 2674.1], [-119.978252, 38.679513, 2673.9], [-119.978264, 38.679542, 2672.2], [-119.978271, 38.679591, 2672.8], [-119.978329, 38.679633, 2672.9], [-119.97831, 38.679639, 2679.0], [-119.978444, 38.679686, 2678.2], [-119.978594, 38.679676, 2677.3], [-119.978744, 38.679703, 2676.2], [-119.978902, 38.679788, 2677.2], [-119.979066, 38.679857, 2677.2], [-119.979097, 38.679855, 2676.5], [-119.979168, 38.679913, 2679.5], [-119.979198, 38.67993, 2679.6], [-119.979225, 38.679932, 2679.0], [-119.979295, 38.679972, 2680.6], [-119.979358, 38.679989, 2681.2], [-119.97943, 38.680035, 2682.0], [-119.979448, 38.680055, 2683.8], [-119.979507, 38.680069, 2685.3], [-119.979566, 38.680126, 2687.4], [-119.979608, 38.680136, 2687.1], [-119.979644, 38.680172, 2687.7], [-119.979842, 38.680291, 2695.0], [-119.979908, 38.680345, 2695.4], [-119.979984, 38.680444, 2695.0], [-119.98012, 38.68056, 2698.7], [-119.980129, 38.680585, 2697.0], [-119.980156, 38.680606, 2698.9], [-119.980343, 38.680653, 2699.9], [-119.980445, 38.680659, 2698.9], [-119.980535, 38.680645, 2697.0], [-119.980842, 38.680689, 2702.1], [-119.98101, 38.680725, 2706.0], [-119.981099, 38.680708, 2707.9], [-119.981141, 38.680711, 2707.9], [-119.981165, 38.680731, 2716.6], [-119.981225, 38.680738, 2716.9], [-119.981313, 38.680704, 2718.5], [-119.981381, 38.680696, 2721.6], [-119.981476, 38.680717, 2723.0], [-119.981565, 38.68071, 2726.1], [-119.981651, 38.680723, 2732.5], [-119.981812, 38.680723, 2734.5], [-119.981834, 38.680744, 2734.9], [-119.981898, 38.680749, 2737.8], [-119.981932, 38.680761, 2738.0], [-119.98202, 38.680825, 2740.7], [-119.982026, 38.680826, 2741.0], [-119.982213, 38.680969, 2745.0], [-119.982227, 38.680991, 2745.7], [-119.982257, 38.681006, 2747.7], [-119.982351, 38.681094, 2753.4], [-119.982394, 38.681156, 2755.9], [-119.982412, 38.681171, 2756.1], [-119.982539, 38.6813, 2761.2], [-119.982596, 38.681409, 2766.3], [-119.98259, 38.681435, 2766.5], [-119.982619, 38.681504, 2767.0], [-119.982609, 38.681607, 2771.6], [-119.982618, 38.681642, 2771.5], [-119.98266, 38.681755, 2773.5], [-119.982681, 38.681782, 2773.5], [-119.982691, 38.681736, 2770.9], [-119.982708, 38.681729, 2770.6], [-119.982957, 38.681744, 2771.2], [-119.983049, 38.68181, 2771.7], [-119.983059, 38.681835, 2771.4], [-119.983075, 38.68184, 2774.3], [-119.983096, 38.681872, 2774.1], [-119.983204, 38.68196, 2774.6], [-119.983391, 38.682028, 2773.5], [-119.98341, 38.682031, 2773.4], [-119.983477, 38.682061, 2773.0], [-119.983589, 38.682192, 2771.5], [-119.983618, 38.682229, 2771.5], [-119.983675, 38.682283, 2771.7], [-119.983762, 38.682308, 2771.3], [-119.983787, 38.682298, 2768.0], [-119.983858, 38.682365, 2768.1], [-119.983968, 38.682481, 2766.0], [-119.984024, 38.682554, 2765.2], [-119.984047, 38.682601, 2765.0], [-119.984059, 38.682649, 2764.7], [-119.984064, 38.682739, 2764.5], [-119.984445, 38.683292, 2759.1], [-119.984537, 38.683337, 2757.8], [-119.984821, 38.683522, 2754.2], [-119.984882, 38.683568, 2753.1], [-119.985007, 38.683737, 2748.7], [-119.98509, 38.683819, 2746.0], [-119.985122, 38.683836, 2746.1], [-119.98525, 38.68392, 2744.3], [-119.985317, 38.684017, 2742.3], [-119.985349, 38.684049, 2741.5], [-119.985443, 38.684101, 2738.3], [-119.985462, 38.684088, 2737.3], [-119.985487, 38.684095, 2736.2], [-119.985546, 38.684144, 2735.9], [-119.985647, 38.6842, 2736.7], [-119.9866, 38.684751, 2723.6], [-119.986825, 38.684947, 2723.0], [-119.986852, 38.684974, 2716.7], [-119.986871, 38.685007, 2716.6], [-119.986896, 38.685074, 2716.6], [-119.986892, 38.685168, 2716.7], [-119.986876, 38.685227, 2715.8], [-119.986827, 38.685297, 2715.0], [-119.986745, 38.685421, 2714.9], [-119.986714, 38.68545, 2715.4], [-119.986694, 38.685459, 2714.8], [-119.98667, 38.685547, 2713.7], [-119.986627, 38.685649, 2712.6], [-119.986609, 38.685666, 2712.2], [-119.986563, 38.685733, 2712.3], [-119.986498, 38.685902, 2711.3], [-119.986548, 38.686741, 2697.5], [-119.98657, 38.686793, 2695.8], [-119.986563, 38.686976, 2693.1], [-119.986596, 38.68702, 2692.4], [-119.986607, 38.687049, 2691.7], [-119.986644, 38.687097, 2691.1], [-119.986675, 38.687092, 2689.9], [-119.986693, 38.687106, 2691.1], [-119.986721, 38.687111, 2692.3], [-119.986804, 38.687099, 2693.0], [-119.986818, 38.687102, 2692.7], [-119.986948, 38.687098, 2691.9], [-119.98705, 38.687121, 2691.5], [-119.987263, 38.687142, 2690.9], [-119.987273, 38.68714, 2690.2], [-119.987465, 38.687179, 2691.0], [-119.987684, 38.687203, 2690.9], [-119.987753, 38.687197, 2691.0], [-119.987865, 38.687126, 2689.8], [-119.987936, 38.687098, 2689.3], [-119.988021, 38.687075, 2688.8], [-119.98816, 38.687006, 2687.2], [-119.98819, 38.686999, 2687.8], [-119.988359, 38.686981, 2690.0], [-119.98892, 38.687038, 2683.5], [-119.988894, 38.687034, 2681.3], [-119.988966, 38.687136, 2681.3], [-119.989085, 38.68729, 2680.6], [-119.989126, 38.687361, 2681.5], [-119.989141, 38.687423, 2679.3], [-119.989137, 38.687519, 2678.7], [-119.989141, 38.687534, 2678.2], [-119.989195, 38.6876, 2677.9], [-119.989398, 38.687673, 2673.1], [-119.989439, 38.68768, 2672.1], [-119.989591, 38.68766, 2667.2], [-119.98977, 38.687603, 2667.5], [-119.989885, 38.687584, 2667.3], [-119.990033, 38.687528, 2667.7], [-119.990066, 38.687518, 2667.4], [-119.990184, 38.687469, 2668.1], [-119.990287, 38.68744, 2666.1], [-119.990291, 38.687427, 2665.8], [-119.990357, 38.687323, 2664.8], [-119.990378, 38.68731, 2665.3], [-119.990492, 38.687365, 2664.0], [-119.990526, 38.687386, 2663.1], [-119.990726, 38.687521, 2665.9], [-119.990815, 38.687551, 2667.4], [-119.990848, 38.687543, 2665.4], [-119.990875, 38.687551, 2664.2], [-119.990975, 38.687643, 2664.8], [-119.99099, 38.687649, 2665.0], [-119.991064, 38.687613, 2665.0], [-119.991203, 38.687623, 2666.7], [-119.991242, 38.687616, 2665.9], [-119.991436, 38.687562, 2663.3], [-119.991479, 38.687554, 2662.9], [-119.991553, 38.687566, 2663.1], [-119.991637, 38.687682, 2664.3], [-119.991657, 38.687727, 2665.1], [-119.991715, 38.687759, 2665.4], [-119.991804, 38.687836, 2664.0], [-119.991841, 38.687874, 2663.9], [-119.991914, 38.687957, 2664.5], [-119.992016, 38.68817, 2663.6], [-119.992029, 38.6882, 2663.4], [-119.992132, 38.688491, 2655.9], [-119.992136, 38.68853, 2654.7], [-119.992135, 38.688638, 2652.2], [-119.992122, 38.688701, 2652.2], [-119.99199, 38.688937, 2650.6], [-119.991977, 38.688995, 2650.1], [-119.991952, 38.689053, 2649.2], [-119.991876, 38.689171, 2647.5], [-119.991954, 38.689183, 2650.1], [-119.991625, 38.689728, 2646.8], [-119.991516, 38.689825, 2646.3], [-119.991485, 38.689824, 2644.6], [-119.991437, 38.689856, 2644.4], [-119.991329, 38.689962, 2644.3], [-119.991214, 38.690078, 2643.8], [-119.991078, 38.690148, 2643.3], [-119.991055, 38.690164, 2643.9], [-119.990978, 38.690237, 2637.6], [-119.990832, 38.690281, 2637.3], [-119.990748, 38.690321, 2636.8], [-119.99073, 38.690377, 2634.2], [-119.990737, 38.690467, 2633.7], [-119.990779, 38.690607, 2634.0], [-119.990775, 38.690644, 2633.1], [-119.990756, 38.690726, 2634.6], [-119.99074, 38.690739, 2632.6], [-119.990705, 38.690748, 2629.8], [-119.990657, 38.690732, 2627.7], [-119.99063, 38.69074, 2623.2], [-119.990602, 38.690776, 2621.6], [-119.990549, 38.690908, 2621.1], [-119.990545, 38.690954, 2620.2], [-119.99053, 38.69097, 2618.6], [-119.990526, 38.691, 2619.7], [-119.990506, 38.691075, 2618.8], [-119.990534, 38.691121, 2618.1], [-119.990522, 38.691139, 2620.9], [-119.990486, 38.691156, 2618.3], [-119.990446, 38.691225, 2615.2], [-119.990478, 38.691328, 2614.3], [-119.990463, 38.691394, 2615.3], [-119.990462, 38.691441, 2615.0], [-119.990486, 38.691484, 2616.8], [-119.990521, 38.691491, 2616.7], [-119.990582, 38.69149, 2621.0], [-119.990628, 38.691511, 2621.6], [-119.990653, 38.691575, 2622.3], [-119.990643, 38.691626, 2621.4], [-119.990643, 38.691682, 2620.9], [-119.990631, 38.691721, 2620.3], [-119.990637, 38.691748, 2619.7], [-119.990674, 38.6918, 2620.6], [-119.990697, 38.691857, 2622.5], [-119.9907, 38.691905, 2621.6], [-119.990688, 38.691997, 2620.0], [-119.99069, 38.692015, 2620.2], [-119.99076, 38.692155, 2620.8], [-119.990775, 38.69219, 2620.3], [-119.990748, 38.69223, 2620.6], [-119.990784, 38.692391, 2627.0], [-119.990736, 38.692556, 2625.0], [-119.990677, 38.692598, 2624.1], [-119.990597, 38.69273, 2624.2], [-119.99056, 38.692752, 2624.2], [-119.990476, 38.69276, 2623.8], [-119.990416, 38.692751, 2623.6], [-119.990362, 38.692791, 2623.8], [-119.99028, 38.69283, 2624.1], [-119.990125, 38.693139, 2621.5], [-119.990097, 38.693235, 2620.4], [-119.990126, 38.693335, 2620.5], [-119.990166, 38.693422, 2621.0], [-119.99016, 38.693658, 2619.3], [-119.990139, 38.693838, 2617.5], [-119.990152, 38.693884, 2617.7], [-119.990144, 38.693905, 2615.7], [-119.99005, 38.693909, 2613.8], [-119.989963, 38.693931, 2613.7], [-119.989825, 38.694031, 2611.1], [-119.989753, 38.694097, 2609.1], [-119.989728, 38.694112, 2608.4], [-119.989657, 38.694181, 2608.0], [-119.989617, 38.69427, 2606.3], [-119.98958, 38.694318, 2606.1], [-119.989545, 38.694417, 2606.8], [-119.989502, 38.69446, 2606.1], [-119.989338, 38.694724, 2609.3], [-119.989326, 38.69476, 2609.3], [-119.989327, 38.694805, 2608.7], [-119.989347, 38.694819, 2610.1], [-119.989371, 38.694945, 2610.2], [-119.989413, 38.695044, 2610.4], [-119.989454, 38.695078, 2611.2], [-119.989506, 38.69515, 2612.0], [-119.989503, 38.695188, 2610.6], [-119.989515, 38.695219, 2605.1], [-119.989456, 38.695138, 2603.4], [-119.989412, 38.695103, 2604.2]]}}