{"type": "Feature", "properties": {}, "geometry": {"type": "LineString", "coordinates": [[-119.663411, 37.664876, 2212.6], [-119.663878, 37.665442, 2203.3], [-119.664068, 37.665603, 2201.3], [-119.664277, 37.666013, 2198.0], [-119.664141, 37.66641, 2200.3], [-119.663741, 37.666872, 2203.7], [-119.662845, 37.667464, 2209.5], [-119.6625, 37.667605, 2211.4], [-119.66175, 37.667829, 2215.3], [-119.661323, 37.668076, 2217.5], [-119.660898, 37.668207, 2219.5], [-119.660494, 37.668411, 2221.5], [-119.659379, 37.669076, 2227.2], [-119.659121, 37.669348, 2228.8], [-119.658722, 37.66963, 2230.8], [-119.658242, 37.670167, 2234.1], [-119.658003, 37.670372, 2236.6], [-119.65766, 37.670876, 2239.7], [-119.657122, 37.6715, 2242.7], [-119.656656, 37.671837, 2243.4], [-119.655973, 37.672442, 2242.1], [-119.654913, 37.673036, 2237.0], [-119.654714, 37.673098, 2236.1], [-119.653746, 37.673527, 2231.1], [-119.653523, 37.673665, 2230.0], [-119.653306, 37.673612, 2229.4], [-119.652223, 37.673791, 2227.5], [-119.651478, 37.674007, 2226.2], [-119.651117, 37.674051, 2226.2], [-119.6506, 37.674248, 2227.0], [-119.650277, 37.674251, 2227.4], [-119.649867, 37.674349, 2227.8], [-119.649602, 37.674322, 2227.9], [-119.649199, 37.674415, 2228.1], [-119.648583, 37.674384, 2228.4], [-119.648172, 37.674311, 2228.6], [-119.647239, 37.673924, 2227.8], [-119.646813, 37.6737, 2226.6], [-119.646285, 37.673296, 2223.9], [-119.645746, 37.67307, 2221.1], [-119.645046, 37.672675, 2216.9], [-119.644559, 37.672331, 2213.4], [-119.643973, 37.6721, 2210.3], [-119.643823, 37.671968, 2209.2], [-119.643155, 37.671756, 2205.9], [-119.642742, 37.671734, 2203.8], [-119.641923, 37.671627, 2199.9], [-119.641451, 37.671501, 2197.6], [-119.641202, 37.671509, 2196.4], [-119.640693, 37.671622, 2193.9], [-119.640282, 37.671893, 2191.3], [-119.640098, 37.672116, 2189.7], [-119.639795, 37.672905, 2185.6], [-119.639493, 37.673307, 2183.3], [-119.639281, 37.673492, 2182.0], [-119.638809, 37.67375, 2179.8], [-119.63817, 37.673898, 2177.2], [-119.637763, 37.673877, 2175.8], [-119.637267, 37.673762, 2173.8], [-119.636753, 37.673563, 2171.6], [-119.636507, 37.673421, 2170.2], [-119.636156, 37.673082, 2167.6], [-119.635772, 37.672394, 2163.4], [-119.635084, 37.671631, 2163.0], [-119.634757, 37.671443, 2163.3], [-119.63404, 37.671218, 2162.6], [-119.633972, 37.671251, 2161.8], [-119.633405, 37.671116, 2159.6], [-119.632825, 37.671046, 2157.2], [-119.632596, 37.670967, 2156.2], [-119.631573, 37.670867, 2152.3], [-119.63067, 37.670736, 2152.0], [-119.629871, 37.670662, 2153.3], [-119.629524, 37.670588, 2153.2], [-119.628777, 37.670527, 2151.0], [-119.628648, 37.67047, 2150.3], [-119.627314, 37.670224, 2143.6], [-119.626569, 37.669993, 2139.7], [-119.626041, 37.669782, 2136.7], [-119.625414, 37.669471, 2132.6], [-119.624755, 37.6693, 2128.8], [-119.624201, 37.669059, 2126.4], [-119.62326, 37.668819, 2125.9], [-119.622769, 37.668606, 2127.3], [-119.621602, 37.668225, 2130.6], [-119.621192, 37.668047, 2131.0], [-119.620364, 37.667851, 2129.2], [-119.620011, 37.667684, 2127.4], [-119.618756, 37.667412, 2122.6], [-119.617928, 37.667116, 2120.8], [-119.617027, 37.666872, 2117.9], [-119.616479, 37.666674, 2116.4], [-119.615635, 37.666482, 2117.4], [-119.615261, 37.666328, 2119.0], [-119.61433, 37.666308, 2124.3], [-119.613433, 37.666508, 2129.7], [-119.613088, 37.666658, 2131.7], [-119.61279, 37.66687, 2133.8], [-119.612229, 37.667382, 2138.3], [-119.611865, 37.667889, 2142.0], [-119.611167, 37.668566, 2147.5], [-119.610742, 37.66918, 2149.3], [-119.610004, 37.669835, 2149.3], [-119.609412, 37.669925, 2148.2], [-119.608879, 37.66982, 2146.2], [-119.608603, 37.669699, 2144.7], [-119.60797, 37.669175, 2140.1], [-119.60777, 37.668969, 2138.4], [-119.607141, 37.668509, 2133.7], [-119.606842, 37.668225, 2131.2], [-119.606351, 37.667899, 2127.7], [-119.60615, 37.667716, 2126.4], [-119.605819, 37.667646, 2125.6], [-119.605818, 37.667544, 2125.5], [-119.605247, 37.667429, 2126.9], [-119.604987, 37.66732, 2128.4], [-119.603866, 37.66717, 2133.0], [-119.603089, 37.667229, 2135.0], [-119.602239, 37.667326, 2136.9], [-119.601215, 37.667329, 2138.9], [-119.600426, 37.667429, 2140.3], [-119.598427, 37.667546, 2145.5], [-119.59775, 37.667676, 2147.8], [-119.597418, 37.66784, 2149.8], [-119.596568, 37.668153, 2154.1], [-119.59629, 37.668144, 2155.5], [-119.595472, 37.668267, 2159.2], [-119.595215, 37.668184, 2160.7], [-119.594448, 37.66807, 2164.6], [-119.594289, 37.667993, 2165.4], [-119.593003, 37.667803, 2172.0], [-119.592433, 37.667772, 2174.8], [-119.592161, 37.667825, 2176.0], [-119.590837, 37.667929, 2180.4], [-119.58972, 37.667986, 2184.5], [-119.589118, 37.667992, 2186.4], [-119.588876, 37.668047, 2187.2], [-119.588397, 37.668031, 2188.8], [-119.588065, 37.668114, 2190.0], [-119.587617, 37.668141, 2191.8], [-119.586978, 37.668352, 2194.1], [-119.586579, 37.668537, 2195.7], [-119.58626, 37.668783, 2197.3], [-119.585807, 37.669043, 2199.6], [-119.585554, 37.669393, 2211.0], [-119.585163, 37.669785, 2212.3], [-119.585093, 37.669996, 2212.7], [-119.585052, 37.670726, 2214.0], [-119.585148, 37.671647, 2216.0], [-119.585321, 37.671999, 2217.7], [-119.585542, 37.672702, 2221.8], [-119.585912, 37.673302, 2225.9], [-119.586195, 37.673551, 2227.6], [-119.586647, 37.6738, 2229.9], [-119.587007, 37.673898, 2232.9], [-119.587026, 37.673833, 2233.5], [-119.587411, 37.674176, 2236.9], [-119.587565, 37.674423, 2238.5], [-119.587691, 37.675061, 2241.8], [-119.587646, 37.675181, 2242.4], [-119.587943, 37.676005, 2246.9], [-119.587938, 37.676193, 2247.9], [-119.588111, 37.676395, 2249.3], [-119.588295, 37.676873, 2252.2], [-119.588404, 37.676966, 2252.9], [-119.588628, 37.677397, 2255.5], [-119.58879, 37.678436, 2260.6], [-119.588974, 37.67882, 2262.7], [-119.588985, 37.679066, 2263.7], [-119.589294, 37.679524, 2265.5], [-119.589393, 37.67996, 2267.1], [-119.589241, 37.680213, 2268.1], [-119.589219, 37.680444, 2269.0], [-119.588925, 37.681464, 2276.2], [-119.588955, 37.68171, 2277.7], [-119.588717, 37.682163, 2280.8], [-119.588557, 37.683165, 2286.8], [-119.588592, 37.683782, 2290.5], [-119.588707, 37.684093, 2292.3], [-119.588892, 37.684236, 2293.5], [-119.588915, 37.6844, 2294.5], [-119.589189, 37.684853, 2298.0], [-119.589511, 37.685181, 2300.2], [-119.589706, 37.685665, 2303.1], [-119.589848, 37.685887, 2304.6], [-119.589822, 37.68607, 2305.9], [-119.590014, 37.686279, 2307.4], [-119.589934, 37.686554, 2309.0], [-119.590015, 37.687004, 2311.5], [-119.590222, 37.687264, 2313.0], [-119.590461, 37.688158, 2318.1], [-119.590258, 37.689013, 2322.3], [-119.590163, 37.689894, 2327.0], [-119.589786, 37.690289, 2329.8], [-119.588976, 37.69057, 2333.3], [-119.587623, 37.690701, 2341.0], [-119.587706, 37.690783, 2349.9], [-119.587299, 37.690917, 2350.9], [-119.586974, 37.691189, 2352.0], [-119.586731, 37.69148, 2353.1], [-119.586625, 37.691999, 2355.0], [-119.586275, 37.692862, 2358.6], [-119.586253, 37.693104, 2359.5], [-119.586052, 37.693264, 2360.5], [-119.585841, 37.693809, 2363.1], [-119.585816, 37.694284, 2365.6], [-119.58594, 37.694699, 2367.7], [-119.586089, 37.694916, 2368.6], [-119.586299, 37.695719, 2371.9], [-119.586319, 37.69687, 2371.7], [-119.586417, 37.697117, 2371.4], [-119.58631, 37.697324, 2371.4], [-119.586273, 37.697699, 2371.6], [-119.586349, 37.698083, 2372.1], [-119.586278, 37.698668, 2372.2], [-119.586396, 37.699387, 2370.9], [-119.586469, 37.69951, 2370.5], [-119.586477, 37.700261, 2368.0], [-119.586603, 37.700575, 2366.7], [-119.586566, 37.701084, 2364.0], [-119.586869, 37.702028, 2357.4], [-119.586866, 37.702193, 2356.4], [-119.587139, 37.702887, 2353.4], [-119.587277, 37.703046, 2352.8], [-119.587289, 37.70342, 2352.0], [-119.58744, 37.703856, 2352.1], [-119.587576, 37.704082, 2351.7], [-119.587689, 37.704643, 2350.8], [-119.587885, 37.705218, 2350.1], [-119.587975, 37.705284, 2350.0], [-119.588117, 37.706015, 2349.0], [-119.588291, 37.706381, 2348.3], [-119.588461, 37.706593, 2347.8], [-119.588526, 37.707032, 2347.0], [-119.588643, 37.707226, 2347.2], [-119.58865, 37.70749, 2347.5], [-119.588777, 37.707735, 2347.8], [-119.588753, 37.708312, 2347.6], [-119.588643, 37.709103, 2345.3], [-119.58852, 37.709388, 2344.2], [-119.588492, 37.709664, 2343.4], [-119.588145, 37.710335, 2343.1], [-119.588057, 37.710605, 2343.4], [-119.587669, 37.711168, 2344.0], [-119.587265, 37.71164, 2345.8], [-119.587017, 37.711718, 2346.8], [-119.586624, 37.712155, 2349.1], [-119.586359, 37.712301, 2350.0], [-119.586178, 37.712493, 2351.8], [-119.585876, 37.712585, 2352.6], [-119.585115, 37.712971, 2354.6], [-119.584605, 37.713308, 2356.9], [-119.584203, 37.713446, 2358.7], [-119.583802, 37.71375, 2361.5], [-119.583666, 37.713784, 2362.2], [-119.58238, 37.714469, 2368.7], [-119.581812, 37.714922, 2371.9], [-119.581363, 37.715053, 2373.4], [-119.580856, 37.715446, 2373.2], [-119.580886, 37.715559, 2372.6], [-119.580462, 37.715902, 2370.2], [-119.580131, 37.716288, 2367.6], [-119.57986, 37.71636, 2366.4], [-119.579304, 37.717068, 2363.6], [-119.579279, 37.717363, 2363.7], [-119.579152, 37.717524, 2363.8], [-119.579132, 37.717747, 2364.1], [-119.578988, 37.717832, 2364.4], [-119.578837, 37.718337, 2364.7], [-119.578888, 37.718681, 2364.8], [-119.579411, 37.719012, 2365.8], [-119.579813, 37.719048, 2365.8], [-119.580078, 37.718894, 2365.0], [-119.580373, 37.719033, 2364.8], [-119.581452, 37.718933, 2370.3], [-119.581963, 37.719101, 2372.9], [-119.582256, 37.719268, 2374.9], [-119.582323, 37.720031, 2382.5], [-119.582259, 37.720172, 2383.9], [-119.582479, 37.720759, 2390.3], [-119.582482, 37.721029, 2393.1], [-119.582935, 37.72137, 2398.0], [-119.583226, 37.721791, 2402.2], [-119.583156, 37.721966, 2402.8], [-119.582582, 37.722273, 2405.7], [-119.582429, 37.722549, 2408.1], [-119.582614, 37.722921, 2412.7], [-119.58254, 37.723114, 2414.0], [-119.582632, 37.72326, 2415.4], [-119.582583, 37.723593, 2420.2], [-119.582651, 37.723854, 2424.8], [-119.582825, 37.724158, 2429.7], [-119.58309, 37.724369, 2434.8], [-119.583325, 37.724331, 2438.2], [-119.583639, 37.724085, 2447.6], [-119.583809, 37.723736, 2456.7], [-119.584042, 37.723532, 2464.6], [-119.584382, 37.723351, 2468.8], [-119.584116, 37.722734, 2470.8], [-119.584, 37.722969, 2469.8], [-119.584128, 37.723176, 2468.6], [-119.584101, 37.723375, 2465.2], [-119.583778, 37.723668, 2457.5], [-119.583673, 37.723958, 2453.1], [-119.583478, 37.724123, 2449.2], [-119.583313, 37.723942, 2436.5], [-119.583078, 37.724205, 2433.3], [-119.58296, 37.724224, 2430.7], [-119.582972, 37.724019, 2428.8], [-119.582794, 37.723954, 2426.6], [-119.582713, 37.723668, 2423.6], [-119.582541, 37.723554, 2421.8], [-119.582714, 37.723073, 2413.5], [-119.582603, 37.722641, 2409.4], [-119.582497, 37.722522, 2407.5], [-119.582695, 37.722309, 2405.4], [-119.582919, 37.722204, 2403.3], [-119.583203, 37.72194, 2402.7], [-119.583192, 37.721697, 2401.5], [-119.582978, 37.721445, 2399.1], [-119.582531, 37.721075, 2394.2], [-119.582327, 37.72045, 2387.6], [-119.582271, 37.719187, 2375.1], [-119.581702, 37.718909, 2371.5], [-119.580972, 37.718916, 2367.5], [-119.580531, 37.719052, 2365.3], [-119.579925, 37.718869, 2365.4], [-119.579705, 37.719023, 2365.9], [-119.579389, 37.719021, 2365.8], [-119.578957, 37.718674, 2364.8], [-119.578878, 37.71836, 2364.6], [-119.579211, 37.717645, 2363.6], [-119.579609, 37.716879, 2364.8], [-119.580183, 37.716352, 2368.2], [-119.580315, 37.716165, 2369.3], [-119.581436, 37.715149, 2373.6], [-119.58278, 37.714336, 2368.5], [-119.58313, 37.714185, 2367.0], [-119.584138, 37.713595, 2361.8], [-119.58474, 37.713285, 2358.9], [-119.585047, 37.713087, 2357.3], [-119.585842, 37.712671, 2354.3], [-119.586403, 37.71256, 2352.6], [-119.586641, 37.712179, 2349.3], [-119.586979, 37.711915, 2347.6], [-119.587612, 37.711331, 2344.5], [-119.587891, 37.710988, 2343.8], [-119.58849, 37.710079, 2342.9], [-119.588616, 37.709684, 2343.2], [-119.588634, 37.709334, 2344.1], [-119.588757, 37.709171, 2344.8], [-119.588755, 37.708952, 2345.6], [-119.588877, 37.708683, 2346.5], [-119.588847, 37.708416, 2347.3], [-119.588925, 37.708205, 2347.7], [-119.588944, 37.707587, 2347.7], [-119.588741, 37.706842, 2347.1], [-119.588624, 37.706791, 2347.3], [-119.58865, 37.706532, 2347.9], [-119.588484, 37.706054, 2348.8], [-119.588021, 37.705028, 2350.2], [-119.588018, 37.704719, 2350.6], [-119.587745, 37.704233, 2351.4], [-119.587705, 37.703912, 2351.9], [-119.587577, 37.703831, 2352.1], [-119.587509, 37.703486, 2351.9], [-119.587392, 37.703361, 2352.0], [-119.587166, 37.702629, 2354.1], [-119.587094, 37.701988, 2357.8], [-119.586904, 37.701677, 2360.6], [-119.586842, 37.70116, 2363.8], [-119.586647, 37.700894, 2365.6], [-119.586671, 37.700167, 2368.7], [-119.586612, 37.699858, 2369.8], [-119.586594, 37.699003, 2372.0], [-119.586633, 37.698766, 2372.2], [-119.586543, 37.698329, 2372.2], [-119.586436, 37.697249, 2371.4], [-119.586462, 37.696747, 2372.0], [-119.586424, 37.696421, 2372.4], [-119.586425, 37.695756, 2372.0], [-119.586281, 37.695301, 2370.5], [-119.586268, 37.695068, 2369.5], [-119.586075, 37.694579, 2366.4], [-119.585966, 37.693974, 2361.6], [-119.585994, 37.693708, 2360.0], [-119.586348, 37.692973, 2355.3], [-119.586459, 37.692813, 2354.2], [-119.586626, 37.692143, 2350.8], [-119.587027, 37.691315, 2346.8], [-119.587304, 37.691019, 2345.0], [-119.587686, 37.690837, 2343.4], [-119.588236, 37.690721, 2341.1], [-119.588623, 37.690713, 2339.1], [-119.589314, 37.69063, 2335.8], [-119.58972, 37.690494, 2333.5], [-119.590184, 37.690062, 2330.2], [-119.590316, 37.689745, 2328.0], [-119.590384, 37.688848, 2322.2], [-119.590484, 37.688451, 2320.0], [-119.590478, 37.687953, 2317.2], [-119.59005, 37.686713, 2310.2], [-119.59003, 37.686307, 2307.6], [-119.589922, 37.685844, 2304.7], [-119.589684, 37.685457, 2302.1], [-119.589657, 37.685284, 2301.0], [-119.588881, 37.684253, 2293.6], [-119.588591, 37.683547, 2289.1], [-119.588656, 37.682841, 2284.2], [-119.588931, 37.681903, 2278.5], [-119.589086, 37.681074, 2273.2], [-119.589336, 37.680476, 2269.7], [-119.589436, 37.68007, 2267.9], [-119.589445, 37.679712, 2266.5], [-119.589342, 37.679457, 2265.3], [-119.589037, 37.679017, 2263.5], [-119.58881, 37.67782, 2257.2], [-119.588656, 37.677247, 2253.9], [-119.587902, 37.675957, 2245.4], [-119.587793, 37.675592, 2243.7], [-119.587636, 37.674474, 2237.8], [-119.587485, 37.674232, 2236.1], [-119.58715, 37.673924, 2233.5], [-119.586741, 37.673693, 2231.1], [-119.586116, 37.673456, 2228.0], [-119.585809, 37.673164, 2225.9], [-119.585592, 37.67276, 2223.0], [-119.58525, 37.671549, 2215.9], [-119.585187, 37.67084, 2213.9], [-119.585237, 37.670243, 2212.5], [-119.58586, 37.669245, 2208.3], [-119.58626, 37.668843, 2205.5], [-119.586745, 37.66853, 2202.7], [-119.587503, 37.668207, 2198.7], [-119.587994, 37.668132, 2196.2], [-119.588899, 37.668056, 2192.0], [-119.589757, 37.668022, 2188.1], [-119.591529, 37.667894, 2179.6], [-119.592703, 37.667871, 2173.6], [-119.592937, 37.667831, 2172.3], [-119.593525, 37.667904, 2169.2], [-119.59418, 37.668048, 2165.9], [-119.594723, 37.668224, 2163.3], [-119.59527, 37.668318, 2160.4], [-119.596093, 37.668313, 2156.6], [-119.597647, 37.66786, 2149.0], [-119.597886, 37.667753, 2148.1], [-119.598646, 37.667618, 2145.7], [-119.599255, 37.667587, 2143.7], [-119.599655, 37.667518, 2142.6], [-119.60047, 37.667493, 2140.8], [-119.601382, 37.667364, 2138.7], [-119.601603, 37.667416, 2138.2], [-119.602331, 37.667317, 2136.7], [-119.603326, 37.667343, 2134.4], [-119.603715, 37.667269, 2133.4], [-119.604916, 37.667401, 2129.3], [-119.605363, 37.667577, 2127.6], [-119.605646, 37.667616, 2126.7], [-119.605957, 37.667833, 2125.8], [-119.60628, 37.667937, 2132.8], [-119.606887, 37.668333, 2136.1], [-119.607126, 37.668619, 2137.8], [-119.60751, 37.668889, 2139.7], [-119.607845, 37.669216, 2141.8], [-119.608133, 37.66935, 2143.3], [-119.608422, 37.669643, 2145.5], [-119.608703, 37.669815, 2146.9], [-119.609171, 37.669977, 2148.5], [-119.609642, 37.669952, 2149.3], [-119.610034, 37.669811, 2149.5], [-119.610109, 37.669704, 2149.5], [-119.610453, 37.669542, 2149.4], [-119.611137, 37.668882, 2148.0], [-119.611627, 37.66819, 2144.0], [-119.61211, 37.667628, 2139.9], [-119.612309, 37.667519, 2138.6], [-119.612543, 37.667138, 2135.8], [-119.612801, 37.666946, 2133.9], [-119.613451, 37.666648, 2129.9], [-119.614023, 37.666457, 2126.4], [-119.614654, 37.666373, 2123.1], [-119.615182, 37.666404, 2120.4], [-119.61557, 37.666476, 2118.7], [-119.615969, 37.666703, 2117.2], [-119.616362, 37.666701, 2116.4], [-119.616923, 37.666833, 2116.6], [-119.61715, 37.666974, 2117.2], [-119.617873, 37.667161, 2119.6], [-119.618039, 37.667299, 2120.4], [-119.618614, 37.667391, 2121.4], [-119.618897, 37.667523, 2121.9], [-119.619678, 37.667717, 2123.8], [-119.619853, 37.667613, 2124.6], [-119.620114, 37.667833, 2126.0], [-119.620489, 37.667879, 2127.6], [-119.620982, 37.668176, 2129.8], [-119.621542, 37.66827, 2130.9], [-119.621731, 37.668445, 2131.0], [-119.622712, 37.66869, 2129.3], [-119.623016, 37.668832, 2128.6], [-119.62321, 37.668819, 2128.1], [-119.623311, 37.668935, 2127.6], [-119.623554, 37.668927, 2127.0], [-119.62411, 37.66918, 2126.4], [-119.624529, 37.669262, 2127.8], [-119.625417, 37.669593, 2132.9], [-119.625865, 37.669897, 2136.2], [-119.626986, 37.670275, 2142.1], [-119.627537, 37.670414, 2145.1], [-119.628416, 37.670531, 2149.3], [-119.628906, 37.670568, 2151.5], [-119.629335, 37.670686, 2152.9], [-119.629759, 37.670696, 2153.3], [-119.630166, 37.670783, 2152.9], [-119.630636, 37.670819, 2152.0], [-119.631671, 37.671055, 2152.5], [-119.632186, 37.671019, 2154.4], [-119.632616, 37.671138, 2156.4], [-119.633179, 37.671154, 2158.8], [-119.633494, 37.671269, 2160.2], [-119.633971, 37.671333, 2162.0], [-119.634393, 37.67145, 2163.1], [-119.634728, 37.671619, 2163.4], [-119.635485, 37.672264, 2162.6], [-119.635706, 37.672641, 2163.0], [-119.636115, 37.673145, 2165.6], [-119.636553, 37.673563, 2168.9], [-119.637395, 37.673924, 2173.1], [-119.637666, 37.673892, 2174.1], [-119.638142, 37.673963, 2175.9], [-119.638694, 37.673868, 2178.1], [-119.639042, 37.673753, 2179.6], [-119.639473, 37.673513, 2181.7], [-119.639943, 37.672962, 2185.0], [-119.640058, 37.67266, 2186.6], [-119.640064, 37.672411, 2187.9], [-119.640261, 37.672106, 2189.7], [-119.640543, 37.671979, 2191.2], [-119.640538, 37.671784, 2192.5], [-119.640834, 37.671574, 2194.4], [-119.641636, 37.671559, 2198.5], [-119.641934, 37.67173, 2200.9], [-119.642336, 37.671736, 2202.6], [-119.642659, 37.671836, 2204.2], [-119.64277, 37.671756, 2205.1], [-119.643735, 37.672081, 2209.9], [-119.644185, 37.672286, 2212.8], [-119.644915, 37.672714, 2217.4], [-119.645055, 37.672853, 2218.5], [-119.645561, 37.672966, 2221.1], [-119.646132, 37.67332, 2224.3], [-119.64651, 37.673502, 2226.0], [-119.646772, 37.673792, 2227.1], [-119.647068, 37.673906, 2227.8], [-119.647383, 37.674144, 2228.3], [-119.648044, 37.674343, 2228.6], [-119.648269, 37.674495, 2228.4], [-119.648813, 37.674568, 2228.1], [-119.649291, 37.674419, 2228.0], [-119.649423, 37.67446, 2227.9], [-119.650048, 37.674391, 2227.4], [-119.650238, 37.674309, 2227.1], [-119.650561, 37.674306, 2226.7], [-119.651621, 37.674004, 2226.3], [-119.652007, 37.673977, 2227.0], [-119.652301, 37.673866, 2227.6], [-119.653233, 37.673667, 2229.1], [-119.65362, 37.673723, 2230.2], [-119.653718, 37.673587, 2230.8], [-119.65425, 37.673453, 2233.2], [-119.655666, 37.6727, 2240.5], [-119.655877, 37.672704, 2241.2], [-119.65617, 37.672412, 2242.5], [-119.656304, 37.672396, 2242.8], [-119.656717, 37.671973, 2243.4], [-119.656996, 37.671769, 2243.3], [-119.656946, 37.671631, 2241.5], [-119.657663, 37.670921, 2236.7], [-119.658129, 37.670239, 2232.7], [-119.658507, 37.669832, 2230.3], [-119.659115, 37.669383, 2227.3], [-119.659847, 37.668765, 2223.2], [-119.660411, 37.668403, 2220.5], [-119.660854, 37.668169, 2218.3], [-119.661608, 37.667893, 2214.8], [-119.662157, 37.667615, 2212.0], [-119.662514, 37.667544, 2210.3], [-119.663195, 37.667267, 2206.7], [-119.663659, 37.666932, 2203.9], [-119.66398, 37.666537, 2201.2], [-119.664188, 37.666123, 2198.6], [-119.664218, 37.665867, 2199.6], [-119.66385, 37.665244, 2206.5], [-119.663615, 37.665053, 2209.4], [-119.663456, 37.664794, 2212.8]]}}