{"type": "Feature", "properties": {}, "geometry": {"type": "LineString", "coordinates": [[-121.60862926393747, 48.803935227915645, 1960.75], [-121.60865399055183, 48.803942017257214, 1957.86], [-121.60865449346602, 48.80392726510763, 1958.82], [-121.6086351312697, 48.803935227915645, 1956.9], [-121.60869439132512, 48.80389994010329, 1955.94], [-121.60862850956619, 48.80391108803451, 1952.09], [-121.60867259837687, 48.803943609818816, 1952.57], [-121.6086539067328, 48.80387085489929, 1953.06], [-121.60862649790943, 48.80387387238443, 1953.06], [-121.60864376462996, 48.803905472159386, 1950.17], [-121.60865290090442, 48.80391536280513, 1949.69], [-121.60863789729774, 48.803913267329335, 1955.94], [-121.60865298472345, 48.803908908739686, 1956.42], [-121.60861191339791, 48.803891306743026, 1955.46], [-121.60859095863998, 48.8037839345634, 1962.19], [-121.60863068886101, 48.80387202836573, 1958.34], [-121.60864166915417, 48.803879572078586, 1959.3], [-121.60867486149073, 48.80391561426222, 1952.09], [-121.60868005827069, 48.803938664495945, 1951.61], [-121.60868735052645, 48.8039290253073, 1952.09], [-121.60868374630809, 48.803915698081255, 1954.5], [-121.60874275490642, 48.80394637584686, 1953.54], [-121.60882414318621, 48.80400521680713, 1953.54], [-121.60889371298254, 48.804042767733335, 1954.02], [-121.6089509613812, 48.80409339442849, 1953.06], [-121.60901508294046, 48.80415785126388, 1953.06], [-121.60909663885832, 48.80421610549092, 1952.57], [-121.60915916785598, 48.80427846685052, 1953.54], [-121.60924868658185, 48.80433864891529, 1954.02], [-121.60936628468335, 48.80440905690193, 1953.54], [-121.60945898853242, 48.804462449625134, 1954.5], [-121.60957340151072, 48.804511316120625, 1954.5], [-121.6096486710012, 48.804574431851506, 1955.46], [-121.60972905345261, 48.80463067442179, 1957.86], [-121.60980583168566, 48.8046938739717, 1960.27], [-121.60986324772239, 48.80472212098539, 1962.19], [-121.60991747863591, 48.8047784473747, 1963.15], [-121.60997564904392, 48.80481641739607, 1965.55], [-121.61003423854709, 48.80485908128321, 1964.59], [-121.6100992821157, 48.804920352995396, 1965.07], [-121.61016935482621, 48.80498782731593, 1965.07], [-121.61023448221385, 48.80503434687853, 1966.03], [-121.61029122769833, 48.80507290363312, 1969.4], [-121.61033414304256, 48.80513358861208, 1970.84], [-121.610385524109, 48.805157309398055, 1972.76], [-121.61043304949999, 48.80518153309822, 1974.69], [-121.61050479859114, 48.8052015658468, 1979.01], [-121.61054159514606, 48.80523484200239, 1980.45], [-121.61055827513337, 48.80526744760573, 1984.3], [-121.61059146746993, 48.80530348978937, 1987.18], [-121.61062273196876, 48.80532176233828, 1988.62], [-121.61067000590265, 48.80531832575798, 1991.99], [-121.61071392707527, 48.80531287752092, 1995.83], [-121.61075608804822, 48.805347913876176, 1997.76], [-121.61079590208828, 48.805393259972334, 1998.72], [-121.61082725040615, 48.80536627024412, 2001.12], [-121.61088894121349, 48.80537507124245, 2003.52], [-121.61092657595873, 48.80540482699871, 2005.93], [-121.61095893010497, 48.805433912202716, 2006.89], [-121.61098558455706, 48.805453861132264, 2008.81], [-121.6110298410058, 48.80548261106014, 2010.25], [-121.61106831394136, 48.80552150309086, 2012.66], [-121.61111407913268, 48.80553541705012, 2014.1], [-121.6111926175654, 48.80558939650655, 2017.46], [-121.61124869249761, 48.80560364574194, 2019.39], [-121.6112991515547, 48.80562669597566, 2020.35], [-121.61134298890829, 48.80565117113292, 2022.27], [-121.61139512434602, 48.8056955114007, 2023.71], [-121.6114222817123, 48.80572333931923, 2025.15], [-121.61147559061646, 48.80577312782407, 2026.6], [-121.61149855703115, 48.80583280697465, 2028.04], [-121.61150098778307, 48.80588276311755, 2029.0], [-121.61149344407022, 48.80593313835561, 2030.44], [-121.61148699000478, 48.805943951010704, 2032.36], [-121.61150115542114, 48.80594193935394, 2030.44], [-121.61147793754935, 48.80593841895461, 2029.48], [-121.61147919483483, 48.80592618137598, 2029.0], [-121.61149889230728, 48.805950824171305, 2029.96], [-121.61151037551463, 48.80600874312222, 2030.92], [-121.61151121370494, 48.80609138868749, 2035.25], [-121.61150459200144, 48.80613430403173, 2037.17], [-121.61150786094368, 48.80619800649583, 2040.05], [-121.61152940243483, 48.806253746151924, 2042.46], [-121.61154775880277, 48.806271348148584, 2042.94], [-121.61156267859042, 48.80629842169583, 2044.38], [-121.61157919093966, 48.8063345476985, 2046.3], [-121.61161825060844, 48.80636296235025, 2048.23], [-121.61163652315736, 48.80641476251185, 2050.15], [-121.61163778044283, 48.80645382218063, 2052.07], [-121.61164373159409, 48.80650193430483, 2053.03], [-121.61165404133499, 48.80654443055391, 2053.99], [-121.61167357116938, 48.80659053102136, 2054.47], [-121.6117050871253, 48.80663361400366, 2054.96], [-121.61175018176436, 48.80668273195624, 2056.4], [-121.61177884787321, 48.80673830397427, 2057.36], [-121.61181463859975, 48.80679924041033, 2058.8], [-121.61185931414366, 48.806855734437704, 2060.24], [-121.61187389865518, 48.80690719932318, 2062.17], [-121.61187901161611, 48.80695078521967, 2064.57], [-121.61190130747855, 48.806995544582605, 2066.01], [-121.61192209459841, 48.807025803253055, 2068.41], [-121.61195763386786, 48.80706612020731, 2071.3], [-121.61195394583046, 48.80708967335522, 2071.3], [-121.61195461638272, 48.807188076898456, 2076.1], [-121.61194581538439, 48.807236356660724, 2078.99], [-121.61192435771227, 48.80732847377658, 2082.35], [-121.61191480234265, 48.80738220177591, 2084.28], [-121.61191513761878, 48.80742486566305, 2086.2], [-121.61191119812429, 48.80747616291046, 2089.08], [-121.61191119812429, 48.807522263377905, 2091.0], [-121.61191279068589, 48.80756853148341, 2093.89], [-121.61190248094499, 48.807605830952525, 2095.81], [-121.6118985414505, 48.80764623172581, 2097.73], [-121.61188940517604, 48.80768428556621, 2100.14], [-121.611881358549, 48.80772585980594, 2101.58], [-121.6118742339313, 48.8077730499208, 2103.5], [-121.61185554228723, 48.80785519257188, 2106.87], [-121.61184179596603, 48.80789794027805, 2108.79], [-121.61183341406286, 48.80795384757221, 2110.71], [-121.6118261218071, 48.80799123086035, 2112.63], [-121.61181631498039, 48.80808301270008, 2116.48], [-121.61181472241879, 48.80812710151076, 2118.4], [-121.61180357448757, 48.808180578053, 2120.81], [-121.61179167218506, 48.80822139792144, 2122.73], [-121.61178178153932, 48.80828082561493, 2124.65], [-121.61176837049425, 48.80833128467202, 2126.09], [-121.61175940185785, 48.80838350392878, 2128.02], [-121.61173081956804, 48.808431113138795, 2128.5], [-121.61172444932163, 48.808486266061664, 2130.42], [-121.61170542240143, 48.80853706039488, 2132.34], [-121.61169762723148, 48.808586513623595, 2133.78], [-121.61168295890093, 48.80864912644029, 2135.71], [-121.61166653037071, 48.8087072968483, 2138.11], [-121.61163694225252, 48.808763371780515, 2139.55], [-121.61162487231195, 48.80883294157684, 2140.51], [-121.61160198971629, 48.80889697931707, 2142.92], [-121.61157567054033, 48.80896495655179, 2144.36], [-121.61154616624117, 48.80901885218918, 2145.8], [-121.61151750013232, 48.80908238701522, 2147.72], [-121.61149277351797, 48.809139635413885, 2148.68], [-121.61146762780845, 48.80921985022724, 2150.13], [-121.61145430058241, 48.809284809976816, 2151.57], [-121.61143334582448, 48.809340968728065, 2153.49], [-121.6113926935941, 48.809411795809865, 2154.93], [-121.6113652009517, 48.80945638753474, 2156.37], [-121.61134474910796, 48.8095083553344, 2157.82], [-121.61132127977908, 48.80957826040685, 2158.78], [-121.61129672080278, 48.80965914577246, 2160.22], [-121.61127752624452, 48.809736678376794, 2162.62], [-121.61125321872532, 48.809831561520696, 2164.55], [-121.61122430115938, 48.80991353653371, 2166.47], [-121.61120686680079, 48.80996852181852, 2168.87], [-121.61118968389928, 48.81005032919347, 2170.79], [-121.61118473857641, 48.81012484431267, 2172.72], [-121.6111765243113, 48.810193156823516, 2175.6], [-121.6111508756876, 48.81027823314071, 2178.0], [-121.61113587208092, 48.81034721620381, 2179.93], [-121.61112950183451, 48.810422318056226, 2181.85], [-121.61113922484219, 48.81047629751265, 2183.29], [-121.61111709661782, 48.81055383011699, 2183.77], [-121.61108046770096, 48.81066547706723, 2184.73], [-121.61106890067458, 48.81072825752199, 2185.21], [-121.61104400642216, 48.81079237908125, 2186.18], [-121.61103202030063, 48.81086664274335, 2186.66], [-121.61094878800213, 48.81101910956204, 2187.62], [-121.61092858761549, 48.8110832311213, 2188.1], [-121.61094635725021, 48.81113410927355, 2190.02], [-121.61091425456107, 48.81120149977505, 2192.42], [-121.61091366782784, 48.81123569793999, 2192.42], [-121.61091056652367, 48.811273919418454, 2193.39], [-121.6108984965831, 48.8113353587687, 2194.83], [-121.61086513660848, 48.81139453500509, 2196.27], [-121.61084275692701, 48.81143694743514, 2197.23], [-121.61081870086491, 48.811491932719946, 2198.67], [-121.61079472862184, 48.81154088303447, 2200.11], [-121.61077134311199, 48.811581367626786, 2201.08], [-121.61076648160815, 48.81162880919874, 2202.04], [-121.6107259131968, 48.811750346794724, 2204.92], [-121.61069590598345, 48.81181614473462, 2205.4], [-121.61066128872335, 48.8118792604655, 2206.84], [-121.6106331255287, 48.811934161931276, 2207.81], [-121.61059440113604, 48.81199744530022, 2208.77], [-121.61056187935174, 48.81204421631992, 2209.73], [-121.6105345543474, 48.81211546249688, 2210.69], [-121.61051250994205, 48.812185199931264, 2211.65], [-121.61047831177711, 48.81225644610822, 2212.61], [-121.61046984605491, 48.812307910993695, 2214.53], [-121.61044755019248, 48.812359711155295, 2215.5], [-121.61045324988663, 48.8124199770391, 2216.94], [-121.61047395318747, 48.81247538141906, 2219.34], [-121.61048510111868, 48.812536150217056, 2220.78], [-121.61051217466593, 48.812587363645434, 2222.22], [-121.61059406585991, 48.812681660056114, 2226.55], [-121.61062977276742, 48.81271954625845, 2228.47], [-121.61067218519747, 48.81277536973357, 2229.92], [-121.61068224348128, 48.81282557733357, 2230.88], [-121.61069573834538, 48.81286036223173, 2232.8], [-121.61072256043553, 48.81289212964475, 2235.2], [-121.61074418574572, 48.81295398809016, 2238.09], [-121.61074602976441, 48.81300151348114, 2238.09], [-121.61073404364288, 48.813041830435395, 2238.57], [-121.61072851158679, 48.81309438496828, 2239.53], [-121.61069741472602, 48.813152723014355, 2240.97], [-121.61067855544388, 48.813209384679794, 2241.93], [-121.61065240390599, 48.8132678065449, 2243.85], [-121.61061317659914, 48.81333226338029, 2244.33], [-121.61058308556676, 48.81339529529214, 2245.3], [-121.61053715273738, 48.81346117705107, 2246.74], [-121.61050890572369, 48.81352529861033, 2247.7], [-121.61047101952136, 48.8135873246938, 2248.66], [-121.61045920103788, 48.81366066634655, 2249.62], [-121.61043514497578, 48.81373266689479, 2251.06], [-121.61040144972503, 48.813810953870416, 2251.54], [-121.61036708392203, 48.8138930965215, 2252.99], [-121.61035375669599, 48.813979430124164, 2254.91], [-121.61036507226527, 48.81404656916857, 2256.83], [-121.61038183607161, 48.814130052924156, 2258.75], [-121.61038636229932, 48.81419945508242, 2260.2], [-121.61040388047695, 48.814276652410626, 2261.64], [-121.61042047664523, 48.81437949836254, 2263.08], [-121.61043162457645, 48.81447178311646, 2265.0], [-121.61045190878212, 48.814548309892416, 2267.41], [-121.61044755019248, 48.81462475284934, 2267.41], [-121.61047386936843, 48.81469666957855, 2268.37], [-121.61047495901585, 48.814760874956846, 2269.81], [-121.61048007197678, 48.81484301760793, 2271.73], [-121.61047697067261, 48.81491987966001, 2272.69], [-121.61047269590199, 48.814975870773196, 2272.21], [-121.61046112887561, 48.81504728458822, 2273.17], [-121.61045593209565, 48.81510226987302, 2275.58], [-121.61043816246092, 48.815159099176526, 2276.54], [-121.61042592488229, 48.81521886214614, 2277.02], [-121.61040538921952, 48.815268985927105, 2277.98], [-121.6103699337691, 48.815350122749805, 2279.42], [-121.61034939810634, 48.81541206501424, 2282.31], [-121.61031746305525, 48.8154817186296, 2285.19], [-121.61027924157679, 48.815529495477676, 2285.67], [-121.61027236841619, 48.81558448076248, 2287.59], [-121.61025535315275, 48.8156524579972, 2290.0], [-121.61022987216711, 48.81572663784027, 2290.96], [-121.61020179279149, 48.81579075939953, 2292.88], [-121.61018184386194, 48.81585714407265, 2294.32], [-121.61015409976244, 48.815919840708375, 2296.25], [-121.61011889576912, 48.81597474217415, 2298.17], [-121.61008335649967, 48.81606283597648, 2300.09], [-121.6100488230586, 48.81615109741688, 2302.49], [-121.61003993824124, 48.81624975241721, 2302.98], [-121.60994287580252, 48.81638168357313, 2305.38], [-121.60989794880152, 48.816499868407845, 2304.42], [-121.60991353914142, 48.81658519618213, 2304.42], [-121.60993876866996, 48.816663483157754, 2305.86], [-121.60996885970235, 48.816742692142725, 2307.78], [-121.60996852442622, 48.81684520281851, 2309.22], [-121.6099438816309, 48.816956263035536, 2308.74], [-121.60996324382722, 48.81707419641316, 2308.74], [-121.60998998209834, 48.81717142648995, 2308.74], [-121.61000221967697, 48.81719439290464, 2308.26], [-121.61005376838148, 48.817179556936026, 2308.74], [-121.61000481806695, 48.817215682938695, 2310.67], [-121.61001638509333, 48.81723152473569, 2311.63], [-121.61001085303724, 48.81723345257342, 2311.15], [-121.60998377949, 48.817224986851215, 2312.11], [-121.60996391437948, 48.81722171790898, 2310.67], [-121.60998956300318, 48.81720721721649, 2312.59], [-121.60997145809233, 48.8171876873821, 2312.11], [-121.60995570011437, 48.81720076315105, 2310.19], [-121.60995041951537, 48.81721023470163, 2311.15], [-121.60996098071337, 48.817222053185105, 2310.67], [-121.61001219414175, 48.817343339324, 2310.67], [-121.61003147251904, 48.81740494631231, 2310.67], [-121.61006734706461, 48.81755506619811, 2309.7], [-121.61012166179717, 48.81767434068024, 2308.26], [-121.61016499623656, 48.81778850220144, 2307.3], [-121.61017790436745, 48.81783468648791, 2306.82], [-121.61021905951202, 48.81796971894801, 2305.86], [-121.61023330874741, 48.81807943806052, 2304.42], [-121.61021864041686, 48.818161161616445, 2303.94], [-121.6102372482419, 48.818302396684885, 2302.98], [-121.6102750506252, 48.81841010414064, 2302.01], [-121.6103064827621, 48.81853172555566, 2301.53], [-121.61032173782587, 48.81873364560306, 2300.57], [-121.61033690907061, 48.818829199299216, 2301.05], [-121.61031612195075, 48.818948389962316, 2300.09], [-121.61031000316143, 48.818971859291196, 2300.09], [-121.61032509058714, 48.819007985293865, 2300.09], [-121.61031687632203, 48.819141844287515, 2300.57], [-121.61031595431268, 48.81928182207048, 2300.09], [-121.61029374226928, 48.81942339241505, 2299.13], [-121.61026968620718, 48.819535207003355, 2298.65], [-121.61024127155542, 48.81965842097998, 2299.13], [-121.61024076864123, 48.81971734575927, 2298.65], [-121.61022685468197, 48.819846007972956, 2299.13], [-121.61022182554007, 48.819949189201, 2299.61], [-121.61019374616444, 48.820037953555584, 2300.57], [-121.61016440950334, 48.820118671283126, 2302.01], [-121.61018075421453, 48.82022235542536, 2302.49], [-121.61015217192471, 48.82032218389213, 2303.94], [-121.61015753634274, 48.820411283522844, 2304.42], [-121.61011017858982, 48.82050138898194, 2305.38], [-121.61009433679283, 48.820583866909146, 2307.3], [-121.61002879031003, 48.82069400511682, 2308.74], [-121.61001361906528, 48.8207867089659, 2310.19], [-121.60997757688165, 48.82088745944202, 2312.11], [-121.60995067097247, 48.82097186520696, 2313.55], [-121.60991990938783, 48.82107621990144, 2315.95], [-121.6099023912102, 48.82117043249309, 2316.43], [-121.60985092632473, 48.821268416941166, 2316.91], [-121.60982779227197, 48.821355337277055, 2318.36], [-121.60981077700853, 48.82144846022129, 2319.32], [-121.60979761742055, 48.82153722457588, 2320.76], [-121.60980767570436, 48.82163755595684, 2322.2], [-121.60976400598884, 48.821729170158505, 2324.12], [-121.60974917002022, 48.82184048183262, 2325.57], [-121.60975185222924, 48.82192547433078, 2325.57], [-121.60973601043224, 48.821990601718426, 2326.53], [-121.60973634570837, 48.822082886472344, 2326.53], [-121.60976157523692, 48.82216025143862, 2326.53], [-121.6097298078239, 48.82223853841424, 2327.49], [-121.60969946533442, 48.82234213873744, 2328.45], [-121.60966174677014, 48.822454791516066, 2328.93], [-121.60962369292974, 48.8225566316396, 2329.41], [-121.60958798602223, 48.82264170795679, 2330.37], [-121.60953719168901, 48.82275360636413, 2329.89], [-121.60948840901256, 48.82284798659384, 2329.89], [-121.6094620898366, 48.82291370071471, 2330.85], [-121.60943049006164, 48.822977906093, 2332.3], [-121.60938506014645, 48.82304563187063, 2334.7], [-121.60935312509537, 48.82313867099583, 2337.1], [-121.60928590223193, 48.8232472166419, 2340.95], [-121.6092548891902, 48.82332072593272, 2342.87], [-121.60922253504395, 48.823388954624534, 2344.31], [-121.60918867215514, 48.823456428945065, 2347.2], [-121.6091166716069, 48.823569836094975, 2350.08], [-121.60908272489905, 48.823620127514005, 2352.96], [-121.60905045457184, 48.82367134094238, 2354.41], [-121.60903142765164, 48.82372708059847, 2355.85], [-121.60901432856917, 48.82379421964288, 2357.29], [-121.60899211652577, 48.82385138422251, 2358.73], [-121.60896294750273, 48.823893712833524, 2360.17], [-121.60892288200557, 48.82394760847092, 2362.1], [-121.60882816649973, 48.824055567383766, 2363.54], [-121.60883478820324, 48.82410300895572, 2365.46], [-121.60877209156752, 48.824128825217485, 2366.9], [-121.60868978127837, 48.824160592630506, 2367.38], [-121.60864443518221, 48.824200574308634, 2370.27], [-121.60860747098923, 48.82424030452967, 2372.19], [-121.6085741110146, 48.82426779717207, 2373.15], [-121.60853144712746, 48.824287075549364, 2374.59], [-121.60848693922162, 48.82435463368893, 2375.55], [-121.60842130891979, 48.82437282241881, 2378.44], [-121.60838082432747, 48.82441883906722, 2381.32], [-121.60833405330777, 48.82443593814969, 2382.28], [-121.60828309133649, 48.82446183823049, 2385.65], [-121.60822860896587, 48.824480194598436, 2387.09], [-121.60810941830277, 48.82455269806087, 2391.42], [-121.60807304084301, 48.824582118541, 2392.86], [-121.60801797173917, 48.82466115988791, 2393.82], [-121.6079903114587, 48.82474699057639, 2398.15], [-121.60797094926238, 48.824795773252845, 2400.55], [-121.6079236753285, 48.82485763169825, 2401.99], [-121.60790934227407, 48.82488487288356, 2403.91], [-121.6079009603709, 48.8249225076288, 2406.32], [-121.60786500200629, 48.82497011683881, 2406.8], [-121.60783817991614, 48.825015546754, 2409.2], [-121.60780984908342, 48.825050834566355, 2411.6], [-121.60781186074018, 48.82508126087487, 2414.01], [-121.60777900367975, 48.82511034607887, 2415.45], [-121.60774857737124, 48.82514387369156, 2415.93], [-121.6076749842614, 48.825166672468185, 2417.37], [-121.60761010833085, 48.82520631887019, 2417.37], [-121.60755948163569, 48.82524462416768, 2418.33], [-121.60751514136791, 48.82532123476267, 2422.18], [-121.60746769979596, 48.825359204784036, 2423.62], [-121.6074826195836, 48.82540865801275, 2425.54], [-121.60744573920965, 48.82544931024313, 2426.5], [-121.60743995569646, 48.825500439852476, 2429.39], [-121.60742344334722, 48.82554503157735, 2431.31], [-121.6073877364397, 48.82557772099972, 2431.79], [-121.60737801343203, 48.82561644539237, 2434.2], [-121.60734708420932, 48.8256786391139, 2435.16], [-121.60731104202569, 48.825723817572, 2436.12], [-121.60728078335524, 48.825767235830426, 2437.56], [-121.60723644308746, 48.825795482844114, 2438.52], [-121.60716854967177, 48.82582322694361, 2439.0], [-121.60713116638362, 48.82587938569486, 2440.92], [-121.6070993989706, 48.82591609843075, 2441.89], [-121.60705581307411, 48.825976867228746, 2443.81], [-121.60701775923371, 48.825999749824405, 2444.77], [-121.60695028491318, 48.82602984085679, 2446.69], [-121.60693620331585, 48.82608658634126, 2449.1], [-121.60691902041435, 48.826127322390676, 2450.54], [-121.60690812394023, 48.82618465460837, 2451.98], [-121.60686856135726, 48.82620284333825, 2452.94], [-121.60683134570718, 48.826241567730904, 2454.86], [-121.6068023443222, 48.82627450861037, 2455.82], [-121.60679128021002, 48.826314993202686, 2457.75], [-121.6067455150187, 48.826361345127225, 2459.67], [-121.6066939663142, 48.82638707756996, 2461.11], [-121.60663026385009, 48.82641146890819, 2462.55], [-121.60656597465277, 48.82646075449884, 2464.96], [-121.60650067962706, 48.82648187689483, 2465.44], [-121.60641652531922, 48.8264868222177, 2466.4], [-121.60635190084577, 48.82653845474124, 2468.32], [-121.60629155114293, 48.82656594738364, 2470.24], [-121.60619666799903, 48.826598804444075, 2471.21], [-121.60615677013993, 48.826639875769615, 2473.61], [-121.60612558946013, 48.8267011474818, 2475.05], [-121.60606004297733, 48.826744398102164, 2476.97], [-121.60598100163043, 48.82675730623305, 2478.42], [-121.60592157393694, 48.8268013112247, 2479.86], [-121.60586818121374, 48.82684883661568, 2481.78], [-121.6058197338134, 48.82688052020967, 2482.74], [-121.60577036440372, 48.82692536339164, 2483.7], [-121.60574496723711, 48.826984455809, 2484.66], [-121.6056801751256, 48.82703793235123, 2486.59], [-121.60562644712627, 48.827068358659744, 2488.99], [-121.60555721260607, 48.82709702476859, 2491.39], [-121.60550105385482, 48.827131893485785, 2492.84], [-121.60547339357436, 48.82720531895757, 2495.24], [-121.60542787984014, 48.82726256735623, 2497.64], [-121.60533676855266, 48.82728209719062, 2499.08], [-121.60524129867554, 48.82729299366474, 2501.01], [-121.6051756683737, 48.82734269835055, 2502.93], [-121.60512872971594, 48.82738200947642, 2504.37], [-121.6051172465086, 48.827433390542865, 2505.33], [-121.60511657595634, 48.8274799939245, 2506.29], [-121.60506259649992, 48.82750991731882, 2507.26], [-121.60497986711562, 48.827533554285765, 2509.66], [-121.60489093512297, 48.827556101605296, 2511.1], [-121.604811726138, 48.827583929523826, 2513.5], [-121.60475749522448, 48.82761888206005, 2515.43], [-121.60474165342748, 48.827659199014306, 2516.39], [-121.6047319304198, 48.82771183736622, 2517.83], [-121.6047115623951, 48.8277511484921, 2519.27], [-121.60464224405587, 48.827770594507456, 2522.64], [-121.60458801314235, 48.827787609770894, 2524.08], [-121.60453654825687, 48.82781786844134, 2526.48], [-121.6044882684946, 48.82784896530211, 2527.92], [-121.60445398651063, 48.827922977507114, 2530.33], [-121.60444635897875, 48.82794426754117, 2530.81], [-121.60442305728793, 48.827996822074056, 2533.21], [-121.60440294072032, 48.82799305021763, 2533.21], [-121.60437293350697, 48.828010400757194, 2534.17], [-121.60429556854069, 48.82803286425769, 2536.1], [-121.60423337481916, 48.82808533497155, 2537.54], [-121.60423354245722, 48.82811316289008, 2538.98], [-121.60423018969595, 48.8281671423465, 2540.42], [-121.60421987995505, 48.82820511236787, 2541.86], [-121.60415860824287, 48.8282326888293, 2544.27], [-121.60409172065556, 48.828250374644995, 2546.19], [-121.60403740592301, 48.82827216759324, 2547.15], [-121.6040016990155, 48.828300246968865, 2548.59], [-121.6039726138115, 48.82833159528673, 2550.03], [-121.6039615496993, 48.82838414981961, 2551.48], [-121.60395828075707, 48.82841968908906, 2552.92], [-121.60392114892602, 48.828472159802914, 2554.84], [-121.60386658273637, 48.828498143702745, 2557.24], [-121.603799527511, 48.828538712114096, 2559.17], [-121.60378267988563, 48.82855027914047, 2561.09], [-121.60376281477511, 48.82861725054681, 2561.57], [-121.60376926884055, 48.82864700630307, 2563.01], [-121.60371243953705, 48.82868925109506, 2565.42], [-121.60364957526326, 48.82870752364397, 2566.38], [-121.60357640124857, 48.82873635739088, 2568.78], [-121.60353373736143, 48.82874624803662, 2570.22], [-121.60349015146494, 48.828779021278024, 2571.66], [-121.60344572737813, 48.82880810648203, 2573.11], [-121.60340323112905, 48.82885948754847, 2575.51], [-121.60339158028364, 48.82890391163528, 2577.91], [-121.60329803824425, 48.828952107578516, 2582.24], [-121.60328404046595, 48.82897616364062, 2583.68], [-121.60325394943357, 48.82899418473244, 2584.16], [-121.60326132550836, 48.82900566793978, 2583.2], [-121.6032537817955, 48.82900658994913, 2584.64], [-121.60325738601387, 48.82899426855147, 2585.12], [-121.60327062942088, 48.82899334654212, 2583.68], [-121.60328060388565, 48.829000974074006, 2580.8], [-121.60329300910234, 48.82899426855147, 2580.32], [-121.60326870158315, 48.829018576070666, 2578.39], [-121.60328982397914, 48.82901974953711, 2580.32], [-121.60327632911503, 48.829035088419914, 2580.32], [-121.6033111140132, 48.829031232744455, 2583.2], [-121.60329476930201, 48.82901832461357, 2582.24], [-121.60329946316779, 48.82899586111307, 2580.8], [-121.60328303463757, 48.828997956588864, 2579.35], [-121.6033087670803, 48.82899921387434, 2584.16], [-121.60328756086528, 48.82900843396783, 2581.76], [-121.60328353755176, 48.82898756302893, 2580.8], [-121.60326886922121, 48.82898362353444, 2581.28], [-121.6032569669187, 48.828998962417245, 2589.93], [-121.60326342098415, 48.82900063879788, 2582.72], [-121.60327716730535, 48.82901639677584, 2581.76], [-121.60329066216946, 48.829005248844624, 2579.84], [-121.60329250618815, 48.82901296019554, 2579.35], [-121.60328328609467, 48.82901983335614, 2578.87], [-121.60327004268765, 48.829011619091034, 2577.91], [-121.6032569669187, 48.8290186598897, 2580.32], [-121.60327322781086, 48.82900474593043, 2578.39], [-121.60325503908098, 48.82900374010205, 2579.84], [-121.60326057113707, 48.829016564413905, 2579.84], [-121.60327021032572, 48.82900860160589, 2584.64], [-121.60326886922121, 48.82901782169938, 2579.84], [-121.60329284146428, 48.82902477867901, 2581.28], [-121.6032904945314, 48.82902067154646, 2583.2], [-121.60326652228832, 48.82901346310973, 2584.16], [-121.60326819866896, 48.82900374010205, 2582.24], [-121.60328663885593, 48.82900055497885, 2582.24], [-121.6032794304192, 48.82897825911641, 2583.68], [-121.60327867604792, 48.82899334654212, 2583.2], [-121.60329250618815, 48.82900591939688, 2582.72], [-121.6032849624753, 48.82899032905698, 2583.2], [-121.60330683924258, 48.82900751195848, 2585.12], [-121.60329535603523, 48.82899527437985, 2580.8], [-121.60326149314642, 48.82898706011474, 2580.32], [-121.60326828248799, 48.82899125106633, 2583.2], [-121.6032794304192, 48.82896694354713, 2578.87], [-121.60328697413206, 48.8289599865675, 2577.91], [-121.60327373072505, 48.82901086471975, 2578.87], [-121.60327574238181, 48.8290184084326, 2581.76], [-121.60330063663423, 48.82904363796115, 2583.2], [-121.60328060388565, 48.82907490245998, 2584.16], [-121.60325973294675, 48.829113375395536, 2586.56], [-121.60325990058482, 48.829141203314066, 2587.53], [-121.60324037075043, 48.82915201596916, 2587.04], [-121.6032294742763, 48.829195937141776, 2588.01], [-121.60321203991771, 48.82922938093543, 2589.45], [-121.60320659168065, 48.82925905287266, 2590.89], [-121.60318781621754, 48.82927564904094, 2589.93], [-121.6031816136092, 48.82931110449135, 2594.25], [-121.6031694598496, 48.829345470294356, 2596.66], [-121.60316610708833, 48.82936189882457, 2597.62], [-121.60316661000252, 48.829400120303035, 2600.5], [-121.60317557863891, 48.82943565957248, 2602.43], [-121.60317641682923, 48.82945954799652, 2603.87], [-121.60318303853273, 48.82948528043926, 2607.23], [-121.60315873101354, 48.829508079215884, 2606.75], [-121.60316065885127, 48.829540098086, 2608.19], [-121.60315311513841, 48.82956809364259, 2611.08], [-121.6031639277935, 48.82961788214743, 2613.96], [-121.60315713845193, 48.82964721880853, 2615.88], [-121.6031536180526, 48.82965065538883, 2618.77], [-121.60315345041454, 48.82969072088599, 2621.17], [-121.60315931774676, 48.829707987606525, 2623.09], [-121.6031454037875, 48.82972248829901, 2624.06], [-121.60314590670168, 48.829759703949094, 2627.42], [-121.60313945263624, 48.82978359237313, 2627.9], [-121.60313107073307, 48.82979666814208, 2629.34], [-121.6031329985708, 48.82981762290001, 2630.79], [-121.60312511958182, 48.82982977665961, 2632.23], [-121.603141464293, 48.82983966730535, 2634.63], [-121.60313660278916, 48.829855509102345, 2636.07], [-121.60315562970936, 48.82988425903022, 2636.55], [-121.60313501022756, 48.829881912097335, 2638.96], [-121.60312713123858, 48.82989716716111, 2640.88], [-121.60313568077981, 48.82989943027496, 2641.84], [-121.60314322449267, 48.829914098605514, 2643.76], [-121.60313014872372, 48.82992918603122, 2644.72], [-121.60311330109835, 48.829936226829886, 2645.21], [-121.60310626029968, 48.8299544993788, 2645.21], [-121.60311497747898, 48.82996799424291, 2646.17], [-121.6031311545521, 48.82996866479516, 2649.05], [-121.60312553867698, 48.82999020628631, 2650.49], [-121.60313601605594, 48.83000864647329, 2653.38], [-121.60312822088599, 48.83002641610801, 2653.86], [-121.6031314060092, 48.83003521710634, 2653.86], [-121.60312101244926, 48.830050053074956, 2654.82], [-121.6031435597688, 48.830082323402166, 2657.7], [-121.60311975516379, 48.83008844219148, 2658.18], [-121.60312017425895, 48.83008450269699, 2658.66], [-121.60313735716045, 48.8300855923444, 2658.66], [-121.6031311545521, 48.83009875193238, 2659.14], [-121.60313559696078, 48.83011224679649, 2660.11], [-121.60312185063958, 48.83013864979148, 2662.03], [-121.60315118730068, 48.8301410805434, 2664.91], [-121.60312671214342, 48.83017779327929, 2663.95], [-121.60311589948833, 48.83017972111702, 2663.47], [-121.60311615094543, 48.83018852211535, 2664.91], [-121.60314121283591, 48.83018525317311, 2666.83], [-121.60314272157848, 48.83019933477044, 2668.76], [-121.60316619090736, 48.830225486308336, 2670.68], [-121.60316652618349, 48.83024384267628, 2671.16], [-121.60318421199918, 48.830268904566765, 2672.12], [-121.60319661721587, 48.83027510717511, 2675.97], [-121.60321639850736, 48.830295307561755, 2676.93], [-121.60321824252605, 48.830313915386796, 2677.41], [-121.60319678485394, 48.83031911216676, 2680.29], [-121.60321120172739, 48.830337384715676, 2684.14], [-121.6032231040299, 48.8303379714489, 2685.58], [-121.6032019816339, 48.83036378771067, 2687.02], [-121.60318152979016, 48.83037870749831, 2686.06], [-121.60318722948432, 48.83039874024689, 2687.5], [-121.60320508293808, 48.830425813794136, 2700.0], [-121.60319125279784, 48.830438973382115, 2700.96], [-121.60318739712238, 48.830488258972764, 2702.4], [-121.60316367633641, 48.83050309494138, 2703.36], [-121.60316409543157, 48.830514242872596, 2704.33], [-121.60315646789968, 48.830508291721344, 2705.77], [-121.60313283093274, 48.83053494617343, 2706.25], [-121.60313903354108, 48.830535700544715, 2707.69], [-121.6030951961875, 48.830618765205145, 2715.38], [-121.6030843835324, 48.83063226006925, 2716.34], [-121.60310106351972, 48.83065271191299, 2716.82], [-121.60309687256813, 48.83064047433436, 2717.3], [-121.6031036619097, 48.83068238385022, 2717.3], [-121.60309301689267, 48.8306799530983, 2718.27], [-121.6031158156693, 48.83067316375673, 2718.75], [-121.60311791114509, 48.830697471275926, 2719.23], [-121.60309921950102, 48.83070115931332, 2719.23], [-121.60309670493007, 48.83071188814938, 2724.03], [-121.6031160671264, 48.830705601722, 2725.96], [-121.60310575738549, 48.83070074021816, 2727.88], [-121.60309201106429, 48.83071054704487, 2728.36], [-121.60312210209668, 48.83071222342551, 2729.32], [-121.60312092863023, 48.830694034695625, 2731.24], [-121.60309955477715, 48.83070660755038, 2732.2], [-121.6030917596072, 48.83073569275439, 2733.17], [-121.60311975516379, 48.83073879405856, 2733.65], [-121.60311673767865, 48.830756144598126, 2733.65], [-121.60311883315444, 48.83078254759312, 2735.57], [-121.60313400439918, 48.83078950457275, 2737.49], [-121.60316434688866, 48.83079838939011, 2740.86], [-121.60317180678248, 48.83081548847258, 2740.86], [-121.60316593945026, 48.83084138855338, 2740.86], [-121.60313894972205, 48.830843064934015, 2743.26], [-121.6031504329294, 48.830850357189775, 2746.62], [-121.60314029082656, 48.83085295557976, 2749.99], [-121.60315252840519, 48.83085790090263, 2755.76], [-121.60319292917848, 48.83085396140814, 2758.64], [-121.60319770686328, 48.830856727436185, 2761.04], [-121.60317147150636, 48.830887489020824, 2758.16], [-121.60318010486662, 48.83088279515505, 2756.72], [-121.6031953599304, 48.830891847610474, 2756.72], [-121.60320055671036, 48.83091330528259, 2755.76], [-121.60321522504091, 48.830921184271574, 2755.76], [-121.6032294742763, 48.83094834163785, 2753.35], [-121.60322704352438, 48.8309680391103, 2754.31], [-121.60321338102221, 48.83095622062683, 2754.8], [-121.60321120172739, 48.83094146847725, 2757.68], [-121.60322871990502, 48.83098119869828, 2758.16], [-121.60320709459484, 48.831021431833506, 2759.12], [-121.60317968577147, 48.83105797693133, 2762.49], [-121.60317281261086, 48.831053702160716, 2761.52], [-121.60314825363457, 48.83106744848192, 2759.6], [-121.60316661000252, 48.8310354296118, 2763.45], [-121.60318471491337, 48.83104020729661, 2763.93], [-121.60315965302289, 48.83101908490062, 2765.85], [-121.60314565524459, 48.831038028001785, 2760.56], [-121.60318379290402, 48.831075578927994, 2760.56], [-121.60317809320986, 48.83105378597975, 2760.56], [-121.60319728776813, 48.831058060750365, 2761.52], [-121.60323182120919, 48.831059569492936, 2763.93], [-121.60320759750903, 48.83105160668492, 2761.04], [-121.60321036353707, 48.83102763444185, 2762.49], [-121.60320030525327, 48.83103492669761, 2763.45], [-121.60315931774676, 48.83104121312499, 2763.45], [-121.60316535271704, 48.83105780929327, 2764.41], [-121.60314397886395, 48.831088319420815, 2767.29], [-121.60309754312038, 48.83111170493066, 2772.1], [-121.60307013429701, 48.83110114373267, 2767.77], [-121.60311531275511, 48.8310856372118, 2766.81], [-121.60314029082656, 48.83106468245387, 2764.41], [-121.60316267050803, 48.83105722256005, 2763.93], [-121.60317742265761, 48.83105537854135, 2763.45], [-121.60317256115377, 48.83103869855404, 2762.97], [-121.60318739712238, 48.83101807907224, 2762.0], [-121.60319049842656, 48.83100517094135, 2760.56], [-121.60323056392372, 48.830983713269234, 2758.16], [-121.60324330441654, 48.830969883129, 2755.76], [-121.60322402603924, 48.83095144294202, 2756.72], [-121.60323785617948, 48.830935852602124, 2757.68], [-121.60322352312505, 48.830935936421156, 2759.6], [-121.60322687588632, 48.83092503994703, 2755.28], [-121.60324296914041, 48.830933924764395, 2755.28], [-121.60322905518115, 48.83091607131064, 2756.24], [-121.60320960916579, 48.83090634830296, 2755.76], [-121.60317046567798, 48.83089100942016, 2753.35], [-121.60318245179951, 48.830866450443864, 2751.43], [-121.60316652618349, 48.83086326532066, 2749.51], [-121.603191671893, 48.83087642490864, 2748.07], [-121.60318873822689, 48.830860666930676, 2747.59], [-121.60316367633641, 48.830850943923, 2745.18], [-121.60316778346896, 48.830841640010476, 2742.78], [-121.60316132940352, 48.8308128900826, 2742.3], [-121.60315512679517, 48.8308057654649, 2741.34], [-121.60316711291671, 48.83077877573669, 2740.38], [-121.60316476598382, 48.830772656947374, 2739.89], [-121.60313366912305, 48.8307523727417, 2737.01], [-121.60312805324793, 48.83074030280113, 2736.05], [-121.60312964580953, 48.830719934776425, 2734.61], [-121.60312545485795, 48.83071331307292, 2732.2], [-121.60313635133207, 48.83069914765656, 2731.72], [-121.6031245328486, 48.83070459589362, 2731.72], [-121.60312922671437, 48.830671990290284, 2730.28], [-121.60313442349434, 48.83065178990364, 2729.8], [-121.6031155642122, 48.830642653629184, 2728.84], [-121.60313257947564, 48.83063175715506, 2728.36], [-121.60312511958182, 48.83061373606324, 2727.88], [-121.60313241183758, 48.8305951282382, 2726.92], [-121.60314816981554, 48.8305848184973, 2724.03], [-121.60312444902956, 48.83058205246925, 2723.07], [-121.60310005769134, 48.83057031780481, 2700.48], [-121.60312805324793, 48.83057258091867, 2700.0], [-121.60314247012138, 48.83054726757109, 2700.48], [-121.60311288200319, 48.8305607624352, 2697.6], [-121.60311137326062, 48.8305832259357, 2694.71], [-121.60312377847731, 48.83057492785156, 2691.83], [-121.60313157364726, 48.830545926466584, 2689.91], [-121.60312495194376, 48.83054927922785, 2687.02], [-121.60311807878315, 48.83054316043854, 2683.18], [-121.60311338491738, 48.83055539801717, 2681.73], [-121.60312486812472, 48.830560175701976, 2675.49], [-121.60311573185027, 48.8305657915771, 2674.52], [-121.60311732441187, 48.83054735139012, 2674.52], [-121.60312319174409, 48.83054668083787, 2671.64], [-121.6031121276319, 48.830572413280606, 2669.72], [-121.6031536180526, 48.83040636777878, 2672.12], [-121.60315998829901, 48.83034962229431, 2673.08], [-121.60314867272973, 48.83030477911234, 2673.08], [-121.60312503576279, 48.83028491400182, 2673.08], [-121.60312872380018, 48.83025239221752, 2671.64], [-121.60312562249601, 48.83020235225558, 2669.24], [-121.60311145707965, 48.830158011987805, 2667.8], [-121.6031086910516, 48.83012406527996, 2665.87], [-121.60311413928866, 48.830089112743735, 2660.59], [-121.60312176682055, 48.83005550131202, 2660.11], [-121.60310885868967, 48.83003949187696, 2658.18], [-121.60310433246195, 48.83001711219549, 2655.3], [-121.60311162471771, 48.829944524914026, 2647.13], [-121.60312562249601, 48.82990303449333, 2644.72], [-121.6031126305461, 48.82986254990101, 2643.76], [-121.60311589948833, 48.8298318721354, 2640.4], [-121.60311648622155, 48.82979457266629, 2635.59], [-121.60311112180352, 48.82975626736879, 2630.79], [-121.60311472602189, 48.829720728099346, 2627.9], [-121.6031274665147, 48.82968225516379, 2622.13], [-121.60311891697347, 48.82964797317982, 2618.29], [-121.60312478430569, 48.82960790768266, 2615.4], [-121.60312310792506, 48.829581420868635, 2613.96], [-121.60315370187163, 48.82952702231705, 2609.64], [-121.60318437963724, 48.829438257962465, 2604.83], [-121.60318572074175, 48.82939651608467, 2600.98], [-121.60317515954375, 48.829315463081, 2596.66], [-121.60318119451404, 48.82929920218885, 2596.18], [-121.60323148593307, 48.82920674979687, 2591.85], [-121.60325051285326, 48.829148495569825, 2587.04], [-121.60325830802321, 48.82902016863227, 2581.28], [-121.60326727665961, 48.829002818092704, 2579.35], [-121.60328387282789, 48.82900667376816, 2582.72], [-121.60327138379216, 48.82900860160589, 2582.72], [-121.60326643846929, 48.82900130935013, 2584.16], [-121.60327188670635, 48.828989239409566, 2585.12], [-121.60328169353306, 48.829012122005224, 2586.56], [-121.6032783407718, 48.82899334654212, 2585.6], [-121.60328672267497, 48.828985216096044, 2585.6], [-121.6032519377768, 48.829026790335774, 2586.56], [-121.60326853394508, 48.829004829749465, 2586.56], [-121.60332075320184, 48.828985299915075, 2583.2], [-121.60349434241652, 48.828813722357154, 2572.63], [-121.60354061052203, 48.82876921445131, 2570.22], [-121.6036147903651, 48.828718001022935, 2567.34], [-121.6036576218903, 48.82868740707636, 2565.9], [-121.60376155748963, 48.828564612194896, 2560.61], [-121.60394755192101, 48.828447768464684, 2555.8], [-121.60403933376074, 48.82832681760192, 2552.44], [-121.60404352471232, 48.82831625640392, 2551.96], [-121.6041330434382, 48.82820779457688, 2546.67], [-121.60419506952167, 48.828146774321795, 2543.31], [-121.60421954467893, 48.82812489755452, 2541.86], [-121.6042654775083, 48.828077875077724, 2539.46], [-121.60443663597107, 48.82796966470778, 2534.17], [-121.60446538589895, 48.82788919843733, 2530.81], [-121.60449472256005, 48.827849719673395, 2529.85], [-121.60453235730529, 48.8278254121542, 2528.4], [-121.60460167564452, 48.827770594507456, 2526.48], [-121.60472522489727, 48.827673867344856, 2521.19], [-121.60484516993165, 48.82758460007608, 2515.91], [-121.60502043552697, 48.827531626448035, 2513.02], [-121.6051119659096, 48.82749868556857, 2510.62], [-121.6051397100091, 48.82745417766273, 2509.18], [-121.60524951294065, 48.82734437473118, 2505.81], [-121.60531271249056, 48.827313194051385, 2503.89], [-121.6053902450949, 48.82727379910648, 2501.97], [-121.60549158230424, 48.827200289815664, 2500.05], [-121.60551228560507, 48.82718629203737, 2499.57], [-121.60565176047385, 48.827068861573935, 2494.28], [-121.6058839391917, 48.82688068784773, 2486.11], [-121.6060586180538, 48.82677507586777, 2480.34], [-121.60611963830888, 48.826726879924536, 2478.42], [-121.60612802021205, 48.826706763356924, 2477.94], [-121.60613749176264, 48.826675079762936, 2476.97], [-121.60620228387415, 48.826619843021035, 2474.09], [-121.60638827830553, 48.82654381915927, 2471.69], [-121.60657888278365, 48.82647483609617, 2468.8], [-121.60662146285176, 48.82643334567547, 2467.36], [-121.60669664852321, 48.826381377875805, 2465.92], [-121.60675867460668, 48.82632169872522, 2463.04], [-121.60686898045242, 48.826200077310205, 2458.23], [-121.6069754306227, 48.82612665183842, 2454.86], [-121.60697006620467, 48.826056495308876, 2452.46], [-121.60696294158697, 48.82601517252624, 2451.02], [-121.60712219774723, 48.825900088995695, 2445.73], [-121.60715212114155, 48.825870249420404, 2444.77], [-121.60718472674489, 48.82579682394862, 2442.37], [-121.60721372812986, 48.82574108429253, 2439.96], [-121.60720517858863, 48.82567612454295, 2438.52], [-121.60720769315958, 48.82563111372292, 2437.56], [-121.6073517780751, 48.825502367690206, 2434.2], [-121.60736384801567, 48.825487615540624, 2433.71], [-121.60744213499129, 48.825446628034115, 2432.27], [-121.60746158100665, 48.8254058919847, 2431.31], [-121.60745973698795, 48.82536532357335, 2430.35], [-121.60750893875957, 48.82531930692494, 2428.91], [-121.60752260126173, 48.825274631381035, 2426.99], [-121.60768738947809, 48.82518754340708, 2423.14], [-121.60775964148343, 48.82514496333897, 2420.26], [-121.60781412385404, 48.82502409629524, 2416.41], [-121.60782041028142, 48.82500188425183, 2415.45], [-121.60790682770312, 48.82487037219107, 2410.64], [-121.60791512578726, 48.82483994588256, 2408.72], [-121.60796600393951, 48.824789486825466, 2405.84], [-121.60800263285637, 48.824657974764705, 2399.11], [-121.60805233754218, 48.824604749679565, 2396.7], [-121.60811461508274, 48.824546579271555, 2394.3], [-121.60817949101329, 48.824511375278234, 2392.38], [-121.60836758092046, 48.824411295354366, 2386.13], [-121.60838426090777, 48.82439679466188, 2385.65], [-121.6084155254066, 48.824354130774736, 2382.76], [-121.60844561643898, 48.82427995093167, 2379.88], [-121.60845525562763, 48.82425279356539, 2378.92], [-121.60853362642229, 48.82418179884553, 2374.59], [-121.60860302858055, 48.82413938641548, 2372.67], [-121.60867553204298, 48.82406503893435, 2368.83], [-121.60877561196685, 48.824016842991114, 2365.94], [-121.60889857448637, 48.823948027566075, 2362.58], [-121.60899278707802, 48.82385540753603, 2358.73], [-121.60904919728637, 48.82381835952401, 2357.29], [-121.60911289975047, 48.823768654838204, 2355.37], [-121.60924818366766, 48.8236843328923, 2352.96], [-121.60927718505263, 48.82364862598479, 2352.0], [-121.60929537378252, 48.823608476668596, 2350.56], [-121.60935999825597, 48.82350051775575, 2347.2], [-121.60940693691373, 48.823410579934716, 2345.27], [-121.60947868600488, 48.82329013198614, 2342.87], [-121.6094742435962, 48.82318980060518, 2340.95], [-121.60946125164628, 48.82316146977246, 2340.47], [-121.60946032963693, 48.82306876592338, 2337.58], [-121.60948170349002, 48.823018139228225, 2336.14], [-121.60953249782324, 48.822864750400186, 2333.26], [-121.60959301516414, 48.82271932438016, 2329.89], [-121.60959863103926, 48.822710355743766, 2329.89], [-121.60959016531706, 48.82266626693308, 2328.93], [-121.6096658539027, 48.82251103408635, 2327.49], [-121.60966828465462, 48.82250156253576, 2327.49], [-121.60971321165562, 48.822358064353466, 2326.53], [-121.60972922109067, 48.822310119867325, 2326.53], [-121.60974690690637, 48.822278352454305, 2326.53], [-121.60974271595478, 48.82220425643027, 2326.05], [-121.60976031795144, 48.82206151261926, 2324.61], [-121.60976241342723, 48.821932934224606, 2323.16], [-121.60977071151137, 48.8218383025378, 2321.24], [-121.60979258827865, 48.82177007384598, 2321.24], [-121.60981454886496, 48.82163554430008, 2318.84], [-121.60981530323625, 48.82156999781728, 2317.88], [-121.60983240231872, 48.821523981168866, 2317.4], [-121.60983315669, 48.82146002724767, 2316.91], [-121.60987749695778, 48.821285516023636, 2315.47], [-121.60991689190269, 48.82112114690244, 2313.55], [-121.60995863378048, 48.82095719687641, 2312.11], [-121.61000465042889, 48.82083515636623, 2310.19], [-121.61002895794809, 48.82075343281031, 2308.74], [-121.61007011309266, 48.82056643255055, 2306.34], [-121.61009978502989, 48.82049619220197, 2305.38], [-121.61014529876411, 48.820317070931196, 2302.98], [-121.61016935482621, 48.82017256692052, 2302.01], [-121.61020020022988, 48.82003761827946, 2302.98], [-121.61021922715008, 48.8199750892818, 2302.98], [-121.61022677086294, 48.819809127599, 2302.98], [-121.61024395376444, 48.81966680288315, 2302.98], [-121.61027245223522, 48.81951098330319, 2303.46], [-121.61030262708664, 48.819335382431746, 2302.98], [-121.6103096678853, 48.819217532873154, 2303.46], [-121.61032400093973, 48.819151064381, 2303.46], [-121.6103268507868, 48.81909096613526, 2303.94], [-121.6103326343, 48.81907227449119, 2303.94], [-121.61032400093973, 48.818899942561984, 2304.42], [-121.61033020354807, 48.81880254484713, 2304.9], [-121.61033472977579, 48.81878410466015, 2304.9], [-121.61032123491168, 48.81864286959171, 2305.86], [-121.61029667593539, 48.8184536062181, 2306.34], [-121.61026423797011, 48.81831061094999, 2306.82], [-121.61023473367095, 48.818135345354676, 2307.78], [-121.61019525490701, 48.81799662485719, 2308.74], [-121.61014731042087, 48.81788305006921, 2309.7], [-121.61014865152538, 48.817765451967716, 2311.63], [-121.61013415083289, 48.817693116143346, 2313.07], [-121.61009333096445, 48.81757945753634, 2314.03], [-121.61007137037814, 48.81752287968993, 2314.51], [-121.60998964682221, 48.817243594676256, 2315.95], [-121.60997388884425, 48.817063719034195, 2317.4], [-121.60994614474475, 48.81689289584756, 2316.43], [-121.60994354635477, 48.81672584451735, 2315.47], [-121.60997154191136, 48.81660950370133, 2314.51], [-121.61001697182655, 48.81651135161519, 2314.03], [-121.61003817804158, 48.81635293364525, 2312.11], [-121.61004806868732, 48.81633407436311, 2311.63], [-121.61004966124892, 48.81631529890001, 2311.63], [-121.61007505841553, 48.81614145822823, 2308.26], [-121.61011973395944, 48.81604523397982, 2306.82], [-121.61017991602421, 48.81588446907699, 2302.49], [-121.61019844003022, 48.81582965143025, 2302.01], [-121.6102628968656, 48.815668635070324, 2297.21], [-121.61027354188263, 48.81562094204128, 2295.77], [-121.61029625684023, 48.81559127010405, 2294.8], [-121.61035476252437, 48.81544458679855, 2291.92], [-121.61041620187461, 48.81530796177685, 2289.04], [-121.61045056767762, 48.81518382579088, 2285.67], [-121.61045970395207, 48.81515298038721, 2284.71], [-121.61046599037945, 48.81508391350508, 2282.31], [-121.6104650683701, 48.81503705866635, 2281.35], [-121.61047663539648, 48.81491040810943, 2279.42], [-121.61045283079147, 48.81464336067438, 2274.14], [-121.61043581552804, 48.814601534977555, 2272.69], [-121.6104203928262, 48.81445652805269, 2270.77], [-121.61041955463588, 48.81434228271246, 2269.33], [-121.61040647886693, 48.81421973928809, 2268.85], [-121.61039700731635, 48.81415570154786, 2267.89], [-121.61036716774106, 48.814049838110805, 2265.48], [-121.61036758683622, 48.813911536708474, 2263.08], [-121.61038812249899, 48.813865603879094, 2262.12], [-121.61042424850166, 48.81373157724738, 2259.24], [-121.61043564788997, 48.81371347233653, 2258.75], [-121.61045677028596, 48.81365857087076, 2258.27], [-121.61050387658179, 48.81351800635457, 2255.39], [-121.61058484576643, 48.813379034399986, 2252.03], [-121.61063555628061, 48.813287168741226, 2250.58], [-121.61069347523153, 48.81318088620901, 2249.62], [-121.61069934256375, 48.81318122148514, 2249.14], [-121.61070110276341, 48.81316957063973, 2249.62], [-121.61072281189263, 48.81313436664641, 2249.14], [-121.61074527539313, 48.81304216571152, 2246.26], [-121.61074636504054, 48.813011487945914, 2245.3], [-121.61075172945857, 48.8129326980561, 2243.37], [-121.61074007861316, 48.81291266530752, 2241.45], [-121.61069934256375, 48.81286229006946, 2238.57], [-121.6107002645731, 48.81277243606746, 2236.16], [-121.6106986720115, 48.81276656873524, 2235.68], [-121.6106968279928, 48.81265668198466, 2232.8], [-121.61064385436475, 48.81254914216697, 2229.92], [-121.6106138471514, 48.81247621960938, 2227.51], [-121.61056322045624, 48.81240455433726, 2224.63], [-121.61053857766092, 48.81228502839804, 2222.22], [-121.61053254269063, 48.81226608529687, 2221.74], [-121.61055643111467, 48.812156366184354, 2218.38], [-121.61055400036275, 48.812111020088196, 2218.38], [-121.61054939031601, 48.812077241018414, 2216.94], [-121.61057386547327, 48.811996690928936, 2215.5], [-121.61066078580916, 48.81186283193529, 2213.09], [-121.6107153519988, 48.81174590438604, 2210.69], [-121.61076514050364, 48.81162059493363, 2208.29], [-121.61078215576708, 48.81152629852295, 2206.36], [-121.61084342747927, 48.811410712078214, 2203.96], [-121.61084619350731, 48.811400486156344, 2203.96], [-121.61085876636207, 48.8113821297884, 2203.96], [-121.61090712994337, 48.811280373483896, 2201.56], [-121.61092313937843, 48.811175683513284, 2198.19], [-121.61092615686357, 48.81107090972364, 2195.79], [-121.61097845993936, 48.81094836629927, 2193.39], [-121.61103176884353, 48.810826074332, 2192.42], [-121.61105800420046, 48.810734963044524, 2191.46], [-121.61107191815972, 48.81064787507057, 2190.5], [-121.611114917323, 48.81055257283151, 2190.5], [-121.61113386042416, 48.810432543978095, 2188.58], [-121.61119496449828, 48.81033807992935, 2186.66], [-121.61123938858509, 48.81023095920682, 2184.25], [-121.61131021566689, 48.810131046921015, 2181.85], [-121.61138531751931, 48.810013281181455, 2179.45], [-121.61140082404017, 48.80998729728162, 2180.41], [-121.61142094060779, 48.80989241413772, 2178.48], [-121.61147609353065, 48.80981622263789, 2176.56], [-121.61152831278741, 48.80973014049232, 2174.64], [-121.61157608963549, 48.80965738557279, 2172.24], [-121.61157231777906, 48.80962369032204, 2171.76], [-121.61158321425319, 48.809565184637904, 2169.35], [-121.61163442768157, 48.8094790186733, 2165.99], [-121.61164674907923, 48.80946150049567, 2165.51], [-121.6116670332849, 48.809390254318714, 2164.06], [-121.61170148290694, 48.80934348329902, 2163.1], [-121.6117291431874, 48.80931372754276, 2162.62], [-121.61178731359541, 48.809269135817885, 2161.18], [-121.61183282732964, 48.80922823213041, 2160.7], [-121.61181991919875, 48.80913343280554, 2156.37], [-121.61178882233799, 48.809134187176824, 2155.89], [-121.61178588867188, 48.80913653410971, 2157.82], [-121.61175621673465, 48.809077525511384, 2155.89], [-121.61171346902847, 48.80899001844227, 2152.53], [-121.61168530583382, 48.80894408561289, 2150.61], [-121.61164498887956, 48.80890083499253, 2149.65], [-121.61160366609693, 48.80876982584596, 2146.76], [-121.6116033308208, 48.808758510276675, 2146.28], [-121.61158069968224, 48.80869128741324, 2142.92], [-121.61157701164484, 48.80864795297384, 2140.99], [-121.61161053925753, 48.80851920694113, 2137.15], [-121.61162084899843, 48.80848593078554, 2136.19], [-121.6116083599627, 48.80842566490173, 2133.78], [-121.61157483235002, 48.80832256749272, 2128.02], [-121.61157575435936, 48.808320220559835, 2128.02], [-121.61130300723016, 48.8080576993525, 2110.23], [-121.61105498671532, 48.80776693113148, 2087.64], [-121.61086748354137, 48.80755914375186, 2075.62], [-121.61078793928027, 48.80743693560362, 2069.38], [-121.61072549410164, 48.807379519566894, 2066.01], [-121.6106635518372, 48.80733291618526, 2064.57], [-121.61066506057978, 48.80730802193284, 2064.57], [-121.61067444831133, 48.807245157659054, 2063.61], [-121.61073789931834, 48.80712336860597, 2061.68], [-121.61080344580114, 48.80700057372451, 2056.88], [-121.61085206083953, 48.80688054487109, 2053.99], [-121.61085801199079, 48.80684860982001, 2053.51], [-121.61083102226257, 48.80683595314622, 2049.67], [-121.6106085665524, 48.806681390851736, 2040.54], [-121.61038745194674, 48.8065449334681, 2029.48], [-121.61020405590534, 48.806424820795655, 2020.83], [-121.60995226353407, 48.80627302452922, 2009.77], [-121.60961531102657, 48.80609365180135, 1995.35], [-121.60949913784862, 48.80600966513157, 1989.59], [-121.60942638292909, 48.8059148658067, 1985.74], [-121.60936242900789, 48.80578435957432, 1979.49], [-121.60931741818786, 48.80567296408117, 1977.09], [-121.60934021696448, 48.805454950779676, 1973.72], [-121.60931339487433, 48.80532846786082, 1970.36], [-121.60928783006966, 48.80524875596166, 1967.96], [-121.6092461720109, 48.80513207986951, 1964.11], [-121.6092237085104, 48.805098719894886, 1963.15], [-121.60921080037951, 48.80506820976734, 1962.67], [-121.60916972905397, 48.8049565628171, 1961.23], [-121.60915581509471, 48.804876850917935, 1960.27], [-121.60907425917685, 48.80474676378071, 1958.82], [-121.60899253562093, 48.80462363362312, 1958.34], [-121.60890729166567, 48.80452623590827, 1958.34], [-121.6088299266994, 48.80444618873298, 1957.86], [-121.60881567746401, 48.804352479055524, 1957.86], [-121.60880595445633, 48.80427058786154, 1959.3], [-121.60879279486835, 48.80418702028692, 1958.34], [-121.60876899026334, 48.80409381352365, 1958.34], [-121.60875759087503, 48.80400228314102, 1958.82], [-121.60873009823263, 48.80391242913902, 1959.78], [-121.60869715735316, 48.80389491096139, 1960.27], [-121.60865591838956, 48.803877560421824, 1960.75], [-121.60864326171577, 48.803888875991106, 1959.78], [-121.60865784622729, 48.80388518795371, 1957.86], [-121.60866010934114, 48.80389692261815, 1958.34], [-121.60864242352545, 48.803890300914645, 1959.3], [-121.6086554992944, 48.80391997285187, 1959.3], [-121.60866362974048, 48.80391653627157, 1958.34], [-121.60865415818989, 48.80391142331064, 1960.75], [-121.60865440964699, 48.80389507859945, 1955.46], [-121.60865424200892, 48.80388694815338, 1955.94], [-121.60866312682629, 48.80388745106757, 1957.38], [-121.60865432582796, 48.80387261509895, 1957.86], [-121.60863588564098, 48.80390262231231, 1954.5], [-121.60866413265467, 48.80389591678977, 1954.5], [-121.60868156701326, 48.80390027537942, 1955.94], [-121.60868894308805, 48.80391024984419, 1958.82], [-121.60867284983397, 48.80391150712967, 1959.3], [-121.6086351312697, 48.80391838029027, 1951.13], [-121.60865080542862, 48.80388426594436, 1956.9], [-121.6086316946894, 48.80389541387558, 1956.42], [-121.60863840021193, 48.80388334393501, 1954.98], [-121.60863437689841, 48.80387311801314, 1953.54], [-121.6086499672383, 48.80386255681515, 1954.02], [-121.6086245700717, 48.803859958425164, 1955.46], [-121.60864024423063, 48.80387504585087, 1954.02], [-121.60864158533514, 48.8038650713861, 1952.57], [-121.6086195409298, 48.80386373028159, 1952.09], [-121.60863337107003, 48.803869262337685, 1954.98], [-121.6085917968303, 48.80387940444052, 1944.4], [-121.60860780626535, 48.80387797951698, 1949.69], [-121.60859565250576, 48.80386465229094, 1953.06], [-121.60860470496118, 48.80388812161982, 1952.57], [-121.6086486261338, 48.803850654512644, 1948.73], [-121.60864468663931, 48.803828274831176, 1950.65], [-121.60860906355083, 48.80375484935939, 1945.36], [-121.60864661447704, 48.80370724014938, 1945.85], [-121.60865625366569, 48.80368494428694, 1950.65], [-121.6086795553565, 48.80359182134271, 1954.98], [-121.60865675657988, 48.803526777774096, 1955.94], [-121.6086798068136, 48.80346642807126, 1956.9], [-121.60870076157153, 48.80339325405657, 1956.9], [-121.60871140658855, 48.80332209169865, 1957.38], [-121.6087487898767, 48.803239949047565, 1957.86], [-121.60878743045032, 48.8031242787838, 1959.78], [-121.60881760530174, 48.803040040656924, 1959.78], [-121.60884375683963, 48.80297424271703, 1959.78], [-121.60883034579456, 48.80289536900818, 1960.75], [-121.60876387730241, 48.802800150588155, 1960.75], [-121.60869346931577, 48.80273007787764, 1961.71], [-121.60858525894582, 48.802673164755106, 1960.75], [-121.60852038301528, 48.80262840539217, 1961.23], [-121.60846958868206, 48.8025906868279, 1962.19], [-121.6083914693445, 48.80255573429167, 1963.63], [-121.60827663727105, 48.80255523137748, 1964.59], [-121.60817773081362, 48.80253553390503, 1964.59], [-121.60806859843433, 48.80252279341221, 1964.59], [-121.60795217379928, 48.802557829767466, 1965.07], [-121.60782233811915, 48.80256881006062, 1965.55], [-121.60771387629211, 48.80259286612272, 1967.96], [-121.60756375640631, 48.80262387916446, 1966.99], [-121.60742436535656, 48.802664866670966, 1966.51], [-121.60728874616325, 48.80268406122923, 1964.11], [-121.60727449692786, 48.802681881934404, 1963.63], [-121.60712161101401, 48.80270702764392, 1962.19], [-121.60694592632353, 48.802681881934404, 1960.75], [-121.60668047145009, 48.80263511091471, 1955.94], [-121.60657544620335, 48.80259521305561, 1953.54], [-121.60648215562105, 48.80255514755845, 1952.09], [-121.60637034103274, 48.80248281173408, 1949.21], [-121.6062983404845, 48.80241642706096, 1945.85], [-121.6062135156244, 48.80235473625362, 1943.44], [-121.60616749897599, 48.802326656877995, 1942.0], [-121.60607831552625, 48.80225264467299, 1939.6], [-121.60602265968919, 48.80217217840254, 1936.23], [-121.60600623115897, 48.802157174795866, 1935.75], [-121.60597094334662, 48.80210654810071, 1933.83], [-121.60587186925113, 48.80200554616749, 1929.98], [-121.60581059753895, 48.801952404901385, 1926.62], [-121.60577740520239, 48.80191946402192, 1925.18], [-121.60575611516833, 48.80188065581024, 1924.22], [-121.60571420565248, 48.80183690227568, 1921.81], [-121.60564731806517, 48.801775546744466, 1919.41], [-121.60555972717702, 48.80167571827769, 1916.53], [-121.60552226006985, 48.801649902015924, 1916.04], [-121.60546224564314, 48.80156717263162, 1912.68], [-121.60539041273296, 48.80148100666702, 1909.32], [-121.60537691786885, 48.80146239884198, 1908.35], [-121.60532277077436, 48.80134236998856, 1906.43], [-121.60531061701477, 48.80131823010743, 1906.43], [-121.60529125481844, 48.80128604359925, 1905.47], [-121.60529075190425, 48.80126701667905, 1904.99], [-121.60527574829757, 48.8012401945889, 1904.03], [-121.6052380297333, 48.801144137978554, 1899.7], [-121.60522034391761, 48.80111077800393, 1898.26], [-121.60515228286386, 48.80103492178023, 1893.93], [-121.60506586544216, 48.80095520988107, 1888.65], [-121.60502169281244, 48.80089025013149, 1883.84], [-121.60494399257004, 48.80081607028842, 1879.51], [-121.60488674417138, 48.800744069740176, 1876.15], [-121.60482086241245, 48.800624795258045, 1869.42], [-121.60475523211062, 48.80053854547441, 1865.09], [-121.60468658432364, 48.80044114775956, 1860.77], [-121.60463151521981, 48.80035179667175, 1856.92], [-121.60454945638776, 48.80024350248277, 1851.64], [-121.60447175614536, 48.80013747140765, 1846.35], [-121.60440696403384, 48.80005340091884, 1842.02], [-121.60436807200313, 48.799988524988294, 1838.18], [-121.60430780611932, 48.79992188885808, 1834.33], [-121.6042765416205, 48.79987486638129, 1831.93], [-121.60425868816674, 48.799852738156915, 1830.49], [-121.60423094406724, 48.79981133155525, 1827.12], [-121.60420806147158, 48.79979616031051, 1826.16], [-121.60418308340013, 48.79975433461368, 1823.76], [-121.60414746031165, 48.799710497260094, 1820.87], [-121.6041105799377, 48.79961050115526, 1817.99], [-121.60407269373536, 48.79953942261636, 1814.15], [-121.60405735485256, 48.79946834407747, 1811.74], [-121.60405064933002, 48.79940581507981, 1810.3], [-121.60402407869697, 48.799319649115205, 1807.42], [-121.60403874702752, 48.79926617257297, 1805.49], [-121.60403321497142, 48.799188220873475, 1802.61], [-121.60399574786425, 48.79908529110253, 1799.24], [-121.60398317500949, 48.79903441295028, 1797.32], [-121.60395585000515, 48.79893424920738, 1793.48], [-121.60395559854805, 48.79882687702775, 1789.63], [-121.60395417362452, 48.79881857894361, 1789.63], [-121.60395593382418, 48.79873216152191, 1785.31], [-121.60397135652602, 48.79867549985647, 1782.9], [-121.60394688136876, 48.79858296364546, 1777.13], [-121.60392249003053, 48.79849411547184, 1772.33], [-121.60391234792769, 48.79841742105782, 1768.48], [-121.60391410812736, 48.79834793508053, 1768.0], [-121.6039446182549, 48.798237796872854, 1765.12], [-121.60393422469497, 48.79823167808354, 1765.12], [-121.60397512838244, 48.798147439956665, 1762.71], [-121.60399943590164, 48.798060938715935, 1758.87], [-121.60401502624154, 48.79796488210559, 1754.54], [-121.60403589718044, 48.79786538891494, 1752.62], [-121.6040622163564, 48.797763884067535, 1750.22], [-121.60407478921115, 48.797665145248175, 1746.85], [-121.60411384887993, 48.797553749755025, 1743.01], [-121.60413765348494, 48.79748912528157, 1741.08], [-121.60418417304754, 48.797431541606784, 1739.64], [-121.60419842228293, 48.797377394512296, 1740.12], [-121.60422088578343, 48.7972423620522, 1737.24], [-121.60427302122116, 48.797163823619485, 1734.84], [-121.60428073257208, 48.7971596326679, 1734.36], [-121.60434963181615, 48.79707522690296, 1731.95], [-121.60440998151898, 48.79700280725956, 1730.03], [-121.60446211695671, 48.796921502798796, 1726.67], [-121.60447494126856, 48.7969093490392, 1726.18], [-121.60450519993901, 48.796835420653224, 1726.18], [-121.60455180332065, 48.796761240810156, 1724.74], [-121.60457854159176, 48.79664674401283, 1721.86], [-121.60462288185954, 48.79654683172703, 1719.46], [-121.60464375279844, 48.796511041000485, 1717.53], [-121.60466244444251, 48.79649595357478, 1717.05], [-121.60468675196171, 48.79646200686693, 1716.09], [-121.6046991571784, 48.7964497692883, 1715.61], [-121.6047129034996, 48.7964222766459, 1715.13], [-121.60473712719977, 48.79636511206627, 1714.17], [-121.60476914606988, 48.79626369103789, 1713.69], [-121.60473830066621, 48.79615120589733, 1712.73], [-121.60473913885653, 48.79611482843757, 1712.25], [-121.60472237505019, 48.796006282791495, 1709.36], [-121.60473478026688, 48.796006785705686, 1710.32], [-121.60470368340611, 48.795993123203516, 1707.92], [-121.60472195595503, 48.79589840769768, 1707.44], [-121.60472011193633, 48.795815678313375, 1705.04], [-121.60474735312164, 48.79571937024593, 1703.59], [-121.60478783771396, 48.79559154622257, 1703.59], [-121.60482237115502, 48.79548450931907, 1701.19], [-121.60484307445586, 48.79540018737316, 1698.79], [-121.60486612468958, 48.795242020860314, 1693.02], [-121.60490225069225, 48.79514344967902, 1690.62], [-121.60494516603649, 48.79510095342994, 1690.14], [-121.60496134310961, 48.79500959068537, 1689.17], [-121.6049475967884, 48.79496089182794, 1687.73], [-121.60492798313498, 48.794906828552485, 1686.29], [-121.6048875823617, 48.79484262317419, 1685.33], [-121.60486184991896, 48.794818399474025, 1684.85], [-121.60479077138007, 48.79476492293179, 1685.33], [-121.60481239669025, 48.794773975387216, 1686.77], [-121.60478884354234, 48.794752936810255, 1687.73], [-121.60476453602314, 48.79474396817386, 1686.77], [-121.60479596816003, 48.794751008972526, 1686.77], [-121.60480116494, 48.79473843611777, 1688.69], [-121.60479881800711, 48.794655706733465, 1684.85], [-121.6048717405647, 48.79458697512746, 1681.0], [-121.6049721557647, 48.79450432956219, 1678.12], [-121.60501314327121, 48.794464096426964, 1676.2], [-121.60501984879375, 48.794465688988566, 1676.2], [-121.60512696951628, 48.79439611919224, 1675.23], [-121.60522864200175, 48.794302409514785, 1672.83], [-121.60528781823814, 48.79424440674484, 1670.91], [-121.60536602139473, 48.79415790550411, 1668.51], [-121.60551320761442, 48.79400954581797, 1663.22], [-121.60552754066885, 48.793991608545184, 1663.22], [-121.60563466139138, 48.793925642967224, 1661.78], [-121.60573096945882, 48.79386713728309, 1657.93], [-121.60586591809988, 48.79375297576189, 1656.01], [-121.60596993751824, 48.793672593310475, 1653.6], [-121.60605484619737, 48.793593971058726, 1653.12], [-121.60617026500404, 48.79350973293185, 1649.28], [-121.60622349008918, 48.79348190501332, 1648.8], [-121.60632499493659, 48.793444354087114, 1648.32], [-121.60646329633892, 48.79340252839029, 1648.32], [-121.60655792802572, 48.79338953644037, 1647.36], [-121.6066884342581, 48.793353075161576, 1645.43], [-121.60670972429216, 48.79334628582001, 1644.47], [-121.60675473511219, 48.79332600161433, 1644.47], [-121.60690695047379, 48.79328157752752, 1643.51], [-121.60707316361368, 48.79319977015257, 1643.51], [-121.60713619552553, 48.79308175295591, 1645.43], [-121.60715337842703, 48.793033892288804, 1645.43], [-121.60717944614589, 48.79293263889849, 1646.88], [-121.60716930404305, 48.79287237301469, 1647.84], [-121.60711104981601, 48.7927976064384, 1648.8], [-121.60703343339264, 48.792717307806015, 1648.8], [-121.60689471289515, 48.7925867177546, 1650.72], [-121.60687929019332, 48.79254832863808, 1650.24], [-121.60682329908013, 48.792440285906196, 1649.76], [-121.60679119639099, 48.79242829978466, 1649.76], [-121.60679488442838, 48.79242192953825, 1653.6], [-121.60682212561369, 48.79242251627147, 1651.68], [-121.60683235153556, 48.79242771305144, 1652.16], [-121.60681349225342, 48.79242737777531, 1651.2], [-121.60685380920768, 48.792394353076816, 1650.72], [-121.60688272677362, 48.79237507469952, 1648.8], [-121.60687350668013, 48.792362501844764, 1648.8], [-121.60686344839633, 48.79236929118633, 1649.28], [-121.60687694326043, 48.792374236509204, 1649.28], [-121.60687761381269, 48.79236811771989, 1647.84], [-121.60686361603439, 48.792371051386, 1649.28], [-121.60687836818397, 48.79237985238433, 1650.24], [-121.60689169541001, 48.79237591288984, 1652.16], [-121.60687174648046, 48.79238915629685, 1647.84], [-121.60687937401235, 48.792377756908536, 1646.88], [-121.6068750154227, 48.792423103004694, 1646.4], [-121.60679094493389, 48.7924210075289, 1647.84], [-121.60667208954692, 48.792389910668135, 1648.32], [-121.60663638263941, 48.79235923290253, 1647.36], [-121.60667141899467, 48.79232277162373, 1643.99], [-121.60671165212989, 48.79229888319969, 1642.55], [-121.60675406455994, 48.79226024262607, 1639.19], [-121.60680402070284, 48.79222948104143, 1637.26], [-121.60684375092387, 48.79213543608785, 1634.38], [-121.60690862685442, 48.79204876720905, 1630.05], [-121.60691508091986, 48.792032757773995, 1629.09], [-121.60694885998964, 48.79196176305413, 1626.69], [-121.60704265348613, 48.791854893788695, 1622.84], [-121.60707970149815, 48.791815750300884, 1620.92], [-121.60711247473955, 48.79175397567451, 1618.04], [-121.60714566707611, 48.79171156324446, 1616.59], [-121.60718162544072, 48.79161927849054, 1615.15], [-121.60720626823604, 48.79159756936133, 1615.15], [-121.60725270397961, 48.79154719412327, 1614.19], [-121.60724901594222, 48.791488353163004, 1613.23], [-121.60723661072552, 48.79146572202444, 1613.23], [-121.60720475949347, 48.79136128351092, 1611.31], [-121.60722185857594, 48.791329767555, 1610.35], [-121.60724029876292, 48.791285678744316, 1608.9], [-121.60729344002903, 48.79123312421143, 1604.58], [-121.60732017830014, 48.79120462574065, 1602.17], [-121.6073980461806, 48.79114008508623, 1597.37], [-121.6074120439589, 48.79113639704883, 1596.89], [-121.60751614719629, 48.79108509980142, 1590.64], [-121.60752528347075, 48.79108401015401, 1589.68], [-121.60766375251114, 48.791036903858185, 1583.91], [-121.60766928456724, 48.79103078506887, 1582.95], [-121.60776584409177, 48.79097940400243, 1578.62], [-121.60780507139862, 48.79096565768123, 1576.7], [-121.60791487433016, 48.790893321856856, 1569.49], [-121.60798117518425, 48.79085551947355, 1566.12], [-121.60805778577924, 48.790801456198096, 1562.76], [-121.60807656124234, 48.79078486002982, 1562.28], [-121.60812333226204, 48.79074873402715, 1560.36], [-121.60814445465803, 48.79072459414601, 1558.92], [-121.60824403166771, 48.79061839543283, 1553.15], [-121.60832868888974, 48.79054069519043, 1550.26], [-121.60831712186337, 48.79052787087858, 1551.22], [-121.6083534155041, 48.790512615814805, 1551.22], [-121.60839691758156, 48.7904800940305, 1550.74], [-121.60842625424266, 48.79047120921314, 1550.26], [-121.60863370634615, 48.790305498987436, 1542.57], [-121.6087279189378, 48.79022369161248, 1538.25], [-121.60884400829673, 48.79013727419078, 1534.4], [-121.6088423319161, 48.79012729972601, 1533.44], [-121.60891500301659, 48.790073404088616, 1531.04], [-121.60894928500056, 48.79000777378678, 1529.11], [-121.60896990448236, 48.78994256258011, 1521.9], [-121.60900485701859, 48.78992102108896, 1522.87], [-121.60903042182326, 48.789901826530695, 1522.39], [-121.60905556753278, 48.78987969830632, 1521.42], [-121.60918758250773, 48.78979101777077, 1516.14], [-121.60929813981056, 48.78971264697611, 1510.85], [-121.60935857333243, 48.78965774551034, 1509.41], [-121.60938061773777, 48.789644334465265, 1508.93], [-121.60940735600889, 48.78960167057812, 1507.48], [-121.60945119336247, 48.789558336138725, 1506.04], [-121.60947231575847, 48.78954785875976, 1505.56], [-121.60961891524494, 48.78948080353439, 1504.12], [-121.60970650613308, 48.789442079141736, 1503.64], [-121.60990348085761, 48.789399582892656, 1501.72], [-121.6099505033344, 48.7893835734576, 1500.76], [-121.61000263877213, 48.789349207654595, 1501.24], [-121.61004144698381, 48.78931718878448, 1500.76], [-121.61006608977914, 48.78930444829166, 1500.76], [-121.61021118052304, 48.78919439390302, 1498.83], [-121.61027429625392, 48.7891330383718, 1496.91], [-121.61033498123288, 48.78903069533408, 1496.43], [-121.6103561874479, 48.7889932282269, 1496.43], [-121.61040966399014, 48.78887043334544, 1497.87], [-121.61042517051101, 48.788805305957794, 1497.87], [-121.61043003201485, 48.788790134713054, 1496.91], [-121.61041419021785, 48.788789212703705, 1495.47], [-121.61042793653905, 48.78878393210471, 1498.35], [-121.61044134758413, 48.788734981790185, 1497.87], [-121.61046196706593, 48.78869466483593, 1496.43], [-121.61046942695975, 48.788639763370156, 1494.51], [-121.61050966009498, 48.788524428382516, 1490.66], [-121.61052692681551, 48.78849634900689, 1489.22], [-121.61057906225324, 48.78833248279989, 1485.85], [-121.61060462705791, 48.78823298960924, 1486.34], [-121.6107192914933, 48.78815487027168, 1485.37], [-121.61083378829062, 48.78808496519923, 1484.41], [-121.610863879323, 48.78807750530541, 1483.93], [-121.61092984490097, 48.78804221749306, 1482.01], [-121.61102053709328, 48.78791774623096, 1479.61], [-121.61100729368627, 48.787810038775206, 1475.28], [-121.61101031117141, 48.78776201047003, 1472.4], [-121.61103076301515, 48.787683472037315, 1468.07], [-121.61106521263719, 48.78757048398256, 1466.63], [-121.61109865643084, 48.78753561526537, 1466.15], [-121.61114442162216, 48.78750812262297, 1465.19], [-121.61118239164352, 48.787460178136826, 1464.71], [-121.61123620346189, 48.787376610562205, 1462.3], [-121.611252380535, 48.78736110404134, 1462.3], [-121.61135321483016, 48.78723110072315, 1461.82], [-121.61142823286355, 48.78710461780429, 1462.78], [-121.61148531362414, 48.78701099194586, 1464.23], [-121.61149637773633, 48.786995485424995, 1464.23], [-121.61151515319943, 48.78694678656757, 1464.23], [-121.61153870634735, 48.786917785182595, 1464.71], [-121.61160266026855, 48.786834636703134, 1464.71], [-121.61164465360343, 48.786770179867744, 1464.23], [-121.61168916150928, 48.786664232611656, 1464.23], [-121.61178136244416, 48.78650606609881, 1464.71], [-121.61180935800076, 48.78641813993454, 1463.26], [-121.61188278347254, 48.78627313300967, 1461.34], [-121.61191874183714, 48.78618646413088, 1459.42], [-121.6119675245136, 48.786079259589314, 1456.53], [-121.61206249147654, 48.78598236478865, 1454.13], [-121.61206559278071, 48.78597381524742, 1454.13], [-121.61212217062712, 48.78585772588849, 1454.13], [-121.61216156557202, 48.785786563530564, 1453.17], [-121.6122061572969, 48.78571020439267, 1452.69], [-121.61221914924681, 48.78569000400603, 1452.21], [-121.61224136129022, 48.78563677892089, 1451.73], [-121.61231629550457, 48.78551222383976, 1451.73], [-121.61237052641809, 48.78541608341038, 1452.69], [-121.61238997243345, 48.78535162657499, 1451.73], [-121.61242995411158, 48.785238303244114, 1450.77], [-121.61243808455765, 48.78512565046549, 1449.32], [-121.61242945119739, 48.78509354777634, 1448.84], [-121.6124167945236, 48.78498391248286, 1448.36], [-121.61243095993996, 48.78486732020974, 1448.36], [-121.61243523471057, 48.78476380370557, 1448.36], [-121.61243154667318, 48.78466095775366, 1448.84], [-121.61242190748453, 48.784568924456835, 1448.84], [-121.61241612397134, 48.784542605280876, 1448.36], [-121.6124131064862, 48.78443389199674, 1446.44], [-121.61234672181308, 48.78429416567087, 1444.04], [-121.6123459674418, 48.78422317095101, 1443.08], [-121.61236222833395, 48.78415594808757, 1441.15], [-121.61236273124814, 48.78411588259041, 1440.19], [-121.61238913424313, 48.78401655703783, 1437.79], [-121.61239240318537, 48.78392972052097, 1433.46], [-121.61241277121007, 48.783857468515635, 1432.5], [-121.61240849643946, 48.78382880240679, 1432.02], [-121.6123956721276, 48.783690920099616, 1428.18], [-121.61239399574697, 48.7834810372442, 1424.33], [-121.61237069405615, 48.78338313661516, 1422.89], [-121.61226885393262, 48.783275010064244, 1421.45], [-121.61223633214831, 48.78321893513203, 1420.97], [-121.61227036267519, 48.783136289566755, 1419.04], [-121.61234395578504, 48.783048279583454, 1417.6], [-121.61237362772226, 48.78303436562419, 1416.64], [-121.61247488111258, 48.782896902412176, 1411.83], [-121.61251771263778, 48.78278072923422, 1409.43], [-121.61252098158002, 48.78275541588664, 1409.43], [-121.61254989914596, 48.78262683749199, 1407.03], [-121.61253581754863, 48.78254469484091, 1404.62], [-121.6125457920134, 48.7824537511915, 1402.7], [-121.61255752667785, 48.782457103952765, 1404.62], [-121.61255593411624, 48.78242013975978, 1402.7], [-121.61257990635931, 48.78240589052439, 1400.78], [-121.61254202015698, 48.78242474980652, 1397.89], [-121.61255719140172, 48.78236641176045, 1398.37], [-121.61255434155464, 48.78234411589801, 1396.93], [-121.61257420666516, 48.78225049003959, 1397.41], [-121.6125907190144, 48.782156109809875, 1398.86], [-121.61261628381908, 48.78208545036614, 1401.26], [-121.61264017224312, 48.78202308900654, 1401.26], [-121.61266531795263, 48.78182267770171, 1404.14], [-121.61266255192459, 48.78172620199621, 1405.58], [-121.61271351389587, 48.78164808265865, 1405.58], [-121.61276799626648, 48.781598629429936, 1407.03], [-121.61281384527683, 48.78152696415782, 1407.99], [-121.61281711421907, 48.78145823255181, 1408.95], [-121.612816946581, 48.78134331665933, 1409.43], [-121.61282314918935, 48.781281877309084, 1410.87], [-121.61285483278334, 48.78119269385934, 1411.83], [-121.61288634873927, 48.781159333884716, 1411.83], [-121.61299145780504, 48.78103385679424, 1411.35], [-121.61305432207882, 48.780983900651336, 1413.28], [-121.61306882277131, 48.78100016154349, 1414.24], [-121.6130434256047, 48.78097618930042, 1411.35], [-121.6130555793643, 48.78096445463598, 1409.43], [-121.61302314139903, 48.7809338606894, 1412.31], [-121.6129868477583, 48.780934447422624, 1413.28], [-121.61303185857832, 48.7809631973505, 1415.2], [-121.61303361877799, 48.78095037303865, 1409.43], [-121.61296522244811, 48.780913492664695, 1411.83], [-121.61299045197666, 48.78092388622463, 1410.87], [-121.6130518913269, 48.780958419665694, 1410.87], [-121.61299866624177, 48.780991192907095, 1412.79], [-121.61302146501839, 48.780978536233306, 1409.91], [-121.61305767484009, 48.7809719145298, 1408.95], [-121.6130399890244, 48.780980380252004, 1413.28], [-121.61303445696831, 48.780986750498414, 1417.12], [-121.61305608227849, 48.78101407550275, 1417.12], [-121.61302875727415, 48.781004352495074, 1415.68], [-121.61281384527683, 48.78097132779658, 1410.87], [-121.6126237437129, 48.78092598170042, 1407.03], [-121.61257429048419, 48.78088650293648, 1404.62], [-121.61256951279938, 48.78084182739258, 1403.18], [-121.61250413395464, 48.78077217377722, 1399.82], [-121.61227824166417, 48.7806455232203, 1391.17], [-121.61207866854966, 48.78060696646571, 1384.44], [-121.61180307157338, 48.78051241859794, 1377.23], [-121.61165630444884, 48.78033480606973, 1371.94], [-121.61151389591396, 48.7802361510694, 1369.54], [-121.6113942861557, 48.780180076137185, 1366.65], [-121.6112510394305, 48.78007622435689, 1362.81], [-121.61120284348726, 48.77998687326908, 1361.36], [-121.6110988240689, 48.77989551052451, 1357.52], [-121.61096320487559, 48.77985619939864, 1353.67], [-121.61085273139179, 48.77982007339597, 1350.79], [-121.61077218130231, 48.77970339730382, 1349.35], [-121.61070638336241, 48.77965796738863, 1348.39], [-121.61066313274205, 48.779640616849065, 1346.94], [-121.61060119047761, 48.77963290549815, 1345.02], [-121.61047738976777, 48.77956693992019, 1340.7], [-121.6104373242706, 48.7795315682888, 1339.73], [-121.61036130040884, 48.7794678658247, 1336.37], [-121.61027664318681, 48.779317662119865, 1332.52], [-121.61025032401085, 48.77929695881903, 1330.12], [-121.610203133896, 48.77928304485977, 1329.64], [-121.61017807200551, 48.779270220547915, 1329.16], [-121.61002309061587, 48.779103085398674, 1324.83], [-121.60992099903524, 48.77906478010118, 1321.47], [-121.60986827686429, 48.778962437063456, 1318.59], [-121.60980926826596, 48.77889194525778, 1311.86], [-121.60967842675745, 48.77879404462874, 1307.53], [-121.6095998045057, 48.77871592529118, 1305.61], [-121.60943820141256, 48.77866219729185, 1302.24], [-121.60931733436882, 48.778627663850784, 1299.36], [-121.60922354087234, 48.77841208130121, 1294.07], [-121.60920568741858, 48.778228936716914, 1292.63], [-121.60923820920289, 48.77817856147885, 1294.07], [-121.60921876318753, 48.778134640306234, 1293.59], [-121.60918121226132, 48.77808250486851, 1292.63], [-121.60917744040489, 48.77802123315632, 1291.67], [-121.60928883589804, 48.777957279235125, 1290.71], [-121.60930367186666, 48.777909921482205, 1290.23], [-121.60938237793744, 48.77781151793897, 1287.82], [-121.60938329994678, 48.777653854340315, 1288.3], [-121.60937810316682, 48.77762611024082, 1287.82], [-121.60938128829002, 48.77756718546152, 1286.38], [-121.609365362674, 48.77750893123448, 1285.42], [-121.6093584895134, 48.77743273973465, 1284.46], [-121.60927844233811, 48.777279099449515, 1280.13], [-121.60923535935581, 48.777153454720974, 1277.25], [-121.60916671156883, 48.777093943208456, 1273.88], [-121.60905146040022, 48.77700576558709, 1271.0], [-121.60899572074413, 48.7769000697881, 1269.56], [-121.60898155532777, 48.776844162493944, 1270.04], [-121.60887393169105, 48.77678054384887, 1268.12], [-121.60874778404832, 48.77670913003385, 1267.64], [-121.60856698639691, 48.77653277479112, 1264.27], [-121.60842684097588, 48.77639405429363, 1261.87], [-121.60823623649776, 48.776302775368094, 1262.35], [-121.6080666705966, 48.77616883255541, 1258.98], [-121.60795837640762, 48.776106806471944, 1257.54], [-121.60777548328042, 48.776025753468275, 1250.33], [-121.60759745165706, 48.77596867270768, 1245.04], [-121.60729134455323, 48.77594436518848, 1236.87], [-121.60725706256926, 48.77593455836177, 1235.43], [-121.60698163323104, 48.77582115121186, 1227.26], [-121.60684358328581, 48.77575686201453, 1222.45], [-121.606748951599, 48.77563012763858, 1220.05], [-121.6066313534975, 48.77550397999585, 1214.28], [-121.60650017671287, 48.77548755146563, 1207.55], [-121.60634703934193, 48.77538110129535, 1204.19], [-121.60631543956697, 48.775369031354785, 1201.79], [-121.60615375265479, 48.77530239522457, 1190.73], [-121.60605601966381, 48.77527733333409, 1187.37], [-121.60601008683443, 48.775252690538764, 1185.44], [-121.60582987591624, 48.77521161921322, 1177.27], [-121.60574471578002, 48.775193095207214, 1170.54], [-121.6057253535837, 48.77522301860154, 1163.33], [-121.60567187704146, 48.77528177574277, 1155.64], [-121.60564111545682, 48.7752871401608, 1154.68], [-121.60559820011258, 48.77526408992708, 1153.72], [-121.60550164058805, 48.775236597284675, 1152.28], [-121.60546073690057, 48.775217989459634, 1151.8], [-121.60532277077436, 48.77511505968869, 1148.91], [-121.60528790205717, 48.775083627551794, 1147.47], [-121.60514800809324, 48.77505454234779, 1143.14], [-121.60514641553164, 48.7750693783164, 1142.66], [-121.60493074916303, 48.77506518736482, 1135.94], [-121.60483871586621, 48.77504079602659, 1132.57], [-121.60475154407322, 48.77501665614545, 1129.69], [-121.60469613969326, 48.77502135001123, 1127.28], [-121.60461341030896, 48.77500081434846, 1124.88], [-121.60453646443784, 48.77484097145498, 1116.23], [-121.60446429625154, 48.774776766076684, 1111.9], [-121.60443018190563, 48.77471800893545, 1109.02], [-121.60438659600914, 48.774656653404236, 1107.1], [-121.60419004037976, 48.77458565868437, 1101.33], [-121.60403438843787, 48.774576522409916, 1096.04], [-121.60386884585023, 48.7745653744787, 1090.27], [-121.60380623303354, 48.77463242970407, 1082.58], [-121.60381025634706, 48.77464860677719, 1082.58], [-121.60376683808863, 48.774683475494385, 1081.62], [-121.60361059941351, 48.774748938158154, 1075.85], [-121.60351001657546, 48.77475899644196, 1072.97], [-121.6033365111798, 48.774869218468666, 1064.32], [-121.60324313677847, 48.77495496533811, 1059.51], [-121.60316694527864, 48.77497843466699, 1054.22], [-121.603122940287, 48.774946415796876, 1052.3], [-121.60296938382089, 48.77499788068235, 1048.94], [-121.60294088535011, 48.775000059977174, 1048.45], [-121.60283426754177, 48.7750056758523, 1044.61], [-121.60269655287266, 48.77500282600522, 1040.76], [-121.60253721289337, 48.77502981573343, 1038.84], [-121.60243260674179, 48.77506057731807, 1038.36], [-121.6024183575064, 48.77505320124328, 1036.92], [-121.60228533670306, 48.774992767721415, 1029.71], [-121.60219397395849, 48.77497164532542, 1025.86], [-121.60221191123128, 48.77494021318853, 1025.38], [-121.60223714075983, 48.774904841557145, 1024.42], [-121.6022145934403, 48.77486553043127, 1022.02], [-121.60216983407736, 48.7748640216887, 1023.94], [-121.60211325623095, 48.774826638400555, 1024.42], [-121.60212582908571, 48.774806689471006, 1022.5], [-121.60214569419622, 48.77482605166733, 1021.54], [-121.60215189680457, 48.77481901086867, 1021.06], [-121.60209774971008, 48.77479579299688, 1023.46], [-121.602071095258, 48.774766037240624, 1021.06], [-121.60202390514314, 48.77475555986166, 1020.58], [-121.6019365657121, 48.77474491484463, 1019.62], [-121.60186800174415, 48.77473250962794, 1016.25], [-121.60180689767003, 48.774663023650646, 1011.44], [-121.60178418271244, 48.77465598285198, 1009.52], [-121.60171478055418, 48.77464265562594, 1009.04], [-121.60164831206203, 48.77464232034981, 1008.08], [-121.60154295153916, 48.77460862509906, 1008.08], [-121.60149877890944, 48.77458306029439, 1006.16], [-121.60149408504367, 48.77454827539623, 1006.16], [-121.60142485052347, 48.774544168263674, 1004.23], [-121.60131119191647, 48.77447174862027, 1002.79], [-121.60125293768942, 48.77439932897687, 997.99], [-121.6012832801789, 48.774374183267355, 996.54], [-121.60132862627506, 48.774324813857675, 994.14], [-121.60129853524268, 48.77426438033581, 996.06], [-121.6013041511178, 48.77424535341561, 996.06], [-121.60131546668708, 48.774261865764856, 995.58], [-121.60132812336087, 48.77426689490676, 996.54], [-121.60130825825036, 48.77430553548038, 998.47], [-121.60135821439326, 48.77429983578622, 999.43], [-121.60129878669977, 48.77434266731143, 1002.79], [-121.60132552497089, 48.774352641776204, 1004.23], [-121.60135259851813, 48.774268655106425, 1001.83], [-121.60131135955453, 48.774155834689736, 998.47], [-121.6013215854764, 48.77410135231912, 997.99], [-121.60134153440595, 48.77405097708106, 997.51], [-121.60139299929142, 48.77398903481662, 996.06], [-121.6013678535819, 48.773947544395924, 994.62], [-121.60134622827172, 48.77390638925135, 994.14], [-121.60130146890879, 48.77387017942965, 991.74], [-121.60125805065036, 48.773814691230655, 989.81], [-121.60125059075654, 48.773809326812625, 989.81], [-121.60122770816088, 48.773783007636666, 988.85], [-121.60119141452014, 48.77368200570345, 987.89], [-121.60112234763801, 48.77371461130679, 990.78], [-121.60097189247608, 48.77366138622165, 985.49], [-121.60090240649879, 48.773651747033, 985.01], [-121.60077785141766, 48.77368099987507, 985.01], [-121.60075488500297, 48.773699356243014, 985.01], [-121.60069202072918, 48.773745875805616, 985.97], [-121.60065572708845, 48.773759035393596, 986.93], [-121.60059277899563, 48.77383950166404, 985.49], [-121.60064893774688, 48.77390303649008, 981.16], [-121.60066494718194, 48.77389892935753, 976.36], [-121.60049336962402, 48.77397436648607, 974.43], [-121.60044156946242, 48.77400797791779, 973.95], [-121.60036311484873, 48.774165976792574, 968.67], [-121.60024291835725, 48.77427955158055, 967.7], [-121.6001764498651, 48.77438072115183, 962.42], [-121.60019505769014, 48.774335039779544, 962.42], [-121.60015381872654, 48.77433478832245, 960.01], [-121.6001489572227, 48.77435884438455, 960.01], [-121.60012389533222, 48.77431391738355, 955.69], [-121.60012163221836, 48.77428852021694, 954.25], [-121.60007352009416, 48.77419397234917, 951.36], [-121.60007385537028, 48.774102022871375, 948.48], [-121.6001487057656, 48.774000350385904, 946.07], [-121.60019740462303, 48.773868000134826, 943.67], [-121.60027024336159, 48.77370907925069, 944.63], [-121.60038834437728, 48.77357983030379, 942.23], [-121.60037962719798, 48.773433566093445, 938.38], [-121.60039706155658, 48.77328721806407, 936.46], [-121.60033126361668, 48.77321546897292, 935.02], [-121.60023487173021, 48.77311262302101, 935.98], [-121.60021190531552, 48.77297448925674, 935.98], [-121.6001544892788, 48.772932244464755, 936.46], [-121.60014971159399, 48.77287876792252, 936.94], [-121.60008743405342, 48.7727312464267, 937.42], [-121.6000710055232, 48.772645834833384, 937.42], [-121.60007058642805, 48.77252094447613, 937.9], [-121.6001026891172, 48.772503174841404, 937.9], [-121.60011207684875, 48.772290190681815, 940.31], [-121.60011056810617, 48.7721337005496, 941.27], [-121.60015541128814, 48.772012665867805, 940.31], [-121.60013797692955, 48.7719870172441, 940.31], [-121.60013847984374, 48.77188232727349, 939.35], [-121.60014686174691, 48.7717261724174, 938.38], [-121.60020335577428, 48.771641766652465, 937.9], [-121.6001473646611, 48.77163925208151, 939.35], [-121.60017276182771, 48.77158971503377, 939.83], [-121.60019614733756, 48.771551912650466, 942.23], [-121.60026303492486, 48.77151411026716, 942.71], [-121.59999615512788, 48.771554762497544, 947.52], [-121.59988794475794, 48.7715483084321, 954.73], [-121.60010285675526, 48.77151545137167, 954.73], [-121.60001266747713, 48.771423837170005, 966.74], [-121.59979465417564, 48.77137379720807, 972.99], [-121.59980613738298, 48.77142836339772, 977.32], [-121.59984393976629, 48.771320320665836, 979.24], [-121.5998730249703, 48.77125502564013, 976.84], [-121.59988744184375, 48.77123457379639, 975.88], [-121.599962124601, 48.77106115221977, 974.43], [-121.60008349455893, 48.77096878364682, 972.99], [-121.60024643875659, 48.7708455696702, 960.49], [-121.60031961277127, 48.77075420692563, 954.25], [-121.60036889836192, 48.77073610201478, 951.36], [-121.60044207237661, 48.770544324070215, 945.11], [-121.60058163106441, 48.7704520393163, 941.75], [-121.60057802684605, 48.770438712090254, 941.75], [-121.60067634657025, 48.770246179774404, 939.35], [-121.60069772042334, 48.77022639848292, 939.35], [-121.60084524191916, 48.7701306771487, 933.1], [-121.60092109814286, 48.769971085712314, 928.29], [-121.60102327354252, 48.76978961750865, 920.6], [-121.60113232210279, 48.76966984011233, 916.75], [-121.60112570039928, 48.76964410766959, 916.75], [-121.60124715417624, 48.769559198990464, 912.91], [-121.6012959368527, 48.769503962248564, 910.99], [-121.60135050304234, 48.76945408992469, 909.06], [-121.60143088549376, 48.769400445744395, 907.62], [-121.60154923796654, 48.769243620336056, 905.7], [-121.601767167449, 48.76913675107062, 899.93], [-121.60190848633647, 48.76912208274007, 897.53], [-121.60200957208872, 48.76917019486427, 893.68], [-121.60206455737352, 48.76920313574374, 890.8], [-121.60216891206801, 48.76924043521285, 889.36], [-121.60240218043327, 48.769281674176455, 888.4], [-121.60256445407867, 48.76933087594807, 887.91], [-121.6027685534209, 48.76937680877745, 886.95], [-121.60282043740153, 48.76939541660249, 886.47], [-121.60295597277582, 48.76942064613104, 885.99], [-121.60312579013407, 48.76943397335708, 885.03], [-121.60331094637513, 48.76941838301718, 885.03], [-121.60347221419215, 48.769363733008504, 884.07], [-121.60367019474506, 48.769257282838225, 881.67], [-121.60368938930333, 48.76924873329699, 881.19], [-121.60384328104556, 48.769138092175126, 880.22], [-121.60396146588027, 48.76902988180518, 880.71], [-121.60404235124588, 48.76887523569167, 881.19], [-121.60410362295806, 48.76881488598883, 881.19], [-121.6042453609407, 48.76873819157481, 878.78], [-121.60439112223685, 48.76863651908934, 880.22], [-121.60445515997708, 48.7685177475214, 880.22], [-121.60449841059744, 48.76834181137383, 878.78], [-121.60459429956973, 48.76813469454646, 875.42], [-121.60470494069159, 48.76801977865398, 872.05], [-121.60495949909091, 48.76794928684831, 865.8], [-121.60497860983014, 48.767948281019926, 865.32], [-121.60515622235835, 48.76790151000023, 862.92], [-121.60536048933864, 48.76784685999155, 861.96], [-121.60544581711292, 48.76782632432878, 861.48], [-121.60554849542677, 48.767833448946476, 861.0], [-121.60586415790021, 48.76786018721759, 859.56], [-121.6061656549573, 48.76787971705198, 859.08], [-121.6064518969506, 48.76786504872143, 857.63], [-121.606569243595, 48.76785758882761, 857.15], [-121.60669958218932, 48.76787125132978, 856.67], [-121.60695020109415, 48.76785415224731, 853.31], [-121.60698775202036, 48.76784685999155, 852.83], [-121.60709856078029, 48.76782137900591, 852.35], [-121.60729830153286, 48.76781609840691, 851.87], [-121.60758613608778, 48.76784501597285, 848.98], [-121.60774094983935, 48.767848033457994, 846.58], [-121.60801738500595, 48.76786328852177, 843.69], [-121.60808670334518, 48.76785599626601, 843.69], [-121.60835249349475, 48.767850967124104, 842.25], [-121.6085603646934, 48.76787854358554, 841.29], [-121.60871618427336, 48.767885668203235, 839.85], [-121.60885482095182, 48.76790947280824, 839.37], [-121.6089802980423, 48.76788063906133, 838.41], [-121.60920795053244, 48.76785951666534, 836.0], [-121.60925681702793, 48.76786211505532, 835.52], [-121.60952545702457, 48.76790561713278, 836.96], [-121.60975771956146, 48.76788105815649, 838.41], [-121.61018159240484, 48.76780888997018, 832.16], [-121.61041125655174, 48.76778625883162, 831.2], [-121.61069422960281, 48.76780855469406, 828.31], [-121.61096840165555, 48.767822133377194, 827.35], [-121.61106965504587, 48.767753234133124, 828.31], [-121.61111667752266, 48.767719035968184, 828.31], [-121.61132781766355, 48.7676006834954, 827.83], [-121.61163124255836, 48.7675023637712, 825.91], [-121.61194380372763, 48.76743304543197, 823.51], [-121.61225602962077, 48.76741921529174, 822.06], [-121.61239441484213, 48.767466405406594, 821.1], [-121.61265341565013, 48.767581321299076, 819.66], [-121.61280697211623, 48.7676627933979, 818.7], [-121.6129902843386, 48.7678046990186, 817.74], [-121.61321567371488, 48.767962446436286, 817.74], [-121.61347878165543, 48.76804685220122, 817.26], [-121.61350216716528, 48.76817853190005, 815.82], [-121.61361255683005, 48.76825891435146, 814.85], [-121.61381933838129, 48.768363017588854, 813.89], [-121.61398898810148, 48.76861120574176, 808.13], [-121.61421999335289, 48.76878320239484, 803.32], [-121.61430045962334, 48.768818406388164, 802.36], [-121.61434144712985, 48.76889786683023, 800.44], [-121.61450321786106, 48.76901135779917, 798.51], [-121.61463657394052, 48.76911319792271, 797.07], [-121.61494569852948, 48.76919928006828, 796.59], [-121.61526387557387, 48.769243033602834, 796.11], [-121.61530645564198, 48.76925175078213, 796.11], [-121.6155385505408, 48.76937999390066, 795.63], [-121.61571926437318, 48.76947537995875, 795.15], [-121.61575773730874, 48.76948485150933, 794.67], [-121.61583803594112, 48.76953614875674, 794.67], [-121.61597533151507, 48.76968618482351, 783.13], [-121.61604825407267, 48.769700517877936, 782.17], [-121.61615872755647, 48.76971677877009, 779.77], [-121.61640280857682, 48.76972901634872, 780.25], [-121.6166765615344, 48.76971518620849, 777.84], [-121.61676004529, 48.76975692808628, 775.44], [-121.61685199476779, 48.769757598638535, 775.44], [-121.61703237332404, 48.76964301802218, 775.92], [-121.61714661866426, 48.76961535774171, 773.04], [-121.6173552442342, 48.76951728947461, 773.04], [-121.61750519648194, 48.76945291645825, 773.04], [-121.61753084510565, 48.76944914460182, 772.56], [-121.61766579374671, 48.76944067887962, 772.08], [-121.61781733855605, 48.769462555646896, 769.67], [-121.61790015175939, 48.76942911185324, 769.67], [-121.6180534567684, 48.769301623106, 768.71], [-121.61813165992498, 48.76924395561218, 768.23], [-121.61821380257607, 48.76923783682287, 767.75], [-121.61826090887189, 48.76921352930367, 768.71], [-121.61830985918641, 48.76917203888297, 769.67], [-121.61842309869826, 48.76911093480885, 771.11], [-121.6184295527637, 48.768983110785484, 773.52], [-121.61842460744083, 48.76884263008833, 774.96], [-121.61840239539742, 48.768657222390175, 774.48], [-121.61837322637439, 48.768489584326744, 773.52], [-121.61829301156104, 48.768367962911725, 773.04], [-121.61829443648458, 48.76830157823861, 773.04], [-121.61819846369326, 48.76815020106733, 773.04], [-121.61809561774135, 48.76800184138119, 774.48], [-121.61808790639043, 48.76797619275749, 774.0], [-121.618049768731, 48.76783805899322, 773.52], [-121.61804163828492, 48.76764418557286, 773.52], [-121.6180738247931, 48.76748970709741, 774.96], [-121.61811699159443, 48.76731720753014, 773.52], [-121.6181293129921, 48.767179157584906, 774.0], [-121.61809067241848, 48.767053512856364, 774.48], [-121.6180188395083, 48.767071617767215, 775.92], [-121.61799184978008, 48.76705870963633, 776.4], [-121.61793694831431, 48.76708016730845, 779.29], [-121.61793007515371, 48.767087794840336, 779.77], [-121.6179028339684, 48.767154263332486, 781.69], [-121.61789637990296, 48.767190305516124, 782.17], [-121.61796008236706, 48.76730069518089, 782.17], [-121.61796259693801, 48.767278315499425, 802.84]]}}