{"type": "Feature", "properties": {}, "geometry": {"type": "LineString", "coordinates": [[-120.125527, 39.006, 2197.6], [-120.125495, 39.00602, 2198.0], [-120.125468, 39.006048, 2198.4], [-120.125457, 39.006052, 2198.6], [-120.125421, 39.006052, 2198.9], [-120.125381, 39.006046, 2199.4], [-120.125356, 39.006034, 2199.7], [-120.125329, 39.006016, 2200.1], [-120.125277, 39.005958, 2211.5], [-120.125277, 39.005975, 2211.8], [-120.125266, 39.005977, 2212.2], [-120.125289, 39.005996, 2212.7], [-120.125353, 39.005986, 2213.7], [-120.125366, 39.005982, 2213.9], [-120.125423, 39.005956, 2214.8], [-120.125454, 39.005904, 2215.6], [-120.125446, 39.005887, 2215.8], [-120.125465, 39.005846, 2216.4], [-120.125461, 39.005823, 2216.7], [-120.125475, 39.005786, 2217.1], [-120.125488, 39.005759, 2217.5], [-120.125499, 39.005729, 2217.9], [-120.125526, 39.005679, 2218.6], [-120.125532, 39.005648, 2218.9], [-120.12553, 39.005594, 2219.6], [-120.125543, 39.005574, 2219.8], [-120.125562, 39.005564, 2220.1], [-120.125574, 39.005552, 2220.2], [-120.125597, 39.005522, 2220.6], [-120.12562, 39.005498, 2221.0], [-120.125626, 39.005478, 2221.2], [-120.125645, 39.005451, 2221.5], [-120.125644, 39.005434, 2221.7], [-120.125628, 39.005426, 2221.9], [-120.125613, 39.005403, 2222.1], [-120.125614, 39.005386, 2222.3], [-120.125619, 39.005378, 2222.4], [-120.125619, 39.005361, 2222.5], [-120.125635, 39.005343, 2222.8], [-120.125665, 39.005323, 2223.1], [-120.125692, 39.005316, 2223.3], [-120.12572, 39.005319, 2223.5], [-120.12576, 39.00533, 2223.8], [-120.125793, 39.005323, 2224.1], [-120.125816, 39.005308, 2224.3], [-120.125843, 39.005283, 2224.7], [-120.125867, 39.00525, 2225.1], [-120.1259, 39.005223, 2225.5], [-120.125894, 39.00517, 2226.2], [-120.125908, 39.005158, 2226.3], [-120.125909, 39.005139, 2226.5], [-120.12592, 39.005119, 2226.7], [-120.125934, 39.005101, 2227.0], [-120.125959, 39.005075, 2227.3], [-120.12598, 39.005066, 2227.5], [-120.12601, 39.005035, 2227.9], [-120.126059, 39.004987, 2228.5], [-120.126112, 39.004921, 2229.3], [-120.126149, 39.004871, 2230.0], [-120.12617, 39.004851, 2230.2], [-120.126222, 39.004811, 2230.9], [-120.126246, 39.004784, 2231.2], [-120.126278, 39.004761, 2231.6], [-120.126312, 39.004743, 2231.9], [-120.126326, 39.00473, 2232.1], [-120.126323, 39.004725, 2232.2], [-120.126352, 39.004698, 2232.5], [-120.126414, 39.004659, 2233.1], [-120.126459, 39.004632, 2233.6], [-120.126481, 39.004608, 2233.9], [-120.126488, 39.004581, 2234.2], [-120.126506, 39.004553, 2234.5], [-120.126523, 39.004495, 2235.0], [-120.126534, 39.004475, 2235.2], [-120.126556, 39.00445, 2235.5], [-120.126587, 39.004435, 2235.8], [-120.12661, 39.004436, 2235.9], [-120.126623, 39.00443, 2236.0], [-120.126643, 39.004406, 2236.3], [-120.126648, 39.004393, 2236.4], [-120.126663, 39.00438, 2236.5], [-120.126679, 39.00436, 2236.7], [-120.126705, 39.004335, 2237.0], [-120.126729, 39.004306, 2237.3], [-120.126756, 39.004281, 2237.5], [-120.126766, 39.004266, 2237.6], [-120.126772, 39.004249, 2237.8], [-120.126778, 39.004211, 2238.0], [-120.126779, 39.004188, 2238.2], [-120.126805, 39.004152, 2238.5], [-120.126816, 39.004123, 2238.7], [-120.126806, 39.004086, 2238.9], [-120.126803, 39.004009, 2239.4], [-120.126812, 39.003976, 2239.6], [-120.126842, 39.003932, 2239.9], [-120.12686, 39.00391, 2240.0], [-120.126905, 39.003866, 2240.4], [-120.126922, 39.003855, 2240.5], [-120.126947, 39.003847, 2240.6], [-120.127006, 39.003837, 2240.9], [-120.127082, 39.00383, 2241.2], [-120.127148, 39.003817, 2241.5], [-120.127158, 39.003809, 2241.6], [-120.127173, 39.003784, 2241.7], [-120.127171, 39.003778, 2241.7], [-120.127186, 39.003762, 2241.8], [-120.127187, 39.003739, 2241.9], [-120.127181, 39.003702, 2242.1], [-120.127175, 39.00369, 2242.2], [-120.127174, 39.003675, 2242.3], [-120.127177, 39.003639, 2242.5], [-120.127172, 39.003627, 2242.5], [-120.127171, 39.003605, 2242.6], [-120.127155, 39.003552, 2242.9], [-120.127153, 39.003533, 2243.0], [-120.127155, 39.003493, 2243.2], [-120.127159, 39.003455, 2243.4], [-120.127156, 39.003412, 2243.7], [-120.12716, 39.003386, 2243.8], [-120.127178, 39.003358, 2244.0], [-120.127194, 39.003348, 2244.1], [-120.127227, 39.00332, 2244.3], [-120.127244, 39.003313, 2244.4], [-120.127268, 39.003281, 2244.6], [-120.127288, 39.003232, 2244.9], [-120.127308, 39.003196, 2245.1], [-120.127321, 39.003166, 2245.3], [-120.127329, 39.003139, 2245.5], [-120.127331, 39.003102, 2245.8], [-120.127339, 39.003079, 2245.9], [-120.127347, 39.003066, 2246.0], [-120.127352, 39.003043, 2246.2], [-120.127354, 39.003018, 2246.4], [-120.127364, 39.002997, 2246.6], [-120.127396, 39.002962, 2246.9], [-120.127412, 39.002933, 2247.2], [-120.127418, 39.002884, 2247.8], [-120.127432, 39.002853, 2248.2], [-120.127439, 39.002825, 2248.5], [-120.127442, 39.002759, 2249.2], [-120.127445, 39.002721, 2249.5], [-120.127442, 39.002643, 2250.2], [-120.127438, 39.002605, 2250.4], [-120.127441, 39.002581, 2250.5], [-120.127452, 39.002537, 2250.7], [-120.127464, 39.002504, 2250.8], [-120.127477, 39.002481, 2250.9], [-120.127483, 39.002449, 2251.0], [-120.127493, 39.002419, 2251.1], [-120.127518, 39.002374, 2251.3], [-120.127523, 39.002356, 2251.3], [-120.127525, 39.002329, 2251.4], [-120.127533, 39.002295, 2251.6], [-120.127531, 39.002272, 2251.7], [-120.127533, 39.002185, 2252.1], [-120.127527, 39.002149, 2252.2], [-120.127528, 39.002128, 2252.3], [-120.127537, 39.002099, 2252.5], [-120.127558, 39.002063, 2252.8], [-120.127572, 39.002003, 2253.1], [-120.127587, 39.00197, 2253.3], [-120.127632, 39.001912, 2253.7], [-120.127675, 39.001871, 2254.0], [-120.127683, 39.001861, 2254.1], [-120.127734, 39.001784, 2254.5], [-120.127764, 39.00175, 2254.6], [-120.127811, 39.001709, 2254.8], [-120.127845, 39.001685, 2255.0], [-120.127908, 39.001648, 2255.2], [-120.128049, 39.001568, 2255.7], [-120.128085, 39.00154, 2255.9], [-120.128132, 39.00151, 2256.2], [-120.128193, 39.00146, 2256.6], [-120.128216, 39.00143, 2256.8], [-120.128225, 39.001415, 2256.9], [-120.128244, 39.001375, 2257.2], [-120.128268, 39.001345, 2257.5], [-120.128301, 39.001315, 2257.8], [-120.128323, 39.0013, 2257.9], [-120.128353, 39.001271, 2258.2], [-120.128392, 39.001241, 2258.5], [-120.128429, 39.00121, 2258.7], [-120.128448, 39.001182, 2258.9], [-120.128469, 39.001158, 2259.1], [-120.1285, 39.001132, 2259.3], [-120.128518, 39.001098, 2259.5], [-120.128534, 39.001061, 2259.7], [-120.12856, 39.001014, 2259.9], [-120.128568, 39.001005, 2259.9], [-120.128608, 39.000946, 2260.2], [-120.128634, 39.000903, 2260.3], [-120.128662, 39.000864, 2260.5], [-120.128713, 39.000806, 2260.6], [-120.128747, 39.000763, 2260.7], [-120.128764, 39.000747, 2260.7], [-120.128813, 39.000711, 2260.8], [-120.128849, 39.000682, 2260.9], [-120.128874, 39.000657, 2260.9], [-120.128901, 39.000616, 2261.0], [-120.128923, 39.000586, 2261.1], [-120.128957, 39.000551, 2261.2], [-120.129005, 39.000494, 2261.4], [-120.129013, 39.000463, 2261.5], [-120.12901, 39.000442, 2261.6], [-120.129, 39.000423, 2261.7], [-120.128984, 39.000409, 2261.8], [-120.128988, 39.000399, 2261.9], [-120.129012, 39.000395, 2262.0], [-120.129019, 39.000389, 2262.0], [-120.129009, 39.000379, 2262.2], [-120.129038, 39.000393, 2262.4], [-120.129096, 39.000358, 2267.0], [-120.12914, 39.000333, 2267.5], [-120.129183, 39.000323, 2267.9], [-120.129205, 39.000321, 2268.1], [-120.129245, 39.000312, 2268.5], [-120.129315, 39.000288, 2269.2], [-120.129344, 39.000276, 2269.6], [-120.129369, 39.000262, 2269.9], [-120.129392, 39.000246, 2270.2], [-120.129407, 39.000231, 2270.4], [-120.129431, 39.000218, 2270.7], [-120.12944, 39.000208, 2270.8], [-120.129451, 39.000143, 2271.6], [-120.129459, 39.00012, 2271.9], [-120.12948, 39.000094, 2272.3], [-120.129502, 39.000063, 2272.8], [-120.129519, 39.000049, 2273.0], [-120.129544, 39.000023, 2273.4], [-120.129567, 38.999993, 2273.8], [-120.129581, 38.999963, 2274.2], [-120.129591, 38.999948, 2274.5], [-120.129606, 38.999915, 2274.9], [-120.129633, 38.999878, 2275.5], [-120.12965, 38.99987, 2275.7], [-120.129702, 38.999837, 2276.5], [-120.129745, 38.999801, 2277.2], [-120.129799, 38.999775, 2278.0], [-120.129823, 38.999759, 2278.4], [-120.129863, 38.999723, 2279.2], [-120.1299, 38.999665, 2280.2], [-120.129892, 38.999663, 2280.4], [-120.129899, 38.999641, 2280.8], [-120.129943, 38.999613, 2281.5], [-120.129937, 38.999609, 2281.6], [-120.129949, 38.999589, 2282.0], [-120.129975, 38.999553, 2282.7], [-120.129985, 38.999536, 2283.0], [-120.130015, 38.999505, 2283.7], [-120.130034, 38.999492, 2284.0], [-120.130064, 38.999481, 2284.5], [-120.130085, 38.999469, 2284.8], [-120.130102, 38.999432, 2285.6], [-120.130117, 38.999421, 2285.9], [-120.130142, 38.999394, 2286.5], [-120.130187, 38.999361, 2287.4], [-120.130221, 38.999344, 2288.1], [-120.130238, 38.999327, 2288.5], [-120.130242, 38.999318, 2288.7], [-120.130257, 38.999303, 2289.1], [-120.130273, 38.999292, 2289.4], [-120.130282, 38.999281, 2289.7], [-120.130329, 38.999246, 2290.7], [-120.13035, 38.999227, 2291.2], [-120.130362, 38.999228, 2291.7], [-120.130412, 38.999217, 2292.5], [-120.130418, 38.99921, 2292.6], [-120.13043, 38.99921, 2292.8], [-120.130437, 38.999199, 2293.1], [-120.130422, 38.999181, 2293.5], [-120.130434, 38.999182, 2293.7], [-120.130473, 38.999178, 2294.3], [-120.130488, 38.999174, 2294.6], [-120.130495, 38.999166, 2294.7], [-120.130478, 38.999174, 2295.9], [-120.130481, 38.99918, 2296.1], [-120.130499, 38.999175, 2296.4], [-120.130482, 38.999168, 2296.7], [-120.130482, 38.999161, 2297.1], [-120.130465, 38.999159, 2297.3], [-120.130452, 38.999153, 2297.6], [-120.130439, 38.999155, 2298.3], [-120.130444, 38.999164, 2298.8], [-120.130466, 38.999127, 2299.5], [-120.130487, 38.999103, 2299.9], [-120.130497, 38.999086, 2300.1], [-120.130511, 38.999076, 2300.3], [-120.13052, 38.99905, 2300.7], [-120.130524, 38.999029, 2300.9], [-120.130545, 38.999015, 2301.2], [-120.130585, 38.998983, 2301.6], [-120.130626, 38.99896, 2302.0], [-120.130651, 38.998932, 2302.3], [-120.130673, 38.998914, 2302.4], [-120.130709, 38.998889, 2302.7], [-120.130731, 38.998867, 2302.9], [-120.130746, 38.998845, 2303.1], [-120.130776, 38.998809, 2303.4], [-120.130797, 38.998776, 2303.7], [-120.130814, 38.99876, 2303.9], [-120.130839, 38.998729, 2304.2], [-120.130858, 38.99871, 2304.4], [-120.130876, 38.998688, 2304.6], [-120.1309, 38.998653, 2304.9], [-120.130926, 38.998609, 2305.4], [-120.130942, 38.998573, 2305.8], [-120.130943, 38.998522, 2306.3], [-120.130942, 38.998492, 2306.6], [-120.130947, 38.998461, 2307.0], [-120.130947, 38.99843, 2307.3], [-120.130955, 38.998408, 2307.6], [-120.13097, 38.998338, 2308.5], [-120.130975, 38.998323, 2308.7], [-120.130996, 38.998286, 2309.2], [-120.131001, 38.998272, 2309.3], [-120.131003, 38.998247, 2309.7], [-120.130993, 38.99821, 2310.2], [-120.130975, 38.998155, 2311.0], [-120.130974, 38.998147, 2311.1], [-120.130985, 38.99809, 2311.9], [-120.130998, 38.998051, 2312.6], [-120.131003, 38.998027, 2312.9], [-120.131004, 38.997992, 2313.5], [-120.130996, 38.997949, 2314.2], [-120.130989, 38.997937, 2314.4], [-120.130989, 38.997911, 2314.9], [-120.130993, 38.997897, 2315.1], [-120.130991, 38.997866, 2315.7], [-120.130982, 38.997846, 2316.0], [-120.130984, 38.997823, 2316.5], [-120.13097, 38.997808, 2316.8], [-120.130963, 38.997783, 2317.2], [-120.130962, 38.997744, 2318.0], [-120.130953, 38.997682, 2319.1], [-120.130952, 38.997635, 2320.0], [-120.130961, 38.997587, 2320.9], [-120.130961, 38.997556, 2321.5], [-120.13095, 38.997515, 2322.3], [-120.13094, 38.997494, 2322.7], [-120.130938, 38.997473, 2323.1], [-120.130927, 38.997475, 2323.6], [-120.130933, 38.997466, 2323.9], [-120.130985, 38.997431, 2324.9], [-120.131016, 38.997414, 2325.5], [-120.131031, 38.997401, 2325.8], [-120.131048, 38.997381, 2326.3], [-120.131065, 38.99735, 2326.9], [-120.13112, 38.997301, 2328.2], [-120.131148, 38.997282, 2328.8], [-120.131223, 38.997239, 2330.4], [-120.131259, 38.997224, 2331.1], [-120.13129, 38.997201, 2331.9], [-120.131289, 38.997205, 2332.1], [-120.131324, 38.997194, 2332.8], [-120.131357, 38.997179, 2333.5], [-120.131368, 38.997164, 2333.9], [-120.131463, 38.997105, 2336.1], [-120.131475, 38.997101, 2336.4], [-120.131491, 38.997089, 2336.8], [-120.131492, 38.997078, 2337.1], [-120.13161, 38.996992, 2366.4], [-120.131612, 38.996997, 2367.0], [-120.131771, 38.997125, 2371.3], [-120.131791, 38.997129, 2371.7], [-120.131769, 38.997093, 2372.7], [-120.131762, 38.99709, 2372.9], [-120.131752, 38.997074, 2373.4], [-120.131752, 38.997064, 2373.6], [-120.131771, 38.997093, 2374.5], [-120.131615, 38.996699, 2384.5], [-120.131564, 38.996665, 2385.8], [-120.131559, 38.996683, 2386.3], [-120.13155, 38.996694, 2386.7], [-120.131594, 38.996708, 2387.6], [-120.131723, 38.996768, 2390.8], [-120.131719, 38.996773, 2390.9], [-120.131739, 38.996789, 2391.5], [-120.131753, 38.996794, 2391.9], [-120.131773, 38.996816, 2392.6], [-120.131794, 38.996825, 2393.2], [-120.131809, 38.996813, 2393.7], [-120.131824, 38.996809, 2394.1], [-120.131857, 38.996792, 2394.9], [-120.131885, 38.99677, 2395.8], [-120.131898, 38.996753, 2396.3], [-120.131909, 38.996732, 2396.9], [-120.131919, 38.996698, 2398.1], [-120.131919, 38.996655, 2399.3], [-120.131927, 38.996634, 2399.8], [-120.131942, 38.996625, 2400.2], [-120.131954, 38.996623, 2400.4], [-120.13201, 38.996626, 2401.5], [-120.132027, 38.996631, 2401.8], [-120.13205, 38.996628, 2402.2], [-120.132075, 38.996614, 2402.8], [-120.132103, 38.99658, 2403.8], [-120.132112, 38.996564, 2404.2], [-120.132113, 38.996542, 2404.7], [-120.132109, 38.996526, 2405.1], [-120.132099, 38.996505, 2405.6], [-120.132062, 38.996451, 2407.0], [-120.132051, 38.996424, 2407.6], [-120.132045, 38.996401, 2408.1], [-120.132047, 38.996375, 2408.7], [-120.132054, 38.99634, 2409.5], [-120.132066, 38.996323, 2409.9], [-120.132076, 38.996319, 2410.1], [-120.132101, 38.996299, 2410.7], [-120.132124, 38.996254, 2411.7], [-120.132125, 38.996237, 2412.0], [-120.132133, 38.996198, 2412.8], [-120.132146, 38.996178, 2413.3], [-120.132166, 38.996155, 2413.8], [-120.132203, 38.996123, 2414.6], [-120.132218, 38.996106, 2415.0], [-120.132229, 38.996085, 2415.4], [-120.132201, 38.996015, 2416.6], [-120.132193, 38.995961, 2417.6], [-120.132196, 38.995944, 2417.8], [-120.132194, 38.995909, 2418.5], [-120.132184, 38.995885, 2418.9], [-120.132175, 38.99585, 2419.5], [-120.132165, 38.995821, 2420.1], [-120.132162, 38.995798, 2420.5], [-120.132162, 38.995768, 2421.1], [-120.132153, 38.995764, 2421.3], [-120.132155, 38.99573, 2422.9], [-120.132165, 38.995702, 2424.3], [-120.132175, 38.99569, 2424.3], [-120.132199, 38.995674, 2424.5], [-120.132185, 38.995655, 2425.8], [-120.132172, 38.995611, 2427.2], [-120.132179, 38.995604, 2428.7], [-120.132176, 38.995546, 2430.2], [-120.132184, 38.995532, 2431.6], [-120.132178, 38.995493, 2432.8], [-120.132164, 38.995452, 2433.9], [-120.132127, 38.995407, 2434.5], [-120.132114, 38.995379, 2435.6], [-120.132114, 38.995354, 2436.9], [-120.132103, 38.995313, 2437.5], [-120.132098, 38.995306, 2439.0], [-120.132106, 38.995298, 2439.0], [-120.132112, 38.995282, 2439.5], [-120.132163, 38.995203, 2443.8], [-120.132171, 38.995181, 2443.8], [-120.132173, 38.995143, 2445.2], [-120.132189, 38.995128, 2446.4], [-120.1322, 38.995086, 2448.1], [-120.132226, 38.995047, 2449.2], [-120.132244, 38.995012, 2450.9], [-120.132252, 38.994987, 2452.2], [-120.132229, 38.994948, 2452.9], [-120.13221, 38.994887, 2455.4], [-120.132211, 38.994873, 2455.4], [-120.132205, 38.994856, 2456.7], [-120.132195, 38.994815, 2457.6], [-120.132184, 38.994805, 2459.0], [-120.13218, 38.994794, 2458.9], [-120.132173, 38.994753, 2460.3], [-120.132172, 38.994701, 2463.8], [-120.132175, 38.994669, 2465.5], [-120.132187, 38.994632, 2467.2], [-120.132203, 38.994596, 2468.8], [-120.132212, 38.994554, 2470.1], [-120.13222, 38.994532, 2471.1], [-120.132237, 38.994512, 2471.2], [-120.13226, 38.994498, 2472.2], [-120.132285, 38.99447, 2473.5], [-120.132257, 38.994438, 2474.7], [-120.132328, 38.994455, 2473.7], [-120.132302, 38.994459, 2473.2], [-120.1323, 38.994452, 2473.2], [-120.132321, 38.994448, 2473.2], [-120.132331, 38.994453, 2473.7], [-120.1323, 38.994458, 2473.2], [-120.132314, 38.994453, 2473.2], [-120.132295, 38.994451, 2473.2], [-120.1323, 38.994461, 2473.2], [-120.132281, 38.994472, 2473.2], [-120.132276, 38.994464, 2472.9], [-120.132242, 38.994437, 2474.5], [-120.132243, 38.99441, 2474.5], [-120.132249, 38.994395, 2476.1], [-120.13225, 38.994361, 2478.0], [-120.132237, 38.99434, 2478.0], [-120.132222, 38.994326, 2479.6], [-120.132184, 38.994303, 2481.1], [-120.132139, 38.994286, 2480.9], [-120.13212, 38.994264, 2482.7], [-120.132109, 38.994263, 2482.7], [-120.132117, 38.994249, 2482.7], [-120.132147, 38.994235, 2484.5], [-120.132189, 38.994224, 2484.9], [-120.1322, 38.994199, 2487.2], [-120.132199, 38.994156, 2488.7], [-120.132224, 38.994121, 2490.1], [-120.132247, 38.994102, 2491.5], [-120.132252, 38.994084, 2491.5], [-120.132263, 38.994092, 2491.5], [-120.132296, 38.994079, 2491.8], [-120.132325, 38.994065, 2493.6], [-120.132324, 38.994044, 2493.6], [-120.13231, 38.994035, 2494.3], [-120.132304, 38.99402, 2494.3], [-120.132304, 38.994001, 2495.9], [-120.132315, 38.993992, 2495.9], [-120.132313, 38.993968, 2497.5], [-120.132318, 38.993958, 2497.5], [-120.132339, 38.993932, 2499.7], [-120.13235, 38.993891, 2501.3], [-120.132347, 38.993871, 2503.0], [-120.132341, 38.993862, 2503.0], [-120.132334, 38.99383, 2505.0], [-120.132331, 38.99378, 2506.8], [-120.132335, 38.993779, 2506.8], [-120.132342, 38.993758, 2508.5], [-120.132349, 38.993724, 2509.9], [-120.132337, 38.99368, 2511.6], [-120.132319, 38.993664, 2512.8], [-120.13231, 38.993646, 2512.8], [-120.132306, 38.99359, 2515.7], [-120.132308, 38.993548, 2517.2], [-120.132298, 38.993524, 2518.8], [-120.132293, 38.9935, 2520.6], [-120.132313, 38.993465, 2522.3], [-120.13231, 38.993444, 2522.3], [-120.132314, 38.993429, 2523.8], [-120.132345, 38.993385, 2525.3], [-120.132349, 38.993364, 2526.8], [-120.132358, 38.99334, 2526.8], [-120.132354, 38.993319, 2528.6], [-120.132373, 38.993278, 2530.7], [-120.132359, 38.993264, 2531.8], [-120.132353, 38.993245, 2531.7], [-120.13236, 38.993219, 2533.1], [-120.132344, 38.993174, 2534.9], [-120.132342, 38.993149, 2536.4], [-120.132345, 38.993133, 2538.4], [-120.132321, 38.993087, 2540.2], [-120.132312, 38.993088, 2540.2], [-120.132323, 38.993071, 2542.8], [-120.132334, 38.993063, 2542.8], [-120.13232, 38.993041, 2542.5], [-120.132324, 38.993027, 2545.1], [-120.132338, 38.993008, 2545.1], [-120.132346, 38.992974, 2546.8], [-120.132346, 38.992962, 2548.3], [-120.132359, 38.992944, 2548.3], [-120.132346, 38.992923, 2549.4], [-120.132314, 38.992887, 2550.2], [-120.132302, 38.992867, 2551.4], [-120.13229, 38.992839, 2551.4], [-120.132276, 38.992816, 2552.7], [-120.132263, 38.9928, 2554.3], [-120.132253, 38.99278, 2554.3], [-120.132249, 38.992744, 2556.1], [-120.132257, 38.992724, 2557.7], [-120.132284, 38.992705, 2557.9], [-120.132322, 38.992691, 2559.5], [-120.132328, 38.992683, 2559.5], [-120.132358, 38.99267, 2561.2], [-120.132365, 38.992662, 2561.2], [-120.132355, 38.99265, 2561.2], [-120.132355, 38.99264, 2561.2], [-120.132366, 38.992626, 2563.3], [-120.132386, 38.992614, 2563.3], [-120.132386, 38.992608, 2563.3], [-120.132427, 38.992577, 2565.4], [-120.132448, 38.992544, 2567.2], [-120.132472, 38.992521, 2569.5], [-120.132494, 38.992513, 2569.7], [-120.132507, 38.992491, 2571.3], [-120.132501, 38.992482, 2571.3], [-120.132458, 38.992437, 2574.7], [-120.132431, 38.992418, 2574.3], [-120.132413, 38.992399, 2575.8], [-120.132411, 38.992387, 2575.8], [-120.132392, 38.992353, 2576.8], [-120.132373, 38.99233, 2578.3], [-120.132326, 38.992291, 2580.1], [-120.132315, 38.992279, 2579.9], [-120.132309, 38.992261, 2582.0], [-120.132289, 38.99223, 2584.1], [-120.132264, 38.992222, 2584.0], [-120.132265, 38.992204, 2585.9], [-120.132247, 38.992154, 2587.7], [-120.132249, 38.992141, 2587.7], [-120.132271, 38.99211, 2589.3], [-120.132282, 38.992109, 2589.5], [-120.132299, 38.992075, 2591.2], [-120.132315, 38.992026, 2594.1], [-120.132307, 38.99196, 2597.3], [-120.132298, 38.991935, 2598.7], [-120.132296, 38.991872, 2599.9], [-120.132333, 38.991876, 2599.9], [-120.132331, 38.991868, 2600.9], [-120.13234, 38.991859, 2600.9], [-120.132305, 38.991854, 2600.8], [-120.132296, 38.991856, 2600.8], [-120.132289, 38.991866, 2600.8], [-120.13231, 38.991885, 2599.8], [-120.132328, 38.991882, 2599.9], [-120.132327, 38.991873, 2599.9], [-120.132305, 38.991868, 2600.8], [-120.132305, 38.991883, 2599.7], [-120.132281, 38.991874, 2599.7], [-120.132265, 38.991863, 2600.7], [-120.1323, 38.991877, 2599.7], [-120.132286, 38.991876, 2599.7], [-120.132301, 38.991871, 2599.7], [-120.1323, 38.991877, 2599.7], [-120.132277, 38.991879, 2599.4], [-120.13226, 38.991852, 2600.7], [-120.132283, 38.991855, 2600.8], [-120.132292, 38.99185, 2600.8], [-120.132294, 38.99183, 2602.0], [-120.13229, 38.991819, 2602.0], [-120.132295, 38.991805, 2602.0], [-120.132295, 38.991781, 2603.4], [-120.132328, 38.991746, 2605.4], [-120.132347, 38.99173, 2607.3], [-120.132365, 38.991708, 2607.3], [-120.132371, 38.991695, 2609.2], [-120.132371, 38.991666, 2610.9], [-120.132366, 38.991631, 2612.4], [-120.132366, 38.991609, 2612.4], [-120.132383, 38.991577, 2614.4], [-120.132392, 38.991541, 2616.3], [-120.132408, 38.991531, 2618.3], [-120.132439, 38.991519, 2618.9], [-120.132466, 38.99149, 2621.0], [-120.132488, 38.991461, 2622.3], [-120.132529, 38.991412, 2624.2], [-120.132536, 38.991398, 2625.7], [-120.132537, 38.991378, 2626.3], [-120.132543, 38.991355, 2628.0], [-120.132565, 38.991316, 2629.5], [-120.13258, 38.991299, 2631.2], [-120.132577, 38.991285, 2631.0], [-120.132579, 38.991268, 2632.4], [-120.132576, 38.991256, 2632.4], [-120.132586, 38.991235, 2634.4], [-120.132602, 38.991213, 2634.4], [-120.132617, 38.99118, 2635.8], [-120.132622, 38.991158, 2637.4], [-120.13264, 38.991138, 2637.9], [-120.132652, 38.991111, 2639.4], [-120.132675, 38.991089, 2641.5], [-120.132691, 38.991065, 2643.1], [-120.132718, 38.991046, 2643.8], [-120.132732, 38.991032, 2645.8], [-120.132766, 38.991017, 2646.4], [-120.132807, 38.990989, 2648.8], [-120.13282, 38.99096, 2650.6], [-120.132829, 38.990955, 2650.6], [-120.132853, 38.990951, 2651.2], [-120.132855, 38.990938, 2651.2], [-120.132873, 38.990914, 2653.0], [-120.132883, 38.990883, 2655.5], [-120.132882, 38.990846, 2657.6], [-120.132887, 38.990833, 2659.4], [-120.132881, 38.990827, 2659.4], [-120.132883, 38.990797, 2661.4], [-120.132877, 38.990766, 2662.3], [-120.132867, 38.990754, 2662.3], [-120.132842, 38.990746, 2662.2], [-120.132815, 38.990729, 2663.4], [-120.132808, 38.990742, 2661.4], [-120.132825, 38.990734, 2663.4], [-120.132823, 38.990728, 2663.4], [-120.132844, 38.990728, 2664.1], [-120.132866, 38.990714, 2664.1], [-120.13287, 38.990705, 2664.1], [-120.132893, 38.990698, 2666.7], [-120.132909, 38.990687, 2666.7], [-120.13292, 38.99066, 2668.8], [-120.132935, 38.990647, 2669.5], [-120.132954, 38.990636, 2671.1], [-120.132978, 38.990616, 2671.6], [-120.133006, 38.990613, 2671.6], [-120.13302, 38.990577, 2674.4], [-120.133031, 38.99056, 2676.7], [-120.133043, 38.990569, 2676.7], [-120.133047, 38.990558, 2676.7], [-120.133044, 38.990547, 2676.7], [-120.133041, 38.990501, 2681.2], [-120.133051, 38.990499, 2681.2], [-120.133052, 38.990476, 2682.4], [-120.13306, 38.990457, 2684.2], [-120.133069, 38.990458, 2684.2], [-120.133116, 38.990438, 2685.2], [-120.133109, 38.990426, 2687.0], [-120.133117, 38.990415, 2687.0], [-120.133192, 38.990401, 2689.7], [-120.133178, 38.990399, 2689.0], [-120.133183, 38.990383, 2689.7], [-120.133178, 38.990361, 2690.8], [-120.133172, 38.990354, 2690.8], [-120.133175, 38.990336, 2692.4], [-120.133173, 38.990323, 2692.4], [-120.133212, 38.990326, 2693.1], [-120.133237, 38.990324, 2694.1], [-120.133253, 38.990319, 2694.1], [-120.133268, 38.990307, 2695.2], [-120.133288, 38.990284, 2697.3], [-120.133302, 38.990284, 2697.3], [-120.133307, 38.990274, 2697.3], [-120.133352, 38.990266, 2699.5], [-120.133397, 38.990248, 2701.3], [-120.133392, 38.990236, 2701.7], [-120.133376, 38.990217, 2702.6], [-120.133373, 38.990192, 2703.4], [-120.133374, 38.990169, 2704.1], [-120.133368, 38.990162, 2704.4], [-120.133376, 38.990133, 2705.4], [-120.133369, 38.99012, 2705.8], [-120.13335, 38.990067, 2707.9], [-120.133353, 38.990043, 2708.7], [-120.133404, 38.990021, 2710.2], [-120.133412, 38.990007, 2710.7], [-120.133432, 38.990004, 2711.3], [-120.13345, 38.989987, 2712.0], [-120.133455, 38.989962, 2712.8], [-120.133471, 38.98995, 2713.4], [-120.13349, 38.989943, 2714.0], [-120.133516, 38.989939, 2714.6], [-120.133535, 38.989939, 2715.1], [-120.133548, 38.989945, 2715.5], [-120.133571, 38.989949, 2716.1], [-120.133593, 38.989948, 2716.6], [-120.133605, 38.989943, 2717.0], [-120.133618, 38.989929, 2717.5], [-120.133645, 38.989908, 2718.5], [-120.133645, 38.989898, 2718.8], [-120.133659, 38.989884, 2719.4], [-120.133689, 38.98987, 2720.3], [-120.133692, 38.989865, 2721.6], [-120.133701, 38.989879, 2722.2], [-120.133709, 38.989883, 2725.0], [-120.133676, 38.989854, 2726.3], [-120.133665, 38.989833, 2727.1], [-120.133648, 38.989833, 2727.5], [-120.133617, 38.989822, 2728.4], [-120.133609, 38.989815, 2728.9], [-120.13363, 38.989813, 2729.5], [-120.133661, 38.989824, 2730.9], [-120.133633, 38.989789, 2732.3], [-120.133617, 38.989778, 2732.9], [-120.133588, 38.98977, 2733.9], [-120.133553, 38.989744, 2735.2], [-120.133556, 38.989726, 2735.8], [-120.133566, 38.989718, 2736.2], [-120.133573, 38.989683, 2737.3], [-120.133577, 38.989695, 2737.8], [-120.133595, 38.989657, 2739.1], [-120.1336, 38.989652, 2740.3], [-120.133605, 38.98963, 2741.2], [-120.133596, 38.989625, 2741.6], [-120.13358, 38.989599, 2742.5], [-120.133564, 38.989589, 2743.3], [-120.133574, 38.989572, 2743.8], [-120.133622, 38.989535, 2745.5], [-120.133624, 38.989527, 2745.8], [-120.13364, 38.989506, 2746.5], [-120.133641, 38.989475, 2747.5], [-120.133651, 38.989473, 2747.7], [-120.133659, 38.989462, 2748.1], [-120.133653, 38.989448, 2748.6], [-120.133674, 38.989441, 2749.1], [-120.13369, 38.989429, 2749.6], [-120.133689, 38.989413, 2750.0], [-120.133682, 38.989404, 2750.3], [-120.13364, 38.989373, 2751.5], [-120.133617, 38.989354, 2752.3], [-120.133617, 38.989344, 2752.9], [-120.1336, 38.989322, 2753.6], [-120.133597, 38.989297, 2754.5], [-120.133609, 38.989279, 2755.5], [-120.133615, 38.989246, 2756.4], [-120.133625, 38.989218, 2757.1], [-120.133622, 38.989211, 2757.4], [-120.133611, 38.989221, 2757.7], [-120.133616, 38.98919, 2758.5], [-120.133616, 38.989172, 2759.0], [-120.133608, 38.989141, 2759.8], [-120.133593, 38.989121, 2760.5], [-120.133591, 38.989107, 2760.8], [-120.133604, 38.989071, 2761.7], [-120.133605, 38.989062, 2762.0], [-120.133632, 38.989017, 2763.2], [-120.13363, 38.988985, 2763.9], [-120.133621, 38.988974, 2764.2], [-120.133621, 38.988962, 2764.5], [-120.133629, 38.988939, 2765.1], [-120.133629, 38.988929, 2765.3], [-120.133617, 38.988891, 2766.2], [-120.133599, 38.988872, 2766.9], [-120.133618, 38.988861, 2767.5], [-120.133598, 38.988848, 2758.0], [-120.133603, 38.988836, 2756.3], [-120.1336, 38.988816, 2755.9], [-120.133604, 38.988806, 2755.1], [-120.13359, 38.988794, 2754.4], [-120.133572, 38.98879, 2754.5], [-120.133557, 38.988781, 2754.6], [-120.133538, 38.988764, 2754.8], [-120.133526, 38.988763, 2754.9], [-120.133507, 38.988743, 2755.1], [-120.133484, 38.988726, 2755.2], [-120.133464, 38.988699, 2755.5], [-120.133457, 38.988671, 2755.6], [-120.13345, 38.988655, 2755.8], [-120.133449, 38.988637, 2755.9], [-120.133435, 38.988639, 2756.2], [-120.133421, 38.988627, 2756.3], [-120.133411, 38.988593, 2756.5], [-120.133402, 38.988584, 2756.6], [-120.133383, 38.988576, 2756.7], [-120.133372, 38.988567, 2756.8], [-120.133357, 38.988565, 2756.9], [-120.13334, 38.988577, 2757.2], [-120.133342, 38.98859, 2757.4], [-120.133349, 38.988591, 2757.4], [-120.133362, 38.988607, 2757.6], [-120.133378, 38.988617, 2757.7], [-120.133379, 38.988624, 2757.7], [-120.133366, 38.988623, 2757.8], [-120.133373, 38.988648, 2758.0], [-120.133366, 38.988656, 2758.1], [-120.1334, 38.988679, 2758.3], [-120.1334, 38.988709, 2758.5], [-120.133404, 38.98872, 2758.6], [-120.133383, 38.98874, 2758.8], [-120.133382, 38.988759, 2760.2], [-120.133367, 38.988738, 2761.8], [-120.133378, 38.988726, 2762.0], [-120.13341, 38.988725, 2762.2], [-120.133419, 38.988716, 2762.3], [-120.133414, 38.988702, 2762.7], [-120.133387, 38.988693, 2762.9], [-120.133384, 38.988678, 2763.1], [-120.13337, 38.98866, 2763.2], [-120.133363, 38.988642, 2763.4], [-120.133367, 38.988621, 2763.6], [-120.133362, 38.98861, 2763.6], [-120.13335, 38.988604, 2763.7], [-120.133349, 38.988587, 2763.9], [-120.133359, 38.988584, 2764.0], [-120.133353, 38.988574, 2764.0], [-120.133365, 38.988566, 2764.1], [-120.13337, 38.98855, 2764.3], [-120.133361, 38.988543, 2764.4], [-120.133347, 38.988515, 2766.1], [-120.133358, 38.988515, 2766.2], [-120.133362, 38.988504, 2766.3], [-120.133356, 38.988495, 2766.4], [-120.133368, 38.988457, 2766.6], [-120.133375, 38.988453, 2766.7], [-120.133376, 38.988438, 2766.8], [-120.133369, 38.988429, 2766.9], [-120.133378, 38.988421, 2767.0], [-120.133404, 38.988415, 2767.1], [-120.133409, 38.988404, 2767.2], [-120.13342, 38.9884, 2767.3], [-120.13342, 38.988388, 2767.8], [-120.133397, 38.98841, 2768.0], [-120.13341, 38.988413, 2768.1], [-120.133399, 38.988434, 2768.2], [-120.133411, 38.988452, 2768.3], [-120.133426, 38.988465, 2768.5], [-120.13344, 38.988486, 2768.6], [-120.133454, 38.988493, 2768.7], [-120.13346, 38.988512, 2768.8], [-120.133456, 38.988528, 2768.9], [-120.13347, 38.988532, 2769.0], [-120.133482, 38.98853, 2769.0], [-120.133496, 38.988535, 2769.1], [-120.133556, 38.988581, 2769.5], [-120.133575, 38.988589, 2769.6], [-120.133571, 38.988601, 2769.7], [-120.133568, 38.988629, 2769.9], [-120.133555, 38.98866, 2770.1], [-120.133543, 38.988676, 2770.2], [-120.133527, 38.988706, 2770.4], [-120.133499, 38.988741, 2770.6], [-120.133486, 38.988739, 2770.6], [-120.13348, 38.988754, 2770.7], [-120.13347, 38.988759, 2770.8], [-120.133459, 38.988757, 2770.8], [-120.133454, 38.98877, 2770.9], [-120.133476, 38.988797, 2771.1], [-120.133477, 38.988811, 2771.2], [-120.133486, 38.988818, 2771.3], [-120.133486, 38.988831, 2771.4], [-120.133509, 38.988841, 2771.5], [-120.133533, 38.988823, 2771.7], [-120.133554, 38.988839, 2771.8], [-120.133566, 38.988826, 2771.9], [-120.133621, 38.988839, 2774.1], [-120.133635, 38.988827, 2775.1], [-120.133616, 38.988838, 2770.4], [-120.133652, 38.988831, 2764.3], [-120.133685, 38.988831, 2755.9], [-120.133647, 38.988836, 2755.3], [-120.133635, 38.988845, 2755.0], [-120.133619, 38.988874, 2754.4], [-120.133595, 38.988925, 2753.3], [-120.133582, 38.989019, 2751.4], [-120.133561, 38.989079, 2750.1], [-120.133555, 38.989116, 2749.4], [-120.133592, 38.989193, 2747.6], [-120.133599, 38.989223, 2747.0], [-120.133591, 38.989223, 2746.0], [-120.133572, 38.989239, 2745.5], [-120.133562, 38.989243, 2745.2], [-120.13356, 38.989256, 2745.0], [-120.133572, 38.989271, 2744.6], [-120.133597, 38.98927, 2744.1], [-120.133611, 38.989279, 2743.7], [-120.133616, 38.989288, 2743.4], [-120.133638, 38.989285, 2742.5], [-120.133651, 38.989287, 2741.5], [-120.133654, 38.989297, 2741.3], [-120.133637, 38.989335, 2740.4], [-120.133641, 38.989333, 2740.3], [-120.13364, 38.989374, 2738.6], [-120.133669, 38.989414, 2737.5], [-120.13367, 38.989458, 2736.5], [-120.133676, 38.989513, 2735.2], [-120.133663, 38.989549, 2734.3], [-120.133644, 38.989578, 2733.5], [-120.133633, 38.989605, 2732.8], [-120.133618, 38.98963, 2732.1], [-120.133605, 38.989623, 2725.6], [-120.133631, 38.989669, 2724.4], [-120.133627, 38.989697, 2723.7], [-120.133612, 38.989726, 2722.9], [-120.133606, 38.989755, 2722.2], [-120.133611, 38.989784, 2721.5], [-120.133609, 38.989807, 2720.9], [-120.133595, 38.989817, 2720.6], [-120.133569, 38.989854, 2719.3], [-120.133537, 38.989874, 2718.5], [-120.133491, 38.989884, 2717.6], [-120.13345, 38.989891, 2716.9], [-120.133414, 38.989905, 2716.1], [-120.133404, 38.989913, 2715.8], [-120.133396, 38.989953, 2714.9], [-120.133393, 38.989993, 2713.9], [-120.133398, 38.99001, 2713.5], [-120.133396, 38.990043, 2712.7], [-120.133373, 38.990068, 2712.0], [-120.133363, 38.990072, 2710.1], [-120.133322, 38.990078, 2709.3], [-120.133303, 38.990078, 2708.4], [-120.133265, 38.990082, 2707.5], [-120.133237, 38.990099, 2707.5], [-120.133223, 38.990128, 2704.9], [-120.133197, 38.990149, 2702.9], [-120.133155, 38.990172, 2700.2], [-120.133138, 38.990178, 2700.2], [-120.133083, 38.990192, 2697.7], [-120.133058, 38.990202, 2697.8], [-120.133039, 38.990215, 2695.0], [-120.133021, 38.990252, 2693.1], [-120.133011, 38.990291, 2691.4], [-120.133012, 38.990307, 2689.6], [-120.13302, 38.990336, 2689.6], [-120.133047, 38.990394, 2686.5], [-120.133071, 38.990438, 2683.9], [-120.133053, 38.990458, 2683.9], [-120.133038, 38.99047, 2682.9], [-120.133023, 38.990476, 2680.8], [-120.133013, 38.990474, 2680.8], [-120.132991, 38.99046, 2681.8], [-120.13295, 38.990459, 2680.8], [-120.132911, 38.990465, 2679.6], [-120.132895, 38.990472, 2677.6], [-120.132849, 38.990526, 2674.7], [-120.132838, 38.990555, 2673.1], [-120.132837, 38.990566, 2672.3], [-120.132818, 38.990612, 2668.7], [-120.13279, 38.990641, 2666.1], [-120.132743, 38.990669, 2665.5], [-120.132698, 38.990694, 2662.4], [-120.132685, 38.990695, 2662.5], [-120.132693, 38.990705, 2660.6], [-120.132704, 38.990729, 2660.6], [-120.132676, 38.990754, 2658.8], [-120.132633, 38.990772, 2656.3], [-120.132569, 38.990797, 2654.5], [-120.132554, 38.990826, 2652.8], [-120.132556, 38.990839, 2651.3], [-120.132569, 38.990865, 2651.3], [-120.132577, 38.990897, 2649.6], [-120.132576, 38.990907, 2648.0], [-120.132554, 38.99094, 2646.2], [-120.132542, 38.990966, 2646.2], [-120.132529, 38.991015, 2642.3], [-120.132522, 38.99105, 2640.6], [-120.132518, 38.991087, 2639.1], [-120.132512, 38.991116, 2637.4], [-120.132495, 38.991146, 2636.0], [-120.132478, 38.991167, 2635.7], [-120.13247, 38.991193, 2634.3], [-120.132488, 38.991187, 2634.3], [-120.132504, 38.991188, 2634.6], [-120.132513, 38.991181, 2634.6], [-120.132542, 38.991174, 2634.9], [-120.132552, 38.991212, 2633.7], [-120.132525, 38.991236, 2633.4], [-120.132491, 38.991255, 2631.4], [-120.132464, 38.991279, 2629.9], [-120.132465, 38.991314, 2628.2], [-120.132456, 38.991345, 2626.5], [-120.132423, 38.991413, 2622.7], [-120.132423, 38.991453, 2621.4], [-120.132428, 38.991495, 2620.0], [-120.132447, 38.991537, 2618.5], [-120.132481, 38.991592, 2615.3], [-120.132481, 38.991635, 2613.3], [-120.132427, 38.99171, 2607.5], [-120.132394, 38.99174, 2605.4], [-120.132357, 38.991771, 2603.2], [-120.132314, 38.991812, 2601.5], [-120.132284, 38.991855, 2600.4], [-120.132269, 38.991901, 2599.0], [-120.132275, 38.99194, 2596.1], [-120.132296, 38.99197, 2596.5], [-120.132339, 38.992003, 2595.2], [-120.132334, 38.992019, 2593.7], [-120.13232, 38.992045, 2591.8], [-120.132318, 38.992074, 2590.5], [-120.13232, 38.992104, 2590.5], [-120.132314, 38.992136, 2588.8], [-120.132305, 38.992206, 2583.4], [-120.132306, 38.992234, 2583.4], [-120.132315, 38.992259, 2581.3], [-120.132322, 38.992265, 2581.3], [-120.132342, 38.992269, 2581.4], [-120.132339, 38.992282, 2579.3], [-120.13232, 38.992265, 2581.3], [-120.132318, 38.992256, 2581.3], [-120.132301, 38.992255, 2581.4], [-120.132284, 38.992261, 2581.4], [-120.13227, 38.992271, 2581.2], [-120.132262, 38.992285, 2579.0], [-120.132222, 38.992306, 2576.8], [-120.132184, 38.992334, 2576.7], [-120.132174, 38.992372, 2573.5], [-120.132174, 38.992387, 2573.5], [-120.132204, 38.992447, 2570.5], [-120.132207, 38.992481, 2568.8], [-120.132213, 38.992519, 2567.2], [-120.132227, 38.992551, 2565.3], [-120.132259, 38.992591, 2563.8], [-120.132273, 38.992596, 2563.8], [-120.132272, 38.992602, 2563.8], [-120.13223, 38.99261, 2561.5], [-120.132181, 38.992641, 2559.4], [-120.132143, 38.992658, 2558.9], [-120.132132, 38.992677, 2557.3], [-120.132106, 38.992692, 2556.9], [-120.132103, 38.992702, 2556.9], [-120.132131, 38.992751, 2554.1], [-120.132158, 38.992784, 2552.7], [-120.13222, 38.992843, 2550.2], [-120.13224, 38.99286, 2550.4], [-120.132264, 38.992872, 2549.1], [-120.132305, 38.992879, 2549.5], [-120.132264, 38.992901, 2549.1], [-120.132249, 38.992904, 2549.1], [-120.132241, 38.992899, 2549.1], [-120.132229, 38.992903, 2549.0], [-120.132243, 38.992938, 2547.8], [-120.132277, 38.992977, 2545.0], [-120.1323, 38.992989, 2545.7], [-120.132292, 38.992989, 2545.7], [-120.132302, 38.993, 2545.7], [-120.1323, 38.993007, 2544.0], [-120.132284, 38.993025, 2544.0], [-120.132288, 38.993057, 2541.9], [-120.132292, 38.993068, 2541.9], [-120.132315, 38.993097, 2539.5], [-120.132322, 38.99311, 2537.2], [-120.132311, 38.993143, 2535.1], [-120.132291, 38.993159, 2535.1], [-120.132271, 38.993165, 2534.7], [-120.132239, 38.993195, 2533.2], [-120.132208, 38.993215, 2531.7], [-120.132151, 38.99326, 2530.0], [-120.132093, 38.993296, 2528.2], [-120.132016, 38.993323, 2526.6], [-120.131999, 38.993342, 2524.8], [-120.132012, 38.993358, 2524.8], [-120.132057, 38.9934, 2523.2], [-120.132084, 38.99343, 2521.6], [-120.1321, 38.993458, 2520.1], [-120.132107, 38.993495, 2518.6], [-120.132161, 38.993573, 2514.9], [-120.132234, 38.993715, 2508.4], [-120.132257, 38.993771, 2507.1], [-120.132277, 38.993827, 2503.4], [-120.13228, 38.993881, 2500.1], [-120.132291, 38.993933, 2498.4], [-120.132298, 38.993981, 2495.1], [-120.132297, 38.994019, 2493.5], [-120.132291, 38.994048, 2492.3], [-120.132293, 38.994138, 2489.9], [-120.132279, 38.994169, 2488.2], [-120.132247, 38.994189, 2486.7], [-120.132232, 38.994191, 2486.3], [-120.132155, 38.994167, 2487.5], [-120.132144, 38.994168, 2487.2], [-120.132112, 38.994205, 2485.7], [-120.132107, 38.994215, 2483.4], [-120.132107, 38.99423, 2483.4], [-120.132128, 38.99427, 2482.0], [-120.132127, 38.994297, 2480.2], [-120.132103, 38.994332, 2478.2], [-120.13209, 38.994341, 2476.7], [-120.132058, 38.994353, 2476.4], [-120.131987, 38.994363, 2475.9], [-120.131956, 38.994378, 2473.7], [-120.131956, 38.994416, 2472.4], [-120.131958, 38.994429, 2472.4], [-120.132002, 38.994463, 2471.2], [-120.132067, 38.994516, 2469.3], [-120.132105, 38.994544, 2467.9], [-120.132128, 38.994568, 2468.3], [-120.132147, 38.994634, 2465.5], [-120.132136, 38.994668, 2464.0], [-120.132111, 38.994701, 2462.4], [-120.132094, 38.994733, 2460.4], [-120.132094, 38.994768, 2459.0], [-120.132107, 38.994795, 2457.8], [-120.132126, 38.994806, 2457.8], [-120.13213, 38.994824, 2456.5], [-120.132115, 38.994854, 2455.4], [-120.132093, 38.994892, 2453.8], [-120.132085, 38.994942, 2451.2], [-120.132105, 38.995027, 2448.2], [-120.132107, 38.995081, 2445.5], [-120.132103, 38.995176, 2441.4], [-120.132079, 38.995234, 2440.3], [-120.132056, 38.995328, 2435.7], [-120.132059, 38.995379, 2432.8], [-120.132053, 38.995398, 2432.8], [-120.132024, 38.995377, 2432.8], [-120.132041, 38.995354, 2434.4], [-120.132068, 38.995431, 2432.4], [-120.132082, 38.995475, 2429.8], [-120.1321, 38.995523, 2428.6], [-120.132116, 38.99556, 2428.2], [-120.132126, 38.995575, 2426.8], [-120.132139, 38.995553, 2428.2], [-120.132139, 38.995541, 2428.2], [-120.132148, 38.995548, 2428.2], [-120.132131, 38.99555, 2428.2], [-120.132118, 38.995559, 2428.2], [-120.132105, 38.995579, 2426.0], [-120.132104, 38.995587, 2426.0], [-120.132093, 38.99559, 2426.1], [-120.132079, 38.995576, 2426.1], [-120.132073, 38.995584, 2426.1], [-120.132074, 38.995605, 2426.1], [-120.132084, 38.995647, 2423.5], [-120.132062, 38.995684, 2421.3], [-120.132047, 38.995742, 2419.0], [-120.132048, 38.995768, 2419.0], [-120.132058, 38.995802, 2417.9], [-120.132076, 38.995836, 2416.9], [-120.132101, 38.995864, 2415.9], [-120.132156, 38.995908, 2415.5], [-120.132176, 38.995932, 2415.5], [-120.132188, 38.995966, 2415.0], [-120.132184, 38.996049, 2412.5], [-120.132187, 38.996096, 2411.7], [-120.132193, 38.996147, 2409.9], [-120.132194, 38.996189, 2410.3], [-120.132189, 38.996222, 2408.5], [-120.132175, 38.996249, 2407.3], [-120.132154, 38.996277, 2406.0], [-120.132145, 38.996308, 2403.1], [-120.132167, 38.996362, 2403.2], [-120.132192, 38.996395, 2401.9], [-120.132219, 38.996426, 2401.8], [-120.132248, 38.996466, 2401.5], [-120.13227, 38.996503, 2399.8], [-120.132298, 38.996527, 2399.6], [-120.132306, 38.996531, 2399.6], [-120.132313, 38.996525, 2399.6], [-120.132313, 38.99651, 2399.6], [-120.132306, 38.99649, 2400.9], [-120.132299, 38.996482, 2400.9], [-120.132297, 38.996529, 2399.6], [-120.132294, 38.996513, 2399.6], [-120.132299, 38.996508, 2399.6], [-120.13231, 38.996519, 2399.6], [-120.132326, 38.996528, 2400.5], [-120.132352, 38.996532, 2400.5], [-120.13236, 38.99654, 2400.5], [-120.132356, 38.996559, 2399.2], [-120.132348, 38.99657, 2399.2], [-120.132332, 38.996556, 2399.2], [-120.132316, 38.996504, 2400.9], [-120.132297, 38.996495, 2400.9], [-120.132295, 38.996524, 2400.1], [-120.132287, 38.996527, 2399.9], [-120.132285, 38.996548, 2399.3], [-120.132278, 38.996559, 2398.9], [-120.132252, 38.996582, 2398.0], [-120.132207, 38.996625, 2396.3], [-120.132164, 38.996645, 2395.1], [-120.132107, 38.996666, 2393.6], [-120.132093, 38.996669, 2393.2], [-120.13203, 38.996689, 2391.5], [-120.131934, 38.996734, 2388.7], [-120.131894, 38.996748, 2387.7], [-120.131868, 38.996752, 2387.1], [-120.131858, 38.996741, 2386.7], [-120.131865, 38.996719, 2386.0], [-120.13187, 38.996743, 2385.3], [-120.13186, 38.996756, 2384.8], [-120.131865, 38.996762, 2384.6], [-120.131864, 38.996801, 2383.5], [-120.131854, 38.996812, 2383.1], [-120.131817, 38.996833, 2382.1], [-120.131794, 38.996839, 2381.5], [-120.131736, 38.996843, 2380.2], [-120.131698, 38.996862, 2379.2], [-120.131686, 38.996871, 2378.9], [-120.131642, 38.996924, 2377.1], [-120.131626, 38.996955, 2376.2], [-120.13161, 38.997018, 2374.4], [-120.131604, 38.997051, 2373.5], [-120.131566, 38.997045, 2372.6], [-120.131549, 38.997047, 2372.2], [-120.131546, 38.997037, 2371.9], [-120.131524, 38.997031, 2371.4], [-120.131521, 38.997035, 2371.2], [-120.131487, 38.997037, 2370.5], [-120.131466, 38.997054, 2369.8], [-120.131463, 38.997064, 2369.5], [-120.13147, 38.997108, 2368.2], [-120.131471, 38.997172, 2366.4], [-120.131477, 38.997252, 2364.2], [-120.131476, 38.997361, 2361.2], [-120.131478, 38.997417, 2359.8], [-120.131477, 38.997479, 2358.1], [-120.131474, 38.997545, 2356.4], [-120.131474, 38.997607, 2354.7], [-120.131482, 38.99767, 2353.1], [-120.131496, 38.997729, 2351.5], [-120.131513, 38.997768, 2350.4], [-120.131535, 38.997784, 2349.8], [-120.131553, 38.997784, 2349.4], [-120.13157, 38.997777, 2349.0], [-120.13157, 38.99779, 2348.5], [-120.131583, 38.997806, 2347.9], [-120.131586, 38.99777, 2346.9], [-120.131585, 38.99775, 2346.4], [-120.131592, 38.997746, 2346.2], [-120.131603, 38.997775, 2345.4], [-120.1316, 38.997788, 2345.0], [-120.131604, 38.997812, 2344.4], [-120.131591, 38.997818, 2344.0], [-120.131583, 38.997814, 2343.9], [-120.131586, 38.997804, 2343.6], [-120.131603, 38.997805, 2343.2], [-120.131583, 38.997828, 2342.3], [-120.131561, 38.997864, 2341.2], [-120.131542, 38.997902, 2340.2], [-120.13153, 38.997942, 2339.2], [-120.13153, 38.997991, 2337.9], [-120.131541, 38.998038, 2336.7], [-120.131558, 38.998078, 2335.5], [-120.131591, 38.998118, 2334.3], [-120.13159, 38.998125, 2334.1], [-120.131555, 38.998112, 2333.3], [-120.131531, 38.99811, 2332.8], [-120.131493, 38.998128, 2331.8], [-120.131458, 38.998163, 2330.6], [-120.1314, 38.99824, 2328.4], [-120.131358, 38.998314, 2326.6], [-120.131346, 38.998384, 2325.0], [-120.131292, 38.998602, 2320.1], [-120.131239, 38.99886, 2314.7], [-120.131206, 38.998981, 2312.4], [-120.13103, 38.999191, 2308.4], [-120.130988, 38.999255, 2307.4], [-120.130947, 38.999313, 2306.5], [-120.130866, 38.999425, 2305.0], [-120.130817, 38.999491, 2304.3], [-120.13077, 38.99954, 2303.7], [-120.130702, 38.999563, 2303.2], [-120.130643, 38.999589, 2302.7], [-120.130596, 38.999605, 2302.4], [-120.130542, 38.999613, 2302.0], [-120.130494, 38.999625, 2301.6], [-120.13046, 38.999638, 2301.2], [-120.130455, 38.999651, 2301.1], [-120.130474, 38.999663, 2300.8], [-120.130497, 38.99966, 2300.6], [-120.130504, 38.999652, 2300.4], [-120.130533, 38.999662, 2300.0], [-120.130499, 38.999696, 2299.0], [-120.130466, 38.999716, 2298.4], [-120.130424, 38.999729, 2297.7], [-120.130325, 38.999744, 2296.1], [-120.130275, 38.999754, 2295.2], [-120.130223, 38.999761, 2294.3], [-120.13011, 38.999751, 2292.2], [-120.130058, 38.999768, 2291.2], [-120.130004, 38.999781, 2290.2], [-120.129928, 38.999776, 2288.8], [-120.129851, 38.999769, 2287.4], [-120.129766, 38.999751, 2285.9], [-120.12967, 38.999737, 2284.3], [-120.12957, 38.999737, 2282.7], [-120.129462, 38.999754, 2281.1], [-120.129382, 38.999786, 2279.9], [-120.129326, 38.999839, 2278.6], [-120.129288, 38.999909, 2277.2], [-120.129253, 38.999985, 2275.9], [-120.129235, 39.000066, 2274.6], [-120.129232, 39.000139, 2273.5], [-120.129213, 39.000196, 2272.7], [-120.12918, 39.000238, 2272.0], [-120.129133, 39.000262, 2271.3], [-120.129048, 39.000289, 2270.3], [-120.129035, 39.000321, 2269.8], [-120.129047, 39.000387, 2268.9], [-120.129039, 39.0004, 2268.7], [-120.129026, 39.000398, 2268.5], [-120.128999, 39.000433, 2267.9], [-120.128973, 39.000456, 2267.5], [-120.12893, 39.000487, 2266.9], [-120.128915, 39.0005, 2266.6], [-120.128881, 39.000537, 2266.0], [-120.128842, 39.000586, 2265.2], [-120.128783, 39.000652, 2264.2], [-120.128704, 39.000729, 2263.0], [-120.128628, 39.00081, 2262.2], [-120.128567, 39.000885, 2261.6], [-120.128517, 39.000963, 2261.2], [-120.128476, 39.001043, 2261.0], [-120.128418, 39.001122, 2260.8], [-120.128373, 39.001175, 2260.7], [-120.128347, 39.001216, 2260.6], [-120.128338, 39.001243, 2260.6], [-120.128338, 39.001253, 2260.5], [-120.128348, 39.001252, 2260.5], [-120.128396, 39.00123, 2260.4], [-120.12843, 39.001222, 2260.3], [-120.128437, 39.001229, 2260.3], [-120.128434, 39.001249, 2260.2], [-120.128418, 39.001254, 2260.1], [-120.128412, 39.001282, 2260.0], [-120.128404, 39.001294, 2259.9], [-120.128398, 39.001332, 2259.7], [-120.128378, 39.001364, 2259.5], [-120.128359, 39.001399, 2259.3], [-120.128334, 39.001438, 2259.0], [-120.128308, 39.001473, 2258.8], [-120.128254, 39.001536, 2258.2], [-120.128231, 39.001568, 2257.9], [-120.128196, 39.001606, 2257.5], [-120.128169, 39.001644, 2257.1], [-120.128126, 39.001692, 2256.7], [-120.128092, 39.001725, 2256.4], [-120.128059, 39.001765, 2256.1], [-120.128035, 39.001811, 2255.8], [-120.128031, 39.001854, 2255.6], [-120.128023, 39.001894, 2255.4], [-120.128014, 39.00197, 2255.0], [-120.128011, 39.002013, 2254.9], [-120.127997, 39.002056, 2254.7], [-120.127987, 39.002097, 2254.5], [-120.127972, 39.002179, 2254.1], [-120.127962, 39.002218, 2253.8], [-120.127945, 39.002274, 2253.4], [-120.127914, 39.002328, 2253.0], [-120.127882, 39.002368, 2252.7], [-120.127851, 39.002394, 2252.4], [-120.12783, 39.002403, 2252.3], [-120.127832, 39.002394, 2252.2], [-120.127846, 39.002396, 2252.2], [-120.127851, 39.002428, 2251.7], [-120.12784, 39.002417, 2251.6], [-120.127832, 39.002435, 2251.6], [-120.127794, 39.002498, 2251.3], [-120.12779, 39.002555, 2251.0], [-120.127775, 39.002627, 2250.8], [-120.127744, 39.002695, 2250.4], [-120.127729, 39.002724, 2250.2], [-120.12771, 39.002753, 2249.9], [-120.12768, 39.002828, 2249.1], [-120.12765, 39.002894, 2248.2], [-120.127632, 39.002925, 2247.7], [-120.127615, 39.00295, 2247.4], [-120.12757, 39.002995, 2246.7], [-120.127562, 39.003015, 2246.5], [-120.127532, 39.003069, 2245.9], [-120.127508, 39.003092, 2245.7], [-120.127476, 39.003117, 2245.4], [-120.127466, 39.003134, 2245.3], [-120.127438, 39.003162, 2245.0], [-120.1274, 39.003214, 2244.5], [-120.127385, 39.003273, 2244.1], [-120.127392, 39.003309, 2243.8], [-120.127417, 39.003354, 2243.5], [-120.127421, 39.003395, 2243.2], [-120.127427, 39.003437, 2242.9], [-120.127422, 39.003503, 2242.5], [-120.127417, 39.003552, 2242.2], [-120.127402, 39.003645, 2241.6], [-120.12739, 39.003694, 2241.2], [-120.127376, 39.003738, 2240.9], [-120.127358, 39.003775, 2240.6], [-120.127331, 39.003798, 2240.4], [-120.127291, 39.003853, 2239.9], [-120.127278, 39.003862, 2238.5], [-120.127297, 39.003876, 2238.2], [-120.12725, 39.003932, 2237.6], [-120.127232, 39.003961, 2237.3], [-120.127215, 39.003994, 2237.0], [-120.127187, 39.004053, 2236.3], [-120.127162, 39.004095, 2235.8], [-120.127116, 39.004147, 2235.1], [-120.127057, 39.004224, 2234.0], [-120.127029, 39.00425, 2233.6], [-120.126973, 39.004305, 2232.7], [-120.126925, 39.004356, 2231.9], [-120.126893, 39.00438, 2231.4], [-120.126825, 39.00442, 2230.5], [-120.126762, 39.004453, 2229.6], [-120.126728, 39.004473, 2229.2], [-120.12669, 39.004493, 2228.7], [-120.126649, 39.004512, 2228.2], [-120.12657, 39.004543, 2227.3], [-120.126461, 39.004577, 2226.1], [-120.126412, 39.004597, 2225.6], [-120.126376, 39.004617, 2225.1], [-120.126341, 39.004644, 2224.6], [-120.126296, 39.004673, 2224.0], [-120.12625, 39.004709, 2223.3], [-120.126209, 39.004751, 2222.7], [-120.126168, 39.004789, 2222.0], [-120.126101, 39.00484, 2221.1], [-120.126072, 39.004866, 2220.6], [-120.126033, 39.004893, 2220.0], [-120.125985, 39.004922, 2219.3], [-120.12594, 39.004954, 2218.6], [-120.1259, 39.004992, 2217.8], [-120.125862, 39.005031, 2217.0], [-120.125817, 39.005075, 2216.1], [-120.12573, 39.005164, 2214.3], [-120.125686, 39.005211, 2213.3], [-120.125608, 39.005275, 2211.7], [-120.125587, 39.005301, 2211.1], [-120.125572, 39.005328, 2210.6], [-120.125554, 39.005379, 2209.6], [-120.125558, 39.005408, 2209.1], [-120.125566, 39.005436, 2208.5], [-120.125566, 39.005469, 2207.9], [-120.125561, 39.005479, 2207.7], [-120.125539, 39.0055, 2207.2], [-120.125504, 39.005524, 2206.6], [-120.12546, 39.005546, 2205.8], [-120.125419, 39.005558, 2205.2], [-120.12538, 39.00556, 2204.7], [-120.125296, 39.00556, 2203.6], [-120.125242, 39.005567, 2202.9], [-120.125191, 39.005587, 2202.1], [-120.125133, 39.005603, 2201.3], [-120.125114, 39.005625, 2200.8], [-120.125106, 39.005629, 2200.7], [-120.125113, 39.005636, 2200.5], [-120.125124, 39.005622, 2200.2], [-120.125133, 39.005597, 2199.8], [-120.125126, 39.005559, 2199.1], [-120.125126, 39.005544, 2198.9], [-120.12512, 39.005533, 2198.7], [-120.125092, 39.005539, 2198.3], [-120.125074, 39.005563, 2197.8], [-120.125049, 39.005609, 2197.0], [-120.125028, 39.005665, 2196.0], [-120.125012, 39.005719, 2195.0], [-120.125, 39.005769, 2194.1], [-120.124993, 39.005834, 2192.9], [-120.124991, 39.005896, 2191.7], [-120.124987, 39.005971, 2190.2], [-120.124981, 39.006048, 2188.7], [-120.12497, 39.006168, 2186.3], [-120.124959, 39.006295, 2183.8], [-120.124949, 39.006344, 2182.8], [-120.124936, 39.006388, 2181.8], [-120.124918, 39.00643, 2180.8], [-120.1249, 39.006459, 2180.1], [-120.124884, 39.00649, 2179.4], [-120.124881, 39.006525, 2178.6], [-120.124892, 39.006558, 2177.8], [-120.124912, 39.006593, 2176.9], [-120.124935, 39.006629, 2176.1], [-120.124947, 39.006659, 2175.4], [-120.12495, 39.006689, 2174.7], [-120.124957, 39.006733, 2173.7], [-120.124954, 39.006747, 2173.4], [-120.124941, 39.006751, 2173.0], [-120.124918, 39.006729, 2172.4], [-120.12487, 39.0067, 2171.3], [-120.124829, 39.006685, 2170.5], [-120.124815, 39.006683, 2170.3], [-120.124774, 39.006685, 2169.6], [-120.124757, 39.006688, 2169.3], [-120.124723, 39.006703, 2168.6], [-120.124689, 39.006725, 2167.8], [-120.124595, 39.006772, 2165.7], [-120.124559, 39.006791, 2164.9], [-120.124532, 39.006815, 2164.1], [-120.124524, 39.006841, 2163.5], [-120.124503, 39.006883, 2162.3], [-120.124494, 39.006923, 2161.3], [-120.124482, 39.007018, 2159.0], [-120.124459, 39.007118, 2156.4], [-120.124445, 39.007163, 2155.3], [-120.124423, 39.007225, 2153.6], [-120.124395, 39.007284, 2152.1], [-120.124341, 39.007374, 2149.7], [-120.124322, 39.007425, 2148.4], [-120.124303, 39.007485, 2147.0], [-120.124259, 39.007607, 2144.4], [-120.124239, 39.007672, 2143.1], [-120.12422, 39.007739, 2141.8], [-120.124198, 39.007806, 2140.6], [-120.124174, 39.007885, 2139.2], [-120.124125, 39.008051, 2136.4], [-120.124104, 39.008128, 2135.3], [-120.12409, 39.008208, 2134.2], [-120.124079, 39.00828, 2133.3], [-120.124072, 39.00835, 2132.5], [-120.12404, 39.008579, 2129.8], [-120.124032, 39.008629, 2129.1], [-120.124015, 39.008695, 2128.2], [-120.124004, 39.008759, 2127.3], [-120.124004, 39.008781, 2127.0], [-120.124008, 39.00885, 2126.0], [-120.124005, 39.008932, 2124.8], [-120.124006, 39.009001, 2123.8], [-120.124011, 39.009044, 2123.2], [-120.124002, 39.009121, 2122.2], [-120.124002, 39.009135, 2122.0], [-120.124018, 39.009181, 2121.3], [-120.124025, 39.009213, 2120.9], [-120.124041, 39.009257, 2120.4], [-120.124055, 39.009284, 2120.0], [-120.124065, 39.009312, 2119.6], [-120.124056, 39.009346, 2119.2], [-120.124003, 39.009407, 2118.2], [-120.124008, 39.009443, 2117.7], [-120.124006, 39.009471, 2117.4], [-120.123995, 39.009528, 2116.7], [-120.123991, 39.009581, 2116.0], [-120.12399, 39.009626, 2115.4], [-120.123984, 39.00967, 2114.9], [-120.124005, 39.009756, 2113.8], [-120.12401, 39.009788, 2113.4], [-120.124011, 39.00982, 2113.1], [-120.124008, 39.00985, 2112.8], [-120.12399, 39.009894, 2112.4], [-120.123961, 39.009925, 2112.1], [-120.123931, 39.009939, 2111.9], [-120.123896, 39.009969, 2111.6], [-120.12385, 39.009994, 2111.3], [-120.123809, 39.010025, 2111.0], [-120.123784, 39.010047, 2110.8], [-120.123752, 39.010079, 2110.5], [-120.12371, 39.010115, 2110.3], [-120.12368, 39.010149, 2110.1], [-120.123637, 39.01018, 2109.9], [-120.123592, 39.010194, 2109.7], [-120.123575, 39.010203, 2109.6], [-120.123512, 39.010246, 2109.4], [-120.123463, 39.010281, 2109.3], [-120.123401, 39.010323, 2109.1], [-120.123341, 39.010357, 2108.9], [-120.123286, 39.010392, 2108.8], [-120.12326, 39.010412, 2108.7], [-120.123209, 39.010439, 2108.5], [-120.123158, 39.010451, 2108.4], [-120.123094, 39.010477, 2108.1], [-120.123016, 39.010498, 2107.9], [-120.122998, 39.010492, 2107.8], [-120.122996, 39.010487, 2107.8], [-120.122949, 39.010484, 2107.6], [-120.122928, 39.010471, 2107.5], [-120.122911, 39.010453, 2107.4], [-120.122941, 39.010448, 2107.3]]}}