{"type": "Feature", "properties": {}, "geometry": {"type": "LineString", "coordinates": [[-119.989512, 38.695077, 2613.5], [-119.989469, 38.695098, 2613.6], [-119.989419, 38.695109, 2613.8], [-119.989293, 38.695073, 2614.2], [-119.989269, 38.695052, 2614.2], [-119.989388, 38.695115, 2614.5], [-119.989364, 38.695091, 2614.5], [-119.989474, 38.69452, 2615.2], [-119.989507, 38.694473, 2615.1], [-119.989535, 38.694458, 2615.1], [-119.989624, 38.694358, 2615.1], [-119.989698, 38.694296, 2615.2], [-119.989725, 38.694257, 2615.4], [-119.989799, 38.694238, 2615.8], [-119.989795, 38.69421, 2616.0], [-119.989817, 38.694197, 2616.2], [-119.989836, 38.694131, 2616.7], [-119.989831, 38.694106, 2616.9], [-119.989862, 38.694071, 2617.3], [-119.989951, 38.69404, 2617.9], [-119.990021, 38.694004, 2618.3], [-119.990103, 38.693985, 2618.6], [-119.990131, 38.693956, 2618.7], [-119.990115, 38.693867, 2619.1], [-119.990116, 38.693784, 2619.4], [-119.990081, 38.693713, 2619.5], [-119.990098, 38.693692, 2619.6], [-119.990086, 38.693644, 2619.6], [-119.990106, 38.693582, 2619.7], [-119.990152, 38.693501, 2619.7], [-119.990119, 38.693389, 2621.2], [-119.990123, 38.693289, 2623.2], [-119.990117, 38.693231, 2624.7], [-119.990143, 38.693095, 2627.7], [-119.990197, 38.692959, 2630.6], [-119.990223, 38.692921, 2630.6], [-119.99028, 38.692762, 2629.6], [-119.990292, 38.692647, 2629.5], [-119.990303, 38.692616, 2629.9], [-119.990332, 38.692592, 2629.6], [-119.990382, 38.692528, 2629.2], [-119.990463, 38.692493, 2628.1], [-119.990487, 38.692467, 2628.2], [-119.990507, 38.692423, 2627.8], [-119.990501, 38.692362, 2627.2], [-119.990525, 38.692296, 2626.4], [-119.990561, 38.69223, 2624.9], [-119.990567, 38.692185, 2624.5], [-119.990655, 38.692093, 2622.4], [-119.990625, 38.692054, 2622.3], [-119.99061, 38.692015, 2623.0], [-119.990586, 38.691999, 2622.9], [-119.990557, 38.69194, 2623.7], [-119.99058, 38.691862, 2623.2], [-119.990545, 38.691779, 2623.3], [-119.990487, 38.691684, 2622.3], [-119.990477, 38.691644, 2621.8], [-119.990434, 38.691608, 2621.6], [-119.990386, 38.691489, 2619.7], [-119.990363, 38.691393, 2619.2], [-119.990376, 38.69133, 2619.5], [-119.990349, 38.691295, 2620.4], [-119.990352, 38.691247, 2620.7], [-119.990314, 38.69116, 2622.2], [-119.990321, 38.691134, 2621.8], [-119.990421, 38.691066, 2620.7], [-119.990454, 38.691012, 2619.8], [-119.990456, 38.690961, 2619.5], [-119.990494, 38.690894, 2619.1], [-119.99049, 38.690862, 2619.3], [-119.990519, 38.690821, 2619.4], [-119.990553, 38.690793, 2619.3], [-119.990706, 38.690728, 2619.8], [-119.990762, 38.690754, 2618.7], [-119.990782, 38.690778, 2617.8], [-119.990877, 38.69077, 2617.6], [-119.990944, 38.690727, 2619.8], [-119.99102, 38.690711, 2620.0], [-119.99108, 38.690745, 2619.0], [-119.991185, 38.690719, 2619.7], [-119.991267, 38.690681, 2620.3], [-119.991394, 38.690653, 2621.3], [-119.991489, 38.690643, 2622.1], [-119.991575, 38.690615, 2622.9], [-119.991703, 38.690629, 2624.3], [-119.991766, 38.690611, 2625.2], [-119.991848, 38.690569, 2626.5], [-119.991829, 38.690594, 2627.1], [-119.991824, 38.69052, 2628.3], [-119.991864, 38.690485, 2629.1], [-119.991937, 38.690316, 2632.2], [-119.991932, 38.690258, 2633.2], [-119.991981, 38.690229, 2634.1], [-119.992014, 38.690185, 2635.0], [-119.992071, 38.690164, 2635.9], [-119.992118, 38.690126, 2636.7], [-119.992175, 38.690067, 2637.8], [-119.992234, 38.690026, 2638.7], [-119.992245, 38.689996, 2639.2], [-119.992277, 38.689969, 2639.6], [-119.992313, 38.689881, 2640.6], [-119.992348, 38.689828, 2641.2], [-119.992405, 38.689716, 2642.3], [-119.992426, 38.68963, 2643.0], [-119.992424, 38.689583, 2643.4], [-119.992448, 38.68954, 2644.0], [-119.992485, 38.689503, 2644.6], [-119.992533, 38.689404, 2645.7], [-119.992549, 38.689323, 2646.5], [-119.992573, 38.68915, 2648.6], [-119.992556, 38.68909, 2649.3], [-119.992588, 38.688976, 2650.7], [-119.992582, 38.688935, 2651.0], [-119.992637, 38.688798, 2651.9], [-119.992672, 38.688777, 2652.1], [-119.992674, 38.688751, 2652.2], [-119.992656, 38.688706, 2652.3], [-119.992649, 38.688628, 2652.5], [-119.992659, 38.688585, 2652.7], [-119.992651, 38.688565, 2652.7], [-119.992672, 38.688433, 2653.3], [-119.992719, 38.688297, 2654.3], [-119.992734, 38.688196, 2655.5], [-119.992766, 38.688138, 2656.4], [-119.992742, 38.688119, 2656.7], [-119.992709, 38.688055, 2657.5], [-119.992625, 38.687996, 2658.2], [-119.992582, 38.687939, 2658.5], [-119.992602, 38.687892, 2658.7], [-119.992561, 38.687777, 2658.7], [-119.992565, 38.687715, 2658.7], [-119.992555, 38.687693, 2658.7], [-119.992563, 38.687619, 2658.6], [-119.992439, 38.687458, 2658.8], [-119.992401, 38.68743, 2658.9], [-119.992289, 38.687369, 2659.1], [-119.992268, 38.687341, 2659.1], [-119.992191, 38.687297, 2659.3], [-119.992119, 38.687223, 2659.7], [-119.992058, 38.68718, 2659.9], [-119.991915, 38.687117, 2660.4], [-119.991908, 38.687095, 2660.4], [-119.991861, 38.687085, 2660.4], [-119.991811, 38.687086, 2660.5], [-119.991743, 38.687108, 2660.6], [-119.991766, 38.687092, 2660.6], [-119.991729, 38.687075, 2660.7], [-119.991584, 38.687058, 2661.4], [-119.991524, 38.687077, 2661.8], [-119.99128, 38.687013, 2664.0], [-119.991251, 38.687026, 2664.7], [-119.991196, 38.687022, 2665.0], [-119.991137, 38.687001, 2665.0], [-119.991104, 38.68697, 2665.0], [-119.991068, 38.686961, 2665.5], [-119.991006, 38.686908, 2665.3], [-119.99091, 38.686877, 2666.4], [-119.990881, 38.686859, 2666.4], [-119.990824, 38.686856, 2667.3], [-119.9907, 38.686784, 2667.7], [-119.990262, 38.686377, 2670.2], [-119.990261, 38.686363, 2670.2], [-119.990215, 38.686322, 2669.7], [-119.990187, 38.686239, 2667.8], [-119.990213, 38.686198, 2667.2], [-119.99021, 38.686153, 2666.6], [-119.990227, 38.686088, 2665.8], [-119.990201, 38.686008, 2665.4], [-119.990086, 38.685862, 2667.0], [-119.990027, 38.68576, 2667.8], [-119.990065, 38.685684, 2666.9], [-119.990065, 38.685655, 2666.9], [-119.990028, 38.685619, 2667.7], [-119.989974, 38.685615, 2668.4], [-119.989968, 38.685592, 2669.1], [-119.989999, 38.68556, 2668.4], [-119.990016, 38.685492, 2668.1], [-119.989979, 38.685404, 2669.6], [-119.989851, 38.685245, 2671.3], [-119.989839, 38.685211, 2671.5], [-119.989727, 38.685154, 2671.9], [-119.989711, 38.685128, 2671.9], [-119.98966, 38.685091, 2671.7], [-119.989622, 38.68503, 2671.0], [-119.989619, 38.68497, 2670.3], [-119.989678, 38.684885, 2669.2], [-119.989704, 38.684806, 2668.5], [-119.989809, 38.684663, 2667.5], [-119.989808, 38.684654, 2667.5], [-119.989892, 38.684527, 2668.0], [-119.989925, 38.684497, 2668.3], [-119.989991, 38.68441, 2668.8], [-119.989983, 38.684357, 2669.5], [-119.990021, 38.684289, 2669.8], [-119.990031, 38.684247, 2670.0], [-119.989996, 38.684209, 2670.9], [-119.990007, 38.684187, 2671.2], [-119.99005, 38.684162, 2670.8], [-119.990075, 38.684132, 2670.4], [-119.990116, 38.684032, 2670.4], [-119.990103, 38.684001, 2670.7], [-119.990111, 38.683961, 2671.1], [-119.990214, 38.683876, 2671.4], [-119.990224, 38.683842, 2672.2], [-119.990287, 38.683789, 2673.1], [-119.990312, 38.683749, 2673.8], [-119.990394, 38.683699, 2674.8], [-119.990375, 38.683622, 2676.2], [-119.990381, 38.683598, 2676.9], [-119.990367, 38.68355, 2677.5], [-119.990391, 38.683517, 2678.0], [-119.990382, 38.683459, 2678.9], [-119.990388, 38.683408, 2679.3], [-119.990418, 38.683338, 2679.8], [-119.990462, 38.683254, 2681.1], [-119.990458, 38.683235, 2681.1], [-119.990356, 38.683159, 2683.3], [-119.990369, 38.683113, 2683.6], [-119.990362, 38.683088, 2684.1], [-119.990291, 38.683043, 2685.1], [-119.990289, 38.683, 2685.6], [-119.990252, 38.682966, 2686.4], [-119.990294, 38.68294, 2686.6], [-119.990357, 38.682927, 2686.8], [-119.990369, 38.68289, 2687.1], [-119.990351, 38.682872, 2687.3], [-119.99035, 38.682823, 2688.2], [-119.990334, 38.68278, 2688.6], [-119.990363, 38.682732, 2688.7], [-119.990353, 38.682674, 2689.7], [-119.990401, 38.682614, 2690.1], [-119.990429, 38.682598, 2689.8], [-119.990423, 38.682541, 2690.4], [-119.990433, 38.682472, 2691.1], [-119.990475, 38.682395, 2691.6], [-119.990488, 38.682328, 2691.9], [-119.990538, 38.682271, 2692.3], [-119.990587, 38.682141, 2693.4], [-119.990623, 38.68208, 2693.7], [-119.990619, 38.682026, 2694.0], [-119.9906, 38.682007, 2694.7], [-119.990611, 38.681983, 2694.9], [-119.990565, 38.681957, 2695.5], [-119.990563, 38.681873, 2696.0], [-119.990544, 38.68181, 2696.5], [-119.990511, 38.681764, 2697.1], [-119.990491, 38.681684, 2697.6], [-119.990494, 38.681586, 2698.2], [-119.990483, 38.681446, 2699.8], [-119.990492, 38.681426, 2699.2], [-119.990564, 38.681372, 2699.2], [-119.990556, 38.681328, 2699.6], [-119.990571, 38.681225, 2700.5], [-119.990554, 38.681174, 2701.2], [-119.990523, 38.681135, 2702.0], [-119.990508, 38.681026, 2702.7], [-119.990529, 38.680919, 2703.5], [-119.990516, 38.680881, 2703.6], [-119.990535, 38.680808, 2703.4], [-119.990497, 38.680713, 2704.5], [-119.990489, 38.680679, 2704.7], [-119.990436, 38.680618, 2706.4], [-119.990438, 38.680592, 2706.4], [-119.990469, 38.680531, 2706.0], [-119.990484, 38.680476, 2706.4], [-119.990479, 38.680429, 2706.6], [-119.990492, 38.680385, 2706.2], [-119.990492, 38.680297, 2706.7], [-119.990527, 38.680177, 2707.1], [-119.990548, 38.680076, 2707.0], [-119.990528, 38.679886, 2708.1], [-119.990507, 38.67983, 2708.3], [-119.990532, 38.679773, 2707.7], [-119.990546, 38.679696, 2707.8], [-119.99054, 38.679654, 2707.7], [-119.99056, 38.679608, 2707.8], [-119.990532, 38.679513, 2707.9], [-119.99049, 38.679438, 2708.7], [-119.990438, 38.679382, 2710.4], [-119.990434, 38.679358, 2710.4], [-119.99047, 38.6793, 2709.6], [-119.99045, 38.679263, 2709.6], [-119.990424, 38.679121, 2710.3], [-119.990427, 38.679082, 2710.3], [-119.990445, 38.679066, 2709.2], [-119.990463, 38.678985, 2709.3], [-119.990463, 38.678949, 2709.4], [-119.990446, 38.678843, 2710.2], [-119.990438, 38.678755, 2711.8], [-119.990533, 38.678497, 2711.8], [-119.990728, 38.678146, 2713.3], [-119.99073, 38.67808, 2714.4], [-119.990798, 38.677993, 2714.7], [-119.990843, 38.67795, 2714.6], [-119.990853, 38.677907, 2715.2], [-119.990906, 38.677833, 2716.8], [-119.990957, 38.677794, 2717.1], [-119.990983, 38.677729, 2718.1], [-119.991016, 38.677682, 2718.4], [-119.99103, 38.677639, 2718.9], [-119.991059, 38.677625, 2719.1], [-119.991075, 38.677576, 2719.5], [-119.991134, 38.677548, 2719.3], [-119.991235, 38.67748, 2719.3], [-119.991299, 38.677415, 2719.8], [-119.991476, 38.677279, 2719.9], [-119.991501, 38.677264, 2720.5], [-119.991552, 38.677202, 2720.7], [-119.991615, 38.677147, 2721.5], [-119.991691, 38.67709, 2722.6], [-119.991764, 38.677011, 2723.9], [-119.991827, 38.676933, 2726.1], [-119.991849, 38.676885, 2726.7], [-119.991902, 38.676856, 2727.4], [-119.991926, 38.676826, 2728.1], [-119.992008, 38.6768, 2728.3], [-119.992064, 38.676726, 2730.9], [-119.992168, 38.676664, 2733.1], [-119.992201, 38.676621, 2734.1], [-119.992283, 38.676566, 2735.1], [-119.992308, 38.676528, 2736.9], [-119.992354, 38.6765, 2736.9], [-119.992431, 38.676474, 2737.9], [-119.992489, 38.676424, 2739.9], [-119.992583, 38.676417, 2740.1], [-119.992649, 38.676379, 2741.1], [-119.992731, 38.676356, 2742.0], [-119.992779, 38.676314, 2742.6], [-119.992859, 38.676279, 2742.9], [-119.992913, 38.676267, 2742.6], [-119.99297, 38.676231, 2742.8], [-119.992997, 38.676159, 2743.7], [-119.993033, 38.676119, 2743.9], [-119.993086, 38.676091, 2744.0], [-119.993143, 38.676043, 2744.2], [-119.993208, 38.67597, 2744.6], [-119.993225, 38.675926, 2745.5], [-119.993268, 38.675856, 2746.1], [-119.993292, 38.67584, 2745.8], [-119.993351, 38.675766, 2746.1], [-119.993482, 38.675591, 2746.9], [-119.993511, 38.675499, 2747.0], [-119.993492, 38.675338, 2747.8], [-119.993506, 38.675267, 2748.1], [-119.993537, 38.675188, 2748.4], [-119.993573, 38.675038, 2748.8], [-119.993607, 38.674976, 2748.5], [-119.993635, 38.674836, 2748.8], [-119.993677, 38.67478, 2748.5], [-119.993717, 38.674756, 2748.3], [-119.993766, 38.674685, 2748.5], [-119.993892, 38.674586, 2748.5], [-119.993965, 38.674466, 2748.9], [-119.994035, 38.6744, 2749.4], [-119.994097, 38.67436, 2749.5], [-119.994144, 38.674275, 2750.4], [-119.994133, 38.674231, 2750.7], [-119.994148, 38.674153, 2750.9], [-119.994297, 38.673911, 2751.4], [-119.994382, 38.673701, 2751.5], [-119.994402, 38.673627, 2751.5], [-119.994423, 38.67361, 2751.5], [-119.994481, 38.673601, 2751.6], [-119.994635, 38.673447, 2751.9], [-119.994717, 38.673321, 2752.7], [-119.994659, 38.673265, 2753.1], [-119.994688, 38.67321, 2753.4], [-119.994707, 38.6732, 2753.5], [-119.994784, 38.673101, 2753.9], [-119.994854, 38.673065, 2753.8], [-119.994959, 38.67297, 2753.3], [-119.995135, 38.672882, 2752.2], [-119.995207, 38.672799, 2751.6], [-119.995212, 38.672782, 2751.5], [-119.995367, 38.672647, 2750.3], [-119.995415, 38.672571, 2749.8], [-119.995505, 38.672491, 2748.9], [-119.995564, 38.672376, 2747.8], [-119.995599, 38.672329, 2747.3], [-119.995675, 38.672184, 2746.0], [-119.995724, 38.672118, 2745.4], [-119.995761, 38.672037, 2744.8], [-119.995811, 38.671979, 2743.9], [-119.995856, 38.671953, 2743.8], [-119.99588, 38.671887, 2743.7], [-119.995956, 38.671736, 2743.2], [-119.996, 38.671715, 2743.1], [-119.996029, 38.671651, 2742.9], [-119.996045, 38.671582, 2742.8], [-119.996127, 38.671501, 2742.6], [-119.996278, 38.671293, 2742.3], [-119.996341, 38.671226, 2742.3], [-119.996356, 38.671175, 2742.9], [-119.996417, 38.67112, 2743.3], [-119.996427, 38.671095, 2743.4], [-119.996475, 38.671071, 2743.6], [-119.996526, 38.671004, 2743.8], [-119.996632, 38.670915, 2743.7], [-119.996687, 38.670841, 2743.5], [-119.996878, 38.670733, 2742.8], [-119.996979, 38.670627, 2742.4], [-119.997006, 38.670585, 2742.3], [-119.997099, 38.670514, 2742.0], [-119.997248, 38.670377, 2740.9], [-119.997314, 38.670333, 2739.2], [-119.997391, 38.670175, 2737.7], [-119.99748, 38.670128, 2738.4], [-119.997489, 38.670108, 2738.7], [-119.997459, 38.670046, 2739.3], [-119.997437, 38.670037, 2739.5], [-119.997411, 38.669965, 2740.3], [-119.99743, 38.669953, 2740.5], [-119.997459, 38.669976, 2740.8], [-119.997494, 38.669974, 2741.1], [-119.997416, 38.669962, 2741.7], [-119.997454, 38.669932, 2744.5], [-119.997517, 38.669918, 2745.0], [-119.997564, 38.66989, 2745.5], [-119.997616, 38.669839, 2746.1], [-119.997635, 38.669839, 2746.3], [-119.997799, 38.669756, 2747.8], [-119.99781, 38.669734, 2748.1], [-119.997907, 38.669692, 2748.9], [-119.998014, 38.669681, 2749.8], [-119.998053, 38.669682, 2750.1], [-119.998102, 38.66966, 2750.5], [-119.998155, 38.669656, 2751.0], [-119.998183, 38.669666, 2751.2], [-119.998224, 38.669651, 2751.6], [-119.998346, 38.669577, 2752.8], [-119.998398, 38.669533, 2753.5], [-119.998514, 38.669496, 2754.4], [-119.998598, 38.669438, 2755.3], [-119.99864, 38.669398, 2755.9], [-119.998757, 38.669367, 2756.8], [-119.998788, 38.669332, 2757.3], [-119.998888, 38.669331, 2758.1], [-119.998916, 38.669322, 2759.0], [-119.998991, 38.669275, 2760.7], [-119.998985, 38.669259, 2761.2], [-119.999027, 38.669185, 2762.5], [-119.999077, 38.669154, 2764.6], [-119.99912, 38.669108, 2765.9], [-119.999312, 38.669022, 2770.5], [-119.999365, 38.668992, 2771.8], [-119.999382, 38.668944, 2773.3], [-119.999452, 38.668883, 2775.8], [-119.999462, 38.668852, 2777.4], [-119.999513, 38.668828, 2778.2], [-119.999522, 38.66878, 2779.8], [-119.999586, 38.668756, 2782.2], [-119.999664, 38.668705, 2784.0], [-119.999722, 38.668689, 2787.3], [-119.999773, 38.66865, 2789.8], [-119.99981, 38.668643, 2791.3], [-120.000005, 38.668647, 2796.5], [-120.000127, 38.668655, 2799.1], [-120.000232, 38.66863, 2801.3], [-120.000385, 38.668605, 2804.5], [-120.000456, 38.668625, 2805.4], [-120.000516, 38.668626, 2806.0], [-120.000623, 38.668587, 2809.7], [-120.000664, 38.668586, 2810.0], [-120.000789, 38.668556, 2811.8], [-120.000839, 38.66853, 2812.0], [-120.000882, 38.668528, 2812.2], [-120.000938, 38.668498, 2813.5], [-120.000996, 38.668492, 2813.8], [-120.001053, 38.668473, 2815.4], [-120.001087, 38.668486, 2815.4], [-120.001207, 38.668473, 2815.9], [-120.001363, 38.668436, 2817.9], [-120.001353, 38.668413, 2819.2], [-120.001194, 38.66832, 2822.4], [-120.001182, 38.668297, 2822.4], [-120.001035, 38.668174, 2826.3], [-120.001028, 38.668151, 2827.5], [-120.000922, 38.668107, 2828.0], [-120.000916, 38.668082, 2829.3], [-120.000932, 38.668033, 2830.6], [-120.000952, 38.668014, 2831.9], [-120.000946, 38.66799, 2831.9], [-120.000959, 38.667908, 2835.9], [-120.000999, 38.66787, 2837.0], [-120.001051, 38.66784, 2838.7], [-120.001083, 38.667837, 2838.7], [-120.001146, 38.667805, 2841.3], [-120.001227, 38.667789, 2842.4], [-120.001282, 38.667764, 2844.1], [-120.001313, 38.667762, 2844.5], [-120.001366, 38.667734, 2846.6], [-120.001448, 38.667722, 2848.8], [-120.001452, 38.667699, 2850.7], [-120.00148, 38.667715, 2851.9], [-120.001517, 38.667694, 2852.9], [-120.001667, 38.667649, 2859.2], [-120.00168, 38.667627, 2859.2], [-120.00172, 38.667617, 2862.2], [-120.001754, 38.667623, 2859.1], [-120.001838, 38.667599, 2862.2], [-120.002051, 38.667591, 2859.9], [-120.002151, 38.66754, 2865.5], [-120.002173, 38.66755, 2866.2], [-120.002172, 38.667516, 2868.3], [-120.002377, 38.667511, 2872.4], [-120.002447, 38.667491, 2872.7], [-120.002457, 38.667472, 2873.9], [-120.00244, 38.667449, 2875.0], [-120.002443, 38.667398, 2876.2], [-120.002356, 38.667284, 2879.3], [-120.002368, 38.667259, 2880.2], [-120.002297, 38.66719, 2882.4], [-120.002297, 38.667164, 2883.4], [-120.00232, 38.66715, 2883.4], [-120.002318, 38.667047, 2889.0], [-120.002365, 38.667012, 2890.5], [-120.002365, 38.666968, 2891.9], [-120.002425, 38.666904, 2893.9], [-120.002455, 38.666892, 2893.9], [-120.002466, 38.666868, 2895.5], [-120.002525, 38.666861, 2896.0], [-120.00261, 38.666833, 2899.0], [-120.002686, 38.666847, 2901.0], [-120.002749, 38.666847, 2902.2], [-120.002832, 38.666886, 2903.5], [-120.002894, 38.666895, 2906.2], [-120.002986, 38.666871, 2908.9], [-120.003046, 38.666873, 2909.6], [-120.003059, 38.666862, 2909.5], [-120.003238, 38.666851, 2910.6], [-120.003355, 38.666867, 2910.3], [-120.00342, 38.666854, 2909.8], [-120.003528, 38.666806, 2911.3], [-120.003551, 38.66675, 2912.2], [-120.003545, 38.666647, 2916.9], [-120.003534, 38.666617, 2916.8], [-120.003454, 38.666587, 2919.1], [-120.003433, 38.666566, 2921.7], [-120.003461, 38.666526, 2923.7], [-120.003466, 38.66649, 2926.1], [-120.003623, 38.666407, 2930.4], [-120.003688, 38.666361, 2931.5], [-120.004282, 38.666028, 2938.4], [-120.004278, 38.666015, 2938.4], [-120.004301, 38.66594, 2942.6], [-120.004289, 38.665901, 2943.7], [-120.004236, 38.665826, 2946.2], [-120.004235, 38.665802, 2947.2], [-120.004203, 38.665756, 2949.0], [-120.004192, 38.665709, 2950.0], [-120.004158, 38.665693, 2951.8], [-120.004206, 38.665653, 2951.9], [-120.004206, 38.66563, 2952.8], [-120.004179, 38.665585, 2953.7], [-120.004212, 38.665583, 2953.7], [-120.004237, 38.665498, 2955.4], [-120.004215, 38.665427, 2958.7], [-120.00423, 38.665403, 2958.5], [-120.004172, 38.66537, 2962.0], [-120.004172, 38.665347, 2962.0], [-120.004122, 38.665332, 2964.3], [-120.004078, 38.665296, 2966.9], [-120.004043, 38.665342, 2965.5], [-120.00398, 38.665347, 2966.8], [-120.003949, 38.665312, 2969.4], [-120.003917, 38.665308, 2970.8], [-120.003871, 38.665263, 2975.0], [-120.003809, 38.665255, 2976.2], [-120.00379, 38.665237, 2979.3], [-120.0037, 38.665219, 2982.3], [-120.003681, 38.665228, 2982.3], [-120.003731, 38.665271, 2978.8], [-120.003703, 38.665183, 2984.2], [-120.00372, 38.665214, 2980.7], [-120.003779, 38.66523, 2979.2], [-120.003721, 38.665241, 2978.8], [-120.003685, 38.665177, 2984.2], [-120.003648, 38.665164, 2987.9], [-120.00361, 38.665133, 2990.3], [-120.003598, 38.665155, 2989.0], [-120.003568, 38.66516, 2990.1], [-120.003517, 38.665099, 2992.7], [-120.003503, 38.665019, 2995.1], [-120.003519, 38.664995, 2995.7], [-120.003511, 38.664971, 2996.3], [-120.003531, 38.664952, 2997.0], [-120.00351, 38.66493, 2997.7], [-120.003571, 38.66494, 2999.2], [-120.003612, 38.66496, 3000.5], [-120.003644, 38.664957, 3001.3], [-120.003665, 38.664866, 3004.3], [-120.003744, 38.664866, 3006.1], [-120.003707, 38.664832, 3007.3], [-120.003727, 38.664817, 3007.9], [-120.003736, 38.664762, 3009.3], [-120.00375, 38.664738, 3009.9], [-120.003789, 38.66471, 3010.7], [-120.003803, 38.664639, 3012.1], [-120.003835, 38.664613, 3012.9], [-120.003843, 38.664587, 3013.5], [-120.00387, 38.664598, 3014.1], [-120.003957, 38.664566, 3016.2], [-120.004031, 38.664561, 3017.9], [-120.004049, 38.66454, 3018.7], [-120.004108, 38.664527, 3020.2], [-120.004125, 38.664504, 3021.0], [-120.004154, 38.664514, 3021.6], [-120.004185, 38.664495, 3022.4], [-120.004212, 38.66445, 3023.6], [-120.004237, 38.664436, 3024.1], [-120.004256, 38.664455, 3024.6], [-120.004319, 38.664444, 3025.6], [-120.004329, 38.664416, 3026.2], [-120.004431, 38.664356, 3028.2], [-120.004463, 38.664347, 3028.7], [-120.004498, 38.664301, 3029.8], [-120.00453, 38.664292, 3030.2], [-120.004578, 38.66426, 3030.9], [-120.00463, 38.66417, 3032.0], [-120.004629, 38.664156, 3034.4], [-120.004682, 38.664149, 3036.1], [-120.004683, 38.664105, 3037.8], [-120.004725, 38.664081, 3039.4], [-120.004718, 38.66402, 3041.9], [-120.004668, 38.664005, 3043.8], [-120.004636, 38.664008, 3044.8], [-120.004551, 38.663962, 3048.3], [-120.004542, 38.663935, 3049.5], [-120.004506, 38.66394, 3055.9], [-120.004485, 38.663922, 3056.0], [-120.004514, 38.663885, 3056.2], [-120.004505, 38.663836, 3056.4], [-120.004529, 38.663789, 3056.6], [-120.004512, 38.663765, 3056.9], [-120.004464, 38.663757, 3057.1], [-120.004457, 38.663682, 3057.7], [-120.00449, 38.663739, 3059.9], [-120.004496, 38.663714, 3060.0], [-120.004479, 38.663666, 3060.2], [-120.00449, 38.663644, 3060.3], [-120.004542, 38.663611, 3060.6], [-120.004545, 38.663543, 3060.8], [-120.004493, 38.663463, 3061.2], [-120.00443, 38.663472, 3061.5], [-120.00435, 38.663428, 3061.8], [-120.004328, 38.663398, 3062.8], [-120.004265, 38.663365, 3063.7], [-120.004191, 38.663387, 3064.5], [-120.004174, 38.663426, 3065.1], [-120.004182, 38.663454, 3065.5], [-120.004166, 38.663496, 3066.1], [-120.004137, 38.663487, 3066.5], [-120.0041, 38.663415, 3067.6], [-120.004098, 38.663373, 3068.2], [-120.004005, 38.66329, 3078.3], [-120.003978, 38.663338, 3079.3], [-120.003983, 38.663304, 3080.0], [-120.003958, 38.663275, 3080.9], [-120.003913, 38.663288, 3081.8], [-120.003853, 38.663218, 3083.6], [-120.003817, 38.663205, 3084.4], [-120.003784, 38.663156, 3085.6], [-120.00357, 38.663053, 3091.2], [-120.003481, 38.663107, 3094.4], [-120.003425, 38.663113, 3095.6], [-120.003387, 38.663107, 3096.6], [-120.003352, 38.663061, 3096.2], [-120.003262, 38.663045, 3098.0], [-120.003236, 38.663062, 3099.5], [-120.003247, 38.663009, 3098.4], [-120.003225, 38.663062, 3102.0], [-120.002809, 38.663212, 3122.8], [-120.002748, 38.663225, 3124.6], [-120.002711, 38.663269, 3128.0], [-120.00268, 38.663281, 3128.5], [-120.002621, 38.663279, 3131.6], [-120.002595, 38.663294, 3132.1], [-120.002571, 38.663279, 3133.2], [-120.002552, 38.663296, 3133.6], [-120.002474, 38.663289, 3135.9], [-120.002426, 38.663314, 3138.5], [-120.002416, 38.663336, 3141.1], [-120.002363, 38.663363, 3142.0], [-120.002351, 38.663397, 3145.7], [-120.002353, 38.663492, 3148.5], [-120.002273, 38.66354, 3149.8], [-120.002318, 38.663524, 3153.4], [-120.002359, 38.663483, 3153.0], [-120.00233, 38.663448, 3152.5], [-120.002347, 38.663428, 3151.3], [-120.002376, 38.663429, 3151.7], [-120.002414, 38.663449, 3153.3], [-120.00246, 38.663452, 3153.3], [-120.002617, 38.663414, 3150.5], [-120.002725, 38.663471, 3145.2], [-120.002753, 38.66346, 3145.9], [-120.002789, 38.663426, 3143.8], [-120.002767, 38.663383, 3142.3], [-120.002775, 38.663356, 3140.7], [-120.002748, 38.663326, 3140.3], [-120.002726, 38.663322, 3140.3], [-120.002707, 38.663288, 3139.6], [-120.002697, 38.6633, 3141.5], [-120.00274, 38.663354, 3142.1], [-120.002628, 38.663241, 3139.4], [-120.002635, 38.663196, 3136.7], [-120.002578, 38.663146, 3134.4], [-120.002596, 38.663126, 3131.7], [-120.002662, 38.663126, 3130.8], [-120.002686, 38.663109, 3130.1], [-120.002711, 38.663125, 3130.1], [-120.002711, 38.663164, 3134.1], [-120.00276, 38.663187, 3133.5], [-120.00279, 38.663189, 3132.8], [-120.002889, 38.663165, 3131.0], [-120.00289, 38.663136, 3127.9], [-120.002866, 38.663123, 3127.7], [-120.00288, 38.663103, 3127.7], [-120.00297, 38.663103, 3124.2], [-120.003011, 38.663147, 3123.8], [-120.003066, 38.66316, 3119.9], [-120.003112, 38.663128, 3115.1], [-120.003139, 38.663144, 3118.1], [-120.003204, 38.663122, 3111.3], [-120.003299, 38.663048, 3101.9], [-120.003338, 38.663053, 3101.0], [-120.003368, 38.663071, 3103.0], [-120.003379, 38.66306, 3100.2], [-120.003416, 38.662966, 3093.5], [-120.003393, 38.662987, 3094.4], [-120.003463, 38.663034, 3098.4], [-120.003514, 38.663054, 3097.3], [-120.003583, 38.663037, 3094.3], [-120.003567, 38.663017, 3093.6], [-120.003584, 38.662996, 3092.0], [-120.003658, 38.663003, 3090.2], [-120.003714, 38.663036, 3086.7], [-120.003757, 38.663089, 3085.8], [-120.003785, 38.663153, 3087.8], [-120.003816, 38.663145, 3085.7], [-120.003877, 38.66317, 3082.8], [-120.003944, 38.66317, 3081.1], [-120.003979, 38.663209, 3080.1], [-120.003978, 38.663233, 3080.4], [-120.004031, 38.663186, 3077.5], [-120.004058, 38.663231, 3076.4], [-120.00411, 38.663259, 3074.1], [-120.004145, 38.663306, 3071.0], [-120.004235, 38.663372, 3065.6], [-120.004255, 38.663402, 3064.7], [-120.004534, 38.663738, 3042.9], [-120.00449, 38.663726, 3045.5], [-120.004482, 38.663704, 3045.5], [-120.00454, 38.663694, 3045.5], [-120.004556, 38.663726, 3044.2], [-120.004522, 38.663792, 3041.7], [-120.004521, 38.663824, 3040.4], [-120.004539, 38.66386, 3039.3], [-120.004581, 38.663866, 3037.1], [-120.00468, 38.663839, 3036.0], [-120.004866, 38.663866, 3029.1], [-120.004879, 38.663903, 3028.2], [-120.004909, 38.663943, 3026.1], [-120.004963, 38.663971, 3023.9], [-120.005018, 38.663984, 3022.8], [-120.005147, 38.66398, 3019.4], [-120.005182, 38.664006, 3017.5], [-120.005179, 38.664042, 3016.8], [-120.005155, 38.664097, 3017.3], [-120.005195, 38.664119, 3015.5], [-120.005399, 38.664097, 3009.4], [-120.005428, 38.664112, 3007.6], [-120.005446, 38.66418, 3007.4], [-120.005472, 38.664212, 3005.9], [-120.005469, 38.664278, 3005.6], [-120.005487, 38.664307, 3005.0], [-120.005537, 38.664319, 3003.6], [-120.005592, 38.66431, 3002.2], [-120.005619, 38.664324, 3000.7], [-120.005599, 38.664338, 3000.3], [-120.005592, 38.664371, 3000.9], [-120.005563, 38.664417, 3000.2], [-120.005591, 38.664446, 2999.2], [-120.005618, 38.664437, 2998.4], [-120.005638, 38.664458, 2997.6], [-120.005604, 38.664517, 2995.9], [-120.005552, 38.66457, 2992.2], [-120.005548, 38.664609, 2989.6], [-120.005567, 38.664627, 2989.7], [-120.005634, 38.664631, 2989.5], [-120.00566, 38.66465, 2986.7], [-120.005646, 38.664705, 2982.0], [-120.005705, 38.66473, 2981.9], [-120.005725, 38.66475, 2979.7], [-120.005708, 38.664803, 2977.6], [-120.005753, 38.66484, 2973.6], [-120.00575, 38.66489, 2971.7], [-120.005773, 38.664912, 2969.8], [-120.005808, 38.664921, 2969.8], [-120.005836, 38.664946, 2967.9], [-120.005814, 38.665011, 2964.1], [-120.005835, 38.665081, 2960.5], [-120.005808, 38.665116, 2958.7], [-120.005816, 38.665156, 2956.8], [-120.005856, 38.665194, 2954.9], [-120.005868, 38.665223, 2952.9], [-120.005842, 38.665241, 2950.8], [-120.005719, 38.665294, 2948.7], [-120.005591, 38.665322, 2946.9], [-120.00555, 38.665345, 2945.4], [-120.005557, 38.66538, 2944.4], [-120.005524, 38.66546, 2942.0], [-120.005539, 38.66551, 2939.7], [-120.005512, 38.665557, 2938.5], [-120.00546, 38.665584, 2937.4], [-120.005448, 38.665625, 2936.5], [-120.005466, 38.66567, 2935.7], [-120.005437, 38.665711, 2933.6], [-120.005398, 38.665736, 2933.5], [-120.00527, 38.665793, 2931.2], [-120.005271, 38.665844, 2929.3], [-120.005231, 38.66589, 2928.3], [-120.005237, 38.665913, 2927.3], [-120.005291, 38.665945, 2926.2], [-120.005291, 38.665976, 2926.2], [-120.005255, 38.66602, 2924.2], [-120.005264, 38.666048, 2923.1], [-120.005308, 38.666073, 2923.0], [-120.005329, 38.666102, 2922.0], [-120.005295, 38.666154, 2919.5], [-120.005297, 38.666209, 2918.1], [-120.005267, 38.666215, 2916.6], [-120.005268, 38.666237, 2916.6], [-120.005339, 38.666284, 2913.5], [-120.005317, 38.666318, 2912.5], [-120.005272, 38.666327, 2912.6], [-120.005187, 38.666365, 2911.2], [-120.005176, 38.666423, 2908.2], [-120.005154, 38.666445, 2907.9], [-120.00497, 38.666457, 2904.8], [-120.004929, 38.666471, 2904.5], [-120.004942, 38.666524, 2901.5], [-120.004915, 38.666563, 2900.3], [-120.004778, 38.666611, 2897.5], [-120.00475, 38.666642, 2896.4], [-120.004755, 38.666678, 2895.8], [-120.004745, 38.666718, 2894.2], [-120.00471, 38.666751, 2893.0], [-120.004662, 38.66678, 2892.8], [-120.004656, 38.66688, 2889.0], [-120.004623, 38.666917, 2886.5], [-120.00448, 38.667024, 2885.1], [-120.004338, 38.667103, 2886.8], [-120.004156, 38.667256, 2882.7], [-120.004141, 38.667292, 2881.6], [-120.004153, 38.667327, 2880.5], [-120.004143, 38.667359, 2879.5], [-120.004109, 38.6674, 2878.7], [-120.004099, 38.66746, 2876.5], [-120.004108, 38.667484, 2876.5], [-120.004096, 38.667554, 2873.3], [-120.004078, 38.667569, 2873.4], [-120.004018, 38.667579, 2873.4], [-120.003992, 38.667666, 2868.7], [-120.003978, 38.66768, 2868.7], [-120.003916, 38.667693, 2865.8], [-120.003922, 38.66776, 2862.2], [-120.00391, 38.667785, 2861.9], [-120.003865, 38.667819, 2860.4], [-120.003883, 38.667868, 2859.5], [-120.003835, 38.6679, 2859.1], [-120.003771, 38.667915, 2857.7], [-120.003724, 38.667965, 2855.2], [-120.003663, 38.667988, 2853.0], [-120.003525, 38.668001, 2847.8], [-120.003466, 38.66802, 2847.2], [-120.003422, 38.668079, 2846.0], [-120.003352, 38.668097, 2843.8], [-120.003261, 38.668102, 2842.2], [-120.003096, 38.668095, 2839.8], [-120.00283, 38.668077, 2834.6], [-120.002614, 38.668076, 2832.0], [-120.002567, 38.668085, 2831.6], [-120.002542, 38.668131, 2828.3], [-120.002424, 38.668154, 2827.3], [-120.002321, 38.668231, 2820.4], [-120.002228, 38.668264, 2817.0], [-120.00204, 38.668304, 2812.4], [-120.001858, 38.668368, 2808.3], [-120.001698, 38.668399, 2808.1], [-120.001653, 38.668443, 2807.6], [-120.001631, 38.66851, 2805.7], [-120.001589, 38.668558, 2803.5], [-120.001513, 38.668591, 2802.6], [-120.001461, 38.668716, 2799.4], [-120.001345, 38.668743, 2798.6], [-120.001196, 38.668757, 2798.4], [-120.001157, 38.66878, 2797.2], [-120.001151, 38.66882, 2796.3], [-120.001158, 38.668868, 2794.3], [-120.001113, 38.668907, 2793.0], [-120.001061, 38.668936, 2791.8], [-120.001049, 38.668987, 2790.7], [-120.001052, 38.669045, 2788.8], [-120.000974, 38.669143, 2786.0], [-120.000983, 38.669247, 2783.9], [-120.000919, 38.669335, 2782.4], [-120.000917, 38.669392, 2781.9], [-120.00094, 38.669419, 2781.5], [-120.000923, 38.669462, 2780.7], [-120.000881, 38.669484, 2780.7], [-120.000797, 38.66949, 2780.5], [-120.000786, 38.669507, 2779.8], [-120.000821, 38.669542, 2779.6], [-120.000758, 38.669563, 2778.7], [-120.000728, 38.669593, 2778.2], [-120.000652, 38.669634, 2775.5], [-120.000599, 38.669633, 2775.1], [-120.000251, 38.669584, 2771.8], [-120.000169, 38.669553, 2770.9], [-120.000091, 38.669537, 2770.2], [-120.000026, 38.669534, 2769.5], [-119.999944, 38.669481, 2768.5], [-119.999834, 38.66947, 2767.5], [-119.999726, 38.669422, 2766.3], [-119.999597, 38.669383, 2765.0], [-119.999444, 38.66932, 2763.4], [-119.99919, 38.669211, 2760.7], [-119.999027, 38.669173, 2759.1], [-119.998935, 38.669166, 2758.2], [-119.998883, 38.669174, 2757.7], [-119.998839, 38.669215, 2757.0], [-119.998771, 38.669233, 2756.4], [-119.99863, 38.669251, 2755.0], [-119.998592, 38.669339, 2753.9], [-119.998531, 38.669374, 2753.2], [-119.998445, 38.669397, 2752.3], [-119.998384, 38.669452, 2751.4], [-119.998319, 38.669477, 2750.8], [-119.998286, 38.669528, 2750.1], [-119.998238, 38.66957, 2749.4], [-119.997792, 38.66982, 2744.2], [-119.997694, 38.669918, 2742.7], [-119.997632, 38.669964, 2741.9], [-119.997594, 38.669973, 2741.5], [-119.997574, 38.669992, 2741.2], [-119.997543, 38.669995, 2740.9], [-119.997445, 38.66996, 2739.9], [-119.997428, 38.669966, 2739.7], [-119.997447, 38.669998, 2739.3], [-119.997416, 38.669996, 2739.0], [-119.997365, 38.670028, 2738.4], [-119.997173, 38.6701, 2739.9], [-119.997068, 38.67016, 2741.1], [-119.996953, 38.670247, 2741.8], [-119.996835, 38.670292, 2742.2], [-119.996826, 38.670315, 2742.3], [-119.99674, 38.670364, 2742.5], [-119.996688, 38.670435, 2742.7], [-119.996679, 38.670482, 2742.9], [-119.996638, 38.670526, 2743.1], [-119.996634, 38.670584, 2743.3], [-119.996561, 38.670696, 2743.7], [-119.996466, 38.670773, 2743.8], [-119.996407, 38.670844, 2743.7], [-119.996232, 38.670984, 2742.8], [-119.996187, 38.671029, 2742.5], [-119.996137, 38.671158, 2742.3], [-119.996058, 38.671278, 2742.5], [-119.996052, 38.671337, 2742.5], [-119.996011, 38.671378, 2742.5], [-119.995954, 38.67139, 2742.5], [-119.995893, 38.671437, 2742.7], [-119.995816, 38.671508, 2742.9], [-119.995725, 38.671786, 2743.5], [-119.995672, 38.672047, 2744.8], [-119.995624, 38.672145, 2745.5], [-119.995575, 38.672322, 2746.8], [-119.995524, 38.67245, 2748.7], [-119.995559, 38.672348, 2749.5], [-119.995489, 38.672426, 2750.2], [-119.99533, 38.672689, 2751.9], [-119.995271, 38.672759, 2752.5], [-119.995194, 38.672861, 2753.2], [-119.995145, 38.672904, 2753.5], [-119.995039, 38.67305, 2753.9], [-119.994959, 38.673204, 2753.3], [-119.994868, 38.673356, 2752.3], [-119.99487, 38.673396, 2752.1], [-119.994849, 38.673408, 2752.0], [-119.99483, 38.673473, 2751.8], [-119.994691, 38.673624, 2751.6], [-119.99467, 38.673666, 2751.5], [-119.994668, 38.673734, 2751.5], [-119.994588, 38.673837, 2751.5], [-119.994469, 38.674004, 2751.3], [-119.994351, 38.674142, 2751.0], [-119.994181, 38.674301, 2749.2], [-119.994093, 38.674413, 2748.5], [-119.994056, 38.674481, 2748.0], [-119.993932, 38.674639, 2747.2], [-119.993925, 38.674653, 2747.2], [-119.99381, 38.674803, 2746.9], [-119.993777, 38.674854, 2747.1], [-119.993671, 38.674953, 2747.3], [-119.993622, 38.675041, 2747.5], [-119.99361, 38.675123, 2747.8], [-119.993562, 38.675296, 2746.9], [-119.993525, 38.675406, 2747.0], [-119.993414, 38.67562, 2746.6], [-119.993389, 38.675696, 2746.0], [-119.993266, 38.675829, 2745.7], [-119.99321, 38.675942, 2744.7], [-119.993185, 38.675967, 2744.5], [-119.993114, 38.676013, 2744.3], [-119.993075, 38.676056, 2744.1], [-119.992972, 38.676186, 2743.3], [-119.9929, 38.676259, 2742.8], [-119.992819, 38.676321, 2742.2], [-119.99272, 38.676389, 2741.0], [-119.992595, 38.676436, 2738.9], [-119.992477, 38.676524, 2736.8], [-119.992397, 38.676574, 2734.9], [-119.992285, 38.676574, 2735.0], [-119.992221, 38.676603, 2734.0], [-119.992179, 38.676648, 2733.0], [-119.992059, 38.676708, 2730.9], [-119.99199, 38.676731, 2730.8], [-119.991951, 38.676762, 2729.8], [-119.991904, 38.676779, 2728.9], [-119.991873, 38.676809, 2728.1], [-119.991789, 38.676826, 2728.0], [-119.991743, 38.676826, 2728.0], [-119.991703, 38.676866, 2727.5], [-119.991631, 38.676903, 2726.4], [-119.991463, 38.677024, 2725.4], [-119.991446, 38.67704, 2724.8], [-119.991329, 38.677212, 2722.9], [-119.991321, 38.677234, 2722.9], [-119.991235, 38.67734, 2721.6], [-119.991118, 38.677435, 2721.7], [-119.991096, 38.67749, 2720.7], [-119.991065, 38.677532, 2720.7], [-119.990979, 38.67758, 2720.6], [-119.990903, 38.677668, 2720.3], [-119.990908, 38.677679, 2719.7], [-119.990781, 38.677775, 2719.1], [-119.990723, 38.6778, 2719.6], [-119.99067, 38.677847, 2719.1], [-119.9906, 38.678001, 2718.4], [-119.990584, 38.678077, 2717.0], [-119.990537, 38.678164, 2716.6], [-119.99048, 38.678238, 2717.4], [-119.990408, 38.678382, 2716.1], [-119.990388, 38.678493, 2715.6], [-119.990414, 38.678544, 2714.1], [-119.990408, 38.678682, 2713.0], [-119.990375, 38.678775, 2713.4], [-119.990367, 38.67892, 2712.5], [-119.990355, 38.678932, 2713.6], [-119.990322, 38.679012, 2713.4], [-119.990293, 38.679017, 2714.5], [-119.990276, 38.679089, 2714.3], [-119.990288, 38.679148, 2714.2], [-119.99031, 38.679187, 2714.2], [-119.990313, 38.679291, 2714.0], [-119.99032, 38.679302, 2713.1], [-119.990308, 38.679425, 2713.8], [-119.990322, 38.679567, 2712.7], [-119.990352, 38.679611, 2712.6], [-119.99039, 38.679714, 2711.7], [-119.990448, 38.679799, 2710.0], [-119.990434, 38.679856, 2710.5], [-119.990467, 38.679902, 2709.8], [-119.99054, 38.679931, 2708.4], [-119.990565, 38.679972, 2708.4], [-119.990558, 38.680021, 2708.2], [-119.9905, 38.680072, 2708.7], [-119.990502, 38.680134, 2708.4], [-119.990494, 38.68022, 2708.0], [-119.990508, 38.680318, 2707.7], [-119.990495, 38.680638, 2706.2], [-119.990528, 38.680645, 2706.2], [-119.990534, 38.680688, 2705.3], [-119.990508, 38.680709, 2705.9], [-119.990567, 38.680737, 2705.2], [-119.990563, 38.680796, 2704.9], [-119.990577, 38.680819, 2704.3], [-119.990615, 38.680843, 2704.1], [-119.990687, 38.680943, 2702.2], [-119.990693, 38.681037, 2701.6], [-119.990722, 38.681051, 2701.0], [-119.990691, 38.681121, 2701.2], [-119.990687, 38.681154, 2701.1], [-119.990706, 38.681194, 2700.1], [-119.990699, 38.681251, 2700.4], [-119.990704, 38.6813, 2699.3], [-119.990672, 38.68137, 2699.4], [-119.9906, 38.681414, 2700.1], [-119.990587, 38.681438, 2699.9], [-119.990595, 38.681511, 2699.5], [-119.990578, 38.681542, 2699.3], [-119.990575, 38.681641, 2698.8], [-119.990561, 38.681695, 2698.9], [-119.990586, 38.681796, 2697.9], [-119.990621, 38.681854, 2697.3], [-119.990658, 38.681945, 2696.6], [-119.990638, 38.681983, 2696.4], [-119.990603, 38.68201, 2696.6], [-119.990592, 38.682039, 2696.3], [-119.990552, 38.682064, 2696.4], [-119.990549, 38.682107, 2696.1], [-119.990506, 38.682149, 2696.2], [-119.990489, 38.682205, 2695.5], [-119.99043, 38.682297, 2695.0], [-119.990326, 38.682448, 2694.1], [-119.990274, 38.682484, 2694.2], [-119.990257, 38.682523, 2694.2], [-119.990188, 38.682613, 2693.4], [-119.990131, 38.682735, 2692.7], [-119.990097, 38.682773, 2692.6], [-119.990072, 38.682785, 2692.7], [-119.990045, 38.682851, 2692.2], [-119.989968, 38.682931, 2691.6], [-119.989885, 38.683035, 2690.9], [-119.989798, 38.683102, 2690.8], [-119.989761, 38.683153, 2690.3], [-119.989743, 38.683197, 2690.2], [-119.989724, 38.683212, 2689.7], [-119.989647, 38.683318, 2689.2], [-119.989632, 38.68336, 2688.8], [-119.989566, 38.683454, 2688.7], [-119.989532, 38.683642, 2687.1], [-119.989508, 38.683684, 2686.8], [-119.989483, 38.683701, 2686.9], [-119.989474, 38.683676, 2687.3], [-119.989449, 38.68369, 2687.8], [-119.989427, 38.683775, 2686.8], [-119.989402, 38.683815, 2687.0], [-119.98939, 38.683888, 2686.3], [-119.989359, 38.68392, 2686.4], [-119.989337, 38.683971, 2685.7], [-119.98931, 38.684003, 2685.7], [-119.989301, 38.684044, 2685.3], [-119.98925, 38.684153, 2684.1], [-119.989063, 38.684465, 2681.5], [-119.98905, 38.684539, 2680.9], [-119.98902, 38.684574, 2681.4], [-119.98905, 38.684656, 2680.5], [-119.989045, 38.684687, 2680.5], [-119.989092, 38.684795, 2680.2], [-119.989117, 38.684825, 2679.5], [-119.989179, 38.68494, 2678.9], [-119.98923, 38.684959, 2678.3], [-119.989331, 38.685019, 2676.7], [-119.989437, 38.685063, 2675.9], [-119.989634, 38.685157, 2675.4], [-119.989746, 38.685182, 2675.0], [-119.989798, 38.685225, 2674.8], [-119.989862, 38.68524, 2674.2], [-119.989923, 38.685283, 2674.0], [-119.989978, 38.685376, 2672.6], [-119.98998, 38.685445, 2672.1], [-119.990048, 38.685486, 2671.1], [-119.990131, 38.685512, 2669.6], [-119.990247, 38.68557, 2666.4], [-119.990361, 38.685596, 2663.1], [-119.990537, 38.68562, 2660.6], [-119.990632, 38.685625, 2660.2], [-119.990796, 38.685668, 2659.8], [-119.990848, 38.685671, 2659.6], [-119.990856, 38.685687, 2659.8], [-119.990948, 38.685722, 2659.6], [-119.99105, 38.685737, 2658.8], [-119.991294, 38.685801, 2657.9], [-119.991468, 38.685839, 2656.5], [-119.991544, 38.685871, 2655.9], [-119.991651, 38.685982, 2655.8], [-119.991694, 38.686063, 2656.0], [-119.991706, 38.686108, 2656.3], [-119.991752, 38.686169, 2656.4], [-119.991757, 38.686251, 2657.1], [-119.991732, 38.686263, 2657.1], [-119.991671, 38.686364, 2658.3], [-119.991684, 38.686405, 2658.6], [-119.991707, 38.686417, 2658.9], [-119.991788, 38.686427, 2658.7], [-119.991811, 38.686479, 2659.3], [-119.991808, 38.686522, 2660.2], [-119.991833, 38.686623, 2660.8], [-119.991837, 38.686689, 2661.0], [-119.991784, 38.686766, 2661.4], [-119.991785, 38.686795, 2661.3], [-119.991817, 38.686827, 2661.3], [-119.991861, 38.686848, 2660.6], [-119.99194, 38.686933, 2660.4], [-119.991962, 38.686966, 2660.4], [-119.991961, 38.687017, 2660.3], [-119.99204, 38.687093, 2660.0], [-119.992145, 38.687248, 2659.4], [-119.992179, 38.687282, 2659.3], [-119.992241, 38.687287, 2659.1], [-119.992331, 38.687367, 2658.9], [-119.992511, 38.687461, 2658.7], [-119.992556, 38.687488, 2658.6], [-119.99265, 38.687575, 2658.6], [-119.992661, 38.687604, 2658.7], [-119.992641, 38.687733, 2658.7], [-119.992654, 38.687777, 2658.7], [-119.992712, 38.687895, 2658.4], [-119.992717, 38.687927, 2658.2], [-119.992738, 38.687946, 2658.0], [-119.992752, 38.687993, 2657.6], [-119.992831, 38.688085, 2656.4], [-119.992839, 38.68815, 2655.5], [-119.992809, 38.688205, 2654.8], [-119.992777, 38.688308, 2653.8], [-119.992757, 38.688339, 2653.6], [-119.992723, 38.688432, 2653.1], [-119.992725, 38.688515, 2652.8], [-119.99272, 38.688576, 2652.6], [-119.99274, 38.688681, 2652.3], [-119.992723, 38.688795, 2651.9], [-119.992693, 38.68883, 2651.7], [-119.992706, 38.688915, 2651.1], [-119.992687, 38.688968, 2650.6], [-119.992706, 38.688993, 2650.3], [-119.992672, 38.689077, 2649.3], [-119.992681, 38.68912, 2648.8], [-119.992642, 38.689252, 2647.2], [-119.992605, 38.689358, 2646.0], [-119.992567, 38.689431, 2645.2], [-119.992546, 38.689566, 2643.8], [-119.99252, 38.689626, 2643.4], [-119.992495, 38.68974, 2642.4], [-119.992452, 38.68983, 2641.5], [-119.992382, 38.689871, 2640.9], [-119.9923, 38.690001, 2639.2], [-119.992296, 38.690015, 2639.0], [-119.992206, 38.690131, 2636.9], [-119.992084, 38.690183, 2635.1], [-119.991932, 38.690266, 2632.3], [-119.99191, 38.690322, 2631.2], [-119.991941, 38.690376, 2630.2], [-119.991939, 38.690421, 2629.4], [-119.991874, 38.690504, 2627.7], [-119.991871, 38.690538, 2627.1], [-119.99184, 38.690591, 2626.1], [-119.991757, 38.690645, 2624.6], [-119.991686, 38.690657, 2623.8], [-119.991634, 38.690681, 2623.1], [-119.991609, 38.690681, 2622.8], [-119.991531, 38.690657, 2622.1], [-119.991505, 38.690658, 2621.8], [-119.99128, 38.690714, 2620.0], [-119.991172, 38.690809, 2618.9], [-119.991155, 38.690882, 2618.3], [-119.991157, 38.690908, 2618.1], [-119.991109, 38.690948, 2617.7], [-119.991074, 38.690956, 2617.4], [-119.99097, 38.690955, 2617.3], [-119.990946, 38.690941, 2617.2], [-119.990912, 38.690801, 2621.5], [-119.99086, 38.690788, 2621.5], [-119.990715, 38.690848, 2620.5], [-119.990715, 38.690836, 2620.1], [-119.990625, 38.690841, 2621.1], [-119.990562, 38.690884, 2622.0], [-119.990565, 38.690914, 2621.7], [-119.990543, 38.691009, 2621.3], [-119.990516, 38.691012, 2622.3], [-119.990502, 38.691048, 2622.3], [-119.990452, 38.691095, 2623.1], [-119.990472, 38.691113, 2622.9], [-119.990456, 38.691177, 2622.0], [-119.990442, 38.691195, 2622.7], [-119.990472, 38.691227, 2621.6], [-119.990443, 38.691275, 2622.0], [-119.990458, 38.691292, 2621.1], [-119.990461, 38.691335, 2620.8], [-119.990534, 38.691392, 2620.0], [-119.990538, 38.691478, 2621.3], [-119.990557, 38.691547, 2622.1], [-119.990556, 38.691613, 2623.1], [-119.990602, 38.691692, 2623.7], [-119.990628, 38.6917, 2623.3], [-119.990635, 38.69175, 2624.1], [-119.990656, 38.691796, 2624.2], [-119.99069, 38.691826, 2623.6], [-119.990724, 38.691941, 2623.0], [-119.990714, 38.692009, 2622.9], [-119.990722, 38.692048, 2622.9], [-119.990684, 38.692096, 2623.2], [-119.99061, 38.692138, 2624.6], [-119.990556, 38.692199, 2625.8], [-119.990545, 38.692222, 2626.1], [-119.990554, 38.692271, 2626.4], [-119.990533, 38.692318, 2627.3], [-119.990518, 38.692399, 2628.5], [-119.990533, 38.692418, 2628.3], [-119.990519, 38.692442, 2628.5], [-119.990388, 38.692532, 2630.0], [-119.990344, 38.692693, 2630.1], [-119.990355, 38.692718, 2630.1], [-119.990352, 38.692764, 2630.4], [-119.990293, 38.692873, 2631.3], [-119.990256, 38.692903, 2631.1], [-119.990243, 38.692994, 2631.3], [-119.990198, 38.693178, 2628.0], [-119.990208, 38.693235, 2625.5], [-119.990231, 38.693285, 2622.8], [-119.990175, 38.69336, 2620.9], [-119.990144, 38.693471, 2619.7], [-119.990157, 38.693643, 2619.7], [-119.990132, 38.693696, 2619.6], [-119.990154, 38.69378, 2619.4], [-119.990201, 38.693813, 2619.3], [-119.990224, 38.693853, 2619.1], [-119.990229, 38.693921, 2618.9], [-119.990073, 38.693997, 2618.3], [-119.989996, 38.694051, 2617.8], [-119.989974, 38.69409, 2617.5], [-119.98991, 38.694132, 2616.9], [-119.989807, 38.694289, 2615.6], [-119.989753, 38.694353, 2615.2], [-119.989728, 38.694408, 2615.1], [-119.989661, 38.694458, 2615.1], [-119.989665, 38.694469, 2615.1], [-119.989613, 38.694528, 2615.1], [-119.989539, 38.694564, 2615.2], [-119.989509, 38.694601, 2615.2], [-119.989462, 38.694696, 2615.1], [-119.989366, 38.694764, 2615.0], [-119.989302, 38.694827, 2615.0], [-119.989288, 38.69487, 2615.0], [-119.989293, 38.694937, 2614.4], [-119.98932, 38.69501, 2614.2], [-119.989363, 38.695043, 2614.1], [-119.989423, 38.695047, 2614.0], [-119.989479, 38.695071, 2613.2], [-119.989445, 38.695111, 2613.1], [-119.989444, 38.695085, 2613.1], [-119.989479, 38.695107, 2612.9]]}}