<?xml version="1.0" encoding="UTF-8"?>
<gpx xmlns="http://www.topografix.com/GPX/1/1" xmlns:adv="http://www.garmin.com/xmlschemas/AdventuresExtensions/v1" xmlns:ctx="http://www.garmin.com/xmlschemas/CreationTimeExtension/v1" xmlns:gpxacc="http://www.garmin.com/xmlschemas/AccelerationExtension/v1" xmlns:gpxpx="http://www.garmin.com/xmlschemas/PowerExtension/v1" xmlns:gpxtpx="http://www.garmin.com/xmlschemas/TrackPointExtension/v1" xmlns:gpxtrx="http://www.garmin.com/xmlschemas/GpxExtensions/v3" xmlns:gpxx="http://www.garmin.com/xmlschemas/GpxExtensions/v3" xmlns:prs="http://www.garmin.com/xmlschemas/PressureExtension/v1" xmlns:tmd="http://www.garmin.com/xmlschemas/TripMetaDataExtensions/v1" xmlns:trp="http://www.garmin.com/xmlschemas/TripExtensions/v1" xmlns:vidx1="http://www.garmin.com/xmlschemas/VideoExtension/v1" xmlns:vptm="http://www.garmin.com/xmlschemas/ViaPointTransportationModeExtensions/v1" xmlns:wptx1="http://www.garmin.com/xmlschemas/WaypointExtension/v1" xmlns:xsi="http://www.w3.org/2001/XMLSchema-instance" xsi:schemaLocation="http://www.topografix.com/GPX/1/1 http://www.topografix.com/GPX/1/1/gpx.xsd http://www.garmin.com/xmlschemas/WaypointExtension/v1 http://www8.garmin.com/xmlschemas/WaypointExtensionv1.xsd http://www.garmin.com/xmlschemas/TrackPointExtension/v1 http://www.garmin.com/xmlschemas/TrackPointExtensionv1.xsd http://www.garmin.com/xmlschemas/GpxExtensions/v3 http://www8.garmin.com/xmlschemas/GpxExtensionsv3.xsd http://www.garmin.com/xmlschemas/ActivityExtension/v1 http://www8.garmin.com/xmlschemas/ActivityExtensionv1.xsd http://www.garmin.com/xmlschemas/AdventuresExtensions/v1 http://www8.garmin.com/xmlschemas/AdventuresExtensionv1.xsd http://www.garmin.com/xmlschemas/PressureExtension/v1 http://www.garmin.com/xmlschemas/PressureExtensionv1.xsd http://www.garmin.com/xmlschemas/TripExtensions/v1 http://www.garmin.com/xmlschemas/TripExtensionsv1.xsd http://www.garmin.com/xmlschemas/TripMetaDataExtensions/v1 http://www.garmin.com/xmlschemas/TripMetaDataExtensionsv1.xsd http://www.garmin.com/xmlschemas/ViaPointTransportationModeExtensions/v1 http://www.garmin.com/xmlschemas/ViaPointTransportationModeExtensionsv1.xsd http://www.garmin.com/xmlschemas/CreationTimeExtension/v1 http://www.garmin.com/xmlschemas/CreationTimeExtensionsv1.xsd http://www.garmin.com/xmlschemas/AccelerationExtension/v1 http://www.garmin.com/xmlschemas/AccelerationExtensionv1.xsd http://www.garmin.com/xmlschemas/PowerExtension/v1 http://www.garmin.com/xmlschemas/PowerExtensionv1.xsd http://www.garmin.com/xmlschemas/VideoExtension/v1 http://www.garmin.com/xmlschemas/VideoExtensionv1.xsd" version="1.1" creator="Garmin Desktop App">
  <metadata>
    <link href="http://www.garmin.com">
      <text>Garmin International</text>
    </link>
    <time>2017-12-09T18:35:44Z</time>
    <bounds minlat="47.708286456763744" maxlat="47.71340168081224" minlon="-121.15198745392263" maxlon="-121.13648604601622" />
  </metadata>
  <trk>
    <name>Current Track: 14 OCT 2017 07:31</name>
    <extensions>
      <gpxtrx:TrackExtension>
        <gpxtrx:DisplayColor>Red</gpxtrx:DisplayColor>
      </gpxtrx:TrackExtension>
    </extensions>
    <trkseg>
      <trkpt lat="47.70923025906086" lon="-121.15043705329299">
        <ele>707.19</ele>
        <time>2017-11-10T19:25:36Z</time>
      </trkpt>
      <trkpt lat="47.709194887429476" lon="-121.15034929476678">
        <ele>709.11</ele>
        <time>2017-11-10T19:25:50Z</time>
      </trkpt>
      <trkpt lat="47.70914484746754" lon="-121.15030897781253">
        <ele>712.47</ele>
        <time>2017-11-10T19:26:03Z</time>
      </trkpt>
      <trkpt lat="47.709097573533654" lon="-121.15022608079016">
        <ele>715.84</ele>
        <time>2017-11-10T19:26:18Z</time>
      </trkpt>
      <trkpt lat="47.70906857214868" lon="-121.15008710883558">
        <ele>719.2</ele>
        <time>2017-11-10T19:26:34Z</time>
      </trkpt>
      <trkpt lat="47.70900537259877" lon="-121.14990304224193">
        <ele>727.37</ele>
        <time>2017-11-10T19:27:05Z</time>
      </trkpt>
      <trkpt lat="47.709033535793424" lon="-121.1496315523982">
        <ele>732.66</ele>
        <time>2017-11-10T19:27:46Z</time>
      </trkpt>
      <trkpt lat="47.70902758464217" lon="-121.14953868091106">
        <ele>737.47</ele>
        <time>2017-11-10T19:27:59Z</time>
      </trkpt>
      <trkpt lat="47.70905273035169" lon="-121.14945704117417">
        <ele>740.35</ele>
        <time>2017-11-10T19:28:10Z</time>
      </trkpt>
      <trkpt lat="47.70904560573399" lon="-121.14935897290707">
        <ele>740.83</ele>
        <time>2017-11-10T19:28:24Z</time>
      </trkpt>
      <trkpt lat="47.70900252275169" lon="-121.1491811927408">
        <ele>746.6</ele>
        <time>2017-11-10T19:28:53Z</time>
      </trkpt>
      <trkpt lat="47.70900252275169" lon="-121.14912034012377">
        <ele>752.37</ele>
        <time>2017-11-10T19:29:07Z</time>
      </trkpt>
      <trkpt lat="47.70894703455269" lon="-121.14897499792278">
        <ele>757.66</ele>
        <time>2017-11-10T19:29:36Z</time>
      </trkpt>
      <trkpt lat="47.708941251039505" lon="-121.14885999821126">
        <ele>756.69</ele>
        <time>2017-11-10T19:29:50Z</time>
      </trkpt>
      <trkpt lat="47.708991039544344" lon="-121.14879512228072">
        <ele>752.85</ele>
        <time>2017-11-10T19:30:06Z</time>
      </trkpt>
      <trkpt lat="47.70904459990561" lon="-121.14875631406903">
        <ele>753.81</ele>
        <time>2017-11-10T19:30:18Z</time>
      </trkpt>
      <trkpt lat="47.70905843004584" lon="-121.14869680255651">
        <ele>757.66</ele>
        <time>2017-11-10T19:30:32Z</time>
      </trkpt>
      <trkpt lat="47.70899129100144" lon="-121.14853729493916">
        <ele>761.98</ele>
        <time>2017-11-10T19:30:56Z</time>
      </trkpt>
      <trkpt lat="47.70906278863549" lon="-121.14847987890244">
        <ele>761.02</ele>
        <time>2017-11-10T19:31:34Z</time>
      </trkpt>
      <trkpt lat="47.70906211808324" lon="-121.14841030910611">
        <ele>761.02</ele>
        <time>2017-11-10T19:31:47Z</time>
      </trkpt>
      <trkpt lat="47.70902222022414" lon="-121.14831986837089">
        <ele>765.35</ele>
        <time>2017-11-10T19:32:14Z</time>
      </trkpt>
      <trkpt lat="47.7090691588819" lon="-121.14818835631013">
        <ele>765.35</ele>
        <time>2017-11-10T19:32:37Z</time>
      </trkpt>
      <trkpt lat="47.70907477475703" lon="-121.14813873544335">
        <ele>768.23</ele>
        <time>2017-11-10T19:32:49Z</time>
      </trkpt>
      <trkpt lat="47.70904317498207" lon="-121.14813513122499">
        <ele>769.67</ele>
        <time>2017-11-10T19:33:01Z</time>
      </trkpt>
      <trkpt lat="47.70899045281112" lon="-121.14803547039628">
        <ele>773.52</ele>
        <time>2017-11-10T19:33:26Z</time>
      </trkpt>
      <trkpt lat="47.70898676477373" lon="-121.14798140712082">
        <ele>773.52</ele>
        <time>2017-11-10T19:33:37Z</time>
      </trkpt>
      <trkpt lat="47.70904183387756" lon="-121.14783455617726">
        <ele>775.44</ele>
        <time>2017-11-10T19:34:02Z</time>
      </trkpt>
      <trkpt lat="47.70899967290461" lon="-121.14782374352217">
        <ele>774.96</ele>
        <time>2017-11-10T19:34:30Z</time>
      </trkpt>
      <trkpt lat="47.708948627114296" lon="-121.14762953482568">
        <ele>779.29</ele>
        <time>2017-11-10T19:35:09Z</time>
      </trkpt>
      <trkpt lat="47.70902557298541" lon="-121.14741110242903">
        <ele>784.09</ele>
        <time>2017-11-10T19:36:00Z</time>
      </trkpt>
      <trkpt lat="47.70899925380945" lon="-121.14729610271752">
        <ele>787.46</ele>
        <time>2017-11-10T19:36:23Z</time>
      </trkpt>
      <trkpt lat="47.70903957076371" lon="-121.14719635806978">
        <ele>787.94</ele>
        <time>2017-11-10T19:36:35Z</time>
      </trkpt>
      <trkpt lat="47.70904912613332" lon="-121.14709242247045">
        <ele>787.94</ele>
        <time>2017-11-10T19:36:48Z</time>
      </trkpt>
      <trkpt lat="47.70909262821078" lon="-121.1468967050314">
        <ele>789.38</ele>
        <time>2017-11-10T19:37:11Z</time>
      </trkpt>
      <trkpt lat="47.70914124324918" lon="-121.14676946774125">
        <ele>791.3</ele>
        <time>2017-11-10T19:37:25Z</time>
      </trkpt>
      <trkpt lat="47.709180722013116" lon="-121.14653837867081">
        <ele>793.22</ele>
        <time>2017-11-10T19:37:55Z</time>
      </trkpt>
      <trkpt lat="47.709331177175045" lon="-121.1462663859129">
        <ele>794.19</ele>
        <time>2017-11-10T19:38:30Z</time>
      </trkpt>
      <trkpt lat="47.70940225571394" lon="-121.14607997238636">
        <ele>797.07</ele>
        <time>2017-11-10T19:38:52Z</time>
      </trkpt>
      <trkpt lat="47.709367889910936" lon="-121.14605004899204">
        <ele>795.63</ele>
        <time>2017-11-10T19:40:53Z</time>
      </trkpt>
      <trkpt lat="47.709266133606434" lon="-121.14591761492193">
        <ele>798.99</ele>
        <time>2017-11-10T19:41:09Z</time>
      </trkpt>
      <trkpt lat="47.709220787510276" lon="-121.1457843426615">
        <ele>800.92</ele>
        <time>2017-11-10T19:41:23Z</time>
      </trkpt>
      <trkpt lat="47.70924643613398" lon="-121.14551519975066">
        <ele>802.84</ele>
        <time>2017-11-10T19:41:54Z</time>
      </trkpt>
      <trkpt lat="47.709304271265864" lon="-121.14536658860743">
        <ele>809.09</ele>
        <time>2017-11-10T19:42:08Z</time>
      </trkpt>
      <trkpt lat="47.70937887020409" lon="-121.14524513483047">
        <ele>813.41</ele>
        <time>2017-11-10T19:42:20Z</time>
      </trkpt>
      <trkpt lat="47.70961876027286" lon="-121.14496945403516">
        <ele>816.78</ele>
        <time>2017-11-10T19:42:51Z</time>
      </trkpt>
      <trkpt lat="47.70971758291125" lon="-121.14478806965053">
        <ele>820.14</ele>
        <time>2017-11-10T19:43:07Z</time>
      </trkpt>
      <trkpt lat="47.709744991734624" lon="-121.14470743574202">
        <ele>823.03</ele>
        <time>2017-11-10T19:43:15Z</time>
      </trkpt>
      <trkpt lat="47.709711799398065" lon="-121.14463157951832">
        <ele>822.55</ele>
        <time>2017-11-10T19:43:26Z</time>
      </trkpt>
      <trkpt lat="47.709599900990725" lon="-121.1445493530482">
        <ele>824.95</ele>
        <time>2017-11-10T19:43:51Z</time>
      </trkpt>
      <trkpt lat="47.70954734645784" lon="-121.1444737482816">
        <ele>827.35</ele>
        <time>2017-11-10T19:44:04Z</time>
      </trkpt>
      <trkpt lat="47.709543239325285" lon="-121.1443233769387">
        <ele>829.76</ele>
        <time>2017-11-10T19:44:19Z</time>
      </trkpt>
      <trkpt lat="47.70962454378605" lon="-121.14418951794505">
        <ele>832.16</ele>
        <time>2017-11-10T19:44:34Z</time>
      </trkpt>
      <trkpt lat="47.709699142724276" lon="-121.14398525096476">
        <ele>840.33</ele>
        <time>2017-11-10T19:45:05Z</time>
      </trkpt>
      <trkpt lat="47.70974004641175" lon="-121.14379439502954">
        <ele>844.66</ele>
        <time>2017-11-10T19:45:31Z</time>
      </trkpt>
      <trkpt lat="47.70979888737202" lon="-121.14363907836378">
        <ele>850.42</ele>
        <time>2017-11-10T19:45:57Z</time>
      </trkpt>
      <trkpt lat="47.709831995889544" lon="-121.14338829182088">
        <ele>845.62</ele>
        <time>2017-11-10T19:47:06Z</time>
      </trkpt>
      <trkpt lat="47.70980165340006" lon="-121.14340069703758">
        <ele>848.98</ele>
        <time>2017-11-10T19:47:26Z</time>
      </trkpt>
      <trkpt lat="47.70974859595299" lon="-121.14325745031238">
        <ele>855.23</ele>
        <time>2017-11-10T19:47:40Z</time>
      </trkpt>
      <trkpt lat="47.709796288982034" lon="-121.14308226853609">
        <ele>861.0</ele>
        <time>2017-11-10T19:47:55Z</time>
      </trkpt>
      <trkpt lat="47.70981120876968" lon="-121.14292468875647">
        <ele>866.29</ele>
        <time>2017-11-10T19:48:09Z</time>
      </trkpt>
      <trkpt lat="47.70984498783946" lon="-121.1427918355912">
        <ele>869.17</ele>
        <time>2017-11-10T19:48:21Z</time>
      </trkpt>
      <trkpt lat="47.70997256040573" lon="-121.14248111844063">
        <ele>870.61</ele>
        <time>2017-11-10T19:48:48Z</time>
      </trkpt>
      <trkpt lat="47.71000759676099" lon="-121.1422128137201">
        <ele>871.57</ele>
        <time>2017-11-10T19:49:14Z</time>
      </trkpt>
      <trkpt lat="47.71010591648519" lon="-121.14196068607271">
        <ele>874.46</ele>
        <time>2017-11-10T19:49:44Z</time>
      </trkpt>
      <trkpt lat="47.71017707884312" lon="-121.1416913755238">
        <ele>877.82</ele>
        <time>2017-11-10T19:50:13Z</time>
      </trkpt>
      <trkpt lat="47.71019618958235" lon="-121.14155097864568">
        <ele>880.71</ele>
        <time>2017-11-10T19:50:27Z</time>
      </trkpt>
      <trkpt lat="47.71024513989687" lon="-121.14134310744703">
        <ele>887.91</ele>
        <time>2017-11-10T19:50:56Z</time>
      </trkpt>
      <trkpt lat="47.710285456851125" lon="-121.14106306806207">
        <ele>892.24</ele>
        <time>2017-11-10T19:51:26Z</time>
      </trkpt>
      <trkpt lat="47.710345052182674" lon="-121.14077942445874">
        <ele>897.53</ele>
        <time>2017-11-10T19:51:53Z</time>
      </trkpt>
      <trkpt lat="47.71046080626547" lon="-121.14050407893956">
        <ele>902.82</ele>
        <time>2017-11-10T19:52:21Z</time>
      </trkpt>
      <trkpt lat="47.71056482568383" lon="-121.14020082168281">
        <ele>904.26</ele>
        <time>2017-11-10T19:52:48Z</time>
      </trkpt>
      <trkpt lat="47.71059659309685" lon="-121.14004818722606">
        <ele>903.3</ele>
        <time>2017-11-10T19:53:02Z</time>
      </trkpt>
      <trkpt lat="47.71068871021271" lon="-121.13973663188517">
        <ele>907.62</ele>
        <time>2017-11-10T19:53:31Z</time>
      </trkpt>
      <trkpt lat="47.710806811228395" lon="-121.13937151618302">
        <ele>917.72</ele>
        <time>2017-11-10T19:54:12Z</time>
      </trkpt>
      <trkpt lat="47.7108306158334" lon="-121.13921410404146">
        <ele>921.08</ele>
        <time>2017-11-10T19:54:27Z</time>
      </trkpt>
      <trkpt lat="47.71083941683173" lon="-121.13905400969088">
        <ele>923.96</ele>
        <time>2017-11-10T19:54:43Z</time>
      </trkpt>
      <trkpt lat="47.710937736555934" lon="-121.13864078186452">
        <ele>927.33</ele>
        <time>2017-11-10T19:55:27Z</time>
      </trkpt>
      <trkpt lat="47.71100043319166" lon="-121.13835244439542">
        <ele>930.69</ele>
        <time>2017-11-10T19:55:58Z</time>
      </trkpt>
      <trkpt lat="47.711105374619365" lon="-121.13795589655638">
        <ele>929.73</ele>
        <time>2017-11-10T19:56:40Z</time>
      </trkpt>
      <trkpt lat="47.71112658083439" lon="-121.13780116662383">
        <ele>931.65</ele>
        <time>2017-11-10T19:56:54Z</time>
      </trkpt>
      <trkpt lat="47.71118718199432" lon="-121.1375074647367">
        <ele>932.14</ele>
        <time>2017-11-10T19:57:20Z</time>
      </trkpt>
      <trkpt lat="47.711207550019026" lon="-121.13731476478279">
        <ele>933.58</ele>
        <time>2017-11-10T19:57:35Z</time>
      </trkpt>
      <trkpt lat="47.71121702156961" lon="-121.13710253499448">
        <ele>935.5</ele>
        <time>2017-11-10T19:57:52Z</time>
      </trkpt>
      <trkpt lat="47.71123160608113" lon="-121.1369809973985">
        <ele>937.9</ele>
        <time>2017-11-10T19:58:06Z</time>
      </trkpt>
      <trkpt lat="47.71126789972186" lon="-121.13686591386795">
        <ele>940.31</ele>
        <time>2017-11-10T19:58:20Z</time>
      </trkpt>
      <trkpt lat="47.711312072351575" lon="-121.13660708069801">
        <ele>944.15</ele>
        <time>2017-11-10T19:58:46Z</time>
      </trkpt>
      <trkpt lat="47.71134987473488" lon="-121.13649291917682">
        <ele>944.63</ele>
        <time>2017-11-10T19:58:58Z</time>
      </trkpt>
      <trkpt lat="47.711333110928535" lon="-121.13648604601622">
        <ele>946.07</ele>
        <time>2017-11-10T19:59:21Z</time>
      </trkpt>
      <trkpt lat="47.71120822057128" lon="-121.13661864772439">
        <ele>953.28</ele>
        <time>2017-11-10T20:01:50Z</time>
      </trkpt>
      <trkpt lat="47.711216770112514" lon="-121.1366644129157">
        <ele>955.69</ele>
        <time>2017-11-10T20:02:05Z</time>
      </trkpt>
      <trkpt lat="47.71117829717696" lon="-121.13681017421186">
        <ele>963.86</ele>
        <time>2017-11-10T20:02:21Z</time>
      </trkpt>
      <trkpt lat="47.7110829949379" lon="-121.13703547976911">
        <ele>977.8</ele>
        <time>2017-11-10T20:02:49Z</time>
      </trkpt>
      <trkpt lat="47.710942178964615" lon="-121.13714955747128">
        <ele>978.28</ele>
        <time>2017-11-10T20:03:04Z</time>
      </trkpt>
      <trkpt lat="47.7109447773546" lon="-121.13722566515207">
        <ele>983.57</ele>
        <time>2017-11-10T20:03:16Z</time>
      </trkpt>
      <trkpt lat="47.71082608960569" lon="-121.13740931265056">
        <ele>991.74</ele>
        <time>2017-11-10T20:03:45Z</time>
      </trkpt>
      <trkpt lat="47.7106271032244" lon="-121.1375970672816">
        <ele>996.54</ele>
        <time>2017-11-10T20:04:13Z</time>
      </trkpt>
      <trkpt lat="47.71054211072624" lon="-121.1376538965851">
        <ele>998.47</ele>
        <time>2017-11-10T20:04:26Z</time>
      </trkpt>
      <trkpt lat="47.71047790534794" lon="-121.13772673532367">
        <ele>1000.39</ele>
        <time>2017-11-10T20:04:37Z</time>
      </trkpt>
      <trkpt lat="47.71046935580671" lon="-121.13777602091432">
        <ele>1001.83</ele>
        <time>2017-11-10T20:04:48Z</time>
      </trkpt>
      <trkpt lat="47.71035904996097" lon="-121.13794223405421">
        <ele>1004.23</ele>
        <time>2017-11-10T20:05:13Z</time>
      </trkpt>
      <trkpt lat="47.710143299773335" lon="-121.13816586323082">
        <ele>1014.33</ele>
        <time>2017-11-10T20:05:45Z</time>
      </trkpt>
      <trkpt lat="47.71003324538469" lon="-121.13830600865185">
        <ele>1016.73</ele>
        <time>2017-11-10T20:06:10Z</time>
      </trkpt>
      <trkpt lat="47.710019163787365" lon="-121.13839108496904">
        <ele>1020.58</ele>
        <time>2017-11-10T20:06:26Z</time>
      </trkpt>
      <trkpt lat="47.70989720709622" lon="-121.13852159120142">
        <ele>1019.13</ele>
        <time>2017-11-10T20:06:41Z</time>
      </trkpt>
      <trkpt lat="47.70984834060073" lon="-121.13863726146519">
        <ele>1019.13</ele>
        <time>2017-11-10T20:06:55Z</time>
      </trkpt>
      <trkpt lat="47.70979528315365" lon="-121.13871848210692">
        <ele>1018.65</ele>
        <time>2017-11-10T20:07:02Z</time>
      </trkpt>
      <trkpt lat="47.7097808662802" lon="-121.13880607299507">
        <ele>1021.54</ele>
        <time>2017-11-10T20:07:13Z</time>
      </trkpt>
      <trkpt lat="47.7096149045974" lon="-121.1389200668782">
        <ele>1025.38</ele>
        <time>2017-11-10T20:07:28Z</time>
      </trkpt>
      <trkpt lat="47.70951482467353" lon="-121.13897731527686">
        <ele>1030.19</ele>
        <time>2017-11-10T20:07:40Z</time>
      </trkpt>
      <trkpt lat="47.709452379494905" lon="-121.13904227502644">
        <ele>1037.4</ele>
        <time>2017-11-10T20:07:53Z</time>
      </trkpt>
      <trkpt lat="47.7093923650682" lon="-121.13901486620307">
        <ele>1041.73</ele>
        <time>2017-11-10T20:08:45Z</time>
      </trkpt>
      <trkpt lat="47.70931717939675" lon="-121.13903389312327">
        <ele>1041.25</ele>
        <time>2017-11-10T20:09:00Z</time>
      </trkpt>
      <trkpt lat="47.709184158593416" lon="-121.139136236161">
        <ele>1039.8</ele>
        <time>2017-11-10T20:09:13Z</time>
      </trkpt>
      <trkpt lat="47.709229001775384" lon="-121.13919960334897">
        <ele>1040.76</ele>
        <time>2017-11-10T20:09:28Z</time>
      </trkpt>
      <trkpt lat="47.70908567123115" lon="-121.13925970159471">
        <ele>1044.13</ele>
        <time>2017-11-10T20:09:44Z</time>
      </trkpt>
      <trkpt lat="47.70897176116705" lon="-121.13937704823911">
        <ele>1050.38</ele>
        <time>2017-11-10T20:10:13Z</time>
      </trkpt>
      <trkpt lat="47.70888274535537" lon="-121.13942465744913">
        <ele>1052.3</ele>
        <time>2017-11-10T20:10:29Z</time>
      </trkpt>
      <trkpt lat="47.70881158299744" lon="-121.13949045538902">
        <ele>1053.26</ele>
        <time>2017-11-10T20:10:42Z</time>
      </trkpt>
      <trkpt lat="47.708793645724654" lon="-121.13952825777233">
        <ele>1055.67</ele>
        <time>2017-11-10T20:10:53Z</time>
      </trkpt>
      <trkpt lat="47.708685183897614" lon="-121.13957393914461">
        <ele>1059.51</ele>
        <time>2017-11-10T20:11:08Z</time>
      </trkpt>
      <trkpt lat="47.70866548642516" lon="-121.13960134796798">
        <ele>1064.32</ele>
        <time>2017-11-10T20:11:22Z</time>
      </trkpt>
      <trkpt lat="47.70854218862951" lon="-121.13959497772157">
        <ele>1077.29</ele>
        <time>2017-11-10T20:11:50Z</time>
      </trkpt>
      <trkpt lat="47.70842391997576" lon="-121.13955005072057">
        <ele>1074.41</ele>
        <time>2017-11-10T20:12:18Z</time>
      </trkpt>
      <trkpt lat="47.70835652947426" lon="-121.13957846537232">
        <ele>1074.41</ele>
        <time>2017-11-10T20:12:31Z</time>
      </trkpt>
      <trkpt lat="47.708286456763744" lon="-121.13952884450555">
        <ele>1074.41</ele>
        <time>2017-11-10T20:12:46Z</time>
      </trkpt>
      <trkpt lat="47.70828880369663" lon="-121.13943563774228">
        <ele>1072.49</ele>
        <time>2017-11-10T20:13:01Z</time>
      </trkpt>
      <trkpt lat="47.70831612870097" lon="-121.13928208127618">
        <ele>1075.37</ele>
        <time>2017-11-10T20:13:15Z</time>
      </trkpt>
      <trkpt lat="47.708406737074256" lon="-121.13915082067251">
        <ele>1076.81</ele>
        <time>2017-11-10T20:13:29Z</time>
      </trkpt>
      <trkpt lat="47.708501955494285" lon="-121.13897144794464">
        <ele>1082.58</ele>
        <time>2017-11-10T20:13:54Z</time>
      </trkpt>
      <trkpt lat="47.708573788404465" lon="-121.1386296339333">
        <ele>1085.47</ele>
        <time>2017-11-10T20:14:24Z</time>
      </trkpt>
      <trkpt lat="47.70855777896941" lon="-121.13851312547922">
        <ele>1087.39</ele>
        <time>2017-11-10T20:14:37Z</time>
      </trkpt>
      <trkpt lat="47.70859667100012" lon="-121.13829695619643">
        <ele>1092.68</ele>
        <time>2017-11-10T20:14:52Z</time>
      </trkpt>
      <trkpt lat="47.708658864721656" lon="-121.13809721544385">
        <ele>1089.31</ele>
        <time>2017-11-10T20:15:05Z</time>
      </trkpt>
      <trkpt lat="47.7087239921093" lon="-121.13810274749994">
        <ele>1097.48</ele>
        <time>2017-11-10T20:16:07Z</time>
      </trkpt>
      <trkpt lat="47.708769254386425" lon="-121.13797903060913">
        <ele>1089.79</ele>
        <time>2017-11-10T20:16:28Z</time>
      </trkpt>
      <trkpt lat="47.708830358460546" lon="-121.13790225237608">
        <ele>1085.47</ele>
        <time>2017-11-10T20:16:40Z</time>
      </trkpt>
      <trkpt lat="47.70892012864351" lon="-121.13791893236339">
        <ele>1078.74</ele>
        <time>2017-11-10T20:16:59Z</time>
      </trkpt>
      <trkpt lat="47.708925157785416" lon="-121.1378978099674">
        <ele>1019.13</ele>
        <time>2017-11-10T23:00:33Z</time>
      </trkpt>
      <trkpt lat="47.70881636068225" lon="-121.13790376111865">
        <ele>976.36</ele>
        <time>2017-11-10T23:01:01Z</time>
      </trkpt>
      <trkpt lat="47.70858149975538" lon="-121.13780217245221">
        <ele>1004.23</ele>
        <time>2017-11-10T23:01:45Z</time>
      </trkpt>
      <trkpt lat="47.70858041010797" lon="-121.13771868869662">
        <ele>1009.04</ele>
        <time>2017-11-10T23:02:00Z</time>
      </trkpt>
      <trkpt lat="47.708680322393775" lon="-121.13789135590196">
        <ele>1029.71</ele>
        <time>2017-11-10T23:02:31Z</time>
      </trkpt>
      <trkpt lat="47.708790712058544" lon="-121.13803887739778">
        <ele>1074.89</ele>
        <time>2017-11-10T23:08:23Z</time>
      </trkpt>
      <trkpt lat="47.708766823634505" lon="-121.13804960623384">
        <ele>1075.85</ele>
        <time>2017-11-10T23:08:46Z</time>
      </trkpt>
      <trkpt lat="47.708756513893604" lon="-121.1381549667567">
        <ele>1079.7</ele>
        <time>2017-11-10T23:09:32Z</time>
      </trkpt>
      <trkpt lat="47.70872751250863" lon="-121.13822814077139">
        <ele>1081.62</ele>
        <time>2017-11-10T23:09:37Z</time>
      </trkpt>
      <trkpt lat="47.70870789885521" lon="-121.13833685405552">
        <ele>1085.95</ele>
        <time>2017-11-10T23:09:44Z</time>
      </trkpt>
      <trkpt lat="47.708720890805125" lon="-121.13848496228456">
        <ele>1094.12</ele>
        <time>2017-11-10T23:09:56Z</time>
      </trkpt>
      <trkpt lat="47.70867135375738" lon="-121.13857733085752">
        <ele>1095.08</ele>
        <time>2017-11-10T23:10:03Z</time>
      </trkpt>
      <trkpt lat="47.708628019317985" lon="-121.13877908326685">
        <ele>1097.48</ele>
        <time>2017-11-10T23:10:13Z</time>
      </trkpt>
      <trkpt lat="47.708634892478585" lon="-121.13886575214565">
        <ele>1098.44</ele>
        <time>2017-11-10T23:10:18Z</time>
      </trkpt>
      <trkpt lat="47.70850455388427" lon="-121.13907898776233">
        <ele>1097.0</ele>
        <time>2017-11-10T23:10:32Z</time>
      </trkpt>
      <trkpt lat="47.70844403654337" lon="-121.13923849537969">
        <ele>1094.6</ele>
        <time>2017-11-10T23:10:42Z</time>
      </trkpt>
      <trkpt lat="47.708413107320666" lon="-121.1393569316715">
        <ele>1092.68</ele>
        <time>2017-11-10T23:10:54Z</time>
      </trkpt>
      <trkpt lat="47.708383770659566" lon="-121.13940965384245">
        <ele>1093.16</ele>
        <time>2017-11-10T23:11:11Z</time>
      </trkpt>
      <trkpt lat="47.708455016836524" lon="-121.13943731412292">
        <ele>1090.75</ele>
        <time>2017-11-10T23:11:37Z</time>
      </trkpt>
      <trkpt lat="47.708550905808806" lon="-121.13944561220706">
        <ele>1083.06</ele>
        <time>2017-11-10T23:11:52Z</time>
      </trkpt>
      <trkpt lat="47.708588959649205" lon="-121.13950847648084">
        <ele>1079.22</ele>
        <time>2017-11-10T23:12:05Z</time>
      </trkpt>
      <trkpt lat="47.70882507786155" lon="-121.13928602077067">
        <ele>1071.53</ele>
        <time>2017-11-10T23:12:50Z</time>
      </trkpt>
      <trkpt lat="47.708990620449185" lon="-121.13914537243545">
        <ele>1072.01</ele>
        <time>2017-11-10T23:13:13Z</time>
      </trkpt>
      <trkpt lat="47.709083911031485" lon="-121.13901201635599">
        <ele>1065.76</ele>
        <time>2017-11-10T23:13:26Z</time>
      </trkpt>
      <trkpt lat="47.709189523011446" lon="-121.13896767608821">
        <ele>1061.43</ele>
        <time>2017-11-10T23:13:38Z</time>
      </trkpt>
      <trkpt lat="47.70925565622747" lon="-121.13892065361142">
        <ele>1061.43</ele>
        <time>2017-11-10T23:13:48Z</time>
      </trkpt>
      <trkpt lat="47.709347857162356" lon="-121.13889886066318">
        <ele>1059.51</ele>
        <time>2017-11-10T23:14:03Z</time>
      </trkpt>
      <trkpt lat="47.70937534980476" lon="-121.13891948014498">
        <ele>1052.3</ele>
        <time>2017-11-10T23:14:15Z</time>
      </trkpt>
      <trkpt lat="47.70951708778739" lon="-121.13887296058238">
        <ele>1043.65</ele>
        <time>2017-11-10T23:14:29Z</time>
      </trkpt>
      <trkpt lat="47.70959478802979" lon="-121.13872325979173">
        <ele>1042.21</ele>
        <time>2017-11-10T23:14:41Z</time>
      </trkpt>
      <trkpt lat="47.709765108302236" lon="-121.13847406581044">
        <ele>1034.52</ele>
        <time>2017-11-10T23:15:01Z</time>
      </trkpt>
      <trkpt lat="47.709795366972685" lon="-121.1383899115026">
        <ele>1030.67</ele>
        <time>2017-11-10T23:15:06Z</time>
      </trkpt>
      <trkpt lat="47.70986896008253" lon="-121.13826711662114">
        <ele>1024.42</ele>
        <time>2017-11-10T23:15:16Z</time>
      </trkpt>
      <trkpt lat="47.71001840941608" lon="-121.13808170892298">
        <ele>1022.98</ele>
        <time>2017-11-10T23:15:28Z</time>
      </trkpt>
      <trkpt lat="47.710157884284854" lon="-121.1379498615861">
        <ele>1024.42</ele>
        <time>2017-11-10T23:15:45Z</time>
      </trkpt>
      <trkpt lat="47.710207253694534" lon="-121.1378283239901">
        <ele>1026.83</ele>
        <time>2017-11-10T23:15:56Z</time>
      </trkpt>
      <trkpt lat="47.710374891757965" lon="-121.13768264651299">
        <ele>1022.98</ele>
        <time>2017-11-10T23:16:15Z</time>
      </trkpt>
      <trkpt lat="47.71042501553893" lon="-121.13759011030197">
        <ele>1019.13</ele>
        <time>2017-11-10T23:16:20Z</time>
      </trkpt>
      <trkpt lat="47.710649566724896" lon="-121.13740419968963">
        <ele>1012.41</ele>
        <time>2017-11-10T23:16:33Z</time>
      </trkpt>
      <trkpt lat="47.71075174212456" lon="-121.13725676201284">
        <ele>1004.72</ele>
        <time>2017-11-10T23:16:47Z</time>
      </trkpt>
      <trkpt lat="47.710817120969296" lon="-121.13721619360149">
        <ele>1002.79</ele>
        <time>2017-11-10T23:16:59Z</time>
      </trkpt>
      <trkpt lat="47.71087252534926" lon="-121.13706062547863">
        <ele>1006.16</ele>
        <time>2017-11-10T23:17:13Z</time>
      </trkpt>
      <trkpt lat="47.711003785952926" lon="-121.13687940873206">
        <ele>1001.83</ele>
        <time>2017-11-10T23:17:26Z</time>
      </trkpt>
      <trkpt lat="47.71112917922437" lon="-121.1368599627167">
        <ele>997.02</ele>
        <time>2017-11-10T23:17:35Z</time>
      </trkpt>
      <trkpt lat="47.71124484948814" lon="-121.13665360026062">
        <ele>990.3</ele>
        <time>2017-11-10T23:17:42Z</time>
      </trkpt>
      <trkpt lat="47.71129170432687" lon="-121.13652359694242">
        <ele>983.09</ele>
        <time>2017-11-10T23:17:47Z</time>
      </trkpt>
      <trkpt lat="47.71132146008313" lon="-121.13660615868866">
        <ele>967.22</ele>
        <time>2017-11-10T23:18:01Z</time>
      </trkpt>
      <trkpt lat="47.71132246591151" lon="-121.13669676706195">
        <ele>964.82</ele>
        <time>2017-11-10T23:18:06Z</time>
      </trkpt>
      <trkpt lat="47.71128701046109" lon="-121.13708367571235">
        <ele>948.0</ele>
        <time>2017-11-10T23:18:29Z</time>
      </trkpt>
      <trkpt lat="47.71122305653989" lon="-121.13741182722151">
        <ele>942.71</ele>
        <time>2017-11-10T23:18:48Z</time>
      </trkpt>
      <trkpt lat="47.71122473292053" lon="-121.13746429793537">
        <ele>942.23</ele>
        <time>2017-11-10T23:18:51Z</time>
      </trkpt>
      <trkpt lat="47.71117452532053" lon="-121.1377529706806">
        <ele>937.9</ele>
        <time>2017-11-10T23:19:09Z</time>
      </trkpt>
      <trkpt lat="47.711141500622034" lon="-121.1378732509911">
        <ele>935.02</ele>
        <time>2017-11-10T23:19:22Z</time>
      </trkpt>
      <trkpt lat="47.71111090667546" lon="-121.13792547024786">
        <ele>933.1</ele>
        <time>2017-11-10T23:19:36Z</time>
      </trkpt>
      <trkpt lat="47.71103153005242" lon="-121.13830793648958">
        <ele>926.85</ele>
        <time>2017-11-10T23:20:02Z</time>
      </trkpt>
      <trkpt lat="47.71096296608448" lon="-121.13857573829591">
        <ele>923.0</ele>
        <time>2017-11-10T23:20:19Z</time>
      </trkpt>
      <trkpt lat="47.710953494533896" lon="-121.13876106217504">
        <ele>920.6</ele>
        <time>2017-11-10T23:20:29Z</time>
      </trkpt>
      <trkpt lat="47.71092155948281" lon="-121.13882258534431">
        <ele>918.68</ele>
        <time>2017-11-10T23:20:33Z</time>
      </trkpt>
      <trkpt lat="47.71086967550218" lon="-121.1390699353069">
        <ele>914.83</ele>
        <time>2017-11-10T23:20:49Z</time>
      </trkpt>
      <trkpt lat="47.71088317036629" lon="-121.13928618840873">
        <ele>912.43</ele>
        <time>2017-11-10T23:21:02Z</time>
      </trkpt>
      <trkpt lat="47.710843440145254" lon="-121.1393640562892">
        <ele>910.99</ele>
        <time>2017-11-10T23:21:07Z</time>
      </trkpt>
      <trkpt lat="47.71067647263408" lon="-121.13987107761204">
        <ele>902.33</ele>
        <time>2017-11-10T23:21:37Z</time>
      </trkpt>
      <trkpt lat="47.71064495667815" lon="-121.13997702486813">
        <ele>899.93</ele>
        <time>2017-11-10T23:21:44Z</time>
      </trkpt>
      <trkpt lat="47.71062081679702" lon="-121.1401463393122">
        <ele>895.61</ele>
        <time>2017-11-10T23:21:54Z</time>
      </trkpt>
      <trkpt lat="47.710538590326905" lon="-121.14038438536227">
        <ele>893.2</ele>
        <time>2017-11-10T23:22:09Z</time>
      </trkpt>
      <trkpt lat="47.71047572605312" lon="-121.14059720188379">
        <ele>892.24</ele>
        <time>2017-11-10T23:22:22Z</time>
      </trkpt>
      <trkpt lat="47.710389979183674" lon="-121.14082208834589">
        <ele>889.36</ele>
        <time>2017-11-10T23:22:36Z</time>
      </trkpt>
      <trkpt lat="47.71032971329987" lon="-121.1410097591579">
        <ele>886.47</ele>
        <time>2017-11-10T23:22:49Z</time>
      </trkpt>
      <trkpt lat="47.71033273078501" lon="-121.14107966423035">
        <ele>885.03</ele>
        <time>2017-11-10T23:22:54Z</time>
      </trkpt>
      <trkpt lat="47.71026710048318" lon="-121.14138300530612">
        <ele>882.15</ele>
        <time>2017-11-10T23:23:16Z</time>
      </trkpt>
      <trkpt lat="47.710222424939275" lon="-121.14153706468642">
        <ele>879.74</ele>
        <time>2017-11-10T23:23:26Z</time>
      </trkpt>
      <trkpt lat="47.710161823779345" lon="-121.14179807715118">
        <ele>876.38</ele>
        <time>2017-11-10T23:23:41Z</time>
      </trkpt>
      <trkpt lat="47.71006886847317" lon="-121.1421216186136">
        <ele>867.73</ele>
        <time>2017-11-10T23:23:59Z</time>
      </trkpt>
      <trkpt lat="47.7099619153887" lon="-121.14240542985499">
        <ele>861.96</ele>
        <time>2017-11-10T23:24:16Z</time>
      </trkpt>
      <trkpt lat="47.70992662757635" lon="-121.14258203655481">
        <ele>859.08</ele>
        <time>2017-11-10T23:24:27Z</time>
      </trkpt>
      <trkpt lat="47.70980542525649" lon="-121.1430130340159">
        <ele>853.31</ele>
        <time>2017-11-10T23:24:51Z</time>
      </trkpt>
      <trkpt lat="47.70977164618671" lon="-121.14318318665028">
        <ele>851.87</ele>
        <time>2017-11-10T23:25:00Z</time>
      </trkpt>
      <trkpt lat="47.70980156958103" lon="-121.14329164847732">
        <ele>850.42</ele>
        <time>2017-11-10T23:25:10Z</time>
      </trkpt>
      <trkpt lat="47.70980483852327" lon="-121.14344210363925">
        <ele>847.54</ele>
        <time>2017-11-10T23:26:13Z</time>
      </trkpt>
      <trkpt lat="47.709848089143634" lon="-121.14340639673173">
        <ele>846.1</ele>
        <time>2017-11-10T23:26:27Z</time>
      </trkpt>
      <trkpt lat="47.70985680632293" lon="-121.14348962903023">
        <ele>845.14</ele>
        <time>2017-11-10T23:26:34Z</time>
      </trkpt>
      <trkpt lat="47.70975806750357" lon="-121.14392682909966">
        <ele>839.85</ele>
        <time>2017-11-10T23:27:19Z</time>
      </trkpt>
      <trkpt lat="47.709689335897565" lon="-121.14411810413003">
        <ele>835.52</ele>
        <time>2017-11-10T23:27:32Z</time>
      </trkpt>
      <trkpt lat="47.709628734737635" lon="-121.1442332714796">
        <ele>832.16</ele>
        <time>2017-11-10T23:27:40Z</time>
      </trkpt>
      <trkpt lat="47.70957374945283" lon="-121.14429445937276">
        <ele>830.72</ele>
        <time>2017-11-10T23:27:47Z</time>
      </trkpt>
      <trkpt lat="47.70959177054465" lon="-121.1444111354649">
        <ele>828.79</ele>
        <time>2017-11-10T23:27:57Z</time>
      </trkpt>
      <trkpt lat="47.709648851305246" lon="-121.14451624453068">
        <ele>825.91</ele>
        <time>2017-11-10T23:28:06Z</time>
      </trkpt>
      <trkpt lat="47.70972772501409" lon="-121.14457173272967">
        <ele>819.66</ele>
        <time>2017-11-10T23:28:17Z</time>
      </trkpt>
      <trkpt lat="47.70976644940674" lon="-121.14464926533401">
        <ele>818.22</ele>
        <time>2017-11-10T23:28:28Z</time>
      </trkpt>
      <trkpt lat="47.70974658429623" lon="-121.14473886787891">
        <ele>817.74</ele>
        <time>2017-11-10T23:28:33Z</time>
      </trkpt>
      <trkpt lat="47.70964843221009" lon="-121.14499367773533">
        <ele>816.78</ele>
        <time>2017-11-10T23:28:49Z</time>
      </trkpt>
      <trkpt lat="47.709490517154336" lon="-121.14522686228156">
        <ele>811.97</ele>
        <time>2017-11-10T23:29:04Z</time>
      </trkpt>
      <trkpt lat="47.709345342591405" lon="-121.14542425610125">
        <ele>807.16</ele>
        <time>2017-11-10T23:29:19Z</time>
      </trkpt>
      <trkpt lat="47.70931147970259" lon="-121.14550229161978">
        <ele>805.72</ele>
        <time>2017-11-10T23:29:24Z</time>
      </trkpt>
      <trkpt lat="47.70927879028022" lon="-121.14576204679906">
        <ele>801.4</ele>
        <time>2017-11-10T23:29:38Z</time>
      </trkpt>
      <trkpt lat="47.709366381168365" lon="-121.14592641592026">
        <ele>796.11</ele>
        <time>2017-11-10T23:29:50Z</time>
      </trkpt>
      <trkpt lat="47.709499737247825" lon="-121.14607100374997">
        <ele>791.78</ele>
        <time>2017-11-10T23:30:03Z</time>
      </trkpt>
      <trkpt lat="47.70962932147086" lon="-121.14608340896666">
        <ele>786.02</ele>
        <time>2017-11-10T23:30:16Z</time>
      </trkpt>
      <trkpt lat="47.7096579875797" lon="-121.1460520606488">
        <ele>783.61</ele>
        <time>2017-11-10T23:30:28Z</time>
      </trkpt>
      <trkpt lat="47.70975664258003" lon="-121.14600914530456">
        <ele>784.09</ele>
        <time>2017-11-10T23:30:38Z</time>
      </trkpt>
      <trkpt lat="47.70997608080506" lon="-121.14583161659539">
        <ele>807.64</ele>
        <time>2017-11-10T23:31:16Z</time>
      </trkpt>
      <trkpt lat="47.71018118597567" lon="-121.14580873399973">
        <ele>815.82</ele>
        <time>2017-11-10T23:31:28Z</time>
      </trkpt>
      <trkpt lat="47.71035016514361" lon="-121.14577663131058">
        <ele>822.06</ele>
        <time>2017-11-10T23:31:40Z</time>
      </trkpt>
      <trkpt lat="47.71048947237432" lon="-121.14571695216">
        <ele>824.47</ele>
        <time>2017-11-10T23:31:51Z</time>
      </trkpt>
      <trkpt lat="47.7105819247663" lon="-121.14570764824748">
        <ele>828.31</ele>
        <time>2017-11-10T23:32:01Z</time>
      </trkpt>
      <trkpt lat="47.71081251092255" lon="-121.14557445980608">
        <ele>826.87</ele>
        <time>2017-11-10T23:32:12Z</time>
      </trkpt>
      <trkpt lat="47.71098014898598" lon="-121.14544160664082">
        <ele>818.22</ele>
        <time>2017-11-10T23:32:21Z</time>
      </trkpt>
      <trkpt lat="47.711148373782635" lon="-121.14529634825885">
        <ele>812.93</ele>
        <time>2017-11-10T23:32:33Z</time>
      </trkpt>
      <trkpt lat="47.71124971099198" lon="-121.14505293779075">
        <ele>811.49</ele>
        <time>2017-11-10T23:32:45Z</time>
      </trkpt>
      <trkpt lat="47.711278293281794" lon="-121.1450380180031">
        <ele>811.49</ele>
        <time>2017-11-10T23:32:47Z</time>
      </trkpt>
      <trkpt lat="47.7113126590848" lon="-121.14495939575136">
        <ele>812.93</ele>
        <time>2017-11-10T23:32:54Z</time>
      </trkpt>
      <trkpt lat="47.711423048749566" lon="-121.14475253038108">
        <ele>813.41</ele>
        <time>2017-11-10T23:33:08Z</time>
      </trkpt>
      <trkpt lat="47.711420617997646" lon="-121.14457944408059">
        <ele>814.37</ele>
        <time>2017-11-10T23:33:22Z</time>
      </trkpt>
      <trkpt lat="47.71156780421734" lon="-121.14452588371933">
        <ele>809.09</ele>
        <time>2017-11-10T23:33:35Z</time>
      </trkpt>
      <trkpt lat="47.71177609451115" lon="-121.14449637942016">
        <ele>803.8</ele>
        <time>2017-11-10T23:33:46Z</time>
      </trkpt>
      <trkpt lat="47.7119202632457" lon="-121.14457692950964">
        <ele>799.95</ele>
        <time>2017-11-10T23:33:58Z</time>
      </trkpt>
      <trkpt lat="47.711996706202626" lon="-121.14463702775538">
        <ele>804.28</ele>
        <time>2017-11-10T23:34:10Z</time>
      </trkpt>
      <trkpt lat="47.71207490935922" lon="-121.14472260698676">
        <ele>807.16</ele>
        <time>2017-11-10T23:34:20Z</time>
      </trkpt>
      <trkpt lat="47.71208236925304" lon="-121.14483274519444">
        <ele>806.2</ele>
        <time>2017-11-10T23:34:30Z</time>
      </trkpt>
      <trkpt lat="47.712172977626324" lon="-121.14501287229359">
        <ele>796.11</ele>
        <time>2017-11-10T23:34:43Z</time>
      </trkpt>
      <trkpt lat="47.71219368092716" lon="-121.14515326917171">
        <ele>798.03</ele>
        <time>2017-11-10T23:34:54Z</time>
      </trkpt>
      <trkpt lat="47.712257551029325" lon="-121.14530338905752">
        <ele>806.2</ele>
        <time>2017-11-10T23:35:04Z</time>
      </trkpt>
      <trkpt lat="47.712380681186914" lon="-121.14542157389224">
        <ele>819.18</ele>
        <time>2017-11-10T23:35:19Z</time>
      </trkpt>
      <trkpt lat="47.71241806447506" lon="-121.14555937238038">
        <ele>821.1</ele>
        <time>2017-11-10T23:35:31Z</time>
      </trkpt>
      <trkpt lat="47.71246165037155" lon="-121.14556406624615">
        <ele>823.99</ele>
        <time>2017-11-10T23:35:42Z</time>
      </trkpt>
      <trkpt lat="47.7125318069011" lon="-121.14551964215934">
        <ele>827.35</ele>
        <time>2017-11-10T23:35:53Z</time>
      </trkpt>
      <trkpt lat="47.71256575360894" lon="-121.14546868018806">
        <ele>825.43</ele>
        <time>2017-11-10T23:35:59Z</time>
      </trkpt>
      <trkpt lat="47.71257053129375" lon="-121.14532208070159">
        <ele>814.37</ele>
        <time>2017-11-10T23:36:11Z</time>
      </trkpt>
      <trkpt lat="47.712605483829975" lon="-121.14531696774065">
        <ele>809.57</ele>
        <time>2017-11-10T23:36:18Z</time>
      </trkpt>
      <trkpt lat="47.71271176636219" lon="-121.14509199745953">
        <ele>798.51</ele>
        <time>2017-11-10T23:36:32Z</time>
      </trkpt>
      <trkpt lat="47.71272199228406" lon="-121.1450300551951">
        <ele>796.59</ele>
        <time>2017-11-10T23:36:35Z</time>
      </trkpt>
      <trkpt lat="47.712870268151164" lon="-121.14486711099744">
        <ele>792.74</ele>
        <time>2017-11-10T23:36:47Z</time>
      </trkpt>
      <trkpt lat="47.71296305581927" lon="-121.14484087564051">
        <ele>790.34</ele>
        <time>2017-11-10T23:36:54Z</time>
      </trkpt>
      <trkpt lat="47.71310403943062" lon="-121.14457793533802">
        <ele>779.77</ele>
        <time>2017-11-10T23:37:03Z</time>
      </trkpt>
      <trkpt lat="47.713388772681355" lon="-121.14440619014204">
        <ele>744.2</ele>
        <time>2017-11-10T23:37:07Z</time>
      </trkpt>
      <trkpt lat="47.71340168081224" lon="-121.14471087232232">
        <ele>736.99</ele>
        <time>2017-11-10T23:37:25Z</time>
      </trkpt>
      <trkpt lat="47.71338181570172" lon="-121.14484288729727">
        <ele>736.03</ele>
        <time>2017-11-10T23:37:32Z</time>
      </trkpt>
      <trkpt lat="47.71336304023862" lon="-121.14506366662681">
        <ele>733.62</ele>
        <time>2017-11-10T23:37:43Z</time>
      </trkpt>
      <trkpt lat="47.71329866722226" lon="-121.1453958414495">
        <ele>730.26</ele>
        <time>2017-11-10T23:37:58Z</time>
      </trkpt>
      <trkpt lat="47.713257847353816" lon="-121.1457259207964">
        <ele>728.82</ele>
        <time>2017-11-10T23:38:14Z</time>
      </trkpt>
      <trkpt lat="47.71318919956684" lon="-121.14597000181675">
        <ele>724.97</ele>
        <time>2017-11-10T23:38:26Z</time>
      </trkpt>
      <trkpt lat="47.71313974633813" lon="-121.14629874005914">
        <ele>721.61</ele>
        <time>2017-11-10T23:38:41Z</time>
      </trkpt>
      <trkpt lat="47.71305131725967" lon="-121.14659193903208">
        <ele>717.76</ele>
        <time>2017-11-10T23:38:57Z</time>
      </trkpt>
      <trkpt lat="47.71298258565366" lon="-121.14694540388882">
        <ele>714.88</ele>
        <time>2017-11-10T23:39:19Z</time>
      </trkpt>
      <trkpt lat="47.71292181685567" lon="-121.14718219265342">
        <ele>713.92</ele>
        <time>2017-11-10T23:39:34Z</time>
      </trkpt>
      <trkpt lat="47.712862556800246" lon="-121.14745812490582">
        <ele>711.51</ele>
        <time>2017-11-10T23:39:51Z</time>
      </trkpt>
      <trkpt lat="47.71292542107403" lon="-121.1475526727736">
        <ele>711.99</ele>
        <time>2017-11-10T23:39:59Z</time>
      </trkpt>
      <trkpt lat="47.71290086209774" lon="-121.14795039407909">
        <ele>707.67</ele>
        <time>2017-11-10T23:40:20Z</time>
      </trkpt>
      <trkpt lat="47.712840931490064" lon="-121.14825842902064">
        <ele>703.82</ele>
        <time>2017-11-10T23:40:34Z</time>
      </trkpt>
      <trkpt lat="47.712780414149165" lon="-121.14842581562698">
        <ele>702.38</ele>
        <time>2017-11-10T23:40:42Z</time>
      </trkpt>
      <trkpt lat="47.7126250974834" lon="-121.14853117614985">
        <ele>696.13</ele>
        <time>2017-11-10T23:41:46Z</time>
      </trkpt>
      <trkpt lat="47.71258721128106" lon="-121.14869487471879">
        <ele>696.13</ele>
        <time>2017-11-10T23:41:58Z</time>
      </trkpt>
      <trkpt lat="47.712508169934154" lon="-121.14874877035618">
        <ele>694.69</ele>
        <time>2017-11-10T23:42:10Z</time>
      </trkpt>
      <trkpt lat="47.7123605646193" lon="-121.14894482307136">
        <ele>691.81</ele>
        <time>2017-11-10T23:42:46Z</time>
      </trkpt>
      <trkpt lat="47.712371880188584" lon="-121.14908161573112">
        <ele>691.33</ele>
        <time>2017-11-10T23:43:05Z</time>
      </trkpt>
      <trkpt lat="47.712342627346516" lon="-121.14919074811041">
        <ele>691.81</ele>
        <time>2017-11-10T23:43:16Z</time>
      </trkpt>
      <trkpt lat="47.712294766679406" lon="-121.14925528876483">
        <ele>692.77</ele>
        <time>2017-11-10T23:43:24Z</time>
      </trkpt>
      <trkpt lat="47.712148670107126" lon="-121.1492916662246">
        <ele>694.69</ele>
        <time>2017-11-10T23:43:37Z</time>
      </trkpt>
      <trkpt lat="47.711990335956216" lon="-121.14936500787735">
        <ele>703.82</ele>
        <time>2017-11-10T23:44:01Z</time>
      </trkpt>
      <trkpt lat="47.71199704147875" lon="-121.14943021908402">
        <ele>713.44</ele>
        <time>2017-11-10T23:44:13Z</time>
      </trkpt>
      <trkpt lat="47.7119754999876" lon="-121.14953918382525">
        <ele>720.65</ele>
        <time>2017-11-10T23:44:25Z</time>
      </trkpt>
      <trkpt lat="47.71197533234954" lon="-121.14964655600488">
        <ele>721.13</ele>
        <time>2017-11-10T23:44:34Z</time>
      </trkpt>
      <trkpt lat="47.71195052191615" lon="-121.14969877526164">
        <ele>719.68</ele>
        <time>2017-11-10T23:44:37Z</time>
      </trkpt>
      <trkpt lat="47.71201154217124" lon="-121.14982014521956">
        <ele>724.01</ele>
        <time>2017-11-10T23:44:49Z</time>
      </trkpt>
      <trkpt lat="47.71205051802099" lon="-121.14985736086965">
        <ele>725.93</ele>
        <time>2017-11-10T23:44:53Z</time>
      </trkpt>
      <trkpt lat="47.712073400616646" lon="-121.15002466365695">
        <ele>721.61</ele>
        <time>2017-11-10T23:45:04Z</time>
      </trkpt>
      <trkpt lat="47.71204439923167" lon="-121.15016061812639">
        <ele>712.95</ele>
        <time>2017-11-10T23:45:23Z</time>
      </trkpt>
      <trkpt lat="47.71192604675889" lon="-121.15044887177646">
        <ele>707.19</ele>
        <time>2017-11-10T23:45:43Z</time>
      </trkpt>
      <trkpt lat="47.711880784481764" lon="-121.15057250484824">
        <ele>705.26</ele>
        <time>2017-11-10T23:45:51Z</time>
      </trkpt>
      <trkpt lat="47.71177500486374" lon="-121.15075715817511">
        <ele>702.38</ele>
        <time>2017-11-10T23:46:02Z</time>
      </trkpt>
      <trkpt lat="47.71149152889848" lon="-121.1511218547821">
        <ele>694.69</ele>
        <time>2017-11-10T23:46:27Z</time>
      </trkpt>
      <trkpt lat="47.711323807016015" lon="-121.15130323916674">
        <ele>690.36</ele>
        <time>2017-11-10T23:46:41Z</time>
      </trkpt>
      <trkpt lat="47.711218697950244" lon="-121.15143097937107">
        <ele>687.0</ele>
        <time>2017-11-10T23:46:50Z</time>
      </trkpt>
      <trkpt lat="47.71093597635627" lon="-121.15167598240077">
        <ele>679.31</ele>
        <time>2017-11-10T23:47:09Z</time>
      </trkpt>
      <trkpt lat="47.710745204240084" lon="-121.1518110986799">
        <ele>676.42</ele>
        <time>2017-11-10T23:47:25Z</time>
      </trkpt>
      <trkpt lat="47.71056122146547" lon="-121.15188804455101">
        <ele>677.87</ele>
        <time>2017-11-10T23:47:39Z</time>
      </trkpt>
      <trkpt lat="47.71041730418801" lon="-121.1519183870405">
        <ele>677.87</ele>
        <time>2017-11-10T23:47:50Z</time>
      </trkpt>
      <trkpt lat="47.7103178948164" lon="-121.15196063183248">
        <ele>681.71</ele>
        <time>2017-11-10T23:48:05Z</time>
      </trkpt>
      <trkpt lat="47.71033608354628" lon="-121.15185367874801">
        <ele>685.08</ele>
        <time>2017-11-10T23:48:50Z</time>
      </trkpt>
      <trkpt lat="47.710319655016065" lon="-121.15182719193399">
        <ele>678.35</ele>
        <time>2017-11-10T23:50:14Z</time>
      </trkpt>
      <trkpt lat="47.71034547127783" lon="-121.15173188969493">
        <ele>679.79</ele>
        <time>2017-11-10T23:51:45Z</time>
      </trkpt>
    </trkseg>
  </trk>
</gpx>