{"type": "Feature", "properties": {}, "geometry": {"type": "LineString", "coordinates": [[-120.33266, 39.305311, 2136.0], [-120.332757, 39.305255, 2135.5], [-120.332707, 39.305012, 2135.9], [-120.332609, 39.305013, 2136.4], [-120.332787, 39.304801, 2135.4], [-120.333013, 39.304661, 2133.9], [-120.33372, 39.304396, 2129.2], [-120.334084, 39.304411, 2126.5], [-120.334372, 39.304604, 2123.3], [-120.334711, 39.305012, 2119.9], [-120.335022, 39.305161, 2118.0], [-120.335154, 39.305149, 2117.5], [-120.335311, 39.304974, 2118.2], [-120.335616, 39.304799, 2119.2], [-120.335821, 39.304529, 2119.9], [-120.33622, 39.304574, 2119.8], [-120.336431, 39.304507, 2120.0], [-120.336538, 39.304096, 2120.4], [-120.33681, 39.303706, 2120.7], [-120.336971, 39.303565, 2121.0], [-120.336902, 39.30306, 2126.2], [-120.336941, 39.302906, 2128.3], [-120.336868, 39.302375, 2136.8], [-120.336696, 39.301968, 2141.2], [-120.336398, 39.30148, 2146.0], [-120.336106, 39.300564, 2152.0], [-120.335787, 39.299963, 2156.0], [-120.335692, 39.299619, 2158.0], [-120.335271, 39.299062, 2162.4], [-120.335102, 39.298576, 2167.4], [-120.335094, 39.298302, 2171.6], [-120.334844, 39.29796, 2177.7], [-120.334752, 39.297487, 2186.4], [-120.334628, 39.297271, 2191.1], [-120.334396, 39.29663, 2201.7], [-120.334003, 39.296263, 2207.5], [-120.333486, 39.295942, 2213.9], [-120.333299, 39.295779, 2216.2], [-120.332885, 39.295586, 2220.1], [-120.332746, 39.295444, 2222.5], [-120.332077, 39.295101, 2230.9], [-120.33168, 39.294823, 2237.6], [-120.331365, 39.294804, 2242.4], [-120.330865, 39.2949, 2249.8], [-120.330709, 39.294986, 2252.2], [-120.330308, 39.295373, 2262.5], [-120.330165, 39.295708, 2269.9], [-120.330233, 39.296118, 2277.6], [-120.330191, 39.296179, 2278.5], [-120.328972, 39.296139, 2288.3], [-120.328506, 39.296236, 2293.0], [-120.327871, 39.296128, 2301.1], [-120.327524, 39.295811, 2305.6], [-120.327336, 39.29522, 2317.7], [-120.327138, 39.294873, 2328.8], [-120.326849, 39.294505, 2340.7], [-120.326626, 39.294336, 2346.7], [-120.326294, 39.293982, 2357.4], [-120.326123, 39.293893, 2359.8], [-120.326032, 39.293725, 2365.2], [-120.325736, 39.29348, 2375.3], [-120.325013, 39.293126, 2395.6], [-120.32496, 39.293041, 2398.1], [-120.324533, 39.292852, 2402.2], [-120.32384, 39.29233, 2411.5], [-120.32354, 39.292004, 2418.8], [-120.323249, 39.291493, 2428.1], [-120.32319, 39.291187, 2432.9], [-120.323257, 39.290798, 2439.9], [-120.323391, 39.290533, 2445.1], [-120.323792, 39.290255, 2456.2], [-120.324172, 39.289932, 2466.7], [-120.324613, 39.289739, 2484.4], [-120.324748, 39.289558, 2489.9], [-120.325049, 39.289479, 2498.8], [-120.325432, 39.289565, 2503.8], [-120.32642, 39.289341, 2513.5], [-120.326773, 39.28918, 2518.0], [-120.327108, 39.288831, 2525.4], [-120.327444, 39.288584, 2532.9], [-120.327878, 39.288417, 2539.0], [-120.328039, 39.288288, 2541.7], [-120.328251, 39.28797, 2547.0], [-120.328054, 39.287924, 2553.6], [-120.327774, 39.288435, 2537.2], [-120.327398, 39.288696, 2529.9], [-120.327408, 39.288998, 2517.7], [-120.327539, 39.289508, 2495.7], [-120.32734, 39.290059, 2472.5], [-120.327121, 39.29039, 2459.5], [-120.326924, 39.290445, 2457.5], [-120.326622, 39.290729, 2447.4], [-120.326483, 39.290781, 2443.8], [-120.326126, 39.291119, 2426.5], [-120.32594, 39.291191, 2423.5], [-120.325806, 39.291391, 2416.2], [-120.325858, 39.291732, 2399.5], [-120.326019, 39.29194, 2394.2], [-120.326213, 39.292055, 2389.1], [-120.326597, 39.292502, 2384.6], [-120.326705, 39.292731, 2380.3], [-120.327092, 39.293309, 2366.8], [-120.327432, 39.293666, 2358.5], [-120.327546, 39.294034, 2351.7], [-120.327426, 39.294495, 2339.6], [-120.32749, 39.294652, 2336.2], [-120.327437, 39.295072, 2324.5], [-120.32759, 39.295609, 2309.4], [-120.328003, 39.295976, 2301.3], [-120.328289, 39.296048, 2298.4], [-120.328884, 39.296123, 2290.0], [-120.328917, 39.296201, 2290.1], [-120.329363, 39.296071, 2282.8], [-120.329668, 39.295791, 2272.6], [-120.330037, 39.295561, 2258.8], [-120.330282, 39.295222, 2251.7], [-120.330547, 39.29501, 2247.2], [-120.330906, 39.294965, 2241.7], [-120.331392, 39.294984, 2235.1], [-120.331741, 39.295043, 2231.0], [-120.332542, 39.29541, 2221.7], [-120.333622, 39.296027, 2211.6], [-120.333967, 39.296309, 2207.4], [-120.334208, 39.296674, 2194.9], [-120.334243, 39.297241, 2187.4], [-120.334397, 39.297688, 2179.0], [-120.334178, 39.298399, 2169.6], [-120.334313, 39.298855, 2164.7], [-120.334427, 39.298986, 2163.0], [-120.334734, 39.299131, 2161.0], [-120.335253, 39.299265, 2160.6], [-120.33541, 39.299372, 2159.9], [-120.335632, 39.299805, 2157.2], [-120.335805, 39.300335, 2154.0], [-120.336124, 39.300896, 2150.0], [-120.33627, 39.301047, 2148.9], [-120.336637, 39.301664, 2143.9], [-120.33686, 39.302137, 2139.0], [-120.337016, 39.302654, 2133.5], [-120.337047, 39.303116, 2125.7], [-120.337141, 39.303481, 2122.0], [-120.336802, 39.303864, 2120.7], [-120.336738, 39.304181, 2120.4], [-120.336447, 39.304554, 2119.9], [-120.336202, 39.304647, 2119.7], [-120.335863, 39.304603, 2119.9], [-120.335678, 39.304697, 2119.7], [-120.335389, 39.305142, 2117.8], [-120.335085, 39.305192, 2118.8], [-120.334653, 39.305044, 2121.0], [-120.334245, 39.304758, 2124.0], [-120.33371, 39.304881, 2128.6], [-120.332695, 39.304882, 2136.7], [-120.333845, 39.304415, 2128.9], [-120.33416, 39.30444, 2126.2], [-120.334563, 39.304839, 2121.5], [-120.335062, 39.305146, 2118.5], [-120.3353, 39.305106, 2117.8], [-120.335692, 39.304633, 2119.9], [-120.336171, 39.304585, 2119.7], [-120.336426, 39.304479, 2120.3], [-120.336569, 39.304105, 2120.5], [-120.336829, 39.303735, 2120.6], [-120.337077, 39.303527, 2121.4], [-120.336974, 39.303385, 2122.8], [-120.336897, 39.303028, 2126.8], [-120.336819, 39.302311, 2137.4], [-120.336508, 39.301658, 2144.2], [-120.336211, 39.301193, 2147.9], [-120.336254, 39.300951, 2149.4], [-120.335971, 39.300329, 2153.5], [-120.335763, 39.300023, 2155.5], [-120.335544, 39.299342, 2159.5], [-120.335326, 39.299155, 2161.7], [-120.335082, 39.29854, 2168.8], [-120.335054, 39.298261, 2172.9], [-120.334944, 39.298198, 2174.3], [-120.334793, 39.29792, 2178.8], [-120.33473, 39.297664, 2182.8], [-120.334706, 39.297201, 2191.0], [-120.334444, 39.296584, 2201.0], [-120.333999, 39.296226, 2206.6], [-120.333471, 39.295854, 2213.2], [-120.333232, 39.29575, 2215.3], [-120.332759, 39.295397, 2220.3], [-120.332328, 39.29525, 2225.0], [-120.331785, 39.294852, 2232.4], [-120.331231, 39.294793, 2239.3], [-120.330849, 39.294892, 2245.3], [-120.33046, 39.295277, 2253.1], [-120.330207, 39.295677, 2261.3], [-120.330148, 39.296213, 2278.8], [-120.329623, 39.296177, 2283.1], [-120.329153, 39.296104, 2286.6], [-120.328741, 39.296169, 2290.2], [-120.327843, 39.29615, 2301.2], [-120.327549, 39.295912, 2304.6], [-120.327549, 39.295759, 2306.9], [-120.327384, 39.29553, 2312.2], [-120.327082, 39.294882, 2330.6], [-120.326785, 39.294621, 2338.8], [-120.326832, 39.294535, 2341.1], [-120.326102, 39.293843, 2362.9], [-120.325279, 39.293267, 2384.8], [-120.325043, 39.293176, 2388.2], [-120.324733, 39.292923, 2393.1], [-120.324174, 39.292622, 2398.2], [-120.323554, 39.292062, 2410.5], [-120.323174, 39.29148, 2420.6], [-120.323142, 39.290988, 2428.9], [-120.323243, 39.290661, 2433.5], [-120.323631, 39.29024, 2444.4], [-120.324291, 39.289866, 2470.5], [-120.324547, 39.289684, 2484.0], [-120.325057, 39.289463, 2498.1], [-120.325429, 39.289571, 2503.0], [-120.326135, 39.289415, 2509.2], [-120.326672, 39.289231, 2514.7], [-120.327269, 39.288627, 2526.4], [-120.327657, 39.288489, 2532.7], [-120.328011, 39.288271, 2538.0], [-120.328048, 39.288126, 2550.1], [-120.327701, 39.288242, 2545.1], [-120.327546, 39.288465, 2541.0], [-120.327098, 39.288829, 2532.2], [-120.326841, 39.289181, 2523.0], [-120.326003, 39.289472, 2511.1], [-120.325208, 39.289655, 2502.0], [-120.324768, 39.289659, 2492.4], [-120.324361, 39.289958, 2474.3], [-120.324068, 39.290094, 2464.4], [-120.323539, 39.290492, 2449.2], [-120.323376, 39.290712, 2443.5], [-120.323326, 39.290998, 2438.6], [-120.323346, 39.29135, 2431.8], [-120.323566, 39.291917, 2422.0], [-120.323902, 39.292241, 2414.6], [-120.324073, 39.292342, 2412.2], [-120.32446, 39.292719, 2405.7], [-120.324999, 39.292968, 2400.8], [-120.325505, 39.293283, 2392.4], [-120.325525, 39.293839, 2376.4], [-120.325478, 39.293915, 2374.7], [-120.325563, 39.294538, 2350.7], [-120.32526, 39.295233, 2319.1], [-120.325276, 39.295618, 2312.1], [-120.325208, 39.296086, 2308.1], [-120.32511, 39.296405, 2305.6], [-120.325054, 39.297141, 2300.1], [-120.325206, 39.298435, 2293.6], [-120.325473, 39.299248, 2284.9], [-120.325949, 39.30005, 2275.8], [-120.326376, 39.30029, 2271.7], [-120.326692, 39.300606, 2270.0], [-120.327076, 39.300839, 2264.4], [-120.32741, 39.300976, 2261.5], [-120.32813, 39.301122, 2258.3], [-120.328762, 39.301198, 2253.3], [-120.329357, 39.301425, 2247.5], [-120.329581, 39.301448, 2243.7], [-120.329945, 39.301728, 2238.0], [-120.330147, 39.301777, 2233.6], [-120.330187, 39.301959, 2231.7], [-120.33036, 39.301988, 2228.4], [-120.330219, 39.302321, 2224.9], [-120.330539, 39.302622, 2209.4], [-120.330619, 39.302935, 2191.9], [-120.330821, 39.303081, 2179.1], [-120.330885, 39.303256, 2172.0], [-120.331078, 39.303381, 2165.0], [-120.331131, 39.303588, 2156.6], [-120.331434, 39.303923, 2150.6], [-120.33198, 39.3042, 2147.6], [-120.332074, 39.304486, 2146.4], [-120.332301, 39.304642, 2145.1], [-120.332654, 39.304772, 2142.9], [-120.332888, 39.304794, 2141.7], [-120.332824, 39.305051, 2142.0], [-120.332646, 39.305157, 2143.1], [-120.33283, 39.305241, 2141.9], [-120.332864, 39.305495, 2135.9], [-120.332496, 39.305476, 2137.7], [-120.332743, 39.305386, 2135.8], [-120.332688, 39.305178, 2136.6], [-120.332847, 39.304787, 2135.6], [-120.333819, 39.304442, 2128.7], [-120.334192, 39.304504, 2125.8], [-120.334648, 39.305012, 2120.6], [-120.335016, 39.305203, 2118.4], [-120.335382, 39.305021, 2118.1], [-120.3356, 39.304667, 2119.6], [-120.335699, 39.304611, 2119.9], [-120.336275, 39.304592, 2119.8], [-120.336473, 39.304402, 2120.3], [-120.336566, 39.30409, 2120.5], [-120.336785, 39.303756, 2120.7], [-120.337007, 39.303554, 2121.2], [-120.336887, 39.302992, 2127.3], [-120.33688, 39.302747, 2133.2], [-120.336766, 39.302183, 2138.9], [-120.336481, 39.301605, 2144.9], [-120.336253, 39.301286, 2147.5], [-120.336223, 39.300998, 2149.3], [-120.335662, 39.299662, 2157.8], [-120.33563, 39.299526, 2158.5], [-120.335304, 39.299131, 2161.9], [-120.335232, 39.298764, 2165.3], [-120.335026, 39.298174, 2174.1], [-120.334868, 39.298118, 2176.0], [-120.334759, 39.297605, 2184.2], [-120.334657, 39.297452, 2187.2], [-120.334618, 39.297047, 2194.1], [-120.334455, 39.29672, 2199.2], [-120.334132, 39.296349, 2204.5], [-120.333459, 39.295839, 2213.5], [-120.33323, 39.295761, 2215.3], [-120.33314, 39.295639, 2216.7], [-120.332298, 39.295225, 2225.5], [-120.332064, 39.295042, 2228.5], [-120.331576, 39.294834, 2234.4], [-120.330859, 39.294855, 2244.5], [-120.330575, 39.295062, 2249.4], [-120.330266, 39.295549, 2258.8], [-120.330264, 39.295921, 2270.7], [-120.330107, 39.296171, 2279.2], [-120.329179, 39.296157, 2286.5], [-120.328597, 39.296251, 2292.1], [-120.327934, 39.296155, 2300.7], [-120.327681, 39.296031, 2302.7], [-120.327379, 39.295487, 2312.8], [-120.327297, 39.295207, 2319.9], [-120.327078, 39.294862, 2330.6], [-120.326923, 39.294739, 2335.6], [-120.326604, 39.29433, 2348.6], [-120.326204, 39.293929, 2361.0], [-120.326066, 39.293869, 2363.3], [-120.325744, 39.293572, 2374.6], [-120.325361, 39.293337, 2384.0], [-120.325105, 39.293249, 2388.7], [-120.324858, 39.29303, 2393.1], [-120.324306, 39.292739, 2398.7], [-120.323772, 39.2923, 2407.5], [-120.323324, 39.291695, 2420.5], [-120.323166, 39.291156, 2429.6], [-120.323284, 39.290661, 2438.0], [-120.323983, 39.289963, 2459.0], [-120.324438, 39.289764, 2476.0], [-120.324878, 39.289517, 2492.6], [-120.325178, 39.289472, 2500.2], [-120.325616, 39.28956, 2506.3], [-120.326251, 39.289366, 2516.0], [-120.326834, 39.289118, 2525.3], [-120.327421, 39.288637, 2536.5], [-120.328011, 39.288336, 2543.5], [-120.328307, 39.28798, 2549.4], [-120.327573, 39.288566, 2539.7], [-120.327395, 39.288633, 2537.1], [-120.32715, 39.288846, 2531.6], [-120.326853, 39.289209, 2521.7], [-120.32649, 39.289384, 2516.0], [-120.32614, 39.289463, 2511.5], [-120.325793, 39.289629, 2507.3], [-120.325402, 39.289637, 2503.1], [-120.325039, 39.289538, 2496.1], [-120.324928, 39.289696, 2491.6], [-120.324485, 39.289885, 2476.7], [-120.324056, 39.290207, 2457.9], [-120.323636, 39.290354, 2448.6], [-120.323315, 39.29086, 2436.5], [-120.323377, 39.291049, 2432.6], [-120.32334, 39.291521, 2424.5], [-120.323647, 39.292123, 2413.5], [-120.324058, 39.292468, 2405.4], [-120.325008, 39.293031, 2395.0], [-120.325475, 39.293351, 2386.1], [-120.325573, 39.293518, 2380.9], [-120.325353, 39.293674, 2378.0], [-120.325401, 39.294256, 2355.9], [-120.325276, 39.294561, 2343.4], [-120.325293, 39.294971, 2321.6], [-120.325197, 39.29513, 2315.9], [-120.325108, 39.295551, 2306.4], [-120.325127, 39.295882, 2304.1], [-120.325067, 39.296222, 2301.4], [-120.325034, 39.296915, 2295.9], [-120.324949, 39.297266, 2293.7], [-120.325192, 39.29828, 2289.7], [-120.325231, 39.298882, 2281.6], [-120.325406, 39.299343, 2278.5], [-120.325825, 39.299926, 2272.2], [-120.326211, 39.300273, 2267.0], [-120.326636, 39.300486, 2264.8], [-120.327236, 39.300975, 2257.8], [-120.327965, 39.301146, 2254.2], [-120.328694, 39.301181, 2248.0], [-120.329286, 39.301264, 2241.9], [-120.329882, 39.301502, 2232.3], [-120.330443, 39.301502, 2221.8], [-120.331253, 39.301602, 2203.8], [-120.332098, 39.301555, 2182.2], [-120.332331, 39.301497, 2178.1], [-120.332655, 39.3016, 2171.9], [-120.332964, 39.301864, 2163.6], [-120.332852, 39.302261, 2156.3], [-120.331999, 39.303456, 2143.1], [-120.331855, 39.30372, 2140.6], [-120.332036, 39.304162, 2138.1], [-120.332091, 39.304561, 2137.0], [-120.332362, 39.304721, 2135.1], [-120.333003, 39.304736, 2131.5], [-120.332788, 39.304937, 2132.9], [-120.332736, 39.305126, 2133.3], [-120.33287, 39.305258, 2132.2], [-120.332658, 39.305283, 2133.5], [-120.332664, 39.305532, 2132.9], [-120.332556, 39.305427, 2133.8]]}}