{"type": "Feature", "properties": {}, "geometry": {"type": "LineString", "coordinates": [[-120.20132071338594, 48.55986979790032, 739.87], [-120.20131685771048, 48.55994615703821, 740.35], [-120.20130101591349, 48.560036765411496, 742.76], [-120.20131710916758, 48.56011362746358, 749.0], [-120.20133052021265, 48.56016492471099, 750.45], [-120.20135516300797, 48.560231644660234, 751.89], [-120.20138273946941, 48.56029140762985, 753.33], [-120.20140394568443, 48.5603647492826, 754.29], [-120.20144057460129, 48.560411017388105, 755.25], [-120.20145976915956, 48.56041906401515, 756.69], [-120.20146840251982, 48.560500368475914, 757.18], [-120.20143831148744, 48.56054462492466, 758.14], [-120.20139799453318, 48.56058469042182, 759.58], [-120.20134937949479, 48.560628443956375, 760.06], [-120.20130151882768, 48.56066280975938, 760.54], [-120.20127293653786, 48.56070865876973, 762.94], [-120.20115550607443, 48.56078350916505, 764.39], [-120.20101200789213, 48.56082516722381, 765.83], [-120.20094545558095, 48.560852240771055, 766.31], [-120.200868928805, 48.56087294407189, 768.71], [-120.20081520080566, 48.56089733541012, 769.19], [-120.20076390355825, 48.56091518886387, 770.15], [-120.20068989135325, 48.5609223973006, 770.63], [-120.20061939954758, 48.560940669849515, 772.56], [-120.20058226771653, 48.56096791103482, 773.52], [-120.20052267238498, 48.561000349000096, 775.92], [-120.20047246478498, 48.56102021411061, 777.84], [-120.200430219993, 48.56104712001979, 779.29], [-120.20037112757564, 48.56107226572931, 780.73], [-120.20033475011587, 48.56109925545752, 781.69], [-120.20025109872222, 48.56115440838039, 783.13], [-120.20023408345878, 48.56119112111628, 784.09], [-120.20020734518766, 48.561230432242155, 785.53], [-120.2001723088324, 48.56126052327454, 787.46], [-120.20009720697999, 48.561341324821115, 790.34], [-120.20006770268083, 48.561382396146655, 791.78], [-120.19997835159302, 48.5614507086575, 793.22], [-120.1999463327229, 48.561484487727284, 794.19], [-120.19992772489786, 48.56151642277837, 796.11], [-120.19991188310087, 48.56159370392561, 798.51], [-120.19990735687315, 48.56163242831826, 799.47], [-120.19990894943476, 48.561664363369346, 800.92], [-120.19991867244244, 48.561697136610746, 802.36], [-120.19993409514427, 48.561727395281196, 802.84], [-120.19992864690721, 48.561764024198055, 803.8], [-120.19990459084511, 48.561795707792044, 804.76], [-120.19988070242107, 48.56181423179805, 805.72], [-120.1999101229012, 48.5618289001286, 807.16], [-120.19991339184344, 48.561858320608735, 807.16], [-120.19999503158033, 48.56189193204045, 806.68], [-120.20007625222206, 48.561913976445794, 806.68], [-120.20009242929518, 48.56193342246115, 807.64], [-120.20010894164443, 48.56196661479771, 809.09], [-120.20011992193758, 48.562016570940614, 810.05], [-120.20011690445244, 48.562045907601714, 811.01], [-120.20009804517031, 48.56207742355764, 811.49], [-120.20008991472423, 48.56210961006582, 811.97], [-120.2000589016825, 48.56216283515096, 813.89], [-120.20001330412924, 48.56219661422074, 814.85], [-120.2000015694648, 48.562240451574326, 815.34], [-120.19998338073492, 48.56225637719035, 815.82], [-120.19992797635496, 48.56226651929319, 816.78], [-120.19988682121038, 48.562283450737596, 817.26], [-120.19988195970654, 48.562311781570315, 817.74], [-120.19985153339803, 48.562372801825404, 819.18], [-120.19984072074294, 48.56242007575929, 820.14], [-120.19982806406915, 48.56243910267949, 820.14], [-120.19981733523309, 48.56247816234827, 821.1], [-120.19979177042842, 48.56251043267548, 822.06], [-120.1997822150588, 48.562514120712876, 822.06], [-120.19977366551757, 48.56254882179201, 822.55], [-120.19972521811724, 48.562620570883155, 825.91], [-120.19968842156231, 48.5626423638314, 827.83], [-120.1996722444892, 48.56269299052656, 827.83], [-120.199616253376, 48.56272475793958, 830.72], [-120.19957903772593, 48.56273649260402, 832.16], [-120.19953838549554, 48.562773037701845, 833.12], [-120.19950083456933, 48.562851240858436, 835.52], [-120.19947971217334, 48.56288501992822, 837.45], [-120.19944140687585, 48.56295760720968, 840.33], [-120.1994407363236, 48.562971437349916, 840.81], [-120.19941877573729, 48.56299507431686, 842.25], [-120.19940159283578, 48.563032038509846, 843.69], [-120.19939295947552, 48.563063805922866, 844.18], [-120.19939974881709, 48.56310755945742, 844.66], [-120.1993884332478, 48.56314946897328, 845.62], [-120.199344009161, 48.5632314439863, 848.98], [-120.19933051429689, 48.56334049254656, 850.9], [-120.19931592978537, 48.56337536126375, 851.87], [-120.19929992035031, 48.563478542491794, 854.75], [-120.19932322204113, 48.56356521137059, 856.67], [-120.19935674965382, 48.563652047887444, 860.52], [-120.19939958117902, 48.563722874969244, 862.92], [-120.19942908547819, 48.563750283792615, 864.36], [-120.19943470135331, 48.56379688717425, 865.8], [-120.19942900165915, 48.563854387030005, 867.73], [-120.19939480349422, 48.56387919746339, 869.65], [-120.19939907826483, 48.56389210559428, 869.65], [-120.19933948293328, 48.56389747001231, 871.09], [-120.19935792312026, 48.56393510475755, 872.53], [-120.19930738024414, 48.56398078612983, 874.46], [-120.19931408576667, 48.56400450691581, 876.38], [-120.19933084957302, 48.564035603776574, 877.34], [-120.19932741299272, 48.56409788131714, 879.26], [-120.19933587871492, 48.564130403101444, 879.74], [-120.19933017902076, 48.5641310736537, 880.22], [-120.19933411851525, 48.564175413921475, 879.26], [-120.19933898001909, 48.5641863103956, 878.78], [-120.19933277741075, 48.56425981968641, 878.78], [-120.1993400696665, 48.56434179469943, 878.78], [-120.1992988307029, 48.564380183815956, 878.3], [-120.19921601749957, 48.564444137737155, 877.82], [-120.19915038719773, 48.564508175477386, 878.3], [-120.1990712620318, 48.56453340500593, 878.78], [-120.19896179437637, 48.56453139334917, 879.74], [-120.198910580948, 48.56459006667137, 880.22], [-120.19892659038305, 48.564611189067364, 879.74], [-120.19894268363714, 48.56461781077087, 879.26], [-120.1989584416151, 48.564614206552505, 880.22], [-120.19898191094398, 48.564652847126126, 881.19], [-120.1990068051964, 48.56467899866402, 880.71], [-120.19903345964849, 48.56473322957754, 881.67], [-120.19905106164515, 48.56476047076285, 882.15], [-120.19904066808522, 48.56476449407637, 881.67], [-120.19906497560441, 48.56479802168906, 881.19], [-120.19910336472094, 48.5648856125772, 881.67], [-120.19913873635232, 48.56495266780257, 881.67], [-120.19916606135666, 48.56502844020724, 881.67], [-120.19919036887586, 48.56515190564096, 880.71], [-120.19919062033296, 48.56518417596817, 880.71], [-120.19921752624214, 48.56520504690707, 880.71], [-120.19940888509154, 48.56521552428603, 882.63], [-120.19948599860072, 48.56525156646967, 882.15], [-120.19951147958636, 48.565253326669335, 882.15], [-120.19952975213528, 48.56531007215381, 882.15], [-120.199502594769, 48.56542658060789, 882.15], [-120.19947149790823, 48.56553931720555, 881.19], [-120.19944727420807, 48.565607126802206, 880.71], [-120.19941860809922, 48.56566647067666, 879.74], [-120.19939363002777, 48.56574601493776, 879.26], [-120.19941760227084, 48.56580527499318, 878.78], [-120.19944266416132, 48.565897308290005, 878.3], [-120.19945381209254, 48.565959921106696, 878.3], [-120.19944509491324, 48.56598883867264, 878.3], [-120.1993989944458, 48.566066455096006, 878.3], [-120.19937586039305, 48.566129403188825, 877.82], [-120.19935373216867, 48.56620894744992, 877.82], [-120.19934493117034, 48.566283378750086, 877.82], [-120.19932188093662, 48.56635152362287, 877.34], [-120.1993107330054, 48.56641707010567, 877.82], [-120.19924258813262, 48.566465098410845, 877.34], [-120.19919028505683, 48.56650834903121, 877.34], [-120.19917813129723, 48.566559394821525, 877.82], [-120.19915407523513, 48.566601388156414, 878.3], [-120.19908190704882, 48.566677160561085, 878.78], [-120.19902298226953, 48.56669509783387, 878.3], [-120.19899532198906, 48.566750921308994, 878.78], [-120.19898283295333, 48.566784616559744, 878.78], [-120.19894938915968, 48.56683557853103, 878.78], [-120.19889281131327, 48.56688645668328, 879.74], [-120.19886531867087, 48.5669026337564, 879.26], [-120.19883162342012, 48.566930796951056, 878.78], [-120.19873380661011, 48.56699734926224, 880.22], [-120.19865971058607, 48.56702417135239, 882.15], [-120.19859684631228, 48.567044623196125, 882.63], [-120.19851847551763, 48.56708217412233, 883.59], [-120.19850229844451, 48.5671338904649, 884.07], [-120.19851252436638, 48.567218044772744, 885.99], [-120.19852467812598, 48.56726263649762, 886.47], [-120.19853482022882, 48.5673186276108, 886.95], [-120.19855233840644, 48.56734679080546, 887.91], [-120.19858435727656, 48.56737629510462, 888.4], [-120.19860539585352, 48.5674121696502, 887.91], [-120.198606653139, 48.56745449826121, 890.32], [-120.19859734922647, 48.567525492981076, 892.72], [-120.19861126318574, 48.567587435245514, 894.16], [-120.1986389234662, 48.56763713993132, 895.61], [-120.19865862093866, 48.56768315657973, 896.57], [-120.19864990375936, 48.567731101065874, 897.53], [-120.19866658374667, 48.567780554294586, 898.01], [-120.1986774802208, 48.56778122484684, 898.49], [-120.19866750575602, 48.567796647548676, 897.53], [-120.19870120100677, 48.567797653377056, 898.01], [-120.19881988875568, 48.56782212853432, 896.57], [-120.19888660870492, 48.5678231343627, 895.61], [-120.19893891178071, 48.567826487123966, 894.16], [-120.19901451654732, 48.567861188203096, 893.2], [-120.1990760397166, 48.567911898717284, 893.68], [-120.19915332086384, 48.56795171275735, 892.72], [-120.19924418069422, 48.56796998530626, 891.76], [-120.19937359727919, 48.56800711713731, 890.8], [-120.19951114431024, 48.56805372051895, 890.8], [-120.19961030222476, 48.56808406300843, 890.32], [-120.19967651925981, 48.56812899000943, 891.28], [-120.19971608184278, 48.56816151179373, 892.24], [-120.19977701827884, 48.56820032000542, 892.72], [-120.1997911836952, 48.56820082291961, 892.72], [-120.19981280900538, 48.56826402246952, 893.68], [-120.19986435770988, 48.568312637507915, 893.68], [-120.19991339184344, 48.568369718268514, 896.09], [-120.20000777207315, 48.56840224005282, 897.53], [-120.20001506432891, 48.568439120426774, 897.53], [-120.20005999132991, 48.56846820563078, 898.97], [-120.20009251311421, 48.56855973601341, 898.97], [-120.20017348229885, 48.56861296109855, 898.49], [-120.20021664910018, 48.568654116243124, 898.49], [-120.2002727240324, 48.568695187568665, 898.97], [-120.20038453862071, 48.56873852200806, 898.01], [-120.20044455304742, 48.56874774210155, 897.53], [-120.20046316087246, 48.5687452275306, 896.57], [-120.20050356164575, 48.56872393749654, 896.57], [-120.20052594132721, 48.56868227943778, 895.61], [-120.20053742453456, 48.56861681677401, 893.68], [-120.20051068626344, 48.568566692993045, 893.2], [-120.20047757774591, 48.5684843827039, 896.09], [-120.2004437148571, 48.5684394557029, 897.05], [-120.20044991746545, 48.56839260086417, 897.05], [-120.20042535848916, 48.568349266424775, 897.05], [-120.2004244364798, 48.56830744072795, 895.61], [-120.20046475343406, 48.56824357062578, 894.16], [-120.20044153556228, 48.56818154454231, 892.72], [-120.2003779169172, 48.5681165009737, 890.8], [-120.20026626996696, 48.56810853816569, 890.32], [-120.2001622505486, 48.568088337779045, 888.88], [-120.20009812898934, 48.56801885180175, 887.91], [-120.20000819116831, 48.56794475577772, 887.43], [-120.19996653310955, 48.56789647601545, 886.95], [-120.19998212344944, 48.5678334441036, 885.99], [-120.19998723641038, 48.56782330200076, 885.99], [-120.20004968158901, 48.56778256595135, 885.51], [-120.2001313213259, 48.567763455212116, 885.03], [-120.20019141957164, 48.56771760620177, 883.11], [-120.20025294274092, 48.567666225135326, 881.67], [-120.20025663077831, 48.56764719821513, 881.19], [-120.20024598576128, 48.56761165894568, 880.71], [-120.20016216672957, 48.567505376413465, 880.71], [-120.20012067630887, 48.56746019795537, 880.22], [-120.20010257139802, 48.56740261428058, 878.78], [-120.200099889189, 48.567363722249866, 878.3], [-120.2000430598855, 48.56728493236005, 876.86], [-120.20003610290587, 48.5672290250659, 876.86], [-120.20004322752357, 48.56716540642083, 875.42], [-120.20006845705211, 48.56712458655238, 875.42], [-120.20012193359435, 48.56701905839145, 874.46], [-120.20012645982206, 48.56690858490765, 872.53], [-120.20013400353491, 48.56685820966959, 873.01], [-120.20019351504743, 48.566815881058574, 873.01], [-120.20021731965244, 48.56678553856909, 873.01], [-120.20019519142807, 48.566759806126356, 874.94], [-120.2001831214875, 48.56675527989864, 873.5], [-120.20016769878566, 48.566735833883286, 873.98], [-120.2001812774688, 48.56663893908262, 873.01], [-120.20018110983074, 48.56653433293104, 871.57], [-120.2001585625112, 48.56649870984256, 871.57], [-120.20016669295728, 48.566368874162436, 870.61], [-120.20014649257064, 48.56629285030067, 870.61], [-120.20012511871755, 48.56624758802354, 871.57], [-120.20011003129184, 48.56616695411503, 872.53], [-120.20008874125779, 48.56611498631537, 873.01], [-120.20007935352623, 48.56607550755143, 872.53], [-120.20007197745144, 48.565999399870634, 872.05], [-120.2000776771456, 48.56595723889768, 870.61], [-120.2000620868057, 48.565890016034245, 870.61], [-120.20006326027215, 48.565841149538755, 870.13], [-120.20004943013191, 48.565796138718724, 870.13], [-120.2000501845032, 48.56574844568968, 870.13], [-120.20004691556096, 48.56569974683225, 871.09], [-120.20004590973258, 48.56563478708267, 870.61], [-120.20005663856864, 48.56557410210371, 869.65], [-120.20005295053124, 48.56552230194211, 870.61], [-120.20001590251923, 48.565412582829595, 870.61], [-120.19999159500003, 48.56536044739187, 872.53], [-120.19994348287582, 48.56530227698386, 873.5], [-120.1999117154628, 48.565209824591875, 874.94], [-120.19990526139736, 48.56517294421792, 874.94], [-120.19990953616798, 48.56508702971041, 873.01], [-120.19988690502942, 48.56502190232277, 873.01], [-120.19989092834294, 48.564920565113425, 872.05], [-120.19990031607449, 48.564839009195566, 870.61], [-120.1998947840184, 48.56480313464999, 869.65], [-120.20000969991088, 48.56472350656986, 866.77], [-120.20005580037832, 48.56468327343464, 864.84], [-120.200070803985, 48.56468394398689, 863.4], [-120.20019276067615, 48.56465158984065, 861.0], [-120.20028387196362, 48.564595095813274, 857.63], [-120.20039065741003, 48.564534578472376, 853.31], [-120.20046475343406, 48.56445084325969, 850.42], [-120.20051973871887, 48.56442712247372, 848.5], [-120.20057195797563, 48.564394265413284, 845.14], [-120.20071411505342, 48.56434908695519, 839.37], [-120.20074546337128, 48.56431832537055, 837.45], [-120.2007682621479, 48.5642777569592, 835.04], [-120.20075459964573, 48.56419972144067, 834.56], [-120.20075803622603, 48.56410190463066, 832.16], [-120.20072928629816, 48.564030742272735, 831.68], [-120.20071277394891, 48.56391649693251, 831.2], [-120.20073037594557, 48.563889507204294, 831.2], [-120.20080321468413, 48.563825050368905, 828.79], [-120.20086700096726, 48.5637906845659, 826.39], [-120.20096842199564, 48.56372614391148, 823.51], [-120.2010378241539, 48.563636960461736, 821.1], [-120.20112784579396, 48.563591446727514, 818.7], [-120.20116011612117, 48.56358440592885, 817.74], [-120.20116749219596, 48.56357267126441, 816.78], [-120.20118375308812, 48.56359119527042, 814.37], [-120.20116631872952, 48.56359178200364, 814.85], [-120.20115525461733, 48.56357007287443, 815.82], [-120.20116271451116, 48.56356110423803, 815.34], [-120.2011969126761, 48.56355423107743, 817.26], [-120.201212503016, 48.56356546282768, 817.26], [-120.20121954381466, 48.56354475952685, 816.3], [-120.20136597566307, 48.56348943896592, 818.22], [-120.20148751325905, 48.563299337401986, 818.22], [-120.20152933895588, 48.563170256093144, 816.78], [-120.20154937170446, 48.5630620457232, 813.89], [-120.20157820545137, 48.562931371852756, 810.53], [-120.2016165945679, 48.56284512206912, 808.61], [-120.20161986351013, 48.562776390463114, 806.68], [-120.20159195177257, 48.56275484897196, 805.72], [-120.20161340944469, 48.56271612457931, 805.24], [-120.20167493261397, 48.562629790976644, 803.32], [-120.2016683947295, 48.56260120868683, 801.88], [-120.20168616436422, 48.56258654035628, 799.95], [-120.20165900699794, 48.56258469633758, 799.95], [-120.20156906917691, 48.56253926642239, 800.92], [-120.2014070469886, 48.562422171235085, 802.36], [-120.20141249522567, 48.562403647229075, 799.95], [-120.20137938670814, 48.56240373104811, 800.44], [-120.20130453631282, 48.562374813482165, 801.88], [-120.2010893728584, 48.56226006522775, 804.76], [-120.20090312696993, 48.562156800180674, 805.72], [-120.2008010353893, 48.56209754012525, 805.24], [-120.20066726021469, 48.56204708106816, 805.72], [-120.20065443590283, 48.56203383766115, 804.76], [-120.20065896213055, 48.562006428837776, 803.32], [-120.20070967264473, 48.56191137805581, 800.44], [-120.20077463239431, 48.561813393607736, 796.59], [-120.20085509866476, 48.56174323707819, 793.22], [-120.20087596960366, 48.561715576797724, 791.78], [-120.2009252551943, 48.56168791651726, 789.86], [-120.2010288555175, 48.561573503538966, 785.05], [-120.20105416886508, 48.56154969893396, 784.57], [-120.20100446417928, 48.561406787484884, 779.77], [-120.20102055743337, 48.561263121664524, 774.96], [-120.20101804286242, 48.56125281192362, 774.48], [-120.2010465413332, 48.56105801649392, 769.19], [-120.20103614777327, 48.56089984998107, 766.31], [-120.20104662515223, 48.56082022190094, 764.87], [-120.2010877802968, 48.56079859659076, 764.87], [-120.20115550607443, 48.56077512726188, 764.39], [-120.20121535286307, 48.560742354020476, 762.94], [-120.20126799121499, 48.56066985055804, 762.46], [-120.20129322074354, 48.56064587831497, 762.46], [-120.2014588471502, 48.56051579117775, 758.62], [-120.20144225098193, 48.560504810884595, 755.25], [-120.20146161317825, 48.56046943925321, 756.21], [-120.20143353380263, 48.560407999902964, 755.73], [-120.20138952881098, 48.5603734664619, 755.25], [-120.2013761177659, 48.56034236960113, 754.77], [-120.20133538171649, 48.5601850412786, 750.93], [-120.20132339559495, 48.56016827747226, 750.45], [-120.20130143500865, 48.56007884256542, 748.04], [-120.2013282570988, 48.55993920005858, 745.16], [-120.20132901147008, 48.559895446524024, 744.68], [-120.20122138783336, 48.55978866107762, 744.68], [-120.20106062293053, 48.55970618315041, 745.16], [-120.20093573257327, 48.55963669717312, 746.6], [-120.20080028101802, 48.559539718553424, 746.12], [-120.20069173537195, 48.55943008325994, 745.16], [-120.2006059885025, 48.55930594727397, 744.2], [-120.20050222054124, 48.55915163643658, 742.28], [-120.20039660856128, 48.559021800756454, 740.83], [-120.20034086890519, 48.55894384905696, 739.87], [-120.20021673291922, 48.55881133116782, 737.95], [-120.2001725602895, 48.55876246467233, 736.99], [-120.20009779371321, 48.55864386074245, 736.51], [-120.2000533696264, 48.558591306209564, 736.03], [-120.20003442652524, 48.55854855850339, 735.55], [-120.19995278678834, 48.558293329551816, 730.74], [-120.1999291498214, 48.558232141658664, 729.78], [-120.19990283064544, 48.558181850239635, 729.3], [-120.19984315149486, 48.558054864406586, 728.82], [-120.19982756115496, 48.55802611447871, 729.3], [-120.19979688338935, 48.55786073952913, 728.82], [-120.1998133957386, 48.55782184749842, 728.82], [-120.19996603019536, 48.5576640162617, 727.86], [-120.20002713426948, 48.55763501487672, 728.34], [-120.20006979815662, 48.557611964643, 728.82], [-120.20010768435895, 48.55757080949843, 729.78], [-120.20013777539134, 48.55757223442197, 730.74], [-120.20027071237564, 48.557527139782906, 728.34], [-120.2003123704344, 48.5574169177562, 725.45], [-120.20032200962305, 48.557493863627315, 721.13], [-120.2003091853112, 48.55749671347439, 724.01], [-120.20026333630085, 48.557536359876394, 718.24], [-120.20022662356496, 48.557491935789585, 716.32], [-120.20006845705211, 48.557448014616966, 716.32], [-120.20004431717098, 48.557433262467384, 715.84], [-120.20004800520837, 48.55742085725069, 716.8], [-120.20007717423141, 48.557415241375566, 716.8], [-120.20007910206914, 48.5574253834784, 716.8], [-120.20003199577332, 48.55740811675787, 716.8]]}}